<?xml version="1.0" encoding="UTF-8"?>
<gpx version="1.1" creator="jeffry.running" xmlns="http://www.topografix.com/GPX/1/1">
  <metadata><time>2026-09-15T15:44:30.013Z</time></metadata>
  <trk>
    <trkseg>
      <trkpt lat="51.29343" lon="4.84847"></trkpt>
      <trkpt lat="51.29341" lon="4.84848"></trkpt>
      <trkpt lat="51.29337" lon="4.84852"></trkpt>
      <trkpt lat="51.29333" lon="4.84854"></trkpt>
      <trkpt lat="51.29329" lon="4.84855"></trkpt>
      <trkpt lat="51.29326" lon="4.84857"></trkpt>
      <trkpt lat="51.29323" lon="4.84859"></trkpt>
      <trkpt lat="51.29320" lon="4.84861"></trkpt>
      <trkpt lat="51.29317" lon="4.84863"></trkpt>
      <trkpt lat="51.29313" lon="4.84866"></trkpt>
      <trkpt lat="51.29310" lon="4.84869"></trkpt>
      <trkpt lat="51.29307" lon="4.84871"></trkpt>
      <trkpt lat="51.29304" lon="4.84874"></trkpt>
      <trkpt lat="51.29300" lon="4.84877"></trkpt>
      <trkpt lat="51.29296" lon="4.84880"></trkpt>
      <trkpt lat="51.29292" lon="4.84883"></trkpt>
      <trkpt lat="51.29289" lon="4.84885"></trkpt>
      <trkpt lat="51.29286" lon="4.84888"></trkpt>
      <trkpt lat="51.29283" lon="4.84892"></trkpt>
      <trkpt lat="51.29279" lon="4.84895"></trkpt>
      <trkpt lat="51.29275" lon="4.84896"></trkpt>
      <trkpt lat="51.29271" lon="4.84895"></trkpt>
      <trkpt lat="51.29268" lon="4.84891"></trkpt>
      <trkpt lat="51.29265" lon="4.84886"></trkpt>
      <trkpt lat="51.29262" lon="4.84881"></trkpt>
      <trkpt lat="51.29259" lon="4.84878"></trkpt>
      <trkpt lat="51.29256" lon="4.84874"></trkpt>
      <trkpt lat="51.29254" lon="4.84870"></trkpt>
      <trkpt lat="51.29251" lon="4.84865"></trkpt>
      <trkpt lat="51.29249" lon="4.84861"></trkpt>
      <trkpt lat="51.29246" lon="4.84856"></trkpt>
      <trkpt lat="51.29243" lon="4.84851"></trkpt>
      <trkpt lat="51.29240" lon="4.84845"></trkpt>
      <trkpt lat="51.29237" lon="4.84841"></trkpt>
      <trkpt lat="51.29233" lon="4.84837"></trkpt>
      <trkpt lat="51.29230" lon="4.84833"></trkpt>
      <trkpt lat="51.29226" lon="4.84828"></trkpt>
      <trkpt lat="51.29222" lon="4.84824"></trkpt>
      <trkpt lat="51.29219" lon="4.84820"></trkpt>
      <trkpt lat="51.29216" lon="4.84816"></trkpt>
      <trkpt lat="51.29212" lon="4.84812"></trkpt>
      <trkpt lat="51.29208" lon="4.84807"></trkpt>
      <trkpt lat="51.29205" lon="4.84802"></trkpt>
      <trkpt lat="51.29203" lon="4.84797"></trkpt>
      <trkpt lat="51.29200" lon="4.84791"></trkpt>
      <trkpt lat="51.29198" lon="4.84786"></trkpt>
      <trkpt lat="51.29196" lon="4.84781"></trkpt>
      <trkpt lat="51.29193" lon="4.84776"></trkpt>
      <trkpt lat="51.29190" lon="4.84772"></trkpt>
      <trkpt lat="51.29187" lon="4.84769"></trkpt>
      <trkpt lat="51.29183" lon="4.84764"></trkpt>
      <trkpt lat="51.29180" lon="4.84760"></trkpt>
      <trkpt lat="51.29177" lon="4.84755"></trkpt>
      <trkpt lat="51.29174" lon="4.84750"></trkpt>
      <trkpt lat="51.29171" lon="4.84746"></trkpt>
      <trkpt lat="51.29168" lon="4.84742"></trkpt>
      <trkpt lat="51.29165" lon="4.84736"></trkpt>
      <trkpt lat="51.29162" lon="4.84732"></trkpt>
      <trkpt lat="51.29159" lon="4.84727"></trkpt>
      <trkpt lat="51.29156" lon="4.84723"></trkpt>
      <trkpt lat="51.29154" lon="4.84718"></trkpt>
      <trkpt lat="51.29151" lon="4.84713"></trkpt>
      <trkpt lat="51.29147" lon="4.84709"></trkpt>
      <trkpt lat="51.29144" lon="4.84705"></trkpt>
      <trkpt lat="51.29142" lon="4.84700"></trkpt>
      <trkpt lat="51.29140" lon="4.84696"></trkpt>
      <trkpt lat="51.29137" lon="4.84692"></trkpt>
      <trkpt lat="51.29134" lon="4.84687"></trkpt>
      <trkpt lat="51.29131" lon="4.84682"></trkpt>
      <trkpt lat="51.29128" lon="4.84678"></trkpt>
      <trkpt lat="51.29125" lon="4.84674"></trkpt>
      <trkpt lat="51.29122" lon="4.84669"></trkpt>
      <trkpt lat="51.29120" lon="4.84665"></trkpt>
      <trkpt lat="51.29118" lon="4.84660"></trkpt>
      <trkpt lat="51.29115" lon="4.84655"></trkpt>
      <trkpt lat="51.29113" lon="4.84650"></trkpt>
      <trkpt lat="51.29110" lon="4.84646"></trkpt>
      <trkpt lat="51.29107" lon="4.84642"></trkpt>
      <trkpt lat="51.29106" lon="4.84639"></trkpt>
      <trkpt lat="51.29105" lon="4.84635"></trkpt>
      <trkpt lat="51.29107" lon="4.84633"></trkpt>
      <trkpt lat="51.29111" lon="4.84632"></trkpt>
      <trkpt lat="51.29115" lon="4.84631"></trkpt>
      <trkpt lat="51.29118" lon="4.84628"></trkpt>
      <trkpt lat="51.29121" lon="4.84622"></trkpt>
      <trkpt lat="51.29124" lon="4.84618"></trkpt>
      <trkpt lat="51.29126" lon="4.84614"></trkpt>
      <trkpt lat="51.29129" lon="4.84610"></trkpt>
      <trkpt lat="51.29132" lon="4.84607"></trkpt>
      <trkpt lat="51.29134" lon="4.84602"></trkpt>
      <trkpt lat="51.29138" lon="4.84599"></trkpt>
      <trkpt lat="51.29142" lon="4.84595"></trkpt>
      <trkpt lat="51.29145" lon="4.84591"></trkpt>
      <trkpt lat="51.29148" lon="4.84588"></trkpt>
      <trkpt lat="51.29151" lon="4.84583"></trkpt>
      <trkpt lat="51.29155" lon="4.84580"></trkpt>
      <trkpt lat="51.29159" lon="4.84578"></trkpt>
      <trkpt lat="51.29162" lon="4.84575"></trkpt>
      <trkpt lat="51.29165" lon="4.84571"></trkpt>
      <trkpt lat="51.29168" lon="4.84566"></trkpt>
      <trkpt lat="51.29172" lon="4.84563"></trkpt>
      <trkpt lat="51.29175" lon="4.84559"></trkpt>
      <trkpt lat="51.29178" lon="4.84556"></trkpt>
      <trkpt lat="51.29181" lon="4.84552"></trkpt>
      <trkpt lat="51.29184" lon="4.84549"></trkpt>
      <trkpt lat="51.29187" lon="4.84545"></trkpt>
      <trkpt lat="51.29190" lon="4.84540"></trkpt>
      <trkpt lat="51.29192" lon="4.84535"></trkpt>
      <trkpt lat="51.29192" lon="4.84530"></trkpt>
      <trkpt lat="51.29192" lon="4.84523"></trkpt>
      <trkpt lat="51.29192" lon="4.84517"></trkpt>
      <trkpt lat="51.29189" lon="4.84511"></trkpt>
      <trkpt lat="51.29185" lon="4.84506"></trkpt>
      <trkpt lat="51.29182" lon="4.84503"></trkpt>
      <trkpt lat="51.29178" lon="4.84501"></trkpt>
      <trkpt lat="51.29175" lon="4.84498"></trkpt>
      <trkpt lat="51.29171" lon="4.84496"></trkpt>
      <trkpt lat="51.29167" lon="4.84493"></trkpt>
      <trkpt lat="51.29163" lon="4.84490"></trkpt>
      <trkpt lat="51.29160" lon="4.84485"></trkpt>
      <trkpt lat="51.29158" lon="4.84481"></trkpt>
      <trkpt lat="51.29155" lon="4.84477"></trkpt>
      <trkpt lat="51.29153" lon="4.84472"></trkpt>
      <trkpt lat="51.29151" lon="4.84467"></trkpt>
      <trkpt lat="51.29149" lon="4.84462"></trkpt>
      <trkpt lat="51.29146" lon="4.84456"></trkpt>
      <trkpt lat="51.29144" lon="4.84451"></trkpt>
      <trkpt lat="51.29142" lon="4.84446"></trkpt>
      <trkpt lat="51.29139" lon="4.84440"></trkpt>
      <trkpt lat="51.29136" lon="4.84435"></trkpt>
      <trkpt lat="51.29133" lon="4.84430"></trkpt>
      <trkpt lat="51.29129" lon="4.84426"></trkpt>
      <trkpt lat="51.29126" lon="4.84421"></trkpt>
      <trkpt lat="51.29123" lon="4.84416"></trkpt>
      <trkpt lat="51.29120" lon="4.84412"></trkpt>
      <trkpt lat="51.29115" lon="4.84408"></trkpt>
      <trkpt lat="51.29112" lon="4.84404"></trkpt>
      <trkpt lat="51.29109" lon="4.84401"></trkpt>
      <trkpt lat="51.29105" lon="4.84397"></trkpt>
      <trkpt lat="51.29102" lon="4.84392"></trkpt>
      <trkpt lat="51.29099" lon="4.84388"></trkpt>
      <trkpt lat="51.29097" lon="4.84382"></trkpt>
      <trkpt lat="51.29093" lon="4.84377"></trkpt>
      <trkpt lat="51.29091" lon="4.84372"></trkpt>
      <trkpt lat="51.29088" lon="4.84367"></trkpt>
      <trkpt lat="51.29085" lon="4.84363"></trkpt>
      <trkpt lat="51.29082" lon="4.84359"></trkpt>
      <trkpt lat="51.29079" lon="4.84354"></trkpt>
      <trkpt lat="51.29076" lon="4.84349"></trkpt>
      <trkpt lat="51.29072" lon="4.84346"></trkpt>
      <trkpt lat="51.29069" lon="4.84342"></trkpt>
      <trkpt lat="51.29066" lon="4.84338"></trkpt>
      <trkpt lat="51.29063" lon="4.84334"></trkpt>
      <trkpt lat="51.29060" lon="4.84328"></trkpt>
      <trkpt lat="51.29058" lon="4.84323"></trkpt>
      <trkpt lat="51.29054" lon="4.84317"></trkpt>
      <trkpt lat="51.29051" lon="4.84311"></trkpt>
      <trkpt lat="51.29050" lon="4.84305"></trkpt>
      <trkpt lat="51.29047" lon="4.84300"></trkpt>
      <trkpt lat="51.29044" lon="4.84295"></trkpt>
      <trkpt lat="51.29042" lon="4.84289"></trkpt>
      <trkpt lat="51.29039" lon="4.84284"></trkpt>
      <trkpt lat="51.29036" lon="4.84278"></trkpt>
      <trkpt lat="51.29034" lon="4.84274"></trkpt>
      <trkpt lat="51.29032" lon="4.84269"></trkpt>
      <trkpt lat="51.29029" lon="4.84264"></trkpt>
      <trkpt lat="51.29024" lon="4.84261"></trkpt>
      <trkpt lat="51.29020" lon="4.84258"></trkpt>
      <trkpt lat="51.29015" lon="4.84254"></trkpt>
      <trkpt lat="51.29012" lon="4.84249"></trkpt>
      <trkpt lat="51.29010" lon="4.84243"></trkpt>
      <trkpt lat="51.29009" lon="4.84238"></trkpt>
      <trkpt lat="51.29008" lon="4.84232"></trkpt>
      <trkpt lat="51.29005" lon="4.84227"></trkpt>
      <trkpt lat="51.29003" lon="4.84221"></trkpt>
      <trkpt lat="51.29000" lon="4.84217"></trkpt>
      <trkpt lat="51.28996" lon="4.84213"></trkpt>
      <trkpt lat="51.28992" lon="4.84212"></trkpt>
      <trkpt lat="51.28988" lon="4.84212"></trkpt>
      <trkpt lat="51.28984" lon="4.84212"></trkpt>
      <trkpt lat="51.28980" lon="4.84212"></trkpt>
      <trkpt lat="51.28975" lon="4.84212"></trkpt>
      <trkpt lat="51.28971" lon="4.84211"></trkpt>
      <trkpt lat="51.28967" lon="4.84210"></trkpt>
      <trkpt lat="51.28962" lon="4.84210"></trkpt>
      <trkpt lat="51.28958" lon="4.84209"></trkpt>
      <trkpt lat="51.28954" lon="4.84207"></trkpt>
      <trkpt lat="51.28950" lon="4.84204"></trkpt>
      <trkpt lat="51.28947" lon="4.84201"></trkpt>
      <trkpt lat="51.28943" lon="4.84197"></trkpt>
      <trkpt lat="51.28940" lon="4.84193"></trkpt>
      <trkpt lat="51.28936" lon="4.84191"></trkpt>
      <trkpt lat="51.28931" lon="4.84188"></trkpt>
      <trkpt lat="51.28927" lon="4.84186"></trkpt>
      <trkpt lat="51.28923" lon="4.84184"></trkpt>
      <trkpt lat="51.28919" lon="4.84181"></trkpt>
      <trkpt lat="51.28915" lon="4.84177"></trkpt>
      <trkpt lat="51.28912" lon="4.84173"></trkpt>
      <trkpt lat="51.28909" lon="4.84171"></trkpt>
      <trkpt lat="51.28907" lon="4.84169"></trkpt>
      <trkpt lat="51.28907" lon="4.84166"></trkpt>
      <trkpt lat="51.28905" lon="4.84164"></trkpt>
      <trkpt lat="51.28901" lon="4.84161"></trkpt>
      <trkpt lat="51.28897" lon="4.84160"></trkpt>
      <trkpt lat="51.28893" lon="4.84158"></trkpt>
      <trkpt lat="51.28889" lon="4.84157"></trkpt>
      <trkpt lat="51.28887" lon="4.84154"></trkpt>
      <trkpt lat="51.28886" lon="4.84153"></trkpt>
      <trkpt lat="51.28883" lon="4.84152"></trkpt>
      <trkpt lat="51.28879" lon="4.84152"></trkpt>
      <trkpt lat="51.28875" lon="4.84152"></trkpt>
      <trkpt lat="51.28871" lon="4.84151"></trkpt>
      <trkpt lat="51.28867" lon="4.84149"></trkpt>
      <trkpt lat="51.28862" lon="4.84148"></trkpt>
      <trkpt lat="51.28859" lon="4.84145"></trkpt>
      <trkpt lat="51.28855" lon="4.84142"></trkpt>
      <trkpt lat="51.28852" lon="4.84140"></trkpt>
      <trkpt lat="51.28848" lon="4.84137"></trkpt>
      <trkpt lat="51.28845" lon="4.84133"></trkpt>
      <trkpt lat="51.28841" lon="4.84129"></trkpt>
      <trkpt lat="51.28837" lon="4.84126"></trkpt>
      <trkpt lat="51.28833" lon="4.84123"></trkpt>
      <trkpt lat="51.28830" lon="4.84120"></trkpt>
      <trkpt lat="51.28826" lon="4.84117"></trkpt>
      <trkpt lat="51.28822" lon="4.84115"></trkpt>
      <trkpt lat="51.28818" lon="4.84112"></trkpt>
      <trkpt lat="51.28815" lon="4.84107"></trkpt>
      <trkpt lat="51.28812" lon="4.84104"></trkpt>
      <trkpt lat="51.28808" lon="4.84102"></trkpt>
      <trkpt lat="51.28804" lon="4.84101"></trkpt>
      <trkpt lat="51.28800" lon="4.84100"></trkpt>
      <trkpt lat="51.28796" lon="4.84097"></trkpt>
      <trkpt lat="51.28792" lon="4.84094"></trkpt>
      <trkpt lat="51.28789" lon="4.84090"></trkpt>
      <trkpt lat="51.28785" lon="4.84087"></trkpt>
      <trkpt lat="51.28782" lon="4.84084"></trkpt>
      <trkpt lat="51.28780" lon="4.84079"></trkpt>
      <trkpt lat="51.28777" lon="4.84075"></trkpt>
      <trkpt lat="51.28775" lon="4.84070"></trkpt>
      <trkpt lat="51.28772" lon="4.84065"></trkpt>
      <trkpt lat="51.28769" lon="4.84060"></trkpt>
      <trkpt lat="51.28766" lon="4.84055"></trkpt>
      <trkpt lat="51.28763" lon="4.84051"></trkpt>
      <trkpt lat="51.28760" lon="4.84046"></trkpt>
      <trkpt lat="51.28757" lon="4.84040"></trkpt>
      <trkpt lat="51.28755" lon="4.84035"></trkpt>
      <trkpt lat="51.28752" lon="4.84029"></trkpt>
      <trkpt lat="51.28750" lon="4.84023"></trkpt>
      <trkpt lat="51.28748" lon="4.84018"></trkpt>
      <trkpt lat="51.28745" lon="4.84013"></trkpt>
      <trkpt lat="51.28742" lon="4.84007"></trkpt>
      <trkpt lat="51.28740" lon="4.84000"></trkpt>
      <trkpt lat="51.28738" lon="4.83993"></trkpt>
      <trkpt lat="51.28736" lon="4.83988"></trkpt>
      <trkpt lat="51.28733" lon="4.83983"></trkpt>
      <trkpt lat="51.28730" lon="4.83978"></trkpt>
      <trkpt lat="51.28728" lon="4.83973"></trkpt>
      <trkpt lat="51.28727" lon="4.83967"></trkpt>
      <trkpt lat="51.28727" lon="4.83960"></trkpt>
      <trkpt lat="51.28730" lon="4.83955"></trkpt>
      <trkpt lat="51.28734" lon="4.83952"></trkpt>
      <trkpt lat="51.28737" lon="4.83948"></trkpt>
      <trkpt lat="51.28740" lon="4.83943"></trkpt>
      <trkpt lat="51.28743" lon="4.83937"></trkpt>
      <trkpt lat="51.28746" lon="4.83933"></trkpt>
      <trkpt lat="51.28750" lon="4.83929"></trkpt>
      <trkpt lat="51.28753" lon="4.83925"></trkpt>
      <trkpt lat="51.28756" lon="4.83921"></trkpt>
      <trkpt lat="51.28759" lon="4.83917"></trkpt>
      <trkpt lat="51.28763" lon="4.83912"></trkpt>
      <trkpt lat="51.28766" lon="4.83908"></trkpt>
      <trkpt lat="51.28768" lon="4.83902"></trkpt>
      <trkpt lat="51.28771" lon="4.83897"></trkpt>
      <trkpt lat="51.28774" lon="4.83892"></trkpt>
      <trkpt lat="51.28777" lon="4.83888"></trkpt>
      <trkpt lat="51.28780" lon="4.83883"></trkpt>
      <trkpt lat="51.28783" lon="4.83879"></trkpt>
      <trkpt lat="51.28786" lon="4.83873"></trkpt>
      <trkpt lat="51.28790" lon="4.83867"></trkpt>
      <trkpt lat="51.28793" lon="4.83862"></trkpt>
      <trkpt lat="51.28795" lon="4.83857"></trkpt>
      <trkpt lat="51.28798" lon="4.83852"></trkpt>
      <trkpt lat="51.28801" lon="4.83848"></trkpt>
      <trkpt lat="51.28804" lon="4.83844"></trkpt>
      <trkpt lat="51.28807" lon="4.83839"></trkpt>
      <trkpt lat="51.28810" lon="4.83834"></trkpt>
      <trkpt lat="51.28811" lon="4.83829"></trkpt>
      <trkpt lat="51.28811" lon="4.83822"></trkpt>
      <trkpt lat="51.28812" lon="4.83816"></trkpt>
      <trkpt lat="51.28812" lon="4.83810"></trkpt>
      <trkpt lat="51.28810" lon="4.83804"></trkpt>
      <trkpt lat="51.28808" lon="4.83799"></trkpt>
      <trkpt lat="51.28806" lon="4.83795"></trkpt>
      <trkpt lat="51.28803" lon="4.83791"></trkpt>
      <trkpt lat="51.28799" lon="4.83789"></trkpt>
      <trkpt lat="51.28795" lon="4.83789"></trkpt>
      <trkpt lat="51.28790" lon="4.83787"></trkpt>
      <trkpt lat="51.28786" lon="4.83786"></trkpt>
      <trkpt lat="51.28782" lon="4.83784"></trkpt>
      <trkpt lat="51.28778" lon="4.83781"></trkpt>
      <trkpt lat="51.28774" lon="4.83779"></trkpt>
      <trkpt lat="51.28769" lon="4.83778"></trkpt>
      <trkpt lat="51.28765" lon="4.83775"></trkpt>
      <trkpt lat="51.28761" lon="4.83773"></trkpt>
      <trkpt lat="51.28757" lon="4.83770"></trkpt>
      <trkpt lat="51.28752" lon="4.83768"></trkpt>
      <trkpt lat="51.28748" lon="4.83767"></trkpt>
      <trkpt lat="51.28744" lon="4.83765"></trkpt>
      <trkpt lat="51.28739" lon="4.83763"></trkpt>
      <trkpt lat="51.28735" lon="4.83760"></trkpt>
      <trkpt lat="51.28731" lon="4.83757"></trkpt>
      <trkpt lat="51.28727" lon="4.83755"></trkpt>
      <trkpt lat="51.28723" lon="4.83754"></trkpt>
      <trkpt lat="51.28719" lon="4.83751"></trkpt>
      <trkpt lat="51.28715" lon="4.83748"></trkpt>
      <trkpt lat="51.28711" lon="4.83746"></trkpt>
      <trkpt lat="51.28707" lon="4.83743"></trkpt>
      <trkpt lat="51.28703" lon="4.83741"></trkpt>
      <trkpt lat="51.28699" lon="4.83739"></trkpt>
      <trkpt lat="51.28695" lon="4.83737"></trkpt>
      <trkpt lat="51.28691" lon="4.83735"></trkpt>
      <trkpt lat="51.28687" lon="4.83732"></trkpt>
      <trkpt lat="51.28683" lon="4.83730"></trkpt>
      <trkpt lat="51.28679" lon="4.83728"></trkpt>
      <trkpt lat="51.28675" lon="4.83726"></trkpt>
      <trkpt lat="51.28671" lon="4.83723"></trkpt>
      <trkpt lat="51.28667" lon="4.83721"></trkpt>
      <trkpt lat="51.28664" lon="4.83719"></trkpt>
      <trkpt lat="51.28660" lon="4.83716"></trkpt>
      <trkpt lat="51.28657" lon="4.83714"></trkpt>
      <trkpt lat="51.28653" lon="4.83711"></trkpt>
      <trkpt lat="51.28649" lon="4.83708"></trkpt>
      <trkpt lat="51.28645" lon="4.83706"></trkpt>
      <trkpt lat="51.28640" lon="4.83704"></trkpt>
      <trkpt lat="51.28636" lon="4.83702"></trkpt>
      <trkpt lat="51.28632" lon="4.83700"></trkpt>
      <trkpt lat="51.28628" lon="4.83698"></trkpt>
      <trkpt lat="51.28624" lon="4.83696"></trkpt>
      <trkpt lat="51.28620" lon="4.83692"></trkpt>
      <trkpt lat="51.28616" lon="4.83690"></trkpt>
      <trkpt lat="51.28612" lon="4.83686"></trkpt>
      <trkpt lat="51.28608" lon="4.83683"></trkpt>
      <trkpt lat="51.28605" lon="4.83681"></trkpt>
      <trkpt lat="51.28600" lon="4.83679"></trkpt>
      <trkpt lat="51.28596" lon="4.83677"></trkpt>
      <trkpt lat="51.28592" lon="4.83675"></trkpt>
      <trkpt lat="51.28588" lon="4.83672"></trkpt>
      <trkpt lat="51.28584" lon="4.83671"></trkpt>
      <trkpt lat="51.28579" lon="4.83670"></trkpt>
      <trkpt lat="51.28575" lon="4.83667"></trkpt>
      <trkpt lat="51.28571" lon="4.83664"></trkpt>
      <trkpt lat="51.28568" lon="4.83661"></trkpt>
      <trkpt lat="51.28564" lon="4.83658"></trkpt>
      <trkpt lat="51.28559" lon="4.83656"></trkpt>
      <trkpt lat="51.28556" lon="4.83654"></trkpt>
      <trkpt lat="51.28552" lon="4.83651"></trkpt>
      <trkpt lat="51.28549" lon="4.83648"></trkpt>
      <trkpt lat="51.28545" lon="4.83645"></trkpt>
      <trkpt lat="51.28541" lon="4.83644"></trkpt>
      <trkpt lat="51.28537" lon="4.83642"></trkpt>
      <trkpt lat="51.28533" lon="4.83640"></trkpt>
      <trkpt lat="51.28530" lon="4.83637"></trkpt>
      <trkpt lat="51.28527" lon="4.83635"></trkpt>
      <trkpt lat="51.28523" lon="4.83632"></trkpt>
      <trkpt lat="51.28519" lon="4.83630"></trkpt>
      <trkpt lat="51.28514" lon="4.83629"></trkpt>
      <trkpt lat="51.28510" lon="4.83627"></trkpt>
      <trkpt lat="51.28506" lon="4.83624"></trkpt>
      <trkpt lat="51.28502" lon="4.83622"></trkpt>
      <trkpt lat="51.28498" lon="4.83620"></trkpt>
      <trkpt lat="51.28494" lon="4.83617"></trkpt>
      <trkpt lat="51.28490" lon="4.83615"></trkpt>
      <trkpt lat="51.28486" lon="4.83612"></trkpt>
      <trkpt lat="51.28482" lon="4.83610"></trkpt>
      <trkpt lat="51.28479" lon="4.83607"></trkpt>
      <trkpt lat="51.28475" lon="4.83604"></trkpt>
      <trkpt lat="51.28471" lon="4.83602"></trkpt>
      <trkpt lat="51.28467" lon="4.83600"></trkpt>
      <trkpt lat="51.28462" lon="4.83598"></trkpt>
      <trkpt lat="51.28458" lon="4.83597"></trkpt>
      <trkpt lat="51.28454" lon="4.83594"></trkpt>
      <trkpt lat="51.28450" lon="4.83590"></trkpt>
      <trkpt lat="51.28447" lon="4.83587"></trkpt>
      <trkpt lat="51.28442" lon="4.83586"></trkpt>
      <trkpt lat="51.28438" lon="4.83586"></trkpt>
      <trkpt lat="51.28434" lon="4.83586"></trkpt>
      <trkpt lat="51.28430" lon="4.83585"></trkpt>
      <trkpt lat="51.28428" lon="4.83582"></trkpt>
      <trkpt lat="51.28424" lon="4.83580"></trkpt>
      <trkpt lat="51.28421" lon="4.83576"></trkpt>
      <trkpt lat="51.28417" lon="4.83573"></trkpt>
      <trkpt lat="51.28413" lon="4.83571"></trkpt>
      <trkpt lat="51.28409" lon="4.83569"></trkpt>
      <trkpt lat="51.28406" lon="4.83565"></trkpt>
      <trkpt lat="51.28402" lon="4.83561"></trkpt>
      <trkpt lat="51.28400" lon="4.83556"></trkpt>
      <trkpt lat="51.28397" lon="4.83552"></trkpt>
      <trkpt lat="51.28393" lon="4.83547"></trkpt>
      <trkpt lat="51.28390" lon="4.83542"></trkpt>
      <trkpt lat="51.28386" lon="4.83537"></trkpt>
      <trkpt lat="51.28383" lon="4.83532"></trkpt>
      <trkpt lat="51.28381" lon="4.83527"></trkpt>
      <trkpt lat="51.28377" lon="4.83522"></trkpt>
      <trkpt lat="51.28374" lon="4.83518"></trkpt>
      <trkpt lat="51.28371" lon="4.83513"></trkpt>
      <trkpt lat="51.28368" lon="4.83509"></trkpt>
      <trkpt lat="51.28365" lon="4.83504"></trkpt>
      <trkpt lat="51.28362" lon="4.83499"></trkpt>
      <trkpt lat="51.28358" lon="4.83495"></trkpt>
      <trkpt lat="51.28355" lon="4.83490"></trkpt>
      <trkpt lat="51.28352" lon="4.83485"></trkpt>
      <trkpt lat="51.28348" lon="4.83481"></trkpt>
      <trkpt lat="51.28344" lon="4.83478"></trkpt>
      <trkpt lat="51.28340" lon="4.83476"></trkpt>
      <trkpt lat="51.28336" lon="4.83473"></trkpt>
      <trkpt lat="51.28332" lon="4.83469"></trkpt>
      <trkpt lat="51.28329" lon="4.83466"></trkpt>
      <trkpt lat="51.28325" lon="4.83461"></trkpt>
      <trkpt lat="51.28322" lon="4.83456"></trkpt>
      <trkpt lat="51.28319" lon="4.83451"></trkpt>
      <trkpt lat="51.28317" lon="4.83446"></trkpt>
      <trkpt lat="51.28314" lon="4.83441"></trkpt>
      <trkpt lat="51.28312" lon="4.83435"></trkpt>
      <trkpt lat="51.28310" lon="4.83429"></trkpt>
      <trkpt lat="51.28308" lon="4.83424"></trkpt>
      <trkpt lat="51.28305" lon="4.83419"></trkpt>
      <trkpt lat="51.28303" lon="4.83413"></trkpt>
      <trkpt lat="51.28301" lon="4.83409"></trkpt>
      <trkpt lat="51.28299" lon="4.83404"></trkpt>
      <trkpt lat="51.28298" lon="4.83399"></trkpt>
      <trkpt lat="51.28296" lon="4.83394"></trkpt>
      <trkpt lat="51.28294" lon="4.83388"></trkpt>
      <trkpt lat="51.28291" lon="4.83381"></trkpt>
      <trkpt lat="51.28289" lon="4.83374"></trkpt>
      <trkpt lat="51.28286" lon="4.83369"></trkpt>
      <trkpt lat="51.28283" lon="4.83364"></trkpt>
      <trkpt lat="51.28281" lon="4.83358"></trkpt>
      <trkpt lat="51.28279" lon="4.83354"></trkpt>
      <trkpt lat="51.28277" lon="4.83348"></trkpt>
      <trkpt lat="51.28273" lon="4.83342"></trkpt>
      <trkpt lat="51.28270" lon="4.83337"></trkpt>
      <trkpt lat="51.28268" lon="4.83332"></trkpt>
      <trkpt lat="51.28266" lon="4.83327"></trkpt>
      <trkpt lat="51.28263" lon="4.83322"></trkpt>
      <trkpt lat="51.28261" lon="4.83317"></trkpt>
      <trkpt lat="51.28260" lon="4.83311"></trkpt>
      <trkpt lat="51.28259" lon="4.83305"></trkpt>
      <trkpt lat="51.28256" lon="4.83300"></trkpt>
      <trkpt lat="51.28254" lon="4.83295"></trkpt>
      <trkpt lat="51.28251" lon="4.83289"></trkpt>
      <trkpt lat="51.28248" lon="4.83284"></trkpt>
      <trkpt lat="51.28245" lon="4.83280"></trkpt>
      <trkpt lat="51.28241" lon="4.83278"></trkpt>
      <trkpt lat="51.28236" lon="4.83280"></trkpt>
      <trkpt lat="51.28233" lon="4.83284"></trkpt>
      <trkpt lat="51.28229" lon="4.83287"></trkpt>
      <trkpt lat="51.28226" lon="4.83290"></trkpt>
      <trkpt lat="51.28222" lon="4.83292"></trkpt>
      <trkpt lat="51.28219" lon="4.83295"></trkpt>
      <trkpt lat="51.28216" lon="4.83298"></trkpt>
      <trkpt lat="51.28213" lon="4.83301"></trkpt>
      <trkpt lat="51.28209" lon="4.83303"></trkpt>
      <trkpt lat="51.28206" lon="4.83306"></trkpt>
      <trkpt lat="51.28202" lon="4.83309"></trkpt>
      <trkpt lat="51.28197" lon="4.83312"></trkpt>
      <trkpt lat="51.28193" lon="4.83313"></trkpt>
      <trkpt lat="51.28190" lon="4.83314"></trkpt>
      <trkpt lat="51.28186" lon="4.83315"></trkpt>
      <trkpt lat="51.28182" lon="4.83315"></trkpt>
      <trkpt lat="51.28179" lon="4.83315"></trkpt>
      <trkpt lat="51.28175" lon="4.83315"></trkpt>
      <trkpt lat="51.28171" lon="4.83313"></trkpt>
      <trkpt lat="51.28166" lon="4.83313"></trkpt>
      <trkpt lat="51.28162" lon="4.83316"></trkpt>
      <trkpt lat="51.28160" lon="4.83318"></trkpt>
      <trkpt lat="51.28159" lon="4.83319"></trkpt>
      <trkpt lat="51.28158" lon="4.83322"></trkpt>
      <trkpt lat="51.28156" lon="4.83326"></trkpt>
      <trkpt lat="51.28153" lon="4.83328"></trkpt>
      <trkpt lat="51.28149" lon="4.83331"></trkpt>
      <trkpt lat="51.28146" lon="4.83334"></trkpt>
      <trkpt lat="51.28142" lon="4.83338"></trkpt>
      <trkpt lat="51.28138" lon="4.83342"></trkpt>
      <trkpt lat="51.28135" lon="4.83346"></trkpt>
      <trkpt lat="51.28131" lon="4.83349"></trkpt>
      <trkpt lat="51.28127" lon="4.83354"></trkpt>
      <trkpt lat="51.28123" lon="4.83358"></trkpt>
      <trkpt lat="51.28121" lon="4.83361"></trkpt>
      <trkpt lat="51.28118" lon="4.83364"></trkpt>
      <trkpt lat="51.28115" lon="4.83368"></trkpt>
      <trkpt lat="51.28111" lon="4.83372"></trkpt>
      <trkpt lat="51.28108" lon="4.83376"></trkpt>
      <trkpt lat="51.28104" lon="4.83378"></trkpt>
      <trkpt lat="51.28101" lon="4.83379"></trkpt>
      <trkpt lat="51.28098" lon="4.83378"></trkpt>
      <trkpt lat="51.28097" lon="4.83378"></trkpt>
      <trkpt lat="51.28096" lon="4.83378"></trkpt>
      <trkpt lat="51.28096" lon="4.83378"></trkpt>
      <trkpt lat="51.28095" lon="4.83378"></trkpt>
      <trkpt lat="51.28095" lon="4.83379"></trkpt>
      <trkpt lat="51.28094" lon="4.83379"></trkpt>
      <trkpt lat="51.28094" lon="4.83379"></trkpt>
      <trkpt lat="51.28094" lon="4.83378"></trkpt>
      <trkpt lat="51.28094" lon="4.83378"></trkpt>
      <trkpt lat="51.28094" lon="4.83378"></trkpt>
      <trkpt lat="51.28093" lon="4.83378"></trkpt>
      <trkpt lat="51.28093" lon="4.83378"></trkpt>
      <trkpt lat="51.28093" lon="4.83378"></trkpt>
      <trkpt lat="51.28093" lon="4.83378"></trkpt>
      <trkpt lat="51.28093" lon="4.83378"></trkpt>
      <trkpt lat="51.28090" lon="4.83377"></trkpt>
      <trkpt lat="51.28085" lon="4.83377"></trkpt>
      <trkpt lat="51.28080" lon="4.83377"></trkpt>
      <trkpt lat="51.28076" lon="4.83378"></trkpt>
      <trkpt lat="51.28071" lon="4.83380"></trkpt>
      <trkpt lat="51.28067" lon="4.83381"></trkpt>
      <trkpt lat="51.28062" lon="4.83382"></trkpt>
      <trkpt lat="51.28058" lon="4.83382"></trkpt>
      <trkpt lat="51.28054" lon="4.83382"></trkpt>
      <trkpt lat="51.28050" lon="4.83383"></trkpt>
      <trkpt lat="51.28047" lon="4.83385"></trkpt>
      <trkpt lat="51.28043" lon="4.83387"></trkpt>
      <trkpt lat="51.28038" lon="4.83387"></trkpt>
      <trkpt lat="51.28034" lon="4.83388"></trkpt>
      <trkpt lat="51.28031" lon="4.83388"></trkpt>
      <trkpt lat="51.28027" lon="4.83388"></trkpt>
      <trkpt lat="51.28022" lon="4.83387"></trkpt>
      <trkpt lat="51.28018" lon="4.83389"></trkpt>
      <trkpt lat="51.28014" lon="4.83390"></trkpt>
      <trkpt lat="51.28010" lon="4.83391"></trkpt>
      <trkpt lat="51.28006" lon="4.83392"></trkpt>
      <trkpt lat="51.28001" lon="4.83393"></trkpt>
      <trkpt lat="51.27996" lon="4.83393"></trkpt>
      <trkpt lat="51.27992" lon="4.83394"></trkpt>
      <trkpt lat="51.27987" lon="4.83395"></trkpt>
      <trkpt lat="51.27983" lon="4.83396"></trkpt>
      <trkpt lat="51.27978" lon="4.83397"></trkpt>
      <trkpt lat="51.27973" lon="4.83398"></trkpt>
      <trkpt lat="51.27968" lon="4.83399"></trkpt>
      <trkpt lat="51.27964" lon="4.83401"></trkpt>
      <trkpt lat="51.27959" lon="4.83403"></trkpt>
      <trkpt lat="51.27955" lon="4.83404"></trkpt>
      <trkpt lat="51.27950" lon="4.83405"></trkpt>
      <trkpt lat="51.27946" lon="4.83406"></trkpt>
      <trkpt lat="51.27942" lon="4.83407"></trkpt>
      <trkpt lat="51.27938" lon="4.83407"></trkpt>
      <trkpt lat="51.27934" lon="4.83407"></trkpt>
      <trkpt lat="51.27930" lon="4.83407"></trkpt>
      <trkpt lat="51.27926" lon="4.83407"></trkpt>
      <trkpt lat="51.27922" lon="4.83408"></trkpt>
      <trkpt lat="51.27917" lon="4.83410"></trkpt>
      <trkpt lat="51.27913" lon="4.83410"></trkpt>
      <trkpt lat="51.27908" lon="4.83410"></trkpt>
      <trkpt lat="51.27904" lon="4.83412"></trkpt>
      <trkpt lat="51.27900" lon="4.83412"></trkpt>
      <trkpt lat="51.27895" lon="4.83414"></trkpt>
      <trkpt lat="51.27891" lon="4.83415"></trkpt>
      <trkpt lat="51.27887" lon="4.83415"></trkpt>
      <trkpt lat="51.27883" lon="4.83416"></trkpt>
      <trkpt lat="51.27878" lon="4.83417"></trkpt>
      <trkpt lat="51.27874" lon="4.83417"></trkpt>
      <trkpt lat="51.27869" lon="4.83418"></trkpt>
      <trkpt lat="51.27864" lon="4.83419"></trkpt>
      <trkpt lat="51.27860" lon="4.83420"></trkpt>
      <trkpt lat="51.27856" lon="4.83420"></trkpt>
      <trkpt lat="51.27851" lon="4.83420"></trkpt>
      <trkpt lat="51.27847" lon="4.83420"></trkpt>
      <trkpt lat="51.27843" lon="4.83421"></trkpt>
      <trkpt lat="51.27839" lon="4.83422"></trkpt>
      <trkpt lat="51.27834" lon="4.83421"></trkpt>
      <trkpt lat="51.27830" lon="4.83420"></trkpt>
      <trkpt lat="51.27826" lon="4.83419"></trkpt>
      <trkpt lat="51.27822" lon="4.83420"></trkpt>
      <trkpt lat="51.27818" lon="4.83421"></trkpt>
      <trkpt lat="51.27814" lon="4.83421"></trkpt>
      <trkpt lat="51.27810" lon="4.83422"></trkpt>
      <trkpt lat="51.27806" lon="4.83422"></trkpt>
      <trkpt lat="51.27802" lon="4.83423"></trkpt>
      <trkpt lat="51.27797" lon="4.83423"></trkpt>
      <trkpt lat="51.27793" lon="4.83424"></trkpt>
      <trkpt lat="51.27789" lon="4.83425"></trkpt>
      <trkpt lat="51.27785" lon="4.83426"></trkpt>
      <trkpt lat="51.27781" lon="4.83427"></trkpt>
      <trkpt lat="51.27776" lon="4.83427"></trkpt>
      <trkpt lat="51.27773" lon="4.83425"></trkpt>
      <trkpt lat="51.27770" lon="4.83419"></trkpt>
      <trkpt lat="51.27769" lon="4.83413"></trkpt>
      <trkpt lat="51.27769" lon="4.83407"></trkpt>
      <trkpt lat="51.27769" lon="4.83400"></trkpt>
      <trkpt lat="51.27768" lon="4.83394"></trkpt>
      <trkpt lat="51.27767" lon="4.83388"></trkpt>
      <trkpt lat="51.27767" lon="4.83382"></trkpt>
      <trkpt lat="51.27766" lon="4.83375"></trkpt>
      <trkpt lat="51.27766" lon="4.83368"></trkpt>
      <trkpt lat="51.27765" lon="4.83361"></trkpt>
      <trkpt lat="51.27765" lon="4.83354"></trkpt>
      <trkpt lat="51.27765" lon="4.83347"></trkpt>
      <trkpt lat="51.27763" lon="4.83341"></trkpt>
      <trkpt lat="51.27760" lon="4.83336"></trkpt>
      <trkpt lat="51.27756" lon="4.83333"></trkpt>
      <trkpt lat="51.27751" lon="4.83333"></trkpt>
      <trkpt lat="51.27747" lon="4.83334"></trkpt>
      <trkpt lat="51.27742" lon="4.83335"></trkpt>
      <trkpt lat="51.27738" lon="4.83337"></trkpt>
      <trkpt lat="51.27734" lon="4.83338"></trkpt>
      <trkpt lat="51.27729" lon="4.83340"></trkpt>
      <trkpt lat="51.27725" lon="4.83342"></trkpt>
      <trkpt lat="51.27721" lon="4.83345"></trkpt>
      <trkpt lat="51.27717" lon="4.83347"></trkpt>
      <trkpt lat="51.27713" lon="4.83348"></trkpt>
      <trkpt lat="51.27709" lon="4.83350"></trkpt>
      <trkpt lat="51.27705" lon="4.83351"></trkpt>
      <trkpt lat="51.27701" lon="4.83353"></trkpt>
      <trkpt lat="51.27697" lon="4.83354"></trkpt>
      <trkpt lat="51.27693" lon="4.83356"></trkpt>
      <trkpt lat="51.27689" lon="4.83358"></trkpt>
      <trkpt lat="51.27685" lon="4.83360"></trkpt>
      <trkpt lat="51.27681" lon="4.83361"></trkpt>
      <trkpt lat="51.27677" lon="4.83362"></trkpt>
      <trkpt lat="51.27674" lon="4.83364"></trkpt>
      <trkpt lat="51.27670" lon="4.83365"></trkpt>
      <trkpt lat="51.27666" lon="4.83367"></trkpt>
      <trkpt lat="51.27662" lon="4.83368"></trkpt>
      <trkpt lat="51.27658" lon="4.83369"></trkpt>
      <trkpt lat="51.27654" lon="4.83370"></trkpt>
      <trkpt lat="51.27650" lon="4.83372"></trkpt>
      <trkpt lat="51.27646" lon="4.83373"></trkpt>
      <trkpt lat="51.27642" lon="4.83374"></trkpt>
      <trkpt lat="51.27638" lon="4.83375"></trkpt>
      <trkpt lat="51.27634" lon="4.83376"></trkpt>
      <trkpt lat="51.27630" lon="4.83377"></trkpt>
      <trkpt lat="51.27626" lon="4.83379"></trkpt>
      <trkpt lat="51.27623" lon="4.83381"></trkpt>
      <trkpt lat="51.27619" lon="4.83382"></trkpt>
      <trkpt lat="51.27615" lon="4.83384"></trkpt>
      <trkpt lat="51.27611" lon="4.83386"></trkpt>
      <trkpt lat="51.27607" lon="4.83387"></trkpt>
      <trkpt lat="51.27603" lon="4.83389"></trkpt>
      <trkpt lat="51.27599" lon="4.83390"></trkpt>
      <trkpt lat="51.27595" lon="4.83391"></trkpt>
      <trkpt lat="51.27591" lon="4.83393"></trkpt>
      <trkpt lat="51.27588" lon="4.83394"></trkpt>
      <trkpt lat="51.27584" lon="4.83396"></trkpt>
      <trkpt lat="51.27580" lon="4.83398"></trkpt>
      <trkpt lat="51.27576" lon="4.83400"></trkpt>
      <trkpt lat="51.27572" lon="4.83401"></trkpt>
      <trkpt lat="51.27568" lon="4.83402"></trkpt>
      <trkpt lat="51.27564" lon="4.83402"></trkpt>
      <trkpt lat="51.27559" lon="4.83402"></trkpt>
      <trkpt lat="51.27555" lon="4.83402"></trkpt>
      <trkpt lat="51.27550" lon="4.83402"></trkpt>
      <trkpt lat="51.27546" lon="4.83403"></trkpt>
      <trkpt lat="51.27542" lon="4.83403"></trkpt>
      <trkpt lat="51.27537" lon="4.83403"></trkpt>
      <trkpt lat="51.27533" lon="4.83403"></trkpt>
      <trkpt lat="51.27528" lon="4.83403"></trkpt>
      <trkpt lat="51.27524" lon="4.83402"></trkpt>
      <trkpt lat="51.27519" lon="4.83402"></trkpt>
      <trkpt lat="51.27515" lon="4.83401"></trkpt>
      <trkpt lat="51.27511" lon="4.83400"></trkpt>
      <trkpt lat="51.27507" lon="4.83399"></trkpt>
      <trkpt lat="51.27503" lon="4.83399"></trkpt>
      <trkpt lat="51.27499" lon="4.83399"></trkpt>
      <trkpt lat="51.27495" lon="4.83398"></trkpt>
      <trkpt lat="51.27492" lon="4.83397"></trkpt>
      <trkpt lat="51.27488" lon="4.83397"></trkpt>
      <trkpt lat="51.27484" lon="4.83397"></trkpt>
      <trkpt lat="51.27480" lon="4.83397"></trkpt>
      <trkpt lat="51.27476" lon="4.83397"></trkpt>
      <trkpt lat="51.27472" lon="4.83397"></trkpt>
      <trkpt lat="51.27468" lon="4.83397"></trkpt>
      <trkpt lat="51.27464" lon="4.83396"></trkpt>
      <trkpt lat="51.27460" lon="4.83395"></trkpt>
      <trkpt lat="51.27457" lon="4.83393"></trkpt>
      <trkpt lat="51.27452" lon="4.83392"></trkpt>
      <trkpt lat="51.27448" lon="4.83392"></trkpt>
      <trkpt lat="51.27444" lon="4.83391"></trkpt>
      <trkpt lat="51.27441" lon="4.83388"></trkpt>
      <trkpt lat="51.27437" lon="4.83385"></trkpt>
      <trkpt lat="51.27432" lon="4.83383"></trkpt>
      <trkpt lat="51.27428" lon="4.83383"></trkpt>
      <trkpt lat="51.27424" lon="4.83381"></trkpt>
      <trkpt lat="51.27420" lon="4.83379"></trkpt>
      <trkpt lat="51.27416" lon="4.83378"></trkpt>
      <trkpt lat="51.27412" lon="4.83377"></trkpt>
      <trkpt lat="51.27408" lon="4.83377"></trkpt>
      <trkpt lat="51.27405" lon="4.83374"></trkpt>
      <trkpt lat="51.27401" lon="4.83371"></trkpt>
      <trkpt lat="51.27398" lon="4.83368"></trkpt>
      <trkpt lat="51.27394" lon="4.83367"></trkpt>
      <trkpt lat="51.27390" lon="4.83364"></trkpt>
      <trkpt lat="51.27385" lon="4.83360"></trkpt>
      <trkpt lat="51.27381" lon="4.83357"></trkpt>
      <trkpt lat="51.27378" lon="4.83353"></trkpt>
      <trkpt lat="51.27375" lon="4.83348"></trkpt>
      <trkpt lat="51.27371" lon="4.83343"></trkpt>
      <trkpt lat="51.27368" lon="4.83338"></trkpt>
      <trkpt lat="51.27365" lon="4.83333"></trkpt>
      <trkpt lat="51.27362" lon="4.83328"></trkpt>
      <trkpt lat="51.27360" lon="4.83324"></trkpt>
      <trkpt lat="51.27357" lon="4.83318"></trkpt>
      <trkpt lat="51.27354" lon="4.83313"></trkpt>
      <trkpt lat="51.27352" lon="4.83307"></trkpt>
      <trkpt lat="51.27349" lon="4.83303"></trkpt>
      <trkpt lat="51.27346" lon="4.83296"></trkpt>
      <trkpt lat="51.27343" lon="4.83291"></trkpt>
      <trkpt lat="51.27341" lon="4.83287"></trkpt>
      <trkpt lat="51.27338" lon="4.83284"></trkpt>
      <trkpt lat="51.27335" lon="4.83280"></trkpt>
      <trkpt lat="51.27332" lon="4.83275"></trkpt>
      <trkpt lat="51.27330" lon="4.83271"></trkpt>
      <trkpt lat="51.27328" lon="4.83265"></trkpt>
      <trkpt lat="51.27327" lon="4.83260"></trkpt>
      <trkpt lat="51.27327" lon="4.83253"></trkpt>
      <trkpt lat="51.27327" lon="4.83246"></trkpt>
      <trkpt lat="51.27327" lon="4.83239"></trkpt>
      <trkpt lat="51.27327" lon="4.83232"></trkpt>
      <trkpt lat="51.27327" lon="4.83226"></trkpt>
      <trkpt lat="51.27327" lon="4.83219"></trkpt>
      <trkpt lat="51.27327" lon="4.83213"></trkpt>
      <trkpt lat="51.27327" lon="4.83207"></trkpt>
      <trkpt lat="51.27326" lon="4.83200"></trkpt>
      <trkpt lat="51.27326" lon="4.83194"></trkpt>
      <trkpt lat="51.27326" lon="4.83188"></trkpt>
      <trkpt lat="51.27327" lon="4.83182"></trkpt>
      <trkpt lat="51.27327" lon="4.83175"></trkpt>
      <trkpt lat="51.27327" lon="4.83168"></trkpt>
      <trkpt lat="51.27326" lon="4.83161"></trkpt>
      <trkpt lat="51.27326" lon="4.83152"></trkpt>
      <trkpt lat="51.27327" lon="4.83145"></trkpt>
      <trkpt lat="51.27327" lon="4.83138"></trkpt>
      <trkpt lat="51.27327" lon="4.83132"></trkpt>
      <trkpt lat="51.27327" lon="4.83126"></trkpt>
      <trkpt lat="51.27327" lon="4.83121"></trkpt>
      <trkpt lat="51.27327" lon="4.83116"></trkpt>
      <trkpt lat="51.27327" lon="4.83111"></trkpt>
      <trkpt lat="51.27328" lon="4.83106"></trkpt>
      <trkpt lat="51.27329" lon="4.83099"></trkpt>
      <trkpt lat="51.27330" lon="4.83092"></trkpt>
      <trkpt lat="51.27330" lon="4.83085"></trkpt>
      <trkpt lat="51.27331" lon="4.83078"></trkpt>
      <trkpt lat="51.27332" lon="4.83073"></trkpt>
      <trkpt lat="51.27333" lon="4.83068"></trkpt>
      <trkpt lat="51.27334" lon="4.83062"></trkpt>
      <trkpt lat="51.27335" lon="4.83056"></trkpt>
      <trkpt lat="51.27336" lon="4.83048"></trkpt>
      <trkpt lat="51.27335" lon="4.83041"></trkpt>
      <trkpt lat="51.27335" lon="4.83034"></trkpt>
      <trkpt lat="51.27334" lon="4.83028"></trkpt>
      <trkpt lat="51.27333" lon="4.83020"></trkpt>
      <trkpt lat="51.27334" lon="4.83014"></trkpt>
      <trkpt lat="51.27335" lon="4.83007"></trkpt>
      <trkpt lat="51.27336" lon="4.83001"></trkpt>
      <trkpt lat="51.27339" lon="4.82996"></trkpt>
      <trkpt lat="51.27341" lon="4.82991"></trkpt>
      <trkpt lat="51.27344" lon="4.82986"></trkpt>
      <trkpt lat="51.27346" lon="4.82980"></trkpt>
      <trkpt lat="51.27349" lon="4.82975"></trkpt>
      <trkpt lat="51.27351" lon="4.82972"></trkpt>
      <trkpt lat="51.27352" lon="4.82969"></trkpt>
      <trkpt lat="51.27353" lon="4.82966"></trkpt>
      <trkpt lat="51.27354" lon="4.82964"></trkpt>
      <trkpt lat="51.27355" lon="4.82963"></trkpt>
      <trkpt lat="51.27355" lon="4.82963"></trkpt>
      <trkpt lat="51.27355" lon="4.82962"></trkpt>
      <trkpt lat="51.27355" lon="4.82962"></trkpt>
      <trkpt lat="51.27355" lon="4.82962"></trkpt>
      <trkpt lat="51.27355" lon="4.82962"></trkpt>
      <trkpt lat="51.27355" lon="4.82962"></trkpt>
      <trkpt lat="51.27355" lon="4.82961"></trkpt>
      <trkpt lat="51.27355" lon="4.82961"></trkpt>
      <trkpt lat="51.27356" lon="4.82961"></trkpt>
      <trkpt lat="51.27356" lon="4.82961"></trkpt>
      <trkpt lat="51.27356" lon="4.82960"></trkpt>
      <trkpt lat="51.27356" lon="4.82960"></trkpt>
      <trkpt lat="51.27356" lon="4.82960"></trkpt>
      <trkpt lat="51.27357" lon="4.82959"></trkpt>
      <trkpt lat="51.27359" lon="4.82953"></trkpt>
      <trkpt lat="51.27362" lon="4.82949"></trkpt>
      <trkpt lat="51.27363" lon="4.82945"></trkpt>
      <trkpt lat="51.27365" lon="4.82942"></trkpt>
      <trkpt lat="51.27368" lon="4.82939"></trkpt>
      <trkpt lat="51.27370" lon="4.82936"></trkpt>
      <trkpt lat="51.27373" lon="4.82932"></trkpt>
      <trkpt lat="51.27376" lon="4.82926"></trkpt>
      <trkpt lat="51.27378" lon="4.82920"></trkpt>
      <trkpt lat="51.27381" lon="4.82914"></trkpt>
      <trkpt lat="51.27382" lon="4.82908"></trkpt>
      <trkpt lat="51.27384" lon="4.82902"></trkpt>
      <trkpt lat="51.27385" lon="4.82895"></trkpt>
      <trkpt lat="51.27387" lon="4.82888"></trkpt>
      <trkpt lat="51.27388" lon="4.82881"></trkpt>
      <trkpt lat="51.27389" lon="4.82874"></trkpt>
      <trkpt lat="51.27390" lon="4.82867"></trkpt>
      <trkpt lat="51.27391" lon="4.82861"></trkpt>
      <trkpt lat="51.27393" lon="4.82854"></trkpt>
      <trkpt lat="51.27394" lon="4.82848"></trkpt>
      <trkpt lat="51.27396" lon="4.82843"></trkpt>
      <trkpt lat="51.27398" lon="4.82838"></trkpt>
      <trkpt lat="51.27400" lon="4.82834"></trkpt>
      <trkpt lat="51.27402" lon="4.82831"></trkpt>
      <trkpt lat="51.27404" lon="4.82827"></trkpt>
      <trkpt lat="51.27408" lon="4.82821"></trkpt>
      <trkpt lat="51.27410" lon="4.82816"></trkpt>
      <trkpt lat="51.27413" lon="4.82809"></trkpt>
      <trkpt lat="51.27415" lon="4.82803"></trkpt>
      <trkpt lat="51.27415" lon="4.82795"></trkpt>
      <trkpt lat="51.27415" lon="4.82788"></trkpt>
      <trkpt lat="51.27414" lon="4.82780"></trkpt>
      <trkpt lat="51.27413" lon="4.82773"></trkpt>
      <trkpt lat="51.27411" lon="4.82767"></trkpt>
      <trkpt lat="51.27408" lon="4.82762"></trkpt>
      <trkpt lat="51.27406" lon="4.82756"></trkpt>
      <trkpt lat="51.27405" lon="4.82751"></trkpt>
      <trkpt lat="51.27404" lon="4.82745"></trkpt>
      <trkpt lat="51.27402" lon="4.82739"></trkpt>
      <trkpt lat="51.27401" lon="4.82732"></trkpt>
      <trkpt lat="51.27400" lon="4.82727"></trkpt>
      <trkpt lat="51.27398" lon="4.82721"></trkpt>
      <trkpt lat="51.27397" lon="4.82715"></trkpt>
      <trkpt lat="51.27397" lon="4.82709"></trkpt>
      <trkpt lat="51.27398" lon="4.82704"></trkpt>
      <trkpt lat="51.27402" lon="4.82701"></trkpt>
      <trkpt lat="51.27406" lon="4.82699"></trkpt>
      <trkpt lat="51.27410" lon="4.82699"></trkpt>
      <trkpt lat="51.27414" lon="4.82700"></trkpt>
      <trkpt lat="51.27417" lon="4.82702"></trkpt>
      <trkpt lat="51.27421" lon="4.82704"></trkpt>
      <trkpt lat="51.27425" lon="4.82706"></trkpt>
      <trkpt lat="51.27429" lon="4.82709"></trkpt>
      <trkpt lat="51.27433" lon="4.82712"></trkpt>
      <trkpt lat="51.27437" lon="4.82715"></trkpt>
      <trkpt lat="51.27440" lon="4.82717"></trkpt>
      <trkpt lat="51.27445" lon="4.82720"></trkpt>
      <trkpt lat="51.27449" lon="4.82724"></trkpt>
      <trkpt lat="51.27453" lon="4.82728"></trkpt>
      <trkpt lat="51.27457" lon="4.82733"></trkpt>
      <trkpt lat="51.27460" lon="4.82737"></trkpt>
      <trkpt lat="51.27464" lon="4.82741"></trkpt>
      <trkpt lat="51.27468" lon="4.82744"></trkpt>
      <trkpt lat="51.27472" lon="4.82747"></trkpt>
      <trkpt lat="51.27476" lon="4.82751"></trkpt>
      <trkpt lat="51.27480" lon="4.82754"></trkpt>
      <trkpt lat="51.27484" lon="4.82758"></trkpt>
      <trkpt lat="51.27488" lon="4.82761"></trkpt>
      <trkpt lat="51.27491" lon="4.82764"></trkpt>
      <trkpt lat="51.27495" lon="4.82768"></trkpt>
      <trkpt lat="51.27499" lon="4.82771"></trkpt>
      <trkpt lat="51.27503" lon="4.82774"></trkpt>
      <trkpt lat="51.27506" lon="4.82777"></trkpt>
      <trkpt lat="51.27510" lon="4.82780"></trkpt>
      <trkpt lat="51.27513" lon="4.82783"></trkpt>
      <trkpt lat="51.27516" lon="4.82787"></trkpt>
      <trkpt lat="51.27519" lon="4.82790"></trkpt>
      <trkpt lat="51.27523" lon="4.82792"></trkpt>
      <trkpt lat="51.27527" lon="4.82794"></trkpt>
      <trkpt lat="51.27530" lon="4.82797"></trkpt>
      <trkpt lat="51.27534" lon="4.82800"></trkpt>
      <trkpt lat="51.27537" lon="4.82802"></trkpt>
      <trkpt lat="51.27541" lon="4.82805"></trkpt>
      <trkpt lat="51.27545" lon="4.82807"></trkpt>
      <trkpt lat="51.27548" lon="4.82809"></trkpt>
      <trkpt lat="51.27551" lon="4.82812"></trkpt>
      <trkpt lat="51.27555" lon="4.82814"></trkpt>
      <trkpt lat="51.27560" lon="4.82816"></trkpt>
      <trkpt lat="51.27564" lon="4.82819"></trkpt>
      <trkpt lat="51.27568" lon="4.82821"></trkpt>
      <trkpt lat="51.27572" lon="4.82823"></trkpt>
      <trkpt lat="51.27576" lon="4.82826"></trkpt>
      <trkpt lat="51.27580" lon="4.82830"></trkpt>
      <trkpt lat="51.27583" lon="4.82833"></trkpt>
      <trkpt lat="51.27586" lon="4.82836"></trkpt>
      <trkpt lat="51.27590" lon="4.82839"></trkpt>
      <trkpt lat="51.27594" lon="4.82843"></trkpt>
      <trkpt lat="51.27598" lon="4.82845"></trkpt>
      <trkpt lat="51.27603" lon="4.82846"></trkpt>
      <trkpt lat="51.27607" lon="4.82847"></trkpt>
      <trkpt lat="51.27611" lon="4.82849"></trkpt>
      <trkpt lat="51.27615" lon="4.82851"></trkpt>
      <trkpt lat="51.27619" lon="4.82854"></trkpt>
      <trkpt lat="51.27623" lon="4.82857"></trkpt>
      <trkpt lat="51.27628" lon="4.82860"></trkpt>
      <trkpt lat="51.27631" lon="4.82863"></trkpt>
      <trkpt lat="51.27635" lon="4.82866"></trkpt>
      <trkpt lat="51.27639" lon="4.82869"></trkpt>
      <trkpt lat="51.27643" lon="4.82872"></trkpt>
      <trkpt lat="51.27647" lon="4.82874"></trkpt>
      <trkpt lat="51.27651" lon="4.82878"></trkpt>
      <trkpt lat="51.27654" lon="4.82882"></trkpt>
      <trkpt lat="51.27658" lon="4.82885"></trkpt>
      <trkpt lat="51.27662" lon="4.82888"></trkpt>
      <trkpt lat="51.27666" lon="4.82890"></trkpt>
      <trkpt lat="51.27670" lon="4.82892"></trkpt>
      <trkpt lat="51.27674" lon="4.82895"></trkpt>
      <trkpt lat="51.27678" lon="4.82897"></trkpt>
      <trkpt lat="51.27681" lon="4.82900"></trkpt>
      <trkpt lat="51.27685" lon="4.82901"></trkpt>
      <trkpt lat="51.27689" lon="4.82903"></trkpt>
      <trkpt lat="51.27693" lon="4.82905"></trkpt>
      <trkpt lat="51.27696" lon="4.82907"></trkpt>
      <trkpt lat="51.27700" lon="4.82908"></trkpt>
      <trkpt lat="51.27704" lon="4.82910"></trkpt>
      <trkpt lat="51.27708" lon="4.82912"></trkpt>
      <trkpt lat="51.27712" lon="4.82914"></trkpt>
      <trkpt lat="51.27716" lon="4.82915"></trkpt>
      <trkpt lat="51.27720" lon="4.82918"></trkpt>
      <trkpt lat="51.27724" lon="4.82920"></trkpt>
      <trkpt lat="51.27729" lon="4.82922"></trkpt>
      <trkpt lat="51.27733" lon="4.82924"></trkpt>
      <trkpt lat="51.27736" lon="4.82927"></trkpt>
      <trkpt lat="51.27740" lon="4.82929"></trkpt>
      <trkpt lat="51.27743" lon="4.82933"></trkpt>
      <trkpt lat="51.27745" lon="4.82939"></trkpt>
      <trkpt lat="51.27746" lon="4.82945"></trkpt>
      <trkpt lat="51.27748" lon="4.82949"></trkpt>
      <trkpt lat="51.27748" lon="4.82953"></trkpt>
      <trkpt lat="51.27748" lon="4.82958"></trkpt>
      <trkpt lat="51.27747" lon="4.82964"></trkpt>
      <trkpt lat="51.27746" lon="4.82971"></trkpt>
      <trkpt lat="51.27747" lon="4.82978"></trkpt>
      <trkpt lat="51.27747" lon="4.82985"></trkpt>
      <trkpt lat="51.27747" lon="4.82992"></trkpt>
      <trkpt lat="51.27747" lon="4.82999"></trkpt>
      <trkpt lat="51.27747" lon="4.83006"></trkpt>
      <trkpt lat="51.27747" lon="4.83013"></trkpt>
      <trkpt lat="51.27747" lon="4.83021"></trkpt>
      <trkpt lat="51.27748" lon="4.83028"></trkpt>
      <trkpt lat="51.27748" lon="4.83035"></trkpt>
      <trkpt lat="51.27748" lon="4.83042"></trkpt>
      <trkpt lat="51.27749" lon="4.83049"></trkpt>
      <trkpt lat="51.27749" lon="4.83056"></trkpt>
      <trkpt lat="51.27749" lon="4.83063"></trkpt>
      <trkpt lat="51.27750" lon="4.83069"></trkpt>
      <trkpt lat="51.27751" lon="4.83076"></trkpt>
      <trkpt lat="51.27751" lon="4.83083"></trkpt>
      <trkpt lat="51.27751" lon="4.83089"></trkpt>
      <trkpt lat="51.27751" lon="4.83096"></trkpt>
      <trkpt lat="51.27751" lon="4.83103"></trkpt>
      <trkpt lat="51.27752" lon="4.83110"></trkpt>
      <trkpt lat="51.27752" lon="4.83116"></trkpt>
      <trkpt lat="51.27752" lon="4.83123"></trkpt>
      <trkpt lat="51.27752" lon="4.83128"></trkpt>
      <trkpt lat="51.27751" lon="4.83135"></trkpt>
      <trkpt lat="51.27751" lon="4.83142"></trkpt>
      <trkpt lat="51.27751" lon="4.83149"></trkpt>
      <trkpt lat="51.27751" lon="4.83155"></trkpt>
      <trkpt lat="51.27751" lon="4.83162"></trkpt>
      <trkpt lat="51.27753" lon="4.83169"></trkpt>
      <trkpt lat="51.27753" lon="4.83176"></trkpt>
      <trkpt lat="51.27753" lon="4.83182"></trkpt>
      <trkpt lat="51.27753" lon="4.83189"></trkpt>
      <trkpt lat="51.27753" lon="4.83196"></trkpt>
      <trkpt lat="51.27752" lon="4.83203"></trkpt>
      <trkpt lat="51.27753" lon="4.83210"></trkpt>
      <trkpt lat="51.27753" lon="4.83217"></trkpt>
      <trkpt lat="51.27754" lon="4.83223"></trkpt>
      <trkpt lat="51.27754" lon="4.83230"></trkpt>
      <trkpt lat="51.27754" lon="4.83236"></trkpt>
      <trkpt lat="51.27754" lon="4.83243"></trkpt>
      <trkpt lat="51.27754" lon="4.83250"></trkpt>
      <trkpt lat="51.27754" lon="4.83257"></trkpt>
      <trkpt lat="51.27754" lon="4.83264"></trkpt>
      <trkpt lat="51.27754" lon="4.83271"></trkpt>
      <trkpt lat="51.27754" lon="4.83278"></trkpt>
      <trkpt lat="51.27755" lon="4.83284"></trkpt>
      <trkpt lat="51.27755" lon="4.83291"></trkpt>
      <trkpt lat="51.27755" lon="4.83298"></trkpt>
      <trkpt lat="51.27755" lon="4.83306"></trkpt>
      <trkpt lat="51.27756" lon="4.83313"></trkpt>
      <trkpt lat="51.27756" lon="4.83320"></trkpt>
      <trkpt lat="51.27757" lon="4.83326"></trkpt>
      <trkpt lat="51.27758" lon="4.83333"></trkpt>
      <trkpt lat="51.27759" lon="4.83340"></trkpt>
      <trkpt lat="51.27759" lon="4.83347"></trkpt>
      <trkpt lat="51.27760" lon="4.83354"></trkpt>
      <trkpt lat="51.27761" lon="4.83362"></trkpt>
      <trkpt lat="51.27761" lon="4.83369"></trkpt>
      <trkpt lat="51.27762" lon="4.83375"></trkpt>
      <trkpt lat="51.27763" lon="4.83382"></trkpt>
      <trkpt lat="51.27763" lon="4.83389"></trkpt>
      <trkpt lat="51.27764" lon="4.83396"></trkpt>
      <trkpt lat="51.27764" lon="4.83402"></trkpt>
      <trkpt lat="51.27765" lon="4.83410"></trkpt>
      <trkpt lat="51.27765" lon="4.83417"></trkpt>
      <trkpt lat="51.27766" lon="4.83423"></trkpt>
      <trkpt lat="51.27769" lon="4.83428"></trkpt>
      <trkpt lat="51.27773" lon="4.83430"></trkpt>
      <trkpt lat="51.27778" lon="4.83431"></trkpt>
      <trkpt lat="51.27782" lon="4.83429"></trkpt>
      <trkpt lat="51.27786" lon="4.83428"></trkpt>
      <trkpt lat="51.27790" lon="4.83425"></trkpt>
      <trkpt lat="51.27795" lon="4.83424"></trkpt>
      <trkpt lat="51.27799" lon="4.83422"></trkpt>
      <trkpt lat="51.27803" lon="4.83421"></trkpt>
      <trkpt lat="51.27807" lon="4.83421"></trkpt>
      <trkpt lat="51.27810" lon="4.83420"></trkpt>
      <trkpt lat="51.27814" lon="4.83420"></trkpt>
      <trkpt lat="51.27818" lon="4.83419"></trkpt>
      <trkpt lat="51.27823" lon="4.83419"></trkpt>
      <trkpt lat="51.27827" lon="4.83419"></trkpt>
      <trkpt lat="51.27831" lon="4.83419"></trkpt>
      <trkpt lat="51.27835" lon="4.83418"></trkpt>
      <trkpt lat="51.27839" lon="4.83418"></trkpt>
      <trkpt lat="51.27844" lon="4.83417"></trkpt>
      <trkpt lat="51.27848" lon="4.83418"></trkpt>
      <trkpt lat="51.27852" lon="4.83417"></trkpt>
      <trkpt lat="51.27856" lon="4.83417"></trkpt>
      <trkpt lat="51.27860" lon="4.83416"></trkpt>
      <trkpt lat="51.27864" lon="4.83415"></trkpt>
      <trkpt lat="51.27869" lon="4.83414"></trkpt>
      <trkpt lat="51.27873" lon="4.83413"></trkpt>
      <trkpt lat="51.27878" lon="4.83413"></trkpt>
      <trkpt lat="51.27882" lon="4.83413"></trkpt>
      <trkpt lat="51.27887" lon="4.83412"></trkpt>
      <trkpt lat="51.27891" lon="4.83411"></trkpt>
      <trkpt lat="51.27895" lon="4.83410"></trkpt>
      <trkpt lat="51.27900" lon="4.83408"></trkpt>
      <trkpt lat="51.27904" lon="4.83408"></trkpt>
      <trkpt lat="51.27908" lon="4.83407"></trkpt>
      <trkpt lat="51.27912" lon="4.83407"></trkpt>
      <trkpt lat="51.27917" lon="4.83406"></trkpt>
      <trkpt lat="51.27921" lon="4.83405"></trkpt>
      <trkpt lat="51.27925" lon="4.83405"></trkpt>
      <trkpt lat="51.27929" lon="4.83404"></trkpt>
      <trkpt lat="51.27933" lon="4.83403"></trkpt>
      <trkpt lat="51.27938" lon="4.83402"></trkpt>
      <trkpt lat="51.27942" lon="4.83400"></trkpt>
      <trkpt lat="51.27946" lon="4.83400"></trkpt>
      <trkpt lat="51.27951" lon="4.83399"></trkpt>
      <trkpt lat="51.27956" lon="4.83398"></trkpt>
      <trkpt lat="51.27960" lon="4.83397"></trkpt>
      <trkpt lat="51.27964" lon="4.83396"></trkpt>
      <trkpt lat="51.27969" lon="4.83396"></trkpt>
      <trkpt lat="51.27973" lon="4.83395"></trkpt>
      <trkpt lat="51.27978" lon="4.83394"></trkpt>
      <trkpt lat="51.27982" lon="4.83392"></trkpt>
      <trkpt lat="51.27986" lon="4.83391"></trkpt>
      <trkpt lat="51.27991" lon="4.83390"></trkpt>
      <trkpt lat="51.27995" lon="4.83389"></trkpt>
      <trkpt lat="51.27998" lon="4.83387"></trkpt>
      <trkpt lat="51.28002" lon="4.83386"></trkpt>
      <trkpt lat="51.28006" lon="4.83386"></trkpt>
      <trkpt lat="51.28010" lon="4.83385"></trkpt>
      <trkpt lat="51.28014" lon="4.83384"></trkpt>
      <trkpt lat="51.28019" lon="4.83384"></trkpt>
      <trkpt lat="51.28023" lon="4.83383"></trkpt>
      <trkpt lat="51.28027" lon="4.83384"></trkpt>
      <trkpt lat="51.28032" lon="4.83383"></trkpt>
      <trkpt lat="51.28036" lon="4.83382"></trkpt>
      <trkpt lat="51.28040" lon="4.83382"></trkpt>
      <trkpt lat="51.28044" lon="4.83382"></trkpt>
      <trkpt lat="51.28048" lon="4.83381"></trkpt>
      <trkpt lat="51.28052" lon="4.83380"></trkpt>
      <trkpt lat="51.28056" lon="4.83380"></trkpt>
      <trkpt lat="51.28060" lon="4.83380"></trkpt>
      <trkpt lat="51.28064" lon="4.83379"></trkpt>
      <trkpt lat="51.28068" lon="4.83379"></trkpt>
      <trkpt lat="51.28072" lon="4.83378"></trkpt>
      <trkpt lat="51.28077" lon="4.83378"></trkpt>
      <trkpt lat="51.28081" lon="4.83378"></trkpt>
      <trkpt lat="51.28084" lon="4.83378"></trkpt>
      <trkpt lat="51.28088" lon="4.83378"></trkpt>
      <trkpt lat="51.28092" lon="4.83377"></trkpt>
      <trkpt lat="51.28096" lon="4.83375"></trkpt>
      <trkpt lat="51.28099" lon="4.83373"></trkpt>
      <trkpt lat="51.28103" lon="4.83371"></trkpt>
      <trkpt lat="51.28107" lon="4.83367"></trkpt>
      <trkpt lat="51.28111" lon="4.83363"></trkpt>
      <trkpt lat="51.28116" lon="4.83360"></trkpt>
      <trkpt lat="51.28120" lon="4.83357"></trkpt>
      <trkpt lat="51.28124" lon="4.83354"></trkpt>
      <trkpt lat="51.28128" lon="4.83350"></trkpt>
      <trkpt lat="51.28132" lon="4.83346"></trkpt>
      <trkpt lat="51.28136" lon="4.83341"></trkpt>
      <trkpt lat="51.28140" lon="4.83337"></trkpt>
      <trkpt lat="51.28144" lon="4.83334"></trkpt>
      <trkpt lat="51.28148" lon="4.83330"></trkpt>
      <trkpt lat="51.28152" lon="4.83326"></trkpt>
      <trkpt lat="51.28154" lon="4.83324"></trkpt>
      <trkpt lat="51.28156" lon="4.83321"></trkpt>
      <trkpt lat="51.28156" lon="4.83319"></trkpt>
      <trkpt lat="51.28157" lon="4.83317"></trkpt>
      <trkpt lat="51.28159" lon="4.83316"></trkpt>
      <trkpt lat="51.28162" lon="4.83315"></trkpt>
      <trkpt lat="51.28166" lon="4.83314"></trkpt>
      <trkpt lat="51.28170" lon="4.83314"></trkpt>
      <trkpt lat="51.28175" lon="4.83315"></trkpt>
      <trkpt lat="51.28179" lon="4.83315"></trkpt>
      <trkpt lat="51.28183" lon="4.83315"></trkpt>
      <trkpt lat="51.28187" lon="4.83313"></trkpt>
      <trkpt lat="51.28191" lon="4.83311"></trkpt>
      <trkpt lat="51.28195" lon="4.83309"></trkpt>
      <trkpt lat="51.28199" lon="4.83306"></trkpt>
      <trkpt lat="51.28203" lon="4.83304"></trkpt>
      <trkpt lat="51.28207" lon="4.83301"></trkpt>
      <trkpt lat="51.28211" lon="4.83298"></trkpt>
      <trkpt lat="51.28215" lon="4.83295"></trkpt>
      <trkpt lat="51.28219" lon="4.83293"></trkpt>
      <trkpt lat="51.28223" lon="4.83290"></trkpt>
      <trkpt lat="51.28228" lon="4.83287"></trkpt>
      <trkpt lat="51.28232" lon="4.83284"></trkpt>
      <trkpt lat="51.28236" lon="4.83281"></trkpt>
      <trkpt lat="51.28240" lon="4.83279"></trkpt>
      <trkpt lat="51.28243" lon="4.83280"></trkpt>
      <trkpt lat="51.28246" lon="4.83283"></trkpt>
      <trkpt lat="51.28249" lon="4.83288"></trkpt>
      <trkpt lat="51.28253" lon="4.83293"></trkpt>
      <trkpt lat="51.28255" lon="4.83299"></trkpt>
      <trkpt lat="51.28257" lon="4.83304"></trkpt>
      <trkpt lat="51.28258" lon="4.83311"></trkpt>
      <trkpt lat="51.28260" lon="4.83318"></trkpt>
      <trkpt lat="51.28261" lon="4.83322"></trkpt>
    </trkseg>
  </trk>
</gpx>