<?xml version="1.0" encoding="UTF-8"?>
<gpx version="1.1" creator="jeffry.running" xmlns="http://www.topografix.com/GPX/1/1">
  <metadata><time>2026-09-28T05:10:48.313Z</time></metadata>
  <trk>
    <trkseg>
      <trkpt lat="50.20287" lon="6.79255"></trkpt>
      <trkpt lat="50.20289" lon="6.79254"></trkpt>
      <trkpt lat="50.20296" lon="6.79255"></trkpt>
      <trkpt lat="50.20303" lon="6.79261"></trkpt>
      <trkpt lat="50.20307" lon="6.79267"></trkpt>
      <trkpt lat="50.20312" lon="6.79274"></trkpt>
      <trkpt lat="50.20317" lon="6.79281"></trkpt>
      <trkpt lat="50.20321" lon="6.79288"></trkpt>
      <trkpt lat="50.20341" lon="6.79286"></trkpt>
      <trkpt lat="50.20349" lon="6.79272"></trkpt>
      <trkpt lat="50.20355" lon="6.79256"></trkpt>
      <trkpt lat="50.20364" lon="6.79244"></trkpt>
      <trkpt lat="50.20376" lon="6.79237"></trkpt>
      <trkpt lat="50.20383" lon="6.79226"></trkpt>
      <trkpt lat="50.20385" lon="6.79212"></trkpt>
      <trkpt lat="50.20386" lon="6.79199"></trkpt>
      <trkpt lat="50.20387" lon="6.79187"></trkpt>
      <trkpt lat="50.20385" lon="6.79175"></trkpt>
      <trkpt lat="50.20385" lon="6.79164"></trkpt>
      <trkpt lat="50.20387" lon="6.79152"></trkpt>
      <trkpt lat="50.20388" lon="6.79141"></trkpt>
      <trkpt lat="50.20393" lon="6.79132"></trkpt>
      <trkpt lat="50.20397" lon="6.79123"></trkpt>
      <trkpt lat="50.20400" lon="6.79115"></trkpt>
      <trkpt lat="50.20402" lon="6.79106"></trkpt>
      <trkpt lat="50.20403" lon="6.79096"></trkpt>
      <trkpt lat="50.20403" lon="6.79083"></trkpt>
      <trkpt lat="50.20406" lon="6.79071"></trkpt>
      <trkpt lat="50.20408" lon="6.79062"></trkpt>
      <trkpt lat="50.20411" lon="6.79053"></trkpt>
      <trkpt lat="50.20413" lon="6.79044"></trkpt>
      <trkpt lat="50.20415" lon="6.79035"></trkpt>
      <trkpt lat="50.20418" lon="6.79023"></trkpt>
      <trkpt lat="50.20421" lon="6.79012"></trkpt>
      <trkpt lat="50.20424" lon="6.79002"></trkpt>
      <trkpt lat="50.20426" lon="6.78991"></trkpt>
      <trkpt lat="50.20429" lon="6.78984"></trkpt>
      <trkpt lat="50.20432" lon="6.78991"></trkpt>
      <trkpt lat="50.20434" lon="6.79004"></trkpt>
      <trkpt lat="50.20436" lon="6.79016"></trkpt>
      <trkpt lat="50.20436" lon="6.79028"></trkpt>
      <trkpt lat="50.20436" lon="6.79040"></trkpt>
      <trkpt lat="50.20437" lon="6.79050"></trkpt>
      <trkpt lat="50.20439" lon="6.79057"></trkpt>
      <trkpt lat="50.20443" lon="6.79064"></trkpt>
      <trkpt lat="50.20451" lon="6.79068"></trkpt>
      <trkpt lat="50.20458" lon="6.79069"></trkpt>
      <trkpt lat="50.20466" lon="6.79068"></trkpt>
      <trkpt lat="50.20474" lon="6.79064"></trkpt>
      <trkpt lat="50.20482" lon="6.79058"></trkpt>
      <trkpt lat="50.20489" lon="6.79050"></trkpt>
      <trkpt lat="50.20496" lon="6.79044"></trkpt>
      <trkpt lat="50.20503" lon="6.79036"></trkpt>
      <trkpt lat="50.20509" lon="6.79030"></trkpt>
      <trkpt lat="50.20516" lon="6.79023"></trkpt>
      <trkpt lat="50.20526" lon="6.79015"></trkpt>
      <trkpt lat="50.20536" lon="6.79006"></trkpt>
      <trkpt lat="50.20547" lon="6.78999"></trkpt>
      <trkpt lat="50.20559" lon="6.78994"></trkpt>
      <trkpt lat="50.20571" lon="6.78991"></trkpt>
      <trkpt lat="50.20582" lon="6.78993"></trkpt>
      <trkpt lat="50.20591" lon="6.78999"></trkpt>
      <trkpt lat="50.20598" lon="6.79007"></trkpt>
      <trkpt lat="50.20605" lon="6.79013"></trkpt>
      <trkpt lat="50.20614" lon="6.79014"></trkpt>
      <trkpt lat="50.20624" lon="6.79010"></trkpt>
      <trkpt lat="50.20633" lon="6.79000"></trkpt>
      <trkpt lat="50.20641" lon="6.78987"></trkpt>
      <trkpt lat="50.20648" lon="6.78974"></trkpt>
      <trkpt lat="50.20655" lon="6.78962"></trkpt>
      <trkpt lat="50.20663" lon="6.78949"></trkpt>
      <trkpt lat="50.20672" lon="6.78937"></trkpt>
      <trkpt lat="50.20682" lon="6.78927"></trkpt>
      <trkpt lat="50.20691" lon="6.78927"></trkpt>
      <trkpt lat="50.20696" lon="6.78939"></trkpt>
      <trkpt lat="50.20699" lon="6.78949"></trkpt>
      <trkpt lat="50.20703" lon="6.78959"></trkpt>
      <trkpt lat="50.20706" lon="6.78970"></trkpt>
      <trkpt lat="50.20710" lon="6.78981"></trkpt>
      <trkpt lat="50.20712" lon="6.78989"></trkpt>
      <trkpt lat="50.20715" lon="6.78996"></trkpt>
      <trkpt lat="50.20718" lon="6.79006"></trkpt>
      <trkpt lat="50.20722" lon="6.79017"></trkpt>
      <trkpt lat="50.20727" lon="6.79031"></trkpt>
      <trkpt lat="50.20731" lon="6.79045"></trkpt>
      <trkpt lat="50.20736" lon="6.79059"></trkpt>
      <trkpt lat="50.20741" lon="6.79074"></trkpt>
      <trkpt lat="50.20745" lon="6.79089"></trkpt>
      <trkpt lat="50.20750" lon="6.79104"></trkpt>
      <trkpt lat="50.20755" lon="6.79120"></trkpt>
      <trkpt lat="50.20762" lon="6.79135"></trkpt>
      <trkpt lat="50.20769" lon="6.79149"></trkpt>
      <trkpt lat="50.20780" lon="6.79151"></trkpt>
      <trkpt lat="50.20792" lon="6.79146"></trkpt>
      <trkpt lat="50.20803" lon="6.79139"></trkpt>
      <trkpt lat="50.20813" lon="6.79132"></trkpt>
      <trkpt lat="50.20823" lon="6.79123"></trkpt>
      <trkpt lat="50.20833" lon="6.79115"></trkpt>
      <trkpt lat="50.20844" lon="6.79107"></trkpt>
      <trkpt lat="50.20855" lon="6.79098"></trkpt>
      <trkpt lat="50.20865" lon="6.79089"></trkpt>
      <trkpt lat="50.20874" lon="6.79081"></trkpt>
      <trkpt lat="50.20885" lon="6.79072"></trkpt>
      <trkpt lat="50.20896" lon="6.79064"></trkpt>
      <trkpt lat="50.20908" lon="6.79056"></trkpt>
      <trkpt lat="50.20919" lon="6.79050"></trkpt>
      <trkpt lat="50.20930" lon="6.79043"></trkpt>
      <trkpt lat="50.20940" lon="6.79032"></trkpt>
      <trkpt lat="50.20949" lon="6.79020"></trkpt>
      <trkpt lat="50.20957" lon="6.79007"></trkpt>
      <trkpt lat="50.20964" lon="6.78992"></trkpt>
      <trkpt lat="50.20970" lon="6.78976"></trkpt>
      <trkpt lat="50.20976" lon="6.78961"></trkpt>
      <trkpt lat="50.20983" lon="6.78946"></trkpt>
      <trkpt lat="50.20989" lon="6.78928"></trkpt>
      <trkpt lat="50.20994" lon="6.78911"></trkpt>
      <trkpt lat="50.21000" lon="6.78895"></trkpt>
      <trkpt lat="50.21008" lon="6.78882"></trkpt>
      <trkpt lat="50.21011" lon="6.78870"></trkpt>
      <trkpt lat="50.21012" lon="6.78860"></trkpt>
      <trkpt lat="50.21015" lon="6.78857"></trkpt>
      <trkpt lat="50.21016" lon="6.78857"></trkpt>
      <trkpt lat="50.21016" lon="6.78857"></trkpt>
      <trkpt lat="50.21016" lon="6.78857"></trkpt>
      <trkpt lat="50.21016" lon="6.78857"></trkpt>
      <trkpt lat="50.21017" lon="6.78856"></trkpt>
      <trkpt lat="50.21017" lon="6.78856"></trkpt>
      <trkpt lat="50.21017" lon="6.78856"></trkpt>
      <trkpt lat="50.21017" lon="6.78856"></trkpt>
      <trkpt lat="50.21018" lon="6.78856"></trkpt>
      <trkpt lat="50.21018" lon="6.78856"></trkpt>
      <trkpt lat="50.21024" lon="6.78853"></trkpt>
      <trkpt lat="50.21037" lon="6.78857"></trkpt>
      <trkpt lat="50.21047" lon="6.78863"></trkpt>
      <trkpt lat="50.21057" lon="6.78871"></trkpt>
      <trkpt lat="50.21068" lon="6.78878"></trkpt>
      <trkpt lat="50.21080" lon="6.78884"></trkpt>
      <trkpt lat="50.21092" lon="6.78887"></trkpt>
      <trkpt lat="50.21101" lon="6.78890"></trkpt>
      <trkpt lat="50.21113" lon="6.78894"></trkpt>
      <trkpt lat="50.21119" lon="6.78903"></trkpt>
      <trkpt lat="50.21126" lon="6.78909"></trkpt>
      <trkpt lat="50.21131" lon="6.78912"></trkpt>
      <trkpt lat="50.21132" lon="6.78914"></trkpt>
      <trkpt lat="50.21133" lon="6.78915"></trkpt>
      <trkpt lat="50.21140" lon="6.78919"></trkpt>
      <trkpt lat="50.21149" lon="6.78922"></trkpt>
      <trkpt lat="50.21157" lon="6.78927"></trkpt>
      <trkpt lat="50.21164" lon="6.78934"></trkpt>
      <trkpt lat="50.21172" lon="6.78939"></trkpt>
      <trkpt lat="50.21180" lon="6.78945"></trkpt>
      <trkpt lat="50.21185" lon="6.78955"></trkpt>
      <trkpt lat="50.21189" lon="6.78969"></trkpt>
      <trkpt lat="50.21190" lon="6.78987"></trkpt>
      <trkpt lat="50.21191" lon="6.79006"></trkpt>
      <trkpt lat="50.21192" lon="6.79026"></trkpt>
      <trkpt lat="50.21194" lon="6.79045"></trkpt>
      <trkpt lat="50.21194" lon="6.79065"></trkpt>
      <trkpt lat="50.21196" lon="6.79085"></trkpt>
      <trkpt lat="50.21201" lon="6.79104"></trkpt>
      <trkpt lat="50.21209" lon="6.79121"></trkpt>
      <trkpt lat="50.21218" lon="6.79136"></trkpt>
      <trkpt lat="50.21229" lon="6.79149"></trkpt>
      <trkpt lat="50.21240" lon="6.79158"></trkpt>
      <trkpt lat="50.21251" lon="6.79164"></trkpt>
      <trkpt lat="50.21260" lon="6.79167"></trkpt>
      <trkpt lat="50.21267" lon="6.79168"></trkpt>
      <trkpt lat="50.21275" lon="6.79167"></trkpt>
      <trkpt lat="50.21283" lon="6.79168"></trkpt>
      <trkpt lat="50.21284" lon="6.79168"></trkpt>
      <trkpt lat="50.21285" lon="6.79168"></trkpt>
      <trkpt lat="50.21286" lon="6.79169"></trkpt>
      <trkpt lat="50.21299" lon="6.79168"></trkpt>
      <trkpt lat="50.21313" lon="6.79167"></trkpt>
      <trkpt lat="50.21326" lon="6.79170"></trkpt>
      <trkpt lat="50.21339" lon="6.79177"></trkpt>
      <trkpt lat="50.21352" lon="6.79185"></trkpt>
      <trkpt lat="50.21364" lon="6.79193"></trkpt>
      <trkpt lat="50.21376" lon="6.79203"></trkpt>
      <trkpt lat="50.21387" lon="6.79213"></trkpt>
      <trkpt lat="50.21392" lon="6.79217"></trkpt>
      <trkpt lat="50.21392" lon="6.79218"></trkpt>
      <trkpt lat="50.21393" lon="6.79218"></trkpt>
      <trkpt lat="50.21393" lon="6.79218"></trkpt>
      <trkpt lat="50.21394" lon="6.79219"></trkpt>
      <trkpt lat="50.21398" lon="6.79223"></trkpt>
      <trkpt lat="50.21409" lon="6.79233"></trkpt>
      <trkpt lat="50.21417" lon="6.79241"></trkpt>
      <trkpt lat="50.21424" lon="6.79247"></trkpt>
      <trkpt lat="50.21431" lon="6.79250"></trkpt>
      <trkpt lat="50.21437" lon="6.79241"></trkpt>
      <trkpt lat="50.21442" lon="6.79231"></trkpt>
      <trkpt lat="50.21447" lon="6.79220"></trkpt>
      <trkpt lat="50.21452" lon="6.79211"></trkpt>
      <trkpt lat="50.21458" lon="6.79203"></trkpt>
      <trkpt lat="50.21464" lon="6.79195"></trkpt>
      <trkpt lat="50.21470" lon="6.79186"></trkpt>
      <trkpt lat="50.21477" lon="6.79176"></trkpt>
      <trkpt lat="50.21484" lon="6.79167"></trkpt>
      <trkpt lat="50.21491" lon="6.79156"></trkpt>
      <trkpt lat="50.21499" lon="6.79147"></trkpt>
      <trkpt lat="50.21507" lon="6.79140"></trkpt>
      <trkpt lat="50.21515" lon="6.79134"></trkpt>
      <trkpt lat="50.21524" lon="6.79132"></trkpt>
      <trkpt lat="50.21533" lon="6.79128"></trkpt>
      <trkpt lat="50.21541" lon="6.79122"></trkpt>
      <trkpt lat="50.21553" lon="6.79114"></trkpt>
      <trkpt lat="50.21564" lon="6.79106"></trkpt>
      <trkpt lat="50.21576" lon="6.79097"></trkpt>
      <trkpt lat="50.21588" lon="6.79088"></trkpt>
      <trkpt lat="50.21600" lon="6.79080"></trkpt>
      <trkpt lat="50.21612" lon="6.79074"></trkpt>
      <trkpt lat="50.21624" lon="6.79069"></trkpt>
      <trkpt lat="50.21636" lon="6.79065"></trkpt>
      <trkpt lat="50.21646" lon="6.79063"></trkpt>
      <trkpt lat="50.21654" lon="6.79061"></trkpt>
      <trkpt lat="50.21662" lon="6.79058"></trkpt>
      <trkpt lat="50.21670" lon="6.79056"></trkpt>
      <trkpt lat="50.21678" lon="6.79053"></trkpt>
      <trkpt lat="50.21686" lon="6.79050"></trkpt>
      <trkpt lat="50.21694" lon="6.79047"></trkpt>
      <trkpt lat="50.21703" lon="6.79045"></trkpt>
      <trkpt lat="50.21712" lon="6.79042"></trkpt>
      <trkpt lat="50.21720" lon="6.79043"></trkpt>
      <trkpt lat="50.21728" lon="6.79045"></trkpt>
      <trkpt lat="50.21737" lon="6.79047"></trkpt>
      <trkpt lat="50.21743" lon="6.79047"></trkpt>
      <trkpt lat="50.21750" lon="6.79049"></trkpt>
      <trkpt lat="50.21756" lon="6.79049"></trkpt>
      <trkpt lat="50.21764" lon="6.79050"></trkpt>
      <trkpt lat="50.21772" lon="6.79050"></trkpt>
      <trkpt lat="50.21781" lon="6.79052"></trkpt>
      <trkpt lat="50.21790" lon="6.79053"></trkpt>
      <trkpt lat="50.21798" lon="6.79056"></trkpt>
      <trkpt lat="50.21807" lon="6.79059"></trkpt>
      <trkpt lat="50.21815" lon="6.79064"></trkpt>
      <trkpt lat="50.21823" lon="6.79069"></trkpt>
      <trkpt lat="50.21830" lon="6.79075"></trkpt>
      <trkpt lat="50.21838" lon="6.79079"></trkpt>
      <trkpt lat="50.21846" lon="6.79083"></trkpt>
      <trkpt lat="50.21854" lon="6.79087"></trkpt>
      <trkpt lat="50.21861" lon="6.79091"></trkpt>
      <trkpt lat="50.21868" lon="6.79096"></trkpt>
      <trkpt lat="50.21877" lon="6.79100"></trkpt>
      <trkpt lat="50.21885" lon="6.79105"></trkpt>
      <trkpt lat="50.21892" lon="6.79108"></trkpt>
      <trkpt lat="50.21900" lon="6.79111"></trkpt>
      <trkpt lat="50.21908" lon="6.79111"></trkpt>
      <trkpt lat="50.21916" lon="6.79110"></trkpt>
      <trkpt lat="50.21924" lon="6.79109"></trkpt>
      <trkpt lat="50.21931" lon="6.79107"></trkpt>
      <trkpt lat="50.21933" lon="6.79107"></trkpt>
      <trkpt lat="50.21933" lon="6.79108"></trkpt>
      <trkpt lat="50.21934" lon="6.79108"></trkpt>
      <trkpt lat="50.21934" lon="6.79109"></trkpt>
      <trkpt lat="50.21934" lon="6.79116"></trkpt>
      <trkpt lat="50.21935" lon="6.79125"></trkpt>
      <trkpt lat="50.21937" lon="6.79130"></trkpt>
      <trkpt lat="50.21940" lon="6.79132"></trkpt>
      <trkpt lat="50.21942" lon="6.79133"></trkpt>
      <trkpt lat="50.21947" lon="6.79140"></trkpt>
      <trkpt lat="50.21944" lon="6.79150"></trkpt>
      <trkpt lat="50.21939" lon="6.79157"></trkpt>
      <trkpt lat="50.21933" lon="6.79162"></trkpt>
      <trkpt lat="50.21926" lon="6.79170"></trkpt>
      <trkpt lat="50.21916" lon="6.79181"></trkpt>
      <trkpt lat="50.21910" lon="6.79188"></trkpt>
      <trkpt lat="50.21908" lon="6.79190"></trkpt>
      <trkpt lat="50.21901" lon="6.79195"></trkpt>
      <trkpt lat="50.21892" lon="6.79204"></trkpt>
      <trkpt lat="50.21885" lon="6.79211"></trkpt>
      <trkpt lat="50.21876" lon="6.79221"></trkpt>
      <trkpt lat="50.21865" lon="6.79229"></trkpt>
      <trkpt lat="50.21854" lon="6.79238"></trkpt>
      <trkpt lat="50.21842" lon="6.79247"></trkpt>
      <trkpt lat="50.21831" lon="6.79254"></trkpt>
      <trkpt lat="50.21826" lon="6.79256"></trkpt>
      <trkpt lat="50.21829" lon="6.79258"></trkpt>
      <trkpt lat="50.21836" lon="6.79262"></trkpt>
      <trkpt lat="50.21838" lon="6.79272"></trkpt>
      <trkpt lat="50.21835" lon="6.79282"></trkpt>
      <trkpt lat="50.21830" lon="6.79294"></trkpt>
      <trkpt lat="50.21825" lon="6.79305"></trkpt>
      <trkpt lat="50.21818" lon="6.79316"></trkpt>
      <trkpt lat="50.21812" lon="6.79326"></trkpt>
      <trkpt lat="50.21807" lon="6.79338"></trkpt>
      <trkpt lat="50.21801" lon="6.79348"></trkpt>
      <trkpt lat="50.21796" lon="6.79357"></trkpt>
      <trkpt lat="50.21794" lon="6.79359"></trkpt>
      <trkpt lat="50.21794" lon="6.79359"></trkpt>
      <trkpt lat="50.21794" lon="6.79360"></trkpt>
      <trkpt lat="50.21794" lon="6.79360"></trkpt>
      <trkpt lat="50.21794" lon="6.79360"></trkpt>
      <trkpt lat="50.21794" lon="6.79360"></trkpt>
      <trkpt lat="50.21794" lon="6.79360"></trkpt>
      <trkpt lat="50.21794" lon="6.79360"></trkpt>
      <trkpt lat="50.21794" lon="6.79360"></trkpt>
      <trkpt lat="50.21794" lon="6.79360"></trkpt>
      <trkpt lat="50.21794" lon="6.79361"></trkpt>
      <trkpt lat="50.21794" lon="6.79361"></trkpt>
      <trkpt lat="50.21794" lon="6.79361"></trkpt>
      <trkpt lat="50.21794" lon="6.79361"></trkpt>
      <trkpt lat="50.21794" lon="6.79361"></trkpt>
      <trkpt lat="50.21794" lon="6.79361"></trkpt>
      <trkpt lat="50.21794" lon="6.79361"></trkpt>
      <trkpt lat="50.21794" lon="6.79361"></trkpt>
      <trkpt lat="50.21794" lon="6.79361"></trkpt>
      <trkpt lat="50.21794" lon="6.79362"></trkpt>
      <trkpt lat="50.21794" lon="6.79362"></trkpt>
      <trkpt lat="50.21794" lon="6.79362"></trkpt>
      <trkpt lat="50.21794" lon="6.79362"></trkpt>
      <trkpt lat="50.21794" lon="6.79362"></trkpt>
      <trkpt lat="50.21794" lon="6.79362"></trkpt>
      <trkpt lat="50.21791" lon="6.79367"></trkpt>
      <trkpt lat="50.21786" lon="6.79377"></trkpt>
      <trkpt lat="50.21781" lon="6.79385"></trkpt>
      <trkpt lat="50.21776" lon="6.79395"></trkpt>
      <trkpt lat="50.21770" lon="6.79406"></trkpt>
      <trkpt lat="50.21766" lon="6.79416"></trkpt>
      <trkpt lat="50.21762" lon="6.79426"></trkpt>
      <trkpt lat="50.21757" lon="6.79437"></trkpt>
      <trkpt lat="50.21753" lon="6.79449"></trkpt>
      <trkpt lat="50.21748" lon="6.79462"></trkpt>
      <trkpt lat="50.21745" lon="6.79476"></trkpt>
      <trkpt lat="50.21743" lon="6.79488"></trkpt>
      <trkpt lat="50.21746" lon="6.79491"></trkpt>
      <trkpt lat="50.21751" lon="6.79487"></trkpt>
      <trkpt lat="50.21753" lon="6.79485"></trkpt>
      <trkpt lat="50.21757" lon="6.79482"></trkpt>
      <trkpt lat="50.21763" lon="6.79478"></trkpt>
      <trkpt lat="50.21769" lon="6.79474"></trkpt>
      <trkpt lat="50.21771" lon="6.79473"></trkpt>
      <trkpt lat="50.21771" lon="6.79472"></trkpt>
      <trkpt lat="50.21772" lon="6.79472"></trkpt>
      <trkpt lat="50.21774" lon="6.79470"></trkpt>
      <trkpt lat="50.21780" lon="6.79467"></trkpt>
      <trkpt lat="50.21785" lon="6.79466"></trkpt>
      <trkpt lat="50.21794" lon="6.79465"></trkpt>
      <trkpt lat="50.21803" lon="6.79463"></trkpt>
      <trkpt lat="50.21812" lon="6.79462"></trkpt>
      <trkpt lat="50.21821" lon="6.79460"></trkpt>
      <trkpt lat="50.21830" lon="6.79457"></trkpt>
      <trkpt lat="50.21839" lon="6.79454"></trkpt>
      <trkpt lat="50.21847" lon="6.79452"></trkpt>
      <trkpt lat="50.21856" lon="6.79449"></trkpt>
      <trkpt lat="50.21864" lon="6.79444"></trkpt>
      <trkpt lat="50.21872" lon="6.79438"></trkpt>
      <trkpt lat="50.21882" lon="6.79433"></trkpt>
      <trkpt lat="50.21890" lon="6.79426"></trkpt>
      <trkpt lat="50.21897" lon="6.79418"></trkpt>
      <trkpt lat="50.21904" lon="6.79410"></trkpt>
      <trkpt lat="50.21913" lon="6.79403"></trkpt>
      <trkpt lat="50.21921" lon="6.79399"></trkpt>
      <trkpt lat="50.21930" lon="6.79397"></trkpt>
      <trkpt lat="50.21940" lon="6.79397"></trkpt>
      <trkpt lat="50.21949" lon="6.79396"></trkpt>
      <trkpt lat="50.21957" lon="6.79394"></trkpt>
      <trkpt lat="50.21965" lon="6.79394"></trkpt>
      <trkpt lat="50.21974" lon="6.79393"></trkpt>
      <trkpt lat="50.21983" lon="6.79392"></trkpt>
      <trkpt lat="50.21991" lon="6.79388"></trkpt>
      <trkpt lat="50.21998" lon="6.79383"></trkpt>
      <trkpt lat="50.22005" lon="6.79373"></trkpt>
      <trkpt lat="50.22012" lon="6.79362"></trkpt>
      <trkpt lat="50.22019" lon="6.79357"></trkpt>
      <trkpt lat="50.22027" lon="6.79359"></trkpt>
      <trkpt lat="50.22030" lon="6.79372"></trkpt>
      <trkpt lat="50.22031" lon="6.79385"></trkpt>
      <trkpt lat="50.22032" lon="6.79399"></trkpt>
      <trkpt lat="50.22032" lon="6.79413"></trkpt>
      <trkpt lat="50.22030" lon="6.79428"></trkpt>
      <trkpt lat="50.22025" lon="6.79439"></trkpt>
      <trkpt lat="50.22017" lon="6.79448"></trkpt>
      <trkpt lat="50.22009" lon="6.79453"></trkpt>
      <trkpt lat="50.22000" lon="6.79455"></trkpt>
      <trkpt lat="50.21991" lon="6.79458"></trkpt>
      <trkpt lat="50.21983" lon="6.79464"></trkpt>
      <trkpt lat="50.21976" lon="6.79474"></trkpt>
      <trkpt lat="50.21974" lon="6.79486"></trkpt>
      <trkpt lat="50.21974" lon="6.79499"></trkpt>
      <trkpt lat="50.21973" lon="6.79512"></trkpt>
      <trkpt lat="50.21970" lon="6.79524"></trkpt>
      <trkpt lat="50.21966" lon="6.79536"></trkpt>
      <trkpt lat="50.21963" lon="6.79548"></trkpt>
      <trkpt lat="50.21958" lon="6.79559"></trkpt>
      <trkpt lat="50.21953" lon="6.79568"></trkpt>
      <trkpt lat="50.21947" lon="6.79576"></trkpt>
      <trkpt lat="50.21941" lon="6.79583"></trkpt>
      <trkpt lat="50.21935" lon="6.79589"></trkpt>
      <trkpt lat="50.21928" lon="6.79595"></trkpt>
      <trkpt lat="50.21922" lon="6.79603"></trkpt>
      <trkpt lat="50.21914" lon="6.79616"></trkpt>
      <trkpt lat="50.21902" lon="6.79628"></trkpt>
      <trkpt lat="50.21889" lon="6.79640"></trkpt>
      <trkpt lat="50.21878" lon="6.79650"></trkpt>
      <trkpt lat="50.21866" lon="6.79661"></trkpt>
      <trkpt lat="50.21855" lon="6.79669"></trkpt>
      <trkpt lat="50.21844" lon="6.79677"></trkpt>
      <trkpt lat="50.21831" lon="6.79683"></trkpt>
      <trkpt lat="50.21817" lon="6.79689"></trkpt>
      <trkpt lat="50.21803" lon="6.79695"></trkpt>
      <trkpt lat="50.21792" lon="6.79703"></trkpt>
      <trkpt lat="50.21779" lon="6.79712"></trkpt>
      <trkpt lat="50.21769" lon="6.79728"></trkpt>
      <trkpt lat="50.21757" lon="6.79740"></trkpt>
      <trkpt lat="50.21744" lon="6.79748"></trkpt>
      <trkpt lat="50.21732" lon="6.79754"></trkpt>
      <trkpt lat="50.21719" lon="6.79760"></trkpt>
      <trkpt lat="50.21705" lon="6.79768"></trkpt>
      <trkpt lat="50.21696" lon="6.79781"></trkpt>
      <trkpt lat="50.21693" lon="6.79795"></trkpt>
      <trkpt lat="50.21693" lon="6.79813"></trkpt>
      <trkpt lat="50.21692" lon="6.79832"></trkpt>
      <trkpt lat="50.21694" lon="6.79850"></trkpt>
      <trkpt lat="50.21696" lon="6.79867"></trkpt>
      <trkpt lat="50.21696" lon="6.79886"></trkpt>
      <trkpt lat="50.21696" lon="6.79906"></trkpt>
      <trkpt lat="50.21697" lon="6.79926"></trkpt>
      <trkpt lat="50.21696" lon="6.79946"></trkpt>
      <trkpt lat="50.21697" lon="6.79966"></trkpt>
      <trkpt lat="50.21697" lon="6.79986"></trkpt>
      <trkpt lat="50.21695" lon="6.80006"></trkpt>
      <trkpt lat="50.21691" lon="6.80025"></trkpt>
      <trkpt lat="50.21688" lon="6.80039"></trkpt>
      <trkpt lat="50.21685" lon="6.80052"></trkpt>
      <trkpt lat="50.21684" lon="6.80063"></trkpt>
      <trkpt lat="50.21683" lon="6.80074"></trkpt>
      <trkpt lat="50.21682" lon="6.80087"></trkpt>
      <trkpt lat="50.21681" lon="6.80101"></trkpt>
      <trkpt lat="50.21680" lon="6.80114"></trkpt>
      <trkpt lat="50.21679" lon="6.80126"></trkpt>
      <trkpt lat="50.21677" lon="6.80139"></trkpt>
      <trkpt lat="50.21676" lon="6.80150"></trkpt>
      <trkpt lat="50.21674" lon="6.80162"></trkpt>
      <trkpt lat="50.21671" lon="6.80174"></trkpt>
      <trkpt lat="50.21668" lon="6.80185"></trkpt>
      <trkpt lat="50.21665" lon="6.80196"></trkpt>
      <trkpt lat="50.21661" lon="6.80207"></trkpt>
      <trkpt lat="50.21658" lon="6.80218"></trkpt>
      <trkpt lat="50.21654" lon="6.80226"></trkpt>
      <trkpt lat="50.21651" lon="6.80236"></trkpt>
      <trkpt lat="50.21650" lon="6.80245"></trkpt>
      <trkpt lat="50.21649" lon="6.80256"></trkpt>
      <trkpt lat="50.21648" lon="6.80260"></trkpt>
      <trkpt lat="50.21648" lon="6.80260"></trkpt>
      <trkpt lat="50.21648" lon="6.80260"></trkpt>
      <trkpt lat="50.21648" lon="6.80260"></trkpt>
      <trkpt lat="50.21648" lon="6.80261"></trkpt>
      <trkpt lat="50.21648" lon="6.80261"></trkpt>
      <trkpt lat="50.21648" lon="6.80261"></trkpt>
      <trkpt lat="50.21648" lon="6.80261"></trkpt>
      <trkpt lat="50.21648" lon="6.80261"></trkpt>
      <trkpt lat="50.21648" lon="6.80261"></trkpt>
      <trkpt lat="50.21648" lon="6.80261"></trkpt>
      <trkpt lat="50.21647" lon="6.80261"></trkpt>
      <trkpt lat="50.21647" lon="6.80261"></trkpt>
      <trkpt lat="50.21647" lon="6.80262"></trkpt>
      <trkpt lat="50.21647" lon="6.80262"></trkpt>
      <trkpt lat="50.21647" lon="6.80262"></trkpt>
      <trkpt lat="50.21647" lon="6.80262"></trkpt>
      <trkpt lat="50.21647" lon="6.80262"></trkpt>
      <trkpt lat="50.21647" lon="6.80262"></trkpt>
      <trkpt lat="50.21647" lon="6.80262"></trkpt>
      <trkpt lat="50.21647" lon="6.80262"></trkpt>
      <trkpt lat="50.21647" lon="6.80263"></trkpt>
      <trkpt lat="50.21647" lon="6.80263"></trkpt>
      <trkpt lat="50.21647" lon="6.80263"></trkpt>
      <trkpt lat="50.21647" lon="6.80263"></trkpt>
      <trkpt lat="50.21647" lon="6.80263"></trkpt>
      <trkpt lat="50.21647" lon="6.80263"></trkpt>
      <trkpt lat="50.21645" lon="6.80271"></trkpt>
      <trkpt lat="50.21640" lon="6.80290"></trkpt>
      <trkpt lat="50.21639" lon="6.80308"></trkpt>
      <trkpt lat="50.21636" lon="6.80325"></trkpt>
      <trkpt lat="50.21631" lon="6.80343"></trkpt>
      <trkpt lat="50.21625" lon="6.80362"></trkpt>
      <trkpt lat="50.21622" lon="6.80380"></trkpt>
      <trkpt lat="50.21618" lon="6.80399"></trkpt>
      <trkpt lat="50.21615" lon="6.80418"></trkpt>
      <trkpt lat="50.21610" lon="6.80438"></trkpt>
      <trkpt lat="50.21607" lon="6.80458"></trkpt>
      <trkpt lat="50.21604" lon="6.80475"></trkpt>
      <trkpt lat="50.21600" lon="6.80495"></trkpt>
      <trkpt lat="50.21595" lon="6.80516"></trkpt>
      <trkpt lat="50.21590" lon="6.80536"></trkpt>
      <trkpt lat="50.21584" lon="6.80556"></trkpt>
      <trkpt lat="50.21579" lon="6.80576"></trkpt>
      <trkpt lat="50.21577" lon="6.80594"></trkpt>
      <trkpt lat="50.21575" lon="6.80613"></trkpt>
      <trkpt lat="50.21575" lon="6.80633"></trkpt>
      <trkpt lat="50.21574" lon="6.80652"></trkpt>
      <trkpt lat="50.21573" lon="6.80672"></trkpt>
      <trkpt lat="50.21572" lon="6.80693"></trkpt>
      <trkpt lat="50.21571" lon="6.80714"></trkpt>
      <trkpt lat="50.21572" lon="6.80734"></trkpt>
      <trkpt lat="50.21573" lon="6.80755"></trkpt>
      <trkpt lat="50.21574" lon="6.80778"></trkpt>
      <trkpt lat="50.21575" lon="6.80799"></trkpt>
      <trkpt lat="50.21575" lon="6.80819"></trkpt>
      <trkpt lat="50.21576" lon="6.80840"></trkpt>
      <trkpt lat="50.21581" lon="6.80850"></trkpt>
      <trkpt lat="50.21589" lon="6.80846"></trkpt>
      <trkpt lat="50.21597" lon="6.80840"></trkpt>
      <trkpt lat="50.21606" lon="6.80834"></trkpt>
      <trkpt lat="50.21614" lon="6.80828"></trkpt>
      <trkpt lat="50.21622" lon="6.80822"></trkpt>
      <trkpt lat="50.21630" lon="6.80818"></trkpt>
      <trkpt lat="50.21638" lon="6.80817"></trkpt>
      <trkpt lat="50.21647" lon="6.80817"></trkpt>
      <trkpt lat="50.21656" lon="6.80818"></trkpt>
      <trkpt lat="50.21666" lon="6.80821"></trkpt>
      <trkpt lat="50.21674" lon="6.80825"></trkpt>
      <trkpt lat="50.21683" lon="6.80828"></trkpt>
      <trkpt lat="50.21692" lon="6.80832"></trkpt>
      <trkpt lat="50.21701" lon="6.80836"></trkpt>
      <trkpt lat="50.21709" lon="6.80839"></trkpt>
      <trkpt lat="50.21717" lon="6.80842"></trkpt>
      <trkpt lat="50.21725" lon="6.80845"></trkpt>
      <trkpt lat="50.21733" lon="6.80849"></trkpt>
      <trkpt lat="50.21742" lon="6.80851"></trkpt>
      <trkpt lat="50.21750" lon="6.80855"></trkpt>
      <trkpt lat="50.21757" lon="6.80858"></trkpt>
      <trkpt lat="50.21768" lon="6.80862"></trkpt>
      <trkpt lat="50.21781" lon="6.80866"></trkpt>
      <trkpt lat="50.21794" lon="6.80869"></trkpt>
      <trkpt lat="50.21808" lon="6.80871"></trkpt>
      <trkpt lat="50.21821" lon="6.80870"></trkpt>
      <trkpt lat="50.21833" lon="6.80869"></trkpt>
      <trkpt lat="50.21843" lon="6.80866"></trkpt>
      <trkpt lat="50.21851" lon="6.80863"></trkpt>
      <trkpt lat="50.21859" lon="6.80860"></trkpt>
      <trkpt lat="50.21867" lon="6.80856"></trkpt>
      <trkpt lat="50.21875" lon="6.80854"></trkpt>
      <trkpt lat="50.21877" lon="6.80852"></trkpt>
      <trkpt lat="50.21883" lon="6.80848"></trkpt>
      <trkpt lat="50.21891" lon="6.80844"></trkpt>
      <trkpt lat="50.21897" lon="6.80841"></trkpt>
      <trkpt lat="50.21898" lon="6.80841"></trkpt>
      <trkpt lat="50.21898" lon="6.80842"></trkpt>
      <trkpt lat="50.21899" lon="6.80842"></trkpt>
      <trkpt lat="50.21899" lon="6.80842"></trkpt>
      <trkpt lat="50.21902" lon="6.80841"></trkpt>
      <trkpt lat="50.21911" lon="6.80835"></trkpt>
      <trkpt lat="50.21918" lon="6.80831"></trkpt>
      <trkpt lat="50.21924" lon="6.80825"></trkpt>
      <trkpt lat="50.21931" lon="6.80819"></trkpt>
      <trkpt lat="50.21939" lon="6.80813"></trkpt>
      <trkpt lat="50.21946" lon="6.80805"></trkpt>
      <trkpt lat="50.21954" lon="6.80799"></trkpt>
      <trkpt lat="50.21962" lon="6.80793"></trkpt>
      <trkpt lat="50.21969" lon="6.80788"></trkpt>
      <trkpt lat="50.21977" lon="6.80783"></trkpt>
      <trkpt lat="50.21985" lon="6.80778"></trkpt>
      <trkpt lat="50.21994" lon="6.80773"></trkpt>
      <trkpt lat="50.22002" lon="6.80768"></trkpt>
      <trkpt lat="50.22010" lon="6.80764"></trkpt>
      <trkpt lat="50.22018" lon="6.80759"></trkpt>
      <trkpt lat="50.22027" lon="6.80755"></trkpt>
      <trkpt lat="50.22035" lon="6.80751"></trkpt>
      <trkpt lat="50.22043" lon="6.80748"></trkpt>
      <trkpt lat="50.22050" lon="6.80743"></trkpt>
      <trkpt lat="50.22058" lon="6.80739"></trkpt>
      <trkpt lat="50.22065" lon="6.80735"></trkpt>
      <trkpt lat="50.22073" lon="6.80731"></trkpt>
      <trkpt lat="50.22082" lon="6.80727"></trkpt>
      <trkpt lat="50.22091" lon="6.80723"></trkpt>
      <trkpt lat="50.22100" lon="6.80720"></trkpt>
      <trkpt lat="50.22107" lon="6.80716"></trkpt>
      <trkpt lat="50.22115" lon="6.80710"></trkpt>
      <trkpt lat="50.22124" lon="6.80704"></trkpt>
      <trkpt lat="50.22133" lon="6.80691"></trkpt>
      <trkpt lat="50.22142" lon="6.80678"></trkpt>
      <trkpt lat="50.22150" lon="6.80667"></trkpt>
      <trkpt lat="50.22159" lon="6.80653"></trkpt>
      <trkpt lat="50.22167" lon="6.80640"></trkpt>
      <trkpt lat="50.22177" lon="6.80627"></trkpt>
      <trkpt lat="50.22187" lon="6.80616"></trkpt>
      <trkpt lat="50.22197" lon="6.80607"></trkpt>
      <trkpt lat="50.22207" lon="6.80600"></trkpt>
      <trkpt lat="50.22218" lon="6.80597"></trkpt>
      <trkpt lat="50.22230" lon="6.80594"></trkpt>
      <trkpt lat="50.22242" lon="6.80593"></trkpt>
      <trkpt lat="50.22251" lon="6.80594"></trkpt>
      <trkpt lat="50.22257" lon="6.80596"></trkpt>
      <trkpt lat="50.22261" lon="6.80596"></trkpt>
      <trkpt lat="50.22271" lon="6.80597"></trkpt>
      <trkpt lat="50.22283" lon="6.80600"></trkpt>
      <trkpt lat="50.22296" lon="6.80599"></trkpt>
      <trkpt lat="50.22311" lon="6.80598"></trkpt>
      <trkpt lat="50.22324" lon="6.80596"></trkpt>
      <trkpt lat="50.22336" lon="6.80593"></trkpt>
      <trkpt lat="50.22349" lon="6.80589"></trkpt>
      <trkpt lat="50.22361" lon="6.80587"></trkpt>
      <trkpt lat="50.22374" lon="6.80582"></trkpt>
      <trkpt lat="50.22388" lon="6.80577"></trkpt>
      <trkpt lat="50.22399" lon="6.80575"></trkpt>
      <trkpt lat="50.22408" lon="6.80576"></trkpt>
      <trkpt lat="50.22416" lon="6.80578"></trkpt>
      <trkpt lat="50.22424" lon="6.80581"></trkpt>
      <trkpt lat="50.22433" lon="6.80584"></trkpt>
      <trkpt lat="50.22443" lon="6.80588"></trkpt>
      <trkpt lat="50.22451" lon="6.80591"></trkpt>
      <trkpt lat="50.22459" lon="6.80595"></trkpt>
      <trkpt lat="50.22467" lon="6.80598"></trkpt>
      <trkpt lat="50.22476" lon="6.80598"></trkpt>
      <trkpt lat="50.22485" lon="6.80598"></trkpt>
      <trkpt lat="50.22494" lon="6.80596"></trkpt>
      <trkpt lat="50.22503" lon="6.80593"></trkpt>
      <trkpt lat="50.22511" lon="6.80588"></trkpt>
      <trkpt lat="50.22517" lon="6.80581"></trkpt>
      <trkpt lat="50.22523" lon="6.80574"></trkpt>
      <trkpt lat="50.22529" lon="6.80567"></trkpt>
      <trkpt lat="50.22536" lon="6.80560"></trkpt>
      <trkpt lat="50.22542" lon="6.80552"></trkpt>
      <trkpt lat="50.22548" lon="6.80545"></trkpt>
      <trkpt lat="50.22553" lon="6.80537"></trkpt>
      <trkpt lat="50.22559" lon="6.80528"></trkpt>
      <trkpt lat="50.22564" lon="6.80521"></trkpt>
      <trkpt lat="50.22567" lon="6.80515"></trkpt>
      <trkpt lat="50.22568" lon="6.80512"></trkpt>
      <trkpt lat="50.22568" lon="6.80512"></trkpt>
      <trkpt lat="50.22569" lon="6.80513"></trkpt>
      <trkpt lat="50.22570" lon="6.80518"></trkpt>
      <trkpt lat="50.22571" lon="6.80527"></trkpt>
      <trkpt lat="50.22572" lon="6.80530"></trkpt>
      <trkpt lat="50.22572" lon="6.80530"></trkpt>
      <trkpt lat="50.22572" lon="6.80531"></trkpt>
      <trkpt lat="50.22572" lon="6.80531"></trkpt>
      <trkpt lat="50.22572" lon="6.80532"></trkpt>
      <trkpt lat="50.22572" lon="6.80532"></trkpt>
      <trkpt lat="50.22572" lon="6.80533"></trkpt>
      <trkpt lat="50.22572" lon="6.80537"></trkpt>
      <trkpt lat="50.22570" lon="6.80545"></trkpt>
      <trkpt lat="50.22562" lon="6.80559"></trkpt>
      <trkpt lat="50.22554" lon="6.80575"></trkpt>
      <trkpt lat="50.22549" lon="6.80591"></trkpt>
      <trkpt lat="50.22547" lon="6.80610"></trkpt>
      <trkpt lat="50.22546" lon="6.80633"></trkpt>
      <trkpt lat="50.22548" lon="6.80654"></trkpt>
      <trkpt lat="50.22554" lon="6.80674"></trkpt>
      <trkpt lat="50.22560" lon="6.80692"></trkpt>
      <trkpt lat="50.22568" lon="6.80709"></trkpt>
      <trkpt lat="50.22576" lon="6.80726"></trkpt>
      <trkpt lat="50.22584" lon="6.80743"></trkpt>
      <trkpt lat="50.22592" lon="6.80761"></trkpt>
      <trkpt lat="50.22599" lon="6.80778"></trkpt>
      <trkpt lat="50.22607" lon="6.80797"></trkpt>
      <trkpt lat="50.22613" lon="6.80811"></trkpt>
      <trkpt lat="50.22619" lon="6.80819"></trkpt>
      <trkpt lat="50.22624" lon="6.80832"></trkpt>
      <trkpt lat="50.22629" lon="6.80850"></trkpt>
      <trkpt lat="50.22631" lon="6.80870"></trkpt>
      <trkpt lat="50.22633" lon="6.80890"></trkpt>
      <trkpt lat="50.22632" lon="6.80912"></trkpt>
      <trkpt lat="50.22631" lon="6.80932"></trkpt>
      <trkpt lat="50.22629" lon="6.80951"></trkpt>
      <trkpt lat="50.22628" lon="6.80970"></trkpt>
      <trkpt lat="50.22625" lon="6.80987"></trkpt>
      <trkpt lat="50.22622" lon="6.81007"></trkpt>
      <trkpt lat="50.22619" lon="6.81026"></trkpt>
      <trkpt lat="50.22617" lon="6.81045"></trkpt>
      <trkpt lat="50.22615" lon="6.81063"></trkpt>
      <trkpt lat="50.22612" lon="6.81084"></trkpt>
      <trkpt lat="50.22610" lon="6.81106"></trkpt>
      <trkpt lat="50.22607" lon="6.81125"></trkpt>
      <trkpt lat="50.22601" lon="6.81144"></trkpt>
      <trkpt lat="50.22594" lon="6.81161"></trkpt>
      <trkpt lat="50.22591" lon="6.81177"></trkpt>
      <trkpt lat="50.22590" lon="6.81191"></trkpt>
      <trkpt lat="50.22589" lon="6.81210"></trkpt>
      <trkpt lat="50.22587" lon="6.81229"></trkpt>
      <trkpt lat="50.22582" lon="6.81249"></trkpt>
      <trkpt lat="50.22577" lon="6.81269"></trkpt>
      <trkpt lat="50.22573" lon="6.81289"></trkpt>
      <trkpt lat="50.22569" lon="6.81307"></trkpt>
      <trkpt lat="50.22564" lon="6.81326"></trkpt>
      <trkpt lat="50.22558" lon="6.81346"></trkpt>
      <trkpt lat="50.22552" lon="6.81366"></trkpt>
      <trkpt lat="50.22547" lon="6.81385"></trkpt>
      <trkpt lat="50.22541" lon="6.81404"></trkpt>
      <trkpt lat="50.22537" lon="6.81424"></trkpt>
      <trkpt lat="50.22533" lon="6.81444"></trkpt>
      <trkpt lat="50.22531" lon="6.81465"></trkpt>
      <trkpt lat="50.22530" lon="6.81485"></trkpt>
      <trkpt lat="50.22531" lon="6.81506"></trkpt>
      <trkpt lat="50.22531" lon="6.81527"></trkpt>
      <trkpt lat="50.22531" lon="6.81547"></trkpt>
      <trkpt lat="50.22531" lon="6.81567"></trkpt>
      <trkpt lat="50.22532" lon="6.81586"></trkpt>
      <trkpt lat="50.22532" lon="6.81604"></trkpt>
      <trkpt lat="50.22532" lon="6.81626"></trkpt>
      <trkpt lat="50.22532" lon="6.81646"></trkpt>
      <trkpt lat="50.22533" lon="6.81666"></trkpt>
      <trkpt lat="50.22534" lon="6.81687"></trkpt>
      <trkpt lat="50.22535" lon="6.81708"></trkpt>
      <trkpt lat="50.22535" lon="6.81727"></trkpt>
      <trkpt lat="50.22535" lon="6.81746"></trkpt>
      <trkpt lat="50.22535" lon="6.81765"></trkpt>
      <trkpt lat="50.22535" lon="6.81784"></trkpt>
      <trkpt lat="50.22537" lon="6.81805"></trkpt>
      <trkpt lat="50.22538" lon="6.81825"></trkpt>
      <trkpt lat="50.22538" lon="6.81845"></trkpt>
      <trkpt lat="50.22539" lon="6.81866"></trkpt>
      <trkpt lat="50.22539" lon="6.81887"></trkpt>
      <trkpt lat="50.22539" lon="6.81908"></trkpt>
      <trkpt lat="50.22538" lon="6.81929"></trkpt>
      <trkpt lat="50.22537" lon="6.81949"></trkpt>
      <trkpt lat="50.22537" lon="6.81968"></trkpt>
      <trkpt lat="50.22538" lon="6.81990"></trkpt>
      <trkpt lat="50.22538" lon="6.82010"></trkpt>
      <trkpt lat="50.22538" lon="6.82029"></trkpt>
      <trkpt lat="50.22537" lon="6.82049"></trkpt>
      <trkpt lat="50.22534" lon="6.82071"></trkpt>
      <trkpt lat="50.22527" lon="6.82089"></trkpt>
      <trkpt lat="50.22516" lon="6.82104"></trkpt>
      <trkpt lat="50.22505" lon="6.82115"></trkpt>
      <trkpt lat="50.22497" lon="6.82124"></trkpt>
      <trkpt lat="50.22488" lon="6.82132"></trkpt>
      <trkpt lat="50.22480" lon="6.82139"></trkpt>
      <trkpt lat="50.22471" lon="6.82142"></trkpt>
      <trkpt lat="50.22460" lon="6.82145"></trkpt>
      <trkpt lat="50.22447" lon="6.82147"></trkpt>
      <trkpt lat="50.22434" lon="6.82149"></trkpt>
      <trkpt lat="50.22421" lon="6.82151"></trkpt>
      <trkpt lat="50.22408" lon="6.82150"></trkpt>
      <trkpt lat="50.22394" lon="6.82147"></trkpt>
      <trkpt lat="50.22380" lon="6.82141"></trkpt>
      <trkpt lat="50.22368" lon="6.82132"></trkpt>
      <trkpt lat="50.22356" lon="6.82120"></trkpt>
      <trkpt lat="50.22344" lon="6.82108"></trkpt>
      <trkpt lat="50.22332" lon="6.82096"></trkpt>
      <trkpt lat="50.22320" lon="6.82084"></trkpt>
      <trkpt lat="50.22310" lon="6.82071"></trkpt>
      <trkpt lat="50.22301" lon="6.82056"></trkpt>
      <trkpt lat="50.22294" lon="6.82040"></trkpt>
      <trkpt lat="50.22284" lon="6.82023"></trkpt>
      <trkpt lat="50.22273" lon="6.82012"></trkpt>
      <trkpt lat="50.22261" lon="6.82004"></trkpt>
      <trkpt lat="50.22248" lon="6.82000"></trkpt>
      <trkpt lat="50.22235" lon="6.82000"></trkpt>
      <trkpt lat="50.22222" lon="6.81998"></trkpt>
      <trkpt lat="50.22210" lon="6.81991"></trkpt>
      <trkpt lat="50.22199" lon="6.81979"></trkpt>
      <trkpt lat="50.22190" lon="6.81964"></trkpt>
      <trkpt lat="50.22180" lon="6.81951"></trkpt>
      <trkpt lat="50.22169" lon="6.81940"></trkpt>
      <trkpt lat="50.22157" lon="6.81935"></trkpt>
      <trkpt lat="50.22146" lon="6.81943"></trkpt>
      <trkpt lat="50.22143" lon="6.81962"></trkpt>
      <trkpt lat="50.22143" lon="6.81984"></trkpt>
      <trkpt lat="50.22144" lon="6.82004"></trkpt>
      <trkpt lat="50.22145" lon="6.82023"></trkpt>
      <trkpt lat="50.22143" lon="6.82043"></trkpt>
      <trkpt lat="50.22140" lon="6.82065"></trkpt>
      <trkpt lat="50.22134" lon="6.82085"></trkpt>
      <trkpt lat="50.22130" lon="6.82104"></trkpt>
      <trkpt lat="50.22129" lon="6.82124"></trkpt>
      <trkpt lat="50.22130" lon="6.82142"></trkpt>
      <trkpt lat="50.22133" lon="6.82162"></trkpt>
      <trkpt lat="50.22136" lon="6.82182"></trkpt>
      <trkpt lat="50.22139" lon="6.82202"></trkpt>
      <trkpt lat="50.22142" lon="6.82223"></trkpt>
      <trkpt lat="50.22145" lon="6.82244"></trkpt>
      <trkpt lat="50.22150" lon="6.82262"></trkpt>
      <trkpt lat="50.22154" lon="6.82281"></trkpt>
      <trkpt lat="50.22158" lon="6.82300"></trkpt>
      <trkpt lat="50.22160" lon="6.82319"></trkpt>
      <trkpt lat="50.22162" lon="6.82339"></trkpt>
      <trkpt lat="50.22163" lon="6.82360"></trkpt>
      <trkpt lat="50.22164" lon="6.82379"></trkpt>
      <trkpt lat="50.22165" lon="6.82399"></trkpt>
      <trkpt lat="50.22164" lon="6.82419"></trkpt>
      <trkpt lat="50.22162" lon="6.82440"></trkpt>
      <trkpt lat="50.22159" lon="6.82459"></trkpt>
      <trkpt lat="50.22158" lon="6.82480"></trkpt>
      <trkpt lat="50.22157" lon="6.82500"></trkpt>
      <trkpt lat="50.22155" lon="6.82521"></trkpt>
      <trkpt lat="50.22153" lon="6.82543"></trkpt>
      <trkpt lat="50.22150" lon="6.82564"></trkpt>
      <trkpt lat="50.22148" lon="6.82585"></trkpt>
      <trkpt lat="50.22145" lon="6.82605"></trkpt>
      <trkpt lat="50.22140" lon="6.82624"></trkpt>
      <trkpt lat="50.22132" lon="6.82641"></trkpt>
      <trkpt lat="50.22121" lon="6.82653"></trkpt>
      <trkpt lat="50.22110" lon="6.82661"></trkpt>
      <trkpt lat="50.22101" lon="6.82666"></trkpt>
      <trkpt lat="50.22094" lon="6.82667"></trkpt>
      <trkpt lat="50.22087" lon="6.82670"></trkpt>
      <trkpt lat="50.22079" lon="6.82673"></trkpt>
      <trkpt lat="50.22066" lon="6.82678"></trkpt>
      <trkpt lat="50.22054" lon="6.82678"></trkpt>
      <trkpt lat="50.22042" lon="6.82678"></trkpt>
      <trkpt lat="50.22029" lon="6.82679"></trkpt>
      <trkpt lat="50.22019" lon="6.82686"></trkpt>
      <trkpt lat="50.22015" lon="6.82692"></trkpt>
      <trkpt lat="50.22013" lon="6.82698"></trkpt>
      <trkpt lat="50.22008" lon="6.82714"></trkpt>
      <trkpt lat="50.22005" lon="6.82734"></trkpt>
      <trkpt lat="50.22001" lon="6.82753"></trkpt>
      <trkpt lat="50.21999" lon="6.82772"></trkpt>
      <trkpt lat="50.21997" lon="6.82785"></trkpt>
      <trkpt lat="50.21996" lon="6.82802"></trkpt>
      <trkpt lat="50.21993" lon="6.82820"></trkpt>
      <trkpt lat="50.21986" lon="6.82837"></trkpt>
      <trkpt lat="50.21975" lon="6.82851"></trkpt>
      <trkpt lat="50.21962" lon="6.82857"></trkpt>
      <trkpt lat="50.21949" lon="6.82853"></trkpt>
      <trkpt lat="50.21936" lon="6.82845"></trkpt>
      <trkpt lat="50.21924" lon="6.82832"></trkpt>
      <trkpt lat="50.21912" lon="6.82819"></trkpt>
      <trkpt lat="50.21902" lon="6.82809"></trkpt>
      <trkpt lat="50.21889" lon="6.82802"></trkpt>
      <trkpt lat="50.21876" lon="6.82796"></trkpt>
      <trkpt lat="50.21864" lon="6.82786"></trkpt>
      <trkpt lat="50.21856" lon="6.82770"></trkpt>
      <trkpt lat="50.21849" lon="6.82752"></trkpt>
      <trkpt lat="50.21844" lon="6.82735"></trkpt>
      <trkpt lat="50.21837" lon="6.82716"></trkpt>
      <trkpt lat="50.21829" lon="6.82699"></trkpt>
      <trkpt lat="50.21822" lon="6.82682"></trkpt>
      <trkpt lat="50.21813" lon="6.82667"></trkpt>
      <trkpt lat="50.21803" lon="6.82660"></trkpt>
      <trkpt lat="50.21791" lon="6.82663"></trkpt>
      <trkpt lat="50.21780" lon="6.82672"></trkpt>
      <trkpt lat="50.21769" lon="6.82681"></trkpt>
      <trkpt lat="50.21756" lon="6.82687"></trkpt>
      <trkpt lat="50.21743" lon="6.82687"></trkpt>
      <trkpt lat="50.21730" lon="6.82682"></trkpt>
      <trkpt lat="50.21717" lon="6.82674"></trkpt>
      <trkpt lat="50.21704" lon="6.82667"></trkpt>
      <trkpt lat="50.21692" lon="6.82658"></trkpt>
      <trkpt lat="50.21680" lon="6.82649"></trkpt>
      <trkpt lat="50.21668" lon="6.82640"></trkpt>
      <trkpt lat="50.21655" lon="6.82632"></trkpt>
      <trkpt lat="50.21643" lon="6.82624"></trkpt>
      <trkpt lat="50.21629" lon="6.82618"></trkpt>
      <trkpt lat="50.21616" lon="6.82618"></trkpt>
      <trkpt lat="50.21603" lon="6.82623"></trkpt>
      <trkpt lat="50.21590" lon="6.82628"></trkpt>
      <trkpt lat="50.21578" lon="6.82635"></trkpt>
      <trkpt lat="50.21565" lon="6.82643"></trkpt>
      <trkpt lat="50.21553" lon="6.82649"></trkpt>
      <trkpt lat="50.21540" lon="6.82657"></trkpt>
      <trkpt lat="50.21528" lon="6.82665"></trkpt>
      <trkpt lat="50.21516" lon="6.82675"></trkpt>
      <trkpt lat="50.21505" lon="6.82685"></trkpt>
      <trkpt lat="50.21495" lon="6.82697"></trkpt>
      <trkpt lat="50.21485" lon="6.82708"></trkpt>
      <trkpt lat="50.21479" lon="6.82716"></trkpt>
      <trkpt lat="50.21485" lon="6.82722"></trkpt>
      <trkpt lat="50.21488" lon="6.82728"></trkpt>
      <trkpt lat="50.21486" lon="6.82726"></trkpt>
      <trkpt lat="50.21481" lon="6.82718"></trkpt>
      <trkpt lat="50.21476" lon="6.82712"></trkpt>
      <trkpt lat="50.21466" lon="6.82704"></trkpt>
      <trkpt lat="50.21455" lon="6.82696"></trkpt>
      <trkpt lat="50.21444" lon="6.82690"></trkpt>
      <trkpt lat="50.21434" lon="6.82682"></trkpt>
      <trkpt lat="50.21424" lon="6.82675"></trkpt>
      <trkpt lat="50.21413" lon="6.82669"></trkpt>
      <trkpt lat="50.21402" lon="6.82662"></trkpt>
      <trkpt lat="50.21391" lon="6.82654"></trkpt>
      <trkpt lat="50.21379" lon="6.82645"></trkpt>
      <trkpt lat="50.21367" lon="6.82633"></trkpt>
      <trkpt lat="50.21357" lon="6.82617"></trkpt>
      <trkpt lat="50.21350" lon="6.82598"></trkpt>
      <trkpt lat="50.21346" lon="6.82578"></trkpt>
      <trkpt lat="50.21340" lon="6.82560"></trkpt>
      <trkpt lat="50.21329" lon="6.82553"></trkpt>
      <trkpt lat="50.21316" lon="6.82558"></trkpt>
      <trkpt lat="50.21305" lon="6.82567"></trkpt>
      <trkpt lat="50.21291" lon="6.82575"></trkpt>
      <trkpt lat="50.21278" lon="6.82584"></trkpt>
      <trkpt lat="50.21265" lon="6.82593"></trkpt>
      <trkpt lat="50.21253" lon="6.82601"></trkpt>
      <trkpt lat="50.21240" lon="6.82609"></trkpt>
      <trkpt lat="50.21229" lon="6.82618"></trkpt>
      <trkpt lat="50.21218" lon="6.82628"></trkpt>
      <trkpt lat="50.21207" lon="6.82639"></trkpt>
      <trkpt lat="50.21197" lon="6.82652"></trkpt>
      <trkpt lat="50.21186" lon="6.82664"></trkpt>
      <trkpt lat="50.21177" lon="6.82677"></trkpt>
      <trkpt lat="50.21173" lon="6.82695"></trkpt>
      <trkpt lat="50.21173" lon="6.82715"></trkpt>
      <trkpt lat="50.21173" lon="6.82733"></trkpt>
      <trkpt lat="50.21169" lon="6.82751"></trkpt>
      <trkpt lat="50.21158" lon="6.82762"></trkpt>
      <trkpt lat="50.21144" lon="6.82761"></trkpt>
      <trkpt lat="50.21132" lon="6.82752"></trkpt>
      <trkpt lat="50.21126" lon="6.82732"></trkpt>
      <trkpt lat="50.21119" lon="6.82712"></trkpt>
      <trkpt lat="50.21109" lon="6.82698"></trkpt>
      <trkpt lat="50.21097" lon="6.82696"></trkpt>
      <trkpt lat="50.21085" lon="6.82698"></trkpt>
      <trkpt lat="50.21073" lon="6.82700"></trkpt>
      <trkpt lat="50.21059" lon="6.82702"></trkpt>
      <trkpt lat="50.21045" lon="6.82700"></trkpt>
      <trkpt lat="50.21031" lon="6.82696"></trkpt>
      <trkpt lat="50.21018" lon="6.82693"></trkpt>
      <trkpt lat="50.21005" lon="6.82690"></trkpt>
      <trkpt lat="50.20992" lon="6.82688"></trkpt>
      <trkpt lat="50.20978" lon="6.82684"></trkpt>
      <trkpt lat="50.20964" lon="6.82680"></trkpt>
      <trkpt lat="50.20951" lon="6.82676"></trkpt>
      <trkpt lat="50.20937" lon="6.82674"></trkpt>
      <trkpt lat="50.20923" lon="6.82671"></trkpt>
      <trkpt lat="50.20910" lon="6.82667"></trkpt>
      <trkpt lat="50.20897" lon="6.82663"></trkpt>
      <trkpt lat="50.20884" lon="6.82660"></trkpt>
      <trkpt lat="50.20871" lon="6.82656"></trkpt>
      <trkpt lat="50.20857" lon="6.82654"></trkpt>
      <trkpt lat="50.20843" lon="6.82654"></trkpt>
      <trkpt lat="50.20830" lon="6.82654"></trkpt>
      <trkpt lat="50.20816" lon="6.82655"></trkpt>
      <trkpt lat="50.20803" lon="6.82656"></trkpt>
      <trkpt lat="50.20790" lon="6.82657"></trkpt>
      <trkpt lat="50.20777" lon="6.82660"></trkpt>
      <trkpt lat="50.20764" lon="6.82665"></trkpt>
      <trkpt lat="50.20752" lon="6.82669"></trkpt>
      <trkpt lat="50.20740" lon="6.82674"></trkpt>
      <trkpt lat="50.20727" lon="6.82682"></trkpt>
      <trkpt lat="50.20715" lon="6.82691"></trkpt>
      <trkpt lat="50.20702" lon="6.82701"></trkpt>
      <trkpt lat="50.20691" lon="6.82712"></trkpt>
      <trkpt lat="50.20682" lon="6.82723"></trkpt>
      <trkpt lat="50.20674" lon="6.82738"></trkpt>
      <trkpt lat="50.20665" lon="6.82751"></trkpt>
      <trkpt lat="50.20656" lon="6.82759"></trkpt>
      <trkpt lat="50.20644" lon="6.82767"></trkpt>
      <trkpt lat="50.20631" lon="6.82780"></trkpt>
      <trkpt lat="50.20619" lon="6.82792"></trkpt>
      <trkpt lat="50.20608" lon="6.82803"></trkpt>
      <trkpt lat="50.20596" lon="6.82812"></trkpt>
      <trkpt lat="50.20583" lon="6.82818"></trkpt>
      <trkpt lat="50.20570" lon="6.82824"></trkpt>
      <trkpt lat="50.20557" lon="6.82833"></trkpt>
      <trkpt lat="50.20544" lon="6.82842"></trkpt>
      <trkpt lat="50.20532" lon="6.82850"></trkpt>
      <trkpt lat="50.20520" lon="6.82858"></trkpt>
      <trkpt lat="50.20509" lon="6.82865"></trkpt>
      <trkpt lat="50.20497" lon="6.82874"></trkpt>
      <trkpt lat="50.20486" lon="6.82887"></trkpt>
      <trkpt lat="50.20478" lon="6.82894"></trkpt>
      <trkpt lat="50.20468" lon="6.82904"></trkpt>
      <trkpt lat="50.20457" lon="6.82915"></trkpt>
      <trkpt lat="50.20445" lon="6.82927"></trkpt>
      <trkpt lat="50.20433" lon="6.82938"></trkpt>
      <trkpt lat="50.20421" lon="6.82948"></trkpt>
      <trkpt lat="50.20410" lon="6.82959"></trkpt>
      <trkpt lat="50.20401" lon="6.82974"></trkpt>
      <trkpt lat="50.20392" lon="6.82989"></trkpt>
      <trkpt lat="50.20383" lon="6.83001"></trkpt>
      <trkpt lat="50.20374" lon="6.83013"></trkpt>
      <trkpt lat="50.20366" lon="6.83027"></trkpt>
      <trkpt lat="50.20358" lon="6.83041"></trkpt>
      <trkpt lat="50.20351" lon="6.83055"></trkpt>
      <trkpt lat="50.20343" lon="6.83073"></trkpt>
      <trkpt lat="50.20336" lon="6.83093"></trkpt>
      <trkpt lat="50.20329" lon="6.83111"></trkpt>
      <trkpt lat="50.20323" lon="6.83128"></trkpt>
      <trkpt lat="50.20312" lon="6.83120"></trkpt>
      <trkpt lat="50.20300" lon="6.83108"></trkpt>
      <trkpt lat="50.20286" lon="6.83103"></trkpt>
      <trkpt lat="50.20272" lon="6.83100"></trkpt>
      <trkpt lat="50.20258" lon="6.83100"></trkpt>
      <trkpt lat="50.20244" lon="6.83106"></trkpt>
      <trkpt lat="50.20232" lon="6.83117"></trkpt>
      <trkpt lat="50.20221" lon="6.83125"></trkpt>
      <trkpt lat="50.20213" lon="6.83130"></trkpt>
      <trkpt lat="50.20204" lon="6.83126"></trkpt>
      <trkpt lat="50.20198" lon="6.83116"></trkpt>
      <trkpt lat="50.20192" lon="6.83105"></trkpt>
      <trkpt lat="50.20189" lon="6.83092"></trkpt>
      <trkpt lat="50.20190" lon="6.83078"></trkpt>
      <trkpt lat="50.20190" lon="6.83063"></trkpt>
      <trkpt lat="50.20191" lon="6.83049"></trkpt>
      <trkpt lat="50.20192" lon="6.83035"></trkpt>
      <trkpt lat="50.20192" lon="6.83023"></trkpt>
      <trkpt lat="50.20188" lon="6.83014"></trkpt>
      <trkpt lat="50.20180" lon="6.83009"></trkpt>
      <trkpt lat="50.20173" lon="6.83007"></trkpt>
      <trkpt lat="50.20165" lon="6.83006"></trkpt>
      <trkpt lat="50.20157" lon="6.83005"></trkpt>
      <trkpt lat="50.20150" lon="6.83004"></trkpt>
      <trkpt lat="50.20142" lon="6.83002"></trkpt>
      <trkpt lat="50.20134" lon="6.82998"></trkpt>
      <trkpt lat="50.20127" lon="6.82993"></trkpt>
      <trkpt lat="50.20120" lon="6.82988"></trkpt>
      <trkpt lat="50.20112" lon="6.82980"></trkpt>
      <trkpt lat="50.20104" lon="6.82973"></trkpt>
      <trkpt lat="50.20095" lon="6.82967"></trkpt>
      <trkpt lat="50.20088" lon="6.82960"></trkpt>
      <trkpt lat="50.20080" lon="6.82956"></trkpt>
      <trkpt lat="50.20071" lon="6.82951"></trkpt>
      <trkpt lat="50.20063" lon="6.82945"></trkpt>
      <trkpt lat="50.20055" lon="6.82937"></trkpt>
      <trkpt lat="50.20047" lon="6.82932"></trkpt>
      <trkpt lat="50.20037" lon="6.82928"></trkpt>
      <trkpt lat="50.20028" lon="6.82927"></trkpt>
      <trkpt lat="50.20019" lon="6.82925"></trkpt>
      <trkpt lat="50.20009" lon="6.82925"></trkpt>
      <trkpt lat="50.20000" lon="6.82925"></trkpt>
      <trkpt lat="50.19990" lon="6.82926"></trkpt>
      <trkpt lat="50.19982" lon="6.82925"></trkpt>
      <trkpt lat="50.19976" lon="6.82923"></trkpt>
      <trkpt lat="50.19969" lon="6.82915"></trkpt>
      <trkpt lat="50.19960" lon="6.82912"></trkpt>
      <trkpt lat="50.19952" lon="6.82913"></trkpt>
      <trkpt lat="50.19944" lon="6.82913"></trkpt>
      <trkpt lat="50.19935" lon="6.82913"></trkpt>
      <trkpt lat="50.19927" lon="6.82911"></trkpt>
      <trkpt lat="50.19922" lon="6.82900"></trkpt>
      <trkpt lat="50.19918" lon="6.82885"></trkpt>
      <trkpt lat="50.19915" lon="6.82871"></trkpt>
      <trkpt lat="50.19912" lon="6.82857"></trkpt>
      <trkpt lat="50.19911" lon="6.82843"></trkpt>
      <trkpt lat="50.19912" lon="6.82828"></trkpt>
      <trkpt lat="50.19917" lon="6.82818"></trkpt>
      <trkpt lat="50.19919" lon="6.82816"></trkpt>
      <trkpt lat="50.19921" lon="6.82814"></trkpt>
      <trkpt lat="50.19929" lon="6.82803"></trkpt>
      <trkpt lat="50.19936" lon="6.82793"></trkpt>
      <trkpt lat="50.19942" lon="6.82783"></trkpt>
      <trkpt lat="50.19949" lon="6.82773"></trkpt>
      <trkpt lat="50.19954" lon="6.82760"></trkpt>
      <trkpt lat="50.19960" lon="6.82747"></trkpt>
      <trkpt lat="50.19966" lon="6.82736"></trkpt>
      <trkpt lat="50.19967" lon="6.82729"></trkpt>
      <trkpt lat="50.19965" lon="6.82727"></trkpt>
      <trkpt lat="50.19963" lon="6.82722"></trkpt>
      <trkpt lat="50.19956" lon="6.82713"></trkpt>
      <trkpt lat="50.19950" lon="6.82706"></trkpt>
      <trkpt lat="50.19946" lon="6.82698"></trkpt>
      <trkpt lat="50.19942" lon="6.82688"></trkpt>
      <trkpt lat="50.19933" lon="6.82689"></trkpt>
      <trkpt lat="50.19923" lon="6.82699"></trkpt>
      <trkpt lat="50.19911" lon="6.82708"></trkpt>
      <trkpt lat="50.19898" lon="6.82717"></trkpt>
      <trkpt lat="50.19886" lon="6.82726"></trkpt>
      <trkpt lat="50.19873" lon="6.82733"></trkpt>
      <trkpt lat="50.19861" lon="6.82730"></trkpt>
      <trkpt lat="50.19853" lon="6.82713"></trkpt>
      <trkpt lat="50.19847" lon="6.82693"></trkpt>
      <trkpt lat="50.19841" lon="6.82676"></trkpt>
      <trkpt lat="50.19843" lon="6.82659"></trkpt>
      <trkpt lat="50.19852" lon="6.82647"></trkpt>
      <trkpt lat="50.19861" lon="6.82637"></trkpt>
      <trkpt lat="50.19870" lon="6.82623"></trkpt>
      <trkpt lat="50.19876" lon="6.82605"></trkpt>
      <trkpt lat="50.19884" lon="6.82589"></trkpt>
      <trkpt lat="50.19893" lon="6.82573"></trkpt>
      <trkpt lat="50.19902" lon="6.82556"></trkpt>
      <trkpt lat="50.19910" lon="6.82539"></trkpt>
      <trkpt lat="50.19916" lon="6.82522"></trkpt>
      <trkpt lat="50.19924" lon="6.82505"></trkpt>
      <trkpt lat="50.19931" lon="6.82488"></trkpt>
      <trkpt lat="50.19937" lon="6.82469"></trkpt>
      <trkpt lat="50.19941" lon="6.82449"></trkpt>
      <trkpt lat="50.19944" lon="6.82427"></trkpt>
      <trkpt lat="50.19945" lon="6.82406"></trkpt>
      <trkpt lat="50.19945" lon="6.82386"></trkpt>
      <trkpt lat="50.19943" lon="6.82368"></trkpt>
      <trkpt lat="50.19942" lon="6.82355"></trkpt>
      <trkpt lat="50.19940" lon="6.82342"></trkpt>
      <trkpt lat="50.19936" lon="6.82327"></trkpt>
      <trkpt lat="50.19932" lon="6.82315"></trkpt>
      <trkpt lat="50.19928" lon="6.82302"></trkpt>
      <trkpt lat="50.19924" lon="6.82290"></trkpt>
      <trkpt lat="50.19919" lon="6.82279"></trkpt>
      <trkpt lat="50.19913" lon="6.82268"></trkpt>
      <trkpt lat="50.19908" lon="6.82256"></trkpt>
      <trkpt lat="50.19902" lon="6.82244"></trkpt>
      <trkpt lat="50.19896" lon="6.82233"></trkpt>
      <trkpt lat="50.19892" lon="6.82222"></trkpt>
      <trkpt lat="50.19886" lon="6.82211"></trkpt>
      <trkpt lat="50.19880" lon="6.82199"></trkpt>
      <trkpt lat="50.19875" lon="6.82187"></trkpt>
      <trkpt lat="50.19869" lon="6.82174"></trkpt>
      <trkpt lat="50.19865" lon="6.82162"></trkpt>
      <trkpt lat="50.19860" lon="6.82150"></trkpt>
      <trkpt lat="50.19857" lon="6.82138"></trkpt>
      <trkpt lat="50.19853" lon="6.82127"></trkpt>
      <trkpt lat="50.19851" lon="6.82116"></trkpt>
      <trkpt lat="50.19850" lon="6.82114"></trkpt>
      <trkpt lat="50.19850" lon="6.82113"></trkpt>
      <trkpt lat="50.19850" lon="6.82113"></trkpt>
      <trkpt lat="50.19849" lon="6.82112"></trkpt>
      <trkpt lat="50.19849" lon="6.82112"></trkpt>
      <trkpt lat="50.19846" lon="6.82102"></trkpt>
      <trkpt lat="50.19841" lon="6.82085"></trkpt>
      <trkpt lat="50.19837" lon="6.82070"></trkpt>
      <trkpt lat="50.19833" lon="6.82056"></trkpt>
      <trkpt lat="50.19828" lon="6.82043"></trkpt>
      <trkpt lat="50.19823" lon="6.82030"></trkpt>
      <trkpt lat="50.19820" lon="6.82017"></trkpt>
      <trkpt lat="50.19816" lon="6.82005"></trkpt>
      <trkpt lat="50.19811" lon="6.81991"></trkpt>
      <trkpt lat="50.19806" lon="6.81977"></trkpt>
      <trkpt lat="50.19802" lon="6.81964"></trkpt>
      <trkpt lat="50.19797" lon="6.81951"></trkpt>
      <trkpt lat="50.19792" lon="6.81938"></trkpt>
      <trkpt lat="50.19786" lon="6.81926"></trkpt>
      <trkpt lat="50.19783" lon="6.81913"></trkpt>
      <trkpt lat="50.19784" lon="6.81907"></trkpt>
      <trkpt lat="50.19786" lon="6.81905"></trkpt>
      <trkpt lat="50.19787" lon="6.81892"></trkpt>
      <trkpt lat="50.19780" lon="6.81877"></trkpt>
      <trkpt lat="50.19772" lon="6.81860"></trkpt>
      <trkpt lat="50.19772" lon="6.81840"></trkpt>
      <trkpt lat="50.19769" lon="6.81819"></trkpt>
      <trkpt lat="50.19762" lon="6.81800"></trkpt>
      <trkpt lat="50.19759" lon="6.81779"></trkpt>
      <trkpt lat="50.19760" lon="6.81758"></trkpt>
      <trkpt lat="50.19761" lon="6.81736"></trkpt>
      <trkpt lat="50.19761" lon="6.81714"></trkpt>
      <trkpt lat="50.19761" lon="6.81691"></trkpt>
      <trkpt lat="50.19760" lon="6.81668"></trkpt>
      <trkpt lat="50.19759" lon="6.81645"></trkpt>
      <trkpt lat="50.19760" lon="6.81622"></trkpt>
      <trkpt lat="50.19760" lon="6.81600"></trkpt>
      <trkpt lat="50.19759" lon="6.81578"></trkpt>
      <trkpt lat="50.19755" lon="6.81558"></trkpt>
      <trkpt lat="50.19751" lon="6.81537"></trkpt>
      <trkpt lat="50.19748" lon="6.81516"></trkpt>
      <trkpt lat="50.19746" lon="6.81499"></trkpt>
      <trkpt lat="50.19746" lon="6.81492"></trkpt>
      <trkpt lat="50.19746" lon="6.81490"></trkpt>
      <trkpt lat="50.19746" lon="6.81488"></trkpt>
      <trkpt lat="50.19746" lon="6.81485"></trkpt>
      <trkpt lat="50.19746" lon="6.81476"></trkpt>
      <trkpt lat="50.19744" lon="6.81464"></trkpt>
      <trkpt lat="50.19743" lon="6.81452"></trkpt>
      <trkpt lat="50.19742" lon="6.81439"></trkpt>
      <trkpt lat="50.19742" lon="6.81425"></trkpt>
      <trkpt lat="50.19743" lon="6.81412"></trkpt>
      <trkpt lat="50.19745" lon="6.81400"></trkpt>
      <trkpt lat="50.19749" lon="6.81389"></trkpt>
      <trkpt lat="50.19754" lon="6.81381"></trkpt>
      <trkpt lat="50.19756" lon="6.81379"></trkpt>
      <trkpt lat="50.19760" lon="6.81377"></trkpt>
      <trkpt lat="50.19769" lon="6.81375"></trkpt>
      <trkpt lat="50.19778" lon="6.81373"></trkpt>
      <trkpt lat="50.19787" lon="6.81369"></trkpt>
      <trkpt lat="50.19795" lon="6.81369"></trkpt>
      <trkpt lat="50.19803" lon="6.81368"></trkpt>
      <trkpt lat="50.19811" lon="6.81367"></trkpt>
      <trkpt lat="50.19818" lon="6.81362"></trkpt>
      <trkpt lat="50.19824" lon="6.81355"></trkpt>
      <trkpt lat="50.19829" lon="6.81347"></trkpt>
      <trkpt lat="50.19835" lon="6.81339"></trkpt>
      <trkpt lat="50.19841" lon="6.81334"></trkpt>
      <trkpt lat="50.19847" lon="6.81333"></trkpt>
      <trkpt lat="50.19850" lon="6.81333"></trkpt>
      <trkpt lat="50.19858" lon="6.81333"></trkpt>
      <trkpt lat="50.19862" lon="6.81334"></trkpt>
      <trkpt lat="50.19863" lon="6.81338"></trkpt>
      <trkpt lat="50.19863" lon="6.81348"></trkpt>
      <trkpt lat="50.19862" lon="6.81358"></trkpt>
      <trkpt lat="50.19861" lon="6.81370"></trkpt>
      <trkpt lat="50.19862" lon="6.81379"></trkpt>
      <trkpt lat="50.19862" lon="6.81386"></trkpt>
      <trkpt lat="50.19861" lon="6.81397"></trkpt>
      <trkpt lat="50.19863" lon="6.81406"></trkpt>
      <trkpt lat="50.19864" lon="6.81418"></trkpt>
      <trkpt lat="50.19865" lon="6.81427"></trkpt>
      <trkpt lat="50.19866" lon="6.81437"></trkpt>
      <trkpt lat="50.19868" lon="6.81446"></trkpt>
      <trkpt lat="50.19872" lon="6.81447"></trkpt>
      <trkpt lat="50.19875" lon="6.81447"></trkpt>
      <trkpt lat="50.19878" lon="6.81449"></trkpt>
      <trkpt lat="50.19881" lon="6.81456"></trkpt>
      <trkpt lat="50.19885" lon="6.81465"></trkpt>
      <trkpt lat="50.19887" lon="6.81474"></trkpt>
      <trkpt lat="50.19887" lon="6.81485"></trkpt>
      <trkpt lat="50.19890" lon="6.81495"></trkpt>
      <trkpt lat="50.19891" lon="6.81506"></trkpt>
      <trkpt lat="50.19895" lon="6.81514"></trkpt>
      <trkpt lat="50.19898" lon="6.81517"></trkpt>
      <trkpt lat="50.19898" lon="6.81517"></trkpt>
      <trkpt lat="50.19898" lon="6.81516"></trkpt>
      <trkpt lat="50.19898" lon="6.81516"></trkpt>
      <trkpt lat="50.19898" lon="6.81515"></trkpt>
      <trkpt lat="50.19898" lon="6.81514"></trkpt>
      <trkpt lat="50.19899" lon="6.81506"></trkpt>
      <trkpt lat="50.19901" lon="6.81497"></trkpt>
      <trkpt lat="50.19905" lon="6.81489"></trkpt>
      <trkpt lat="50.19909" lon="6.81479"></trkpt>
      <trkpt lat="50.19914" lon="6.81471"></trkpt>
      <trkpt lat="50.19915" lon="6.81469"></trkpt>
      <trkpt lat="50.19917" lon="6.81468"></trkpt>
      <trkpt lat="50.19918" lon="6.81468"></trkpt>
      <trkpt lat="50.19919" lon="6.81468"></trkpt>
      <trkpt lat="50.19920" lon="6.81468"></trkpt>
      <trkpt lat="50.19929" lon="6.81466"></trkpt>
      <trkpt lat="50.19942" lon="6.81463"></trkpt>
      <trkpt lat="50.19952" lon="6.81454"></trkpt>
      <trkpt lat="50.19954" lon="6.81434"></trkpt>
      <trkpt lat="50.19957" lon="6.81413"></trkpt>
      <trkpt lat="50.19963" lon="6.81393"></trkpt>
      <trkpt lat="50.19968" lon="6.81378"></trkpt>
      <trkpt lat="50.19978" lon="6.81366"></trkpt>
      <trkpt lat="50.19985" lon="6.81348"></trkpt>
      <trkpt lat="50.19987" lon="6.81329"></trkpt>
      <trkpt lat="50.19988" lon="6.81319"></trkpt>
      <trkpt lat="50.19988" lon="6.81304"></trkpt>
      <trkpt lat="50.19990" lon="6.81283"></trkpt>
      <trkpt lat="50.19994" lon="6.81264"></trkpt>
      <trkpt lat="50.19998" lon="6.81244"></trkpt>
      <trkpt lat="50.20000" lon="6.81222"></trkpt>
      <trkpt lat="50.20004" lon="6.81200"></trkpt>
      <trkpt lat="50.20007" lon="6.81177"></trkpt>
      <trkpt lat="50.20008" lon="6.81155"></trkpt>
      <trkpt lat="50.20011" lon="6.81135"></trkpt>
      <trkpt lat="50.20014" lon="6.81116"></trkpt>
      <trkpt lat="50.20018" lon="6.81097"></trkpt>
      <trkpt lat="50.20022" lon="6.81076"></trkpt>
      <trkpt lat="50.20025" lon="6.81056"></trkpt>
      <trkpt lat="50.20029" lon="6.81037"></trkpt>
      <trkpt lat="50.20032" lon="6.81021"></trkpt>
      <trkpt lat="50.20034" lon="6.81010"></trkpt>
      <trkpt lat="50.20037" lon="6.80992"></trkpt>
      <trkpt lat="50.20041" lon="6.80972"></trkpt>
      <trkpt lat="50.20046" lon="6.80952"></trkpt>
      <trkpt lat="50.20049" lon="6.80932"></trkpt>
      <trkpt lat="50.20047" lon="6.80912"></trkpt>
      <trkpt lat="50.20041" lon="6.80892"></trkpt>
      <trkpt lat="50.20034" lon="6.80874"></trkpt>
      <trkpt lat="50.20025" lon="6.80858"></trkpt>
      <trkpt lat="50.20015" lon="6.80844"></trkpt>
      <trkpt lat="50.20003" lon="6.80832"></trkpt>
      <trkpt lat="50.19994" lon="6.80825"></trkpt>
      <trkpt lat="50.19987" lon="6.80818"></trkpt>
      <trkpt lat="50.19977" lon="6.80810"></trkpt>
      <trkpt lat="50.19971" lon="6.80805"></trkpt>
      <trkpt lat="50.19965" lon="6.80800"></trkpt>
      <trkpt lat="50.19958" lon="6.80794"></trkpt>
      <trkpt lat="50.19951" lon="6.80784"></trkpt>
      <trkpt lat="50.19947" lon="6.80768"></trkpt>
      <trkpt lat="50.19952" lon="6.80753"></trkpt>
      <trkpt lat="50.19962" lon="6.80742"></trkpt>
      <trkpt lat="50.19968" lon="6.80736"></trkpt>
      <trkpt lat="50.19978" lon="6.80729"></trkpt>
      <trkpt lat="50.19988" lon="6.80716"></trkpt>
      <trkpt lat="50.19996" lon="6.80701"></trkpt>
      <trkpt lat="50.20008" lon="6.80696"></trkpt>
      <trkpt lat="50.20021" lon="6.80699"></trkpt>
      <trkpt lat="50.20033" lon="6.80708"></trkpt>
      <trkpt lat="50.20044" lon="6.80718"></trkpt>
      <trkpt lat="50.20053" lon="6.80732"></trkpt>
      <trkpt lat="50.20061" lon="6.80748"></trkpt>
      <trkpt lat="50.20070" lon="6.80765"></trkpt>
      <trkpt lat="50.20080" lon="6.80780"></trkpt>
      <trkpt lat="50.20091" lon="6.80791"></trkpt>
      <trkpt lat="50.20101" lon="6.80789"></trkpt>
      <trkpt lat="50.20103" lon="6.80778"></trkpt>
      <trkpt lat="50.20100" lon="6.80764"></trkpt>
      <trkpt lat="50.20101" lon="6.80754"></trkpt>
      <trkpt lat="50.20103" lon="6.80744"></trkpt>
      <trkpt lat="50.20104" lon="6.80732"></trkpt>
      <trkpt lat="50.20107" lon="6.80724"></trkpt>
      <trkpt lat="50.20111" lon="6.80720"></trkpt>
      <trkpt lat="50.20119" lon="6.80710"></trkpt>
      <trkpt lat="50.20124" lon="6.80702"></trkpt>
      <trkpt lat="50.20131" lon="6.80685"></trkpt>
      <trkpt lat="50.20136" lon="6.80674"></trkpt>
      <trkpt lat="50.20131" lon="6.80666"></trkpt>
      <trkpt lat="50.20133" lon="6.80653"></trkpt>
      <trkpt lat="50.20138" lon="6.80641"></trkpt>
      <trkpt lat="50.20138" lon="6.80633"></trkpt>
      <trkpt lat="50.20136" lon="6.80632"></trkpt>
      <trkpt lat="50.20138" lon="6.80626"></trkpt>
      <trkpt lat="50.20142" lon="6.80618"></trkpt>
      <trkpt lat="50.20139" lon="6.80614"></trkpt>
      <trkpt lat="50.20133" lon="6.80610"></trkpt>
      <trkpt lat="50.20131" lon="6.80602"></trkpt>
      <trkpt lat="50.20131" lon="6.80594"></trkpt>
      <trkpt lat="50.20126" lon="6.80583"></trkpt>
      <trkpt lat="50.20117" lon="6.80574"></trkpt>
      <trkpt lat="50.20108" lon="6.80564"></trkpt>
      <trkpt lat="50.20099" lon="6.80553"></trkpt>
      <trkpt lat="50.20089" lon="6.80542"></trkpt>
      <trkpt lat="50.20078" lon="6.80531"></trkpt>
      <trkpt lat="50.20067" lon="6.80520"></trkpt>
      <trkpt lat="50.20054" lon="6.80504"></trkpt>
      <trkpt lat="50.20044" lon="6.80490"></trkpt>
      <trkpt lat="50.20035" lon="6.80475"></trkpt>
      <trkpt lat="50.20025" lon="6.80458"></trkpt>
      <trkpt lat="50.20015" lon="6.80440"></trkpt>
      <trkpt lat="50.20004" lon="6.80425"></trkpt>
      <trkpt lat="50.19994" lon="6.80411"></trkpt>
      <trkpt lat="50.19982" lon="6.80398"></trkpt>
      <trkpt lat="50.19974" lon="6.80382"></trkpt>
      <trkpt lat="50.19975" lon="6.80362"></trkpt>
      <trkpt lat="50.19981" lon="6.80343"></trkpt>
      <trkpt lat="50.19989" lon="6.80325"></trkpt>
      <trkpt lat="50.20000" lon="6.80310"></trkpt>
      <trkpt lat="50.20009" lon="6.80297"></trkpt>
      <trkpt lat="50.20016" lon="6.80287"></trkpt>
      <trkpt lat="50.20024" lon="6.80278"></trkpt>
      <trkpt lat="50.20031" lon="6.80269"></trkpt>
      <trkpt lat="50.20039" lon="6.80261"></trkpt>
      <trkpt lat="50.20048" lon="6.80254"></trkpt>
      <trkpt lat="50.20055" lon="6.80248"></trkpt>
      <trkpt lat="50.20057" lon="6.80246"></trkpt>
      <trkpt lat="50.20057" lon="6.80243"></trkpt>
      <trkpt lat="50.20057" lon="6.80240"></trkpt>
      <trkpt lat="50.20058" lon="6.80238"></trkpt>
      <trkpt lat="50.20061" lon="6.80230"></trkpt>
      <trkpt lat="50.20063" lon="6.80215"></trkpt>
      <trkpt lat="50.20062" lon="6.80199"></trkpt>
      <trkpt lat="50.20057" lon="6.80184"></trkpt>
      <trkpt lat="50.20052" lon="6.80171"></trkpt>
      <trkpt lat="50.20050" lon="6.80169"></trkpt>
      <trkpt lat="50.20050" lon="6.80162"></trkpt>
      <trkpt lat="50.20058" lon="6.80147"></trkpt>
      <trkpt lat="50.20068" lon="6.80135"></trkpt>
      <trkpt lat="50.20078" lon="6.80123"></trkpt>
      <trkpt lat="50.20088" lon="6.80110"></trkpt>
      <trkpt lat="50.20097" lon="6.80097"></trkpt>
      <trkpt lat="50.20107" lon="6.80083"></trkpt>
      <trkpt lat="50.20117" lon="6.80069"></trkpt>
      <trkpt lat="50.20126" lon="6.80054"></trkpt>
      <trkpt lat="50.20136" lon="6.80041"></trkpt>
      <trkpt lat="50.20146" lon="6.80027"></trkpt>
      <trkpt lat="50.20155" lon="6.80012"></trkpt>
      <trkpt lat="50.20163" lon="6.79994"></trkpt>
      <trkpt lat="50.20172" lon="6.79978"></trkpt>
      <trkpt lat="50.20181" lon="6.79962"></trkpt>
      <trkpt lat="50.20191" lon="6.79946"></trkpt>
      <trkpt lat="50.20201" lon="6.79930"></trkpt>
      <trkpt lat="50.20209" lon="6.79913"></trkpt>
      <trkpt lat="50.20216" lon="6.79896"></trkpt>
      <trkpt lat="50.20221" lon="6.79877"></trkpt>
      <trkpt lat="50.20223" lon="6.79861"></trkpt>
      <trkpt lat="50.20224" lon="6.79849"></trkpt>
      <trkpt lat="50.20225" lon="6.79837"></trkpt>
      <trkpt lat="50.20226" lon="6.79825"></trkpt>
      <trkpt lat="50.20228" lon="6.79810"></trkpt>
      <trkpt lat="50.20229" lon="6.79795"></trkpt>
      <trkpt lat="50.20229" lon="6.79782"></trkpt>
      <trkpt lat="50.20230" lon="6.79767"></trkpt>
      <trkpt lat="50.20231" lon="6.79754"></trkpt>
      <trkpt lat="50.20232" lon="6.79741"></trkpt>
      <trkpt lat="50.20232" lon="6.79726"></trkpt>
      <trkpt lat="50.20233" lon="6.79711"></trkpt>
      <trkpt lat="50.20232" lon="6.79697"></trkpt>
      <trkpt lat="50.20232" lon="6.79684"></trkpt>
      <trkpt lat="50.20231" lon="6.79670"></trkpt>
      <trkpt lat="50.20230" lon="6.79657"></trkpt>
      <trkpt lat="50.20229" lon="6.79644"></trkpt>
      <trkpt lat="50.20228" lon="6.79640"></trkpt>
      <trkpt lat="50.20228" lon="6.79638"></trkpt>
      <trkpt lat="50.20229" lon="6.79627"></trkpt>
      <trkpt lat="50.20229" lon="6.79614"></trkpt>
      <trkpt lat="50.20232" lon="6.79601"></trkpt>
      <trkpt lat="50.20236" lon="6.79591"></trkpt>
      <trkpt lat="50.20239" lon="6.79580"></trkpt>
      <trkpt lat="50.20243" lon="6.79569"></trkpt>
      <trkpt lat="50.20247" lon="6.79559"></trkpt>
      <trkpt lat="50.20252" lon="6.79549"></trkpt>
      <trkpt lat="50.20254" lon="6.79545"></trkpt>
      <trkpt lat="50.20254" lon="6.79543"></trkpt>
      <trkpt lat="50.20256" lon="6.79534"></trkpt>
      <trkpt lat="50.20256" lon="6.79519"></trkpt>
      <trkpt lat="50.20260" lon="6.79506"></trkpt>
      <trkpt lat="50.20263" lon="6.79494"></trkpt>
      <trkpt lat="50.20264" lon="6.79481"></trkpt>
      <trkpt lat="50.20268" lon="6.79476"></trkpt>
      <trkpt lat="50.20271" lon="6.79474"></trkpt>
      <trkpt lat="50.20269" lon="6.79468"></trkpt>
      <trkpt lat="50.20264" lon="6.79458"></trkpt>
      <trkpt lat="50.20260" lon="6.79448"></trkpt>
      <trkpt lat="50.20257" lon="6.79436"></trkpt>
      <trkpt lat="50.20256" lon="6.79424"></trkpt>
      <trkpt lat="50.20256" lon="6.79411"></trkpt>
      <trkpt lat="50.20256" lon="6.79399"></trkpt>
      <trkpt lat="50.20254" lon="6.79387"></trkpt>
      <trkpt lat="50.20253" lon="6.79375"></trkpt>
      <trkpt lat="50.20253" lon="6.79363"></trkpt>
      <trkpt lat="50.20253" lon="6.79350"></trkpt>
      <trkpt lat="50.20252" lon="6.79338"></trkpt>
      <trkpt lat="50.20250" lon="6.79325"></trkpt>
      <trkpt lat="50.20248" lon="6.79314"></trkpt>
      <trkpt lat="50.20244" lon="6.79303"></trkpt>
      <trkpt lat="50.20239" lon="6.79294"></trkpt>
      <trkpt lat="50.20234" lon="6.79284"></trkpt>
      <trkpt lat="50.20232" lon="6.79275"></trkpt>
      <trkpt lat="50.20232" lon="6.79270"></trkpt>
      <trkpt lat="50.20231" lon="6.79257"></trkpt>
      <trkpt lat="50.20233" lon="6.79244"></trkpt>
      <trkpt lat="50.20239" lon="6.79235"></trkpt>
      <trkpt lat="50.20243" lon="6.79226"></trkpt>
      <trkpt lat="50.20244" lon="6.79226"></trkpt>
      <trkpt lat="50.20247" lon="6.79232"></trkpt>
      <trkpt lat="50.20255" lon="6.79237"></trkpt>
      <trkpt lat="50.20262" lon="6.79244"></trkpt>
      <trkpt lat="50.20271" lon="6.79250"></trkpt>
      <trkpt lat="50.20279" lon="6.79256"></trkpt>
      <trkpt lat="50.20285" lon="6.79265"></trkpt>
      <trkpt lat="50.20288" lon="6.79276"></trkpt>
      <trkpt lat="50.20290" lon="6.79288"></trkpt>
      <trkpt lat="50.20290" lon="6.79300"></trkpt>
      <trkpt lat="50.20294" lon="6.79305"></trkpt>
      <trkpt lat="50.20300" lon="6.79300"></trkpt>
      <trkpt lat="50.20301" lon="6.79293"></trkpt>
      <trkpt lat="50.20301" lon="6.79298"></trkpt>
    </trkseg>
  </trk>
</gpx>