<?xml version="1.0" encoding="UTF-8"?>
<gpx version="1.1" creator="jeffry.running" xmlns="http://www.topografix.com/GPX/1/1">
  <metadata><time>2026-08-31T16:25:30.249Z</time></metadata>
  <trk>
    <trkseg>
      <trkpt lat="51.20343" lon="4.45070"></trkpt>
      <trkpt lat="51.20342" lon="4.45072"></trkpt>
      <trkpt lat="51.20340" lon="4.45075"></trkpt>
      <trkpt lat="51.20337" lon="4.45078"></trkpt>
      <trkpt lat="51.20333" lon="4.45081"></trkpt>
      <trkpt lat="51.20329" lon="4.45083"></trkpt>
      <trkpt lat="51.20325" lon="4.45084"></trkpt>
      <trkpt lat="51.20321" lon="4.45084"></trkpt>
      <trkpt lat="51.20316" lon="4.45084"></trkpt>
      <trkpt lat="51.20312" lon="4.45083"></trkpt>
      <trkpt lat="51.20307" lon="4.45081"></trkpt>
      <trkpt lat="51.20303" lon="4.45078"></trkpt>
      <trkpt lat="51.20298" lon="4.45077"></trkpt>
      <trkpt lat="51.20294" lon="4.45075"></trkpt>
      <trkpt lat="51.20290" lon="4.45073"></trkpt>
      <trkpt lat="51.20286" lon="4.45071"></trkpt>
      <trkpt lat="51.20281" lon="4.45069"></trkpt>
      <trkpt lat="51.20277" lon="4.45067"></trkpt>
      <trkpt lat="51.20272" lon="4.45066"></trkpt>
      <trkpt lat="51.20268" lon="4.45065"></trkpt>
      <trkpt lat="51.20263" lon="4.45063"></trkpt>
      <trkpt lat="51.20258" lon="4.45061"></trkpt>
      <trkpt lat="51.20254" lon="4.45059"></trkpt>
      <trkpt lat="51.20251" lon="4.45056"></trkpt>
      <trkpt lat="51.20247" lon="4.45055"></trkpt>
      <trkpt lat="51.20243" lon="4.45054"></trkpt>
      <trkpt lat="51.20238" lon="4.45055"></trkpt>
      <trkpt lat="51.20234" lon="4.45055"></trkpt>
      <trkpt lat="51.20230" lon="4.45056"></trkpt>
      <trkpt lat="51.20225" lon="4.45057"></trkpt>
      <trkpt lat="51.20221" lon="4.45057"></trkpt>
      <trkpt lat="51.20216" lon="4.45056"></trkpt>
      <trkpt lat="51.20213" lon="4.45056"></trkpt>
      <trkpt lat="51.20209" lon="4.45055"></trkpt>
      <trkpt lat="51.20205" lon="4.45056"></trkpt>
      <trkpt lat="51.20201" lon="4.45056"></trkpt>
      <trkpt lat="51.20197" lon="4.45056"></trkpt>
      <trkpt lat="51.20193" lon="4.45056"></trkpt>
      <trkpt lat="51.20189" lon="4.45057"></trkpt>
      <trkpt lat="51.20185" lon="4.45057"></trkpt>
      <trkpt lat="51.20180" lon="4.45056"></trkpt>
      <trkpt lat="51.20176" lon="4.45056"></trkpt>
      <trkpt lat="51.20172" lon="4.45055"></trkpt>
      <trkpt lat="51.20168" lon="4.45054"></trkpt>
      <trkpt lat="51.20165" lon="4.45054"></trkpt>
      <trkpt lat="51.20161" lon="4.45054"></trkpt>
      <trkpt lat="51.20157" lon="4.45054"></trkpt>
      <trkpt lat="51.20152" lon="4.45053"></trkpt>
      <trkpt lat="51.20148" lon="4.45052"></trkpt>
      <trkpt lat="51.20144" lon="4.45052"></trkpt>
      <trkpt lat="51.20140" lon="4.45052"></trkpt>
      <trkpt lat="51.20136" lon="4.45051"></trkpt>
      <trkpt lat="51.20132" lon="4.45051"></trkpt>
      <trkpt lat="51.20127" lon="4.45050"></trkpt>
      <trkpt lat="51.20122" lon="4.45050"></trkpt>
      <trkpt lat="51.20118" lon="4.45049"></trkpt>
      <trkpt lat="51.20114" lon="4.45048"></trkpt>
      <trkpt lat="51.20111" lon="4.45046"></trkpt>
      <trkpt lat="51.20107" lon="4.45045"></trkpt>
      <trkpt lat="51.20103" lon="4.45044"></trkpt>
      <trkpt lat="51.20099" lon="4.45045"></trkpt>
      <trkpt lat="51.20095" lon="4.45046"></trkpt>
      <trkpt lat="51.20091" lon="4.45048"></trkpt>
      <trkpt lat="51.20087" lon="4.45049"></trkpt>
      <trkpt lat="51.20083" lon="4.45051"></trkpt>
      <trkpt lat="51.20079" lon="4.45053"></trkpt>
      <trkpt lat="51.20076" lon="4.45056"></trkpt>
      <trkpt lat="51.20072" lon="4.45058"></trkpt>
      <trkpt lat="51.20069" lon="4.45061"></trkpt>
      <trkpt lat="51.20065" lon="4.45063"></trkpt>
      <trkpt lat="51.20061" lon="4.45065"></trkpt>
      <trkpt lat="51.20057" lon="4.45067"></trkpt>
      <trkpt lat="51.20054" lon="4.45070"></trkpt>
      <trkpt lat="51.20050" lon="4.45072"></trkpt>
      <trkpt lat="51.20047" lon="4.45074"></trkpt>
      <trkpt lat="51.20043" lon="4.45076"></trkpt>
      <trkpt lat="51.20039" lon="4.45080"></trkpt>
      <trkpt lat="51.20035" lon="4.45082"></trkpt>
      <trkpt lat="51.20031" lon="4.45083"></trkpt>
      <trkpt lat="51.20026" lon="4.45082"></trkpt>
      <trkpt lat="51.20022" lon="4.45081"></trkpt>
      <trkpt lat="51.20018" lon="4.45080"></trkpt>
      <trkpt lat="51.20014" lon="4.45080"></trkpt>
      <trkpt lat="51.20010" lon="4.45079"></trkpt>
      <trkpt lat="51.20006" lon="4.45077"></trkpt>
      <trkpt lat="51.20003" lon="4.45075"></trkpt>
      <trkpt lat="51.19999" lon="4.45076"></trkpt>
      <trkpt lat="51.19995" lon="4.45079"></trkpt>
      <trkpt lat="51.19992" lon="4.45082"></trkpt>
      <trkpt lat="51.19989" lon="4.45086"></trkpt>
      <trkpt lat="51.19986" lon="4.45092"></trkpt>
      <trkpt lat="51.19983" lon="4.45097"></trkpt>
      <trkpt lat="51.19980" lon="4.45101"></trkpt>
      <trkpt lat="51.19978" lon="4.45105"></trkpt>
      <trkpt lat="51.19975" lon="4.45109"></trkpt>
      <trkpt lat="51.19971" lon="4.45113"></trkpt>
      <trkpt lat="51.19968" lon="4.45119"></trkpt>
      <trkpt lat="51.19965" lon="4.45124"></trkpt>
      <trkpt lat="51.19962" lon="4.45131"></trkpt>
      <trkpt lat="51.19960" lon="4.45136"></trkpt>
      <trkpt lat="51.19958" lon="4.45140"></trkpt>
      <trkpt lat="51.19955" lon="4.45144"></trkpt>
      <trkpt lat="51.19952" lon="4.45147"></trkpt>
      <trkpt lat="51.19950" lon="4.45150"></trkpt>
      <trkpt lat="51.19948" lon="4.45154"></trkpt>
      <trkpt lat="51.19945" lon="4.45159"></trkpt>
      <trkpt lat="51.19944" lon="4.45166"></trkpt>
      <trkpt lat="51.19943" lon="4.45172"></trkpt>
      <trkpt lat="51.19942" lon="4.45178"></trkpt>
      <trkpt lat="51.19940" lon="4.45183"></trkpt>
      <trkpt lat="51.19938" lon="4.45187"></trkpt>
      <trkpt lat="51.19936" lon="4.45192"></trkpt>
      <trkpt lat="51.19934" lon="4.45197"></trkpt>
      <trkpt lat="51.19931" lon="4.45202"></trkpt>
      <trkpt lat="51.19929" lon="4.45206"></trkpt>
      <trkpt lat="51.19929" lon="4.45212"></trkpt>
      <trkpt lat="51.19929" lon="4.45219"></trkpt>
      <trkpt lat="51.19929" lon="4.45225"></trkpt>
      <trkpt lat="51.19928" lon="4.45231"></trkpt>
      <trkpt lat="51.19927" lon="4.45238"></trkpt>
      <trkpt lat="51.19926" lon="4.45245"></trkpt>
      <trkpt lat="51.19925" lon="4.45252"></trkpt>
      <trkpt lat="51.19924" lon="4.45258"></trkpt>
      <trkpt lat="51.19923" lon="4.45264"></trkpt>
      <trkpt lat="51.19922" lon="4.45270"></trkpt>
      <trkpt lat="51.19921" lon="4.45277"></trkpt>
      <trkpt lat="51.19920" lon="4.45283"></trkpt>
      <trkpt lat="51.19920" lon="4.45289"></trkpt>
      <trkpt lat="51.19919" lon="4.45296"></trkpt>
      <trkpt lat="51.19917" lon="4.45302"></trkpt>
      <trkpt lat="51.19915" lon="4.45307"></trkpt>
      <trkpt lat="51.19913" lon="4.45313"></trkpt>
      <trkpt lat="51.19911" lon="4.45319"></trkpt>
      <trkpt lat="51.19908" lon="4.45324"></trkpt>
      <trkpt lat="51.19905" lon="4.45330"></trkpt>
      <trkpt lat="51.19903" lon="4.45335"></trkpt>
      <trkpt lat="51.19900" lon="4.45342"></trkpt>
      <trkpt lat="51.19898" lon="4.45349"></trkpt>
      <trkpt lat="51.19897" lon="4.45355"></trkpt>
      <trkpt lat="51.19895" lon="4.45361"></trkpt>
      <trkpt lat="51.19895" lon="4.45368"></trkpt>
      <trkpt lat="51.19895" lon="4.45374"></trkpt>
      <trkpt lat="51.19895" lon="4.45381"></trkpt>
      <trkpt lat="51.19895" lon="4.45388"></trkpt>
      <trkpt lat="51.19895" lon="4.45395"></trkpt>
      <trkpt lat="51.19896" lon="4.45401"></trkpt>
      <trkpt lat="51.19896" lon="4.45407"></trkpt>
      <trkpt lat="51.19897" lon="4.45413"></trkpt>
      <trkpt lat="51.19899" lon="4.45419"></trkpt>
      <trkpt lat="51.19901" lon="4.45425"></trkpt>
      <trkpt lat="51.19904" lon="4.45430"></trkpt>
      <trkpt lat="51.19907" lon="4.45436"></trkpt>
      <trkpt lat="51.19910" lon="4.45441"></trkpt>
      <trkpt lat="51.19913" lon="4.45446"></trkpt>
      <trkpt lat="51.19917" lon="4.45450"></trkpt>
      <trkpt lat="51.19921" lon="4.45454"></trkpt>
      <trkpt lat="51.19924" lon="4.45458"></trkpt>
      <trkpt lat="51.19928" lon="4.45461"></trkpt>
      <trkpt lat="51.19931" lon="4.45463"></trkpt>
      <trkpt lat="51.19935" lon="4.45464"></trkpt>
      <trkpt lat="51.19939" lon="4.45465"></trkpt>
      <trkpt lat="51.19943" lon="4.45465"></trkpt>
      <trkpt lat="51.19948" lon="4.45465"></trkpt>
      <trkpt lat="51.19953" lon="4.45465"></trkpt>
      <trkpt lat="51.19957" lon="4.45465"></trkpt>
      <trkpt lat="51.19961" lon="4.45464"></trkpt>
      <trkpt lat="51.19966" lon="4.45463"></trkpt>
      <trkpt lat="51.19970" lon="4.45461"></trkpt>
      <trkpt lat="51.19974" lon="4.45459"></trkpt>
      <trkpt lat="51.19978" lon="4.45457"></trkpt>
      <trkpt lat="51.19982" lon="4.45455"></trkpt>
      <trkpt lat="51.19986" lon="4.45455"></trkpt>
      <trkpt lat="51.19990" lon="4.45457"></trkpt>
      <trkpt lat="51.19993" lon="4.45460"></trkpt>
      <trkpt lat="51.19996" lon="4.45463"></trkpt>
      <trkpt lat="51.20000" lon="4.45465"></trkpt>
      <trkpt lat="51.20004" lon="4.45467"></trkpt>
      <trkpt lat="51.20008" lon="4.45470"></trkpt>
      <trkpt lat="51.20012" lon="4.45473"></trkpt>
      <trkpt lat="51.20015" lon="4.45477"></trkpt>
      <trkpt lat="51.20019" lon="4.45479"></trkpt>
      <trkpt lat="51.20022" lon="4.45482"></trkpt>
      <trkpt lat="51.20027" lon="4.45484"></trkpt>
      <trkpt lat="51.20031" lon="4.45486"></trkpt>
      <trkpt lat="51.20035" lon="4.45489"></trkpt>
      <trkpt lat="51.20039" lon="4.45492"></trkpt>
      <trkpt lat="51.20043" lon="4.45495"></trkpt>
      <trkpt lat="51.20046" lon="4.45499"></trkpt>
      <trkpt lat="51.20047" lon="4.45504"></trkpt>
      <trkpt lat="51.20045" lon="4.45510"></trkpt>
      <trkpt lat="51.20044" lon="4.45516"></trkpt>
      <trkpt lat="51.20042" lon="4.45523"></trkpt>
      <trkpt lat="51.20040" lon="4.45529"></trkpt>
      <trkpt lat="51.20039" lon="4.45536"></trkpt>
      <trkpt lat="51.20039" lon="4.45543"></trkpt>
      <trkpt lat="51.20041" lon="4.45549"></trkpt>
      <trkpt lat="51.20043" lon="4.45555"></trkpt>
      <trkpt lat="51.20046" lon="4.45561"></trkpt>
      <trkpt lat="51.20048" lon="4.45566"></trkpt>
      <trkpt lat="51.20050" lon="4.45573"></trkpt>
      <trkpt lat="51.20052" lon="4.45580"></trkpt>
      <trkpt lat="51.20052" lon="4.45587"></trkpt>
      <trkpt lat="51.20054" lon="4.45593"></trkpt>
      <trkpt lat="51.20055" lon="4.45599"></trkpt>
      <trkpt lat="51.20055" lon="4.45607"></trkpt>
      <trkpt lat="51.20054" lon="4.45613"></trkpt>
      <trkpt lat="51.20054" lon="4.45620"></trkpt>
      <trkpt lat="51.20053" lon="4.45626"></trkpt>
      <trkpt lat="51.20052" lon="4.45632"></trkpt>
      <trkpt lat="51.20050" lon="4.45638"></trkpt>
      <trkpt lat="51.20049" lon="4.45645"></trkpt>
      <trkpt lat="51.20046" lon="4.45651"></trkpt>
      <trkpt lat="51.20044" lon="4.45657"></trkpt>
      <trkpt lat="51.20042" lon="4.45663"></trkpt>
      <trkpt lat="51.20040" lon="4.45669"></trkpt>
      <trkpt lat="51.20038" lon="4.45675"></trkpt>
      <trkpt lat="51.20036" lon="4.45681"></trkpt>
      <trkpt lat="51.20035" lon="4.45687"></trkpt>
      <trkpt lat="51.20033" lon="4.45692"></trkpt>
      <trkpt lat="51.20031" lon="4.45698"></trkpt>
      <trkpt lat="51.20029" lon="4.45703"></trkpt>
      <trkpt lat="51.20028" lon="4.45709"></trkpt>
      <trkpt lat="51.20026" lon="4.45715"></trkpt>
      <trkpt lat="51.20024" lon="4.45722"></trkpt>
      <trkpt lat="51.20022" lon="4.45728"></trkpt>
      <trkpt lat="51.20021" lon="4.45735"></trkpt>
      <trkpt lat="51.20019" lon="4.45742"></trkpt>
      <trkpt lat="51.20016" lon="4.45747"></trkpt>
      <trkpt lat="51.20013" lon="4.45752"></trkpt>
      <trkpt lat="51.20010" lon="4.45757"></trkpt>
      <trkpt lat="51.20007" lon="4.45761"></trkpt>
      <trkpt lat="51.20004" lon="4.45764"></trkpt>
      <trkpt lat="51.20001" lon="4.45769"></trkpt>
      <trkpt lat="51.19999" lon="4.45772"></trkpt>
      <trkpt lat="51.19997" lon="4.45778"></trkpt>
      <trkpt lat="51.19996" lon="4.45785"></trkpt>
      <trkpt lat="51.19996" lon="4.45791"></trkpt>
      <trkpt lat="51.19996" lon="4.45798"></trkpt>
      <trkpt lat="51.19997" lon="4.45805"></trkpt>
      <trkpt lat="51.19997" lon="4.45812"></trkpt>
      <trkpt lat="51.19998" lon="4.45818"></trkpt>
      <trkpt lat="51.19998" lon="4.45824"></trkpt>
      <trkpt lat="51.19999" lon="4.45830"></trkpt>
      <trkpt lat="51.19999" lon="4.45837"></trkpt>
      <trkpt lat="51.20000" lon="4.45843"></trkpt>
      <trkpt lat="51.20000" lon="4.45849"></trkpt>
      <trkpt lat="51.20001" lon="4.45855"></trkpt>
      <trkpt lat="51.20002" lon="4.45861"></trkpt>
      <trkpt lat="51.20003" lon="4.45867"></trkpt>
      <trkpt lat="51.20003" lon="4.45873"></trkpt>
      <trkpt lat="51.20004" lon="4.45880"></trkpt>
      <trkpt lat="51.20005" lon="4.45886"></trkpt>
      <trkpt lat="51.20005" lon="4.45893"></trkpt>
      <trkpt lat="51.20006" lon="4.45899"></trkpt>
      <trkpt lat="51.20007" lon="4.45905"></trkpt>
      <trkpt lat="51.20008" lon="4.45912"></trkpt>
      <trkpt lat="51.20008" lon="4.45918"></trkpt>
      <trkpt lat="51.20009" lon="4.45925"></trkpt>
      <trkpt lat="51.20011" lon="4.45931"></trkpt>
      <trkpt lat="51.20012" lon="4.45937"></trkpt>
      <trkpt lat="51.20013" lon="4.45943"></trkpt>
      <trkpt lat="51.20014" lon="4.45950"></trkpt>
      <trkpt lat="51.20014" lon="4.45955"></trkpt>
      <trkpt lat="51.20015" lon="4.45960"></trkpt>
      <trkpt lat="51.20015" lon="4.45963"></trkpt>
      <trkpt lat="51.20016" lon="4.45965"></trkpt>
      <trkpt lat="51.20016" lon="4.45967"></trkpt>
      <trkpt lat="51.20015" lon="4.45968"></trkpt>
      <trkpt lat="51.20015" lon="4.45969"></trkpt>
      <trkpt lat="51.20015" lon="4.45970"></trkpt>
      <trkpt lat="51.20014" lon="4.45972"></trkpt>
      <trkpt lat="51.20014" lon="4.45972"></trkpt>
      <trkpt lat="51.20014" lon="4.45972"></trkpt>
      <trkpt lat="51.20013" lon="4.45972"></trkpt>
      <trkpt lat="51.20013" lon="4.45972"></trkpt>
      <trkpt lat="51.20013" lon="4.45972"></trkpt>
      <trkpt lat="51.20013" lon="4.45972"></trkpt>
      <trkpt lat="51.20013" lon="4.45972"></trkpt>
      <trkpt lat="51.20013" lon="4.45972"></trkpt>
      <trkpt lat="51.20013" lon="4.45973"></trkpt>
      <trkpt lat="51.20013" lon="4.45973"></trkpt>
      <trkpt lat="51.20013" lon="4.45973"></trkpt>
      <trkpt lat="51.20013" lon="4.45973"></trkpt>
      <trkpt lat="51.20013" lon="4.45973"></trkpt>
      <trkpt lat="51.20013" lon="4.45973"></trkpt>
      <trkpt lat="51.20013" lon="4.45973"></trkpt>
      <trkpt lat="51.20013" lon="4.45973"></trkpt>
      <trkpt lat="51.20013" lon="4.45973"></trkpt>
      <trkpt lat="51.20013" lon="4.45973"></trkpt>
      <trkpt lat="51.20012" lon="4.45973"></trkpt>
      <trkpt lat="51.20012" lon="4.45973"></trkpt>
      <trkpt lat="51.20012" lon="4.45974"></trkpt>
      <trkpt lat="51.20012" lon="4.45974"></trkpt>
      <trkpt lat="51.20012" lon="4.45974"></trkpt>
      <trkpt lat="51.20012" lon="4.45975"></trkpt>
      <trkpt lat="51.20009" lon="4.45981"></trkpt>
      <trkpt lat="51.20007" lon="4.45990"></trkpt>
      <trkpt lat="51.20005" lon="4.45999"></trkpt>
      <trkpt lat="51.20004" lon="4.46007"></trkpt>
      <trkpt lat="51.20004" lon="4.46015"></trkpt>
      <trkpt lat="51.20005" lon="4.46022"></trkpt>
      <trkpt lat="51.20007" lon="4.46029"></trkpt>
      <trkpt lat="51.20008" lon="4.46035"></trkpt>
      <trkpt lat="51.20009" lon="4.46042"></trkpt>
      <trkpt lat="51.20010" lon="4.46049"></trkpt>
      <trkpt lat="51.20010" lon="4.46056"></trkpt>
      <trkpt lat="51.20012" lon="4.46062"></trkpt>
      <trkpt lat="51.20012" lon="4.46069"></trkpt>
      <trkpt lat="51.20013" lon="4.46076"></trkpt>
      <trkpt lat="51.20013" lon="4.46083"></trkpt>
      <trkpt lat="51.20014" lon="4.46090"></trkpt>
      <trkpt lat="51.20015" lon="4.46097"></trkpt>
      <trkpt lat="51.20016" lon="4.46104"></trkpt>
      <trkpt lat="51.20017" lon="4.46111"></trkpt>
      <trkpt lat="51.20018" lon="4.46118"></trkpt>
      <trkpt lat="51.20018" lon="4.46125"></trkpt>
      <trkpt lat="51.20018" lon="4.46132"></trkpt>
      <trkpt lat="51.20019" lon="4.46138"></trkpt>
      <trkpt lat="51.20019" lon="4.46145"></trkpt>
      <trkpt lat="51.20020" lon="4.46152"></trkpt>
      <trkpt lat="51.20021" lon="4.46159"></trkpt>
      <trkpt lat="51.20021" lon="4.46165"></trkpt>
      <trkpt lat="51.20022" lon="4.46172"></trkpt>
      <trkpt lat="51.20022" lon="4.46179"></trkpt>
      <trkpt lat="51.20023" lon="4.46185"></trkpt>
      <trkpt lat="51.20024" lon="4.46192"></trkpt>
      <trkpt lat="51.20025" lon="4.46198"></trkpt>
      <trkpt lat="51.20025" lon="4.46204"></trkpt>
      <trkpt lat="51.20025" lon="4.46210"></trkpt>
      <trkpt lat="51.20025" lon="4.46213"></trkpt>
      <trkpt lat="51.20022" lon="4.46214"></trkpt>
      <trkpt lat="51.20018" lon="4.46215"></trkpt>
      <trkpt lat="51.20014" lon="4.46215"></trkpt>
      <trkpt lat="51.20010" lon="4.46215"></trkpt>
      <trkpt lat="51.20006" lon="4.46216"></trkpt>
      <trkpt lat="51.20001" lon="4.46216"></trkpt>
      <trkpt lat="51.19997" lon="4.46216"></trkpt>
      <trkpt lat="51.19993" lon="4.46217"></trkpt>
      <trkpt lat="51.19989" lon="4.46218"></trkpt>
      <trkpt lat="51.19985" lon="4.46218"></trkpt>
      <trkpt lat="51.19980" lon="4.46218"></trkpt>
      <trkpt lat="51.19976" lon="4.46219"></trkpt>
      <trkpt lat="51.19972" lon="4.46220"></trkpt>
      <trkpt lat="51.19968" lon="4.46220"></trkpt>
      <trkpt lat="51.19964" lon="4.46220"></trkpt>
      <trkpt lat="51.19960" lon="4.46220"></trkpt>
      <trkpt lat="51.19956" lon="4.46221"></trkpt>
      <trkpt lat="51.19952" lon="4.46221"></trkpt>
      <trkpt lat="51.19948" lon="4.46222"></trkpt>
      <trkpt lat="51.19945" lon="4.46223"></trkpt>
      <trkpt lat="51.19941" lon="4.46223"></trkpt>
      <trkpt lat="51.19937" lon="4.46223"></trkpt>
      <trkpt lat="51.19933" lon="4.46224"></trkpt>
      <trkpt lat="51.19929" lon="4.46227"></trkpt>
      <trkpt lat="51.19926" lon="4.46230"></trkpt>
      <trkpt lat="51.19924" lon="4.46236"></trkpt>
      <trkpt lat="51.19923" lon="4.46242"></trkpt>
      <trkpt lat="51.19922" lon="4.46250"></trkpt>
      <trkpt lat="51.19921" lon="4.46256"></trkpt>
      <trkpt lat="51.19919" lon="4.46261"></trkpt>
      <trkpt lat="51.19916" lon="4.46263"></trkpt>
      <trkpt lat="51.19912" lon="4.46266"></trkpt>
      <trkpt lat="51.19908" lon="4.46267"></trkpt>
      <trkpt lat="51.19905" lon="4.46268"></trkpt>
      <trkpt lat="51.19901" lon="4.46269"></trkpt>
      <trkpt lat="51.19898" lon="4.46269"></trkpt>
      <trkpt lat="51.19894" lon="4.46270"></trkpt>
      <trkpt lat="51.19890" lon="4.46271"></trkpt>
      <trkpt lat="51.19886" lon="4.46272"></trkpt>
      <trkpt lat="51.19882" lon="4.46273"></trkpt>
      <trkpt lat="51.19878" lon="4.46277"></trkpt>
      <trkpt lat="51.19874" lon="4.46280"></trkpt>
      <trkpt lat="51.19872" lon="4.46284"></trkpt>
      <trkpt lat="51.19870" lon="4.46290"></trkpt>
      <trkpt lat="51.19868" lon="4.46297"></trkpt>
      <trkpt lat="51.19867" lon="4.46303"></trkpt>
      <trkpt lat="51.19866" lon="4.46307"></trkpt>
      <trkpt lat="51.19866" lon="4.46311"></trkpt>
      <trkpt lat="51.19865" lon="4.46317"></trkpt>
      <trkpt lat="51.19864" lon="4.46323"></trkpt>
      <trkpt lat="51.19861" lon="4.46327"></trkpt>
      <trkpt lat="51.19857" lon="4.46330"></trkpt>
      <trkpt lat="51.19853" lon="4.46333"></trkpt>
      <trkpt lat="51.19849" lon="4.46336"></trkpt>
      <trkpt lat="51.19845" lon="4.46338"></trkpt>
      <trkpt lat="51.19841" lon="4.46339"></trkpt>
      <trkpt lat="51.19837" lon="4.46340"></trkpt>
      <trkpt lat="51.19833" lon="4.46343"></trkpt>
      <trkpt lat="51.19829" lon="4.46345"></trkpt>
      <trkpt lat="51.19825" lon="4.46347"></trkpt>
      <trkpt lat="51.19821" lon="4.46349"></trkpt>
      <trkpt lat="51.19818" lon="4.46351"></trkpt>
      <trkpt lat="51.19815" lon="4.46353"></trkpt>
      <trkpt lat="51.19811" lon="4.46357"></trkpt>
      <trkpt lat="51.19808" lon="4.46359"></trkpt>
      <trkpt lat="51.19804" lon="4.46360"></trkpt>
      <trkpt lat="51.19800" lon="4.46362"></trkpt>
      <trkpt lat="51.19796" lon="4.46363"></trkpt>
      <trkpt lat="51.19793" lon="4.46364"></trkpt>
      <trkpt lat="51.19789" lon="4.46365"></trkpt>
      <trkpt lat="51.19785" lon="4.46365"></trkpt>
      <trkpt lat="51.19780" lon="4.46363"></trkpt>
      <trkpt lat="51.19776" lon="4.46361"></trkpt>
      <trkpt lat="51.19771" lon="4.46361"></trkpt>
      <trkpt lat="51.19768" lon="4.46360"></trkpt>
      <trkpt lat="51.19764" lon="4.46360"></trkpt>
      <trkpt lat="51.19759" lon="4.46359"></trkpt>
      <trkpt lat="51.19755" lon="4.46358"></trkpt>
      <trkpt lat="51.19751" lon="4.46357"></trkpt>
      <trkpt lat="51.19748" lon="4.46355"></trkpt>
      <trkpt lat="51.19744" lon="4.46354"></trkpt>
      <trkpt lat="51.19740" lon="4.46353"></trkpt>
      <trkpt lat="51.19736" lon="4.46352"></trkpt>
      <trkpt lat="51.19732" lon="4.46349"></trkpt>
      <trkpt lat="51.19729" lon="4.46345"></trkpt>
      <trkpt lat="51.19726" lon="4.46341"></trkpt>
      <trkpt lat="51.19722" lon="4.46338"></trkpt>
      <trkpt lat="51.19719" lon="4.46334"></trkpt>
      <trkpt lat="51.19715" lon="4.46331"></trkpt>
      <trkpt lat="51.19712" lon="4.46328"></trkpt>
      <trkpt lat="51.19708" lon="4.46325"></trkpt>
      <trkpt lat="51.19704" lon="4.46325"></trkpt>
      <trkpt lat="51.19699" lon="4.46324"></trkpt>
      <trkpt lat="51.19695" lon="4.46324"></trkpt>
      <trkpt lat="51.19692" lon="4.46324"></trkpt>
      <trkpt lat="51.19689" lon="4.46323"></trkpt>
      <trkpt lat="51.19687" lon="4.46321"></trkpt>
      <trkpt lat="51.19685" lon="4.46316"></trkpt>
      <trkpt lat="51.19683" lon="4.46311"></trkpt>
      <trkpt lat="51.19682" lon="4.46305"></trkpt>
      <trkpt lat="51.19681" lon="4.46299"></trkpt>
      <trkpt lat="51.19681" lon="4.46293"></trkpt>
      <trkpt lat="51.19681" lon="4.46286"></trkpt>
      <trkpt lat="51.19680" lon="4.46280"></trkpt>
      <trkpt lat="51.19680" lon="4.46274"></trkpt>
      <trkpt lat="51.19681" lon="4.46268"></trkpt>
      <trkpt lat="51.19684" lon="4.46264"></trkpt>
      <trkpt lat="51.19688" lon="4.46260"></trkpt>
      <trkpt lat="51.19692" lon="4.46257"></trkpt>
      <trkpt lat="51.19696" lon="4.46255"></trkpt>
      <trkpt lat="51.19700" lon="4.46253"></trkpt>
      <trkpt lat="51.19704" lon="4.46251"></trkpt>
      <trkpt lat="51.19708" lon="4.46248"></trkpt>
      <trkpt lat="51.19712" lon="4.46245"></trkpt>
      <trkpt lat="51.19715" lon="4.46241"></trkpt>
      <trkpt lat="51.19718" lon="4.46238"></trkpt>
      <trkpt lat="51.19722" lon="4.46235"></trkpt>
      <trkpt lat="51.19726" lon="4.46231"></trkpt>
      <trkpt lat="51.19729" lon="4.46228"></trkpt>
      <trkpt lat="51.19732" lon="4.46224"></trkpt>
      <trkpt lat="51.19735" lon="4.46220"></trkpt>
      <trkpt lat="51.19738" lon="4.46215"></trkpt>
      <trkpt lat="51.19741" lon="4.46209"></trkpt>
      <trkpt lat="51.19744" lon="4.46204"></trkpt>
      <trkpt lat="51.19746" lon="4.46199"></trkpt>
      <trkpt lat="51.19748" lon="4.46193"></trkpt>
      <trkpt lat="51.19751" lon="4.46188"></trkpt>
      <trkpt lat="51.19755" lon="4.46184"></trkpt>
      <trkpt lat="51.19758" lon="4.46181"></trkpt>
      <trkpt lat="51.19762" lon="4.46179"></trkpt>
      <trkpt lat="51.19766" lon="4.46178"></trkpt>
      <trkpt lat="51.19770" lon="4.46176"></trkpt>
      <trkpt lat="51.19774" lon="4.46174"></trkpt>
      <trkpt lat="51.19778" lon="4.46171"></trkpt>
      <trkpt lat="51.19781" lon="4.46170"></trkpt>
      <trkpt lat="51.19785" lon="4.46168"></trkpt>
      <trkpt lat="51.19789" lon="4.46167"></trkpt>
      <trkpt lat="51.19793" lon="4.46164"></trkpt>
      <trkpt lat="51.19797" lon="4.46163"></trkpt>
      <trkpt lat="51.19800" lon="4.46161"></trkpt>
      <trkpt lat="51.19805" lon="4.46160"></trkpt>
      <trkpt lat="51.19809" lon="4.46159"></trkpt>
      <trkpt lat="51.19813" lon="4.46157"></trkpt>
      <trkpt lat="51.19817" lon="4.46155"></trkpt>
      <trkpt lat="51.19821" lon="4.46153"></trkpt>
      <trkpt lat="51.19825" lon="4.46151"></trkpt>
      <trkpt lat="51.19829" lon="4.46150"></trkpt>
      <trkpt lat="51.19833" lon="4.46147"></trkpt>
      <trkpt lat="51.19836" lon="4.46143"></trkpt>
      <trkpt lat="51.19840" lon="4.46139"></trkpt>
      <trkpt lat="51.19843" lon="4.46134"></trkpt>
      <trkpt lat="51.19846" lon="4.46131"></trkpt>
      <trkpt lat="51.19849" lon="4.46127"></trkpt>
      <trkpt lat="51.19852" lon="4.46122"></trkpt>
      <trkpt lat="51.19856" lon="4.46119"></trkpt>
      <trkpt lat="51.19860" lon="4.46116"></trkpt>
      <trkpt lat="51.19864" lon="4.46114"></trkpt>
      <trkpt lat="51.19868" lon="4.46112"></trkpt>
      <trkpt lat="51.19872" lon="4.46110"></trkpt>
      <trkpt lat="51.19874" lon="4.46105"></trkpt>
      <trkpt lat="51.19874" lon="4.46099"></trkpt>
      <trkpt lat="51.19873" lon="4.46092"></trkpt>
      <trkpt lat="51.19873" lon="4.46086"></trkpt>
      <trkpt lat="51.19874" lon="4.46080"></trkpt>
      <trkpt lat="51.19875" lon="4.46075"></trkpt>
      <trkpt lat="51.19877" lon="4.46070"></trkpt>
      <trkpt lat="51.19878" lon="4.46064"></trkpt>
      <trkpt lat="51.19879" lon="4.46057"></trkpt>
      <trkpt lat="51.19878" lon="4.46050"></trkpt>
      <trkpt lat="51.19879" lon="4.46044"></trkpt>
      <trkpt lat="51.19879" lon="4.46037"></trkpt>
      <trkpt lat="51.19881" lon="4.46030"></trkpt>
      <trkpt lat="51.19883" lon="4.46024"></trkpt>
      <trkpt lat="51.19884" lon="4.46019"></trkpt>
      <trkpt lat="51.19886" lon="4.46013"></trkpt>
      <trkpt lat="51.19888" lon="4.46008"></trkpt>
      <trkpt lat="51.19887" lon="4.46005"></trkpt>
      <trkpt lat="51.19884" lon="4.46001"></trkpt>
      <trkpt lat="51.19882" lon="4.45996"></trkpt>
      <trkpt lat="51.19880" lon="4.45990"></trkpt>
      <trkpt lat="51.19880" lon="4.45984"></trkpt>
      <trkpt lat="51.19879" lon="4.45977"></trkpt>
      <trkpt lat="51.19879" lon="4.45971"></trkpt>
      <trkpt lat="51.19879" lon="4.45965"></trkpt>
      <trkpt lat="51.19879" lon="4.45958"></trkpt>
      <trkpt lat="51.19880" lon="4.45952"></trkpt>
      <trkpt lat="51.19880" lon="4.45945"></trkpt>
      <trkpt lat="51.19880" lon="4.45938"></trkpt>
      <trkpt lat="51.19880" lon="4.45932"></trkpt>
      <trkpt lat="51.19879" lon="4.45926"></trkpt>
      <trkpt lat="51.19878" lon="4.45920"></trkpt>
      <trkpt lat="51.19878" lon="4.45914"></trkpt>
      <trkpt lat="51.19878" lon="4.45907"></trkpt>
      <trkpt lat="51.19878" lon="4.45901"></trkpt>
      <trkpt lat="51.19878" lon="4.45895"></trkpt>
      <trkpt lat="51.19878" lon="4.45889"></trkpt>
      <trkpt lat="51.19878" lon="4.45882"></trkpt>
      <trkpt lat="51.19879" lon="4.45876"></trkpt>
      <trkpt lat="51.19879" lon="4.45869"></trkpt>
      <trkpt lat="51.19879" lon="4.45863"></trkpt>
      <trkpt lat="51.19878" lon="4.45857"></trkpt>
      <trkpt lat="51.19878" lon="4.45850"></trkpt>
      <trkpt lat="51.19877" lon="4.45843"></trkpt>
      <trkpt lat="51.19878" lon="4.45836"></trkpt>
      <trkpt lat="51.19878" lon="4.45829"></trkpt>
      <trkpt lat="51.19878" lon="4.45822"></trkpt>
      <trkpt lat="51.19878" lon="4.45815"></trkpt>
      <trkpt lat="51.19878" lon="4.45809"></trkpt>
      <trkpt lat="51.19878" lon="4.45802"></trkpt>
      <trkpt lat="51.19878" lon="4.45796"></trkpt>
      <trkpt lat="51.19878" lon="4.45790"></trkpt>
      <trkpt lat="51.19879" lon="4.45784"></trkpt>
      <trkpt lat="51.19879" lon="4.45779"></trkpt>
      <trkpt lat="51.19880" lon="4.45774"></trkpt>
      <trkpt lat="51.19881" lon="4.45772"></trkpt>
      <trkpt lat="51.19882" lon="4.45771"></trkpt>
      <trkpt lat="51.19886" lon="4.45774"></trkpt>
      <trkpt lat="51.19890" lon="4.45775"></trkpt>
      <trkpt lat="51.19895" lon="4.45775"></trkpt>
      <trkpt lat="51.19899" lon="4.45775"></trkpt>
      <trkpt lat="51.19902" lon="4.45776"></trkpt>
      <trkpt lat="51.19906" lon="4.45777"></trkpt>
      <trkpt lat="51.19910" lon="4.45778"></trkpt>
      <trkpt lat="51.19913" lon="4.45780"></trkpt>
      <trkpt lat="51.19917" lon="4.45782"></trkpt>
      <trkpt lat="51.19920" lon="4.45785"></trkpt>
      <trkpt lat="51.19924" lon="4.45786"></trkpt>
      <trkpt lat="51.19927" lon="4.45787"></trkpt>
      <trkpt lat="51.19932" lon="4.45788"></trkpt>
      <trkpt lat="51.19936" lon="4.45789"></trkpt>
      <trkpt lat="51.19940" lon="4.45789"></trkpt>
      <trkpt lat="51.19945" lon="4.45789"></trkpt>
      <trkpt lat="51.19950" lon="4.45790"></trkpt>
      <trkpt lat="51.19954" lon="4.45790"></trkpt>
      <trkpt lat="51.19958" lon="4.45791"></trkpt>
      <trkpt lat="51.19962" lon="4.45791"></trkpt>
      <trkpt lat="51.19966" lon="4.45791"></trkpt>
      <trkpt lat="51.19970" lon="4.45791"></trkpt>
      <trkpt lat="51.19974" lon="4.45789"></trkpt>
      <trkpt lat="51.19978" lon="4.45787"></trkpt>
      <trkpt lat="51.19983" lon="4.45785"></trkpt>
      <trkpt lat="51.19987" lon="4.45784"></trkpt>
      <trkpt lat="51.19991" lon="4.45781"></trkpt>
      <trkpt lat="51.19995" lon="4.45778"></trkpt>
      <trkpt lat="51.19998" lon="4.45775"></trkpt>
      <trkpt lat="51.20002" lon="4.45769"></trkpt>
      <trkpt lat="51.20006" lon="4.45764"></trkpt>
      <trkpt lat="51.20009" lon="4.45759"></trkpt>
      <trkpt lat="51.20012" lon="4.45755"></trkpt>
      <trkpt lat="51.20016" lon="4.45751"></trkpt>
      <trkpt lat="51.20019" lon="4.45749"></trkpt>
      <trkpt lat="51.20023" lon="4.45749"></trkpt>
      <trkpt lat="51.20027" lon="4.45751"></trkpt>
      <trkpt lat="51.20031" lon="4.45753"></trkpt>
      <trkpt lat="51.20035" lon="4.45755"></trkpt>
      <trkpt lat="51.20040" lon="4.45756"></trkpt>
      <trkpt lat="51.20044" lon="4.45755"></trkpt>
      <trkpt lat="51.20049" lon="4.45751"></trkpt>
      <trkpt lat="51.20052" lon="4.45746"></trkpt>
      <trkpt lat="51.20055" lon="4.45741"></trkpt>
      <trkpt lat="51.20057" lon="4.45736"></trkpt>
      <trkpt lat="51.20060" lon="4.45731"></trkpt>
      <trkpt lat="51.20062" lon="4.45726"></trkpt>
      <trkpt lat="51.20065" lon="4.45720"></trkpt>
      <trkpt lat="51.20068" lon="4.45714"></trkpt>
      <trkpt lat="51.20071" lon="4.45709"></trkpt>
      <trkpt lat="51.20074" lon="4.45705"></trkpt>
      <trkpt lat="51.20077" lon="4.45701"></trkpt>
      <trkpt lat="51.20080" lon="4.45697"></trkpt>
      <trkpt lat="51.20083" lon="4.45692"></trkpt>
      <trkpt lat="51.20086" lon="4.45687"></trkpt>
      <trkpt lat="51.20090" lon="4.45682"></trkpt>
      <trkpt lat="51.20093" lon="4.45677"></trkpt>
      <trkpt lat="51.20096" lon="4.45674"></trkpt>
      <trkpt lat="51.20100" lon="4.45671"></trkpt>
      <trkpt lat="51.20104" lon="4.45668"></trkpt>
      <trkpt lat="51.20106" lon="4.45664"></trkpt>
      <trkpt lat="51.20108" lon="4.45660"></trkpt>
      <trkpt lat="51.20110" lon="4.45654"></trkpt>
      <trkpt lat="51.20112" lon="4.45648"></trkpt>
      <trkpt lat="51.20112" lon="4.45641"></trkpt>
      <trkpt lat="51.20112" lon="4.45633"></trkpt>
      <trkpt lat="51.20112" lon="4.45627"></trkpt>
      <trkpt lat="51.20111" lon="4.45619"></trkpt>
      <trkpt lat="51.20110" lon="4.45614"></trkpt>
      <trkpt lat="51.20109" lon="4.45608"></trkpt>
      <trkpt lat="51.20109" lon="4.45603"></trkpt>
      <trkpt lat="51.20108" lon="4.45597"></trkpt>
      <trkpt lat="51.20107" lon="4.45590"></trkpt>
      <trkpt lat="51.20107" lon="4.45584"></trkpt>
      <trkpt lat="51.20106" lon="4.45577"></trkpt>
      <trkpt lat="51.20106" lon="4.45571"></trkpt>
      <trkpt lat="51.20106" lon="4.45563"></trkpt>
      <trkpt lat="51.20108" lon="4.45557"></trkpt>
      <trkpt lat="51.20109" lon="4.45551"></trkpt>
      <trkpt lat="51.20111" lon="4.45545"></trkpt>
      <trkpt lat="51.20113" lon="4.45539"></trkpt>
      <trkpt lat="51.20115" lon="4.45532"></trkpt>
      <trkpt lat="51.20116" lon="4.45526"></trkpt>
      <trkpt lat="51.20118" lon="4.45519"></trkpt>
      <trkpt lat="51.20120" lon="4.45513"></trkpt>
      <trkpt lat="51.20121" lon="4.45505"></trkpt>
      <trkpt lat="51.20123" lon="4.45498"></trkpt>
      <trkpt lat="51.20125" lon="4.45492"></trkpt>
      <trkpt lat="51.20127" lon="4.45485"></trkpt>
      <trkpt lat="51.20128" lon="4.45478"></trkpt>
      <trkpt lat="51.20130" lon="4.45472"></trkpt>
      <trkpt lat="51.20130" lon="4.45465"></trkpt>
      <trkpt lat="51.20132" lon="4.45458"></trkpt>
      <trkpt lat="51.20133" lon="4.45452"></trkpt>
      <trkpt lat="51.20135" lon="4.45445"></trkpt>
      <trkpt lat="51.20137" lon="4.45439"></trkpt>
      <trkpt lat="51.20138" lon="4.45433"></trkpt>
      <trkpt lat="51.20139" lon="4.45427"></trkpt>
      <trkpt lat="51.20140" lon="4.45420"></trkpt>
      <trkpt lat="51.20140" lon="4.45414"></trkpt>
      <trkpt lat="51.20140" lon="4.45407"></trkpt>
      <trkpt lat="51.20139" lon="4.45401"></trkpt>
      <trkpt lat="51.20139" lon="4.45394"></trkpt>
      <trkpt lat="51.20140" lon="4.45388"></trkpt>
      <trkpt lat="51.20140" lon="4.45381"></trkpt>
      <trkpt lat="51.20142" lon="4.45375"></trkpt>
      <trkpt lat="51.20143" lon="4.45369"></trkpt>
      <trkpt lat="51.20144" lon="4.45363"></trkpt>
      <trkpt lat="51.20145" lon="4.45357"></trkpt>
      <trkpt lat="51.20146" lon="4.45350"></trkpt>
      <trkpt lat="51.20147" lon="4.45344"></trkpt>
      <trkpt lat="51.20147" lon="4.45338"></trkpt>
      <trkpt lat="51.20148" lon="4.45332"></trkpt>
      <trkpt lat="51.20150" lon="4.45325"></trkpt>
      <trkpt lat="51.20153" lon="4.45319"></trkpt>
      <trkpt lat="51.20155" lon="4.45314"></trkpt>
      <trkpt lat="51.20157" lon="4.45308"></trkpt>
      <trkpt lat="51.20159" lon="4.45301"></trkpt>
      <trkpt lat="51.20160" lon="4.45296"></trkpt>
      <trkpt lat="51.20162" lon="4.45290"></trkpt>
      <trkpt lat="51.20165" lon="4.45283"></trkpt>
      <trkpt lat="51.20167" lon="4.45277"></trkpt>
      <trkpt lat="51.20171" lon="4.45272"></trkpt>
      <trkpt lat="51.20174" lon="4.45268"></trkpt>
      <trkpt lat="51.20178" lon="4.45265"></trkpt>
      <trkpt lat="51.20181" lon="4.45261"></trkpt>
      <trkpt lat="51.20184" lon="4.45256"></trkpt>
      <trkpt lat="51.20186" lon="4.45250"></trkpt>
      <trkpt lat="51.20188" lon="4.45243"></trkpt>
      <trkpt lat="51.20189" lon="4.45236"></trkpt>
      <trkpt lat="51.20191" lon="4.45230"></trkpt>
      <trkpt lat="51.20192" lon="4.45224"></trkpt>
      <trkpt lat="51.20194" lon="4.45218"></trkpt>
      <trkpt lat="51.20195" lon="4.45212"></trkpt>
      <trkpt lat="51.20196" lon="4.45206"></trkpt>
      <trkpt lat="51.20198" lon="4.45201"></trkpt>
      <trkpt lat="51.20199" lon="4.45194"></trkpt>
      <trkpt lat="51.20200" lon="4.45188"></trkpt>
      <trkpt lat="51.20202" lon="4.45181"></trkpt>
      <trkpt lat="51.20203" lon="4.45175"></trkpt>
      <trkpt lat="51.20205" lon="4.45169"></trkpt>
      <trkpt lat="51.20208" lon="4.45165"></trkpt>
      <trkpt lat="51.20212" lon="4.45163"></trkpt>
      <trkpt lat="51.20216" lon="4.45163"></trkpt>
      <trkpt lat="51.20220" lon="4.45163"></trkpt>
      <trkpt lat="51.20224" lon="4.45164"></trkpt>
      <trkpt lat="51.20229" lon="4.45164"></trkpt>
      <trkpt lat="51.20233" lon="4.45164"></trkpt>
      <trkpt lat="51.20237" lon="4.45165"></trkpt>
      <trkpt lat="51.20241" lon="4.45165"></trkpt>
      <trkpt lat="51.20245" lon="4.45165"></trkpt>
      <trkpt lat="51.20249" lon="4.45165"></trkpt>
      <trkpt lat="51.20253" lon="4.45166"></trkpt>
      <trkpt lat="51.20257" lon="4.45167"></trkpt>
      <trkpt lat="51.20261" lon="4.45169"></trkpt>
      <trkpt lat="51.20265" lon="4.45171"></trkpt>
      <trkpt lat="51.20269" lon="4.45172"></trkpt>
      <trkpt lat="51.20273" lon="4.45173"></trkpt>
      <trkpt lat="51.20277" lon="4.45174"></trkpt>
      <trkpt lat="51.20280" lon="4.45176"></trkpt>
      <trkpt lat="51.20284" lon="4.45177"></trkpt>
      <trkpt lat="51.20288" lon="4.45179"></trkpt>
      <trkpt lat="51.20292" lon="4.45180"></trkpt>
      <trkpt lat="51.20296" lon="4.45181"></trkpt>
      <trkpt lat="51.20300" lon="4.45183"></trkpt>
      <trkpt lat="51.20305" lon="4.45185"></trkpt>
      <trkpt lat="51.20308" lon="4.45186"></trkpt>
      <trkpt lat="51.20312" lon="4.45187"></trkpt>
      <trkpt lat="51.20316" lon="4.45189"></trkpt>
      <trkpt lat="51.20319" lon="4.45190"></trkpt>
      <trkpt lat="51.20323" lon="4.45188"></trkpt>
      <trkpt lat="51.20326" lon="4.45184"></trkpt>
      <trkpt lat="51.20329" lon="4.45178"></trkpt>
      <trkpt lat="51.20330" lon="4.45173"></trkpt>
      <trkpt lat="51.20332" lon="4.45167"></trkpt>
      <trkpt lat="51.20333" lon="4.45162"></trkpt>
      <trkpt lat="51.20334" lon="4.45156"></trkpt>
      <trkpt lat="51.20333" lon="4.45149"></trkpt>
      <trkpt lat="51.20332" lon="4.45144"></trkpt>
      <trkpt lat="51.20330" lon="4.45138"></trkpt>
      <trkpt lat="51.20328" lon="4.45133"></trkpt>
      <trkpt lat="51.20327" lon="4.45127"></trkpt>
      <trkpt lat="51.20325" lon="4.45120"></trkpt>
      <trkpt lat="51.20323" lon="4.45115"></trkpt>
      <trkpt lat="51.20321" lon="4.45108"></trkpt>
      <trkpt lat="51.20320" lon="4.45102"></trkpt>
      <trkpt lat="51.20318" lon="4.45097"></trkpt>
      <trkpt lat="51.20315" lon="4.45091"></trkpt>
      <trkpt lat="51.20312" lon="4.45086"></trkpt>
      <trkpt lat="51.20309" lon="4.45082"></trkpt>
      <trkpt lat="51.20305" lon="4.45079"></trkpt>
      <trkpt lat="51.20301" lon="4.45077"></trkpt>
      <trkpt lat="51.20297" lon="4.45075"></trkpt>
      <trkpt lat="51.20292" lon="4.45073"></trkpt>
      <trkpt lat="51.20288" lon="4.45070"></trkpt>
      <trkpt lat="51.20285" lon="4.45068"></trkpt>
      <trkpt lat="51.20281" lon="4.45066"></trkpt>
      <trkpt lat="51.20277" lon="4.45065"></trkpt>
      <trkpt lat="51.20273" lon="4.45064"></trkpt>
      <trkpt lat="51.20268" lon="4.45063"></trkpt>
      <trkpt lat="51.20264" lon="4.45063"></trkpt>
      <trkpt lat="51.20260" lon="4.45062"></trkpt>
      <trkpt lat="51.20256" lon="4.45061"></trkpt>
      <trkpt lat="51.20251" lon="4.45061"></trkpt>
      <trkpt lat="51.20247" lon="4.45060"></trkpt>
      <trkpt lat="51.20243" lon="4.45059"></trkpt>
      <trkpt lat="51.20239" lon="4.45059"></trkpt>
      <trkpt lat="51.20234" lon="4.45058"></trkpt>
      <trkpt lat="51.20231" lon="4.45058"></trkpt>
      <trkpt lat="51.20227" lon="4.45058"></trkpt>
      <trkpt lat="51.20223" lon="4.45058"></trkpt>
      <trkpt lat="51.20219" lon="4.45058"></trkpt>
      <trkpt lat="51.20215" lon="4.45057"></trkpt>
      <trkpt lat="51.20211" lon="4.45056"></trkpt>
      <trkpt lat="51.20207" lon="4.45056"></trkpt>
      <trkpt lat="51.20203" lon="4.45055"></trkpt>
      <trkpt lat="51.20199" lon="4.45055"></trkpt>
      <trkpt lat="51.20195" lon="4.45055"></trkpt>
      <trkpt lat="51.20191" lon="4.45055"></trkpt>
      <trkpt lat="51.20187" lon="4.45055"></trkpt>
      <trkpt lat="51.20183" lon="4.45055"></trkpt>
      <trkpt lat="51.20178" lon="4.45055"></trkpt>
      <trkpt lat="51.20174" lon="4.45055"></trkpt>
      <trkpt lat="51.20169" lon="4.45055"></trkpt>
      <trkpt lat="51.20165" lon="4.45054"></trkpt>
      <trkpt lat="51.20162" lon="4.45052"></trkpt>
      <trkpt lat="51.20158" lon="4.45052"></trkpt>
      <trkpt lat="51.20154" lon="4.45052"></trkpt>
      <trkpt lat="51.20150" lon="4.45051"></trkpt>
      <trkpt lat="51.20146" lon="4.45050"></trkpt>
      <trkpt lat="51.20142" lon="4.45049"></trkpt>
      <trkpt lat="51.20138" lon="4.45048"></trkpt>
      <trkpt lat="51.20134" lon="4.45047"></trkpt>
      <trkpt lat="51.20130" lon="4.45045"></trkpt>
      <trkpt lat="51.20126" lon="4.45044"></trkpt>
      <trkpt lat="51.20121" lon="4.45043"></trkpt>
      <trkpt lat="51.20117" lon="4.45042"></trkpt>
      <trkpt lat="51.20113" lon="4.45043"></trkpt>
      <trkpt lat="51.20109" lon="4.45043"></trkpt>
      <trkpt lat="51.20104" lon="4.45044"></trkpt>
      <trkpt lat="51.20100" lon="4.45046"></trkpt>
      <trkpt lat="51.20095" lon="4.45047"></trkpt>
      <trkpt lat="51.20090" lon="4.45048"></trkpt>
      <trkpt lat="51.20086" lon="4.45050"></trkpt>
      <trkpt lat="51.20082" lon="4.45053"></trkpt>
      <trkpt lat="51.20078" lon="4.45055"></trkpt>
      <trkpt lat="51.20075" lon="4.45056"></trkpt>
      <trkpt lat="51.20071" lon="4.45058"></trkpt>
      <trkpt lat="51.20067" lon="4.45060"></trkpt>
      <trkpt lat="51.20063" lon="4.45064"></trkpt>
      <trkpt lat="51.20059" lon="4.45067"></trkpt>
      <trkpt lat="51.20055" lon="4.45070"></trkpt>
      <trkpt lat="51.20052" lon="4.45071"></trkpt>
      <trkpt lat="51.20048" lon="4.45073"></trkpt>
      <trkpt lat="51.20045" lon="4.45076"></trkpt>
      <trkpt lat="51.20042" lon="4.45078"></trkpt>
      <trkpt lat="51.20039" lon="4.45081"></trkpt>
      <trkpt lat="51.20036" lon="4.45084"></trkpt>
      <trkpt lat="51.20033" lon="4.45086"></trkpt>
      <trkpt lat="51.20029" lon="4.45089"></trkpt>
      <trkpt lat="51.20026" lon="4.45092"></trkpt>
      <trkpt lat="51.20022" lon="4.45094"></trkpt>
      <trkpt lat="51.20018" lon="4.45098"></trkpt>
      <trkpt lat="51.20014" lon="4.45101"></trkpt>
      <trkpt lat="51.20010" lon="4.45104"></trkpt>
      <trkpt lat="51.20006" lon="4.45106"></trkpt>
      <trkpt lat="51.20003" lon="4.45110"></trkpt>
      <trkpt lat="51.19999" lon="4.45114"></trkpt>
      <trkpt lat="51.19995" lon="4.45118"></trkpt>
      <trkpt lat="51.19992" lon="4.45121"></trkpt>
      <trkpt lat="51.19988" lon="4.45125"></trkpt>
      <trkpt lat="51.19985" lon="4.45130"></trkpt>
      <trkpt lat="51.19981" lon="4.45133"></trkpt>
      <trkpt lat="51.19978" lon="4.45138"></trkpt>
      <trkpt lat="51.19975" lon="4.45142"></trkpt>
      <trkpt lat="51.19971" lon="4.45147"></trkpt>
      <trkpt lat="51.19968" lon="4.45151"></trkpt>
      <trkpt lat="51.19965" lon="4.45155"></trkpt>
      <trkpt lat="51.19962" lon="4.45159"></trkpt>
      <trkpt lat="51.19959" lon="4.45164"></trkpt>
      <trkpt lat="51.19957" lon="4.45169"></trkpt>
      <trkpt lat="51.19954" lon="4.45174"></trkpt>
      <trkpt lat="51.19951" lon="4.45179"></trkpt>
      <trkpt lat="51.19949" lon="4.45184"></trkpt>
      <trkpt lat="51.19946" lon="4.45189"></trkpt>
      <trkpt lat="51.19943" lon="4.45195"></trkpt>
      <trkpt lat="51.19941" lon="4.45200"></trkpt>
      <trkpt lat="51.19939" lon="4.45206"></trkpt>
      <trkpt lat="51.19936" lon="4.45212"></trkpt>
      <trkpt lat="51.19934" lon="4.45218"></trkpt>
      <trkpt lat="51.19932" lon="4.45224"></trkpt>
      <trkpt lat="51.19930" lon="4.45230"></trkpt>
      <trkpt lat="51.19928" lon="4.45236"></trkpt>
      <trkpt lat="51.19927" lon="4.45242"></trkpt>
      <trkpt lat="51.19925" lon="4.45248"></trkpt>
      <trkpt lat="51.19924" lon="4.45254"></trkpt>
      <trkpt lat="51.19923" lon="4.45261"></trkpt>
      <trkpt lat="51.19922" lon="4.45267"></trkpt>
      <trkpt lat="51.19921" lon="4.45273"></trkpt>
      <trkpt lat="51.19921" lon="4.45280"></trkpt>
      <trkpt lat="51.19921" lon="4.45285"></trkpt>
      <trkpt lat="51.19920" lon="4.45291"></trkpt>
      <trkpt lat="51.19918" lon="4.45297"></trkpt>
      <trkpt lat="51.19917" lon="4.45302"></trkpt>
      <trkpt lat="51.19915" lon="4.45307"></trkpt>
      <trkpt lat="51.19913" lon="4.45312"></trkpt>
      <trkpt lat="51.19910" lon="4.45317"></trkpt>
      <trkpt lat="51.19908" lon="4.45322"></trkpt>
      <trkpt lat="51.19906" lon="4.45327"></trkpt>
      <trkpt lat="51.19905" lon="4.45333"></trkpt>
      <trkpt lat="51.19903" lon="4.45339"></trkpt>
      <trkpt lat="51.19902" lon="4.45346"></trkpt>
      <trkpt lat="51.19901" lon="4.45353"></trkpt>
      <trkpt lat="51.19900" lon="4.45360"></trkpt>
      <trkpt lat="51.19899" lon="4.45367"></trkpt>
      <trkpt lat="51.19899" lon="4.45374"></trkpt>
      <trkpt lat="51.19898" lon="4.45383"></trkpt>
      <trkpt lat="51.19899" lon="4.45391"></trkpt>
      <trkpt lat="51.19899" lon="4.45398"></trkpt>
      <trkpt lat="51.19900" lon="4.45405"></trkpt>
      <trkpt lat="51.19902" lon="4.45412"></trkpt>
      <trkpt lat="51.19903" lon="4.45418"></trkpt>
      <trkpt lat="51.19906" lon="4.45423"></trkpt>
      <trkpt lat="51.19909" lon="4.45429"></trkpt>
      <trkpt lat="51.19911" lon="4.45434"></trkpt>
      <trkpt lat="51.19914" lon="4.45439"></trkpt>
      <trkpt lat="51.19917" lon="4.45444"></trkpt>
      <trkpt lat="51.19921" lon="4.45448"></trkpt>
      <trkpt lat="51.19924" lon="4.45452"></trkpt>
      <trkpt lat="51.19929" lon="4.45455"></trkpt>
      <trkpt lat="51.19932" lon="4.45457"></trkpt>
      <trkpt lat="51.19936" lon="4.45459"></trkpt>
      <trkpt lat="51.19940" lon="4.45460"></trkpt>
      <trkpt lat="51.19945" lon="4.45462"></trkpt>
      <trkpt lat="51.19950" lon="4.45462"></trkpt>
      <trkpt lat="51.19954" lon="4.45462"></trkpt>
      <trkpt lat="51.19959" lon="4.45463"></trkpt>
      <trkpt lat="51.19963" lon="4.45462"></trkpt>
      <trkpt lat="51.19967" lon="4.45462"></trkpt>
      <trkpt lat="51.19971" lon="4.45460"></trkpt>
      <trkpt lat="51.19976" lon="4.45457"></trkpt>
      <trkpt lat="51.19979" lon="4.45455"></trkpt>
      <trkpt lat="51.19982" lon="4.45453"></trkpt>
      <trkpt lat="51.19984" lon="4.45449"></trkpt>
      <trkpt lat="51.19987" lon="4.45444"></trkpt>
      <trkpt lat="51.19989" lon="4.45437"></trkpt>
      <trkpt lat="51.19991" lon="4.45431"></trkpt>
      <trkpt lat="51.19993" lon="4.45425"></trkpt>
      <trkpt lat="51.19995" lon="4.45420"></trkpt>
      <trkpt lat="51.19997" lon="4.45414"></trkpt>
      <trkpt lat="51.19998" lon="4.45408"></trkpt>
      <trkpt lat="51.20000" lon="4.45403"></trkpt>
      <trkpt lat="51.20001" lon="4.45398"></trkpt>
      <trkpt lat="51.20003" lon="4.45392"></trkpt>
      <trkpt lat="51.20005" lon="4.45387"></trkpt>
      <trkpt lat="51.20008" lon="4.45381"></trkpt>
      <trkpt lat="51.20010" lon="4.45374"></trkpt>
      <trkpt lat="51.20012" lon="4.45368"></trkpt>
      <trkpt lat="51.20014" lon="4.45362"></trkpt>
      <trkpt lat="51.20016" lon="4.45356"></trkpt>
      <trkpt lat="51.20019" lon="4.45350"></trkpt>
      <trkpt lat="51.20021" lon="4.45344"></trkpt>
      <trkpt lat="51.20023" lon="4.45337"></trkpt>
      <trkpt lat="51.20025" lon="4.45331"></trkpt>
      <trkpt lat="51.20026" lon="4.45324"></trkpt>
      <trkpt lat="51.20028" lon="4.45317"></trkpt>
      <trkpt lat="51.20029" lon="4.45310"></trkpt>
      <trkpt lat="51.20031" lon="4.45302"></trkpt>
      <trkpt lat="51.20032" lon="4.45295"></trkpt>
      <trkpt lat="51.20033" lon="4.45288"></trkpt>
      <trkpt lat="51.20034" lon="4.45281"></trkpt>
      <trkpt lat="51.20036" lon="4.45275"></trkpt>
      <trkpt lat="51.20038" lon="4.45269"></trkpt>
      <trkpt lat="51.20039" lon="4.45263"></trkpt>
      <trkpt lat="51.20039" lon="4.45257"></trkpt>
      <trkpt lat="51.20041" lon="4.45251"></trkpt>
      <trkpt lat="51.20043" lon="4.45245"></trkpt>
      <trkpt lat="51.20044" lon="4.45238"></trkpt>
      <trkpt lat="51.20046" lon="4.45232"></trkpt>
      <trkpt lat="51.20048" lon="4.45226"></trkpt>
      <trkpt lat="51.20050" lon="4.45220"></trkpt>
      <trkpt lat="51.20053" lon="4.45214"></trkpt>
      <trkpt lat="51.20054" lon="4.45208"></trkpt>
      <trkpt lat="51.20057" lon="4.45203"></trkpt>
      <trkpt lat="51.20059" lon="4.45197"></trkpt>
      <trkpt lat="51.20061" lon="4.45191"></trkpt>
      <trkpt lat="51.20063" lon="4.45186"></trkpt>
      <trkpt lat="51.20065" lon="4.45180"></trkpt>
      <trkpt lat="51.20068" lon="4.45174"></trkpt>
      <trkpt lat="51.20070" lon="4.45169"></trkpt>
      <trkpt lat="51.20073" lon="4.45164"></trkpt>
      <trkpt lat="51.20075" lon="4.45159"></trkpt>
      <trkpt lat="51.20078" lon="4.45154"></trkpt>
      <trkpt lat="51.20081" lon="4.45149"></trkpt>
      <trkpt lat="51.20084" lon="4.45146"></trkpt>
      <trkpt lat="51.20088" lon="4.45144"></trkpt>
      <trkpt lat="51.20091" lon="4.45144"></trkpt>
      <trkpt lat="51.20095" lon="4.45146"></trkpt>
      <trkpt lat="51.20099" lon="4.45148"></trkpt>
      <trkpt lat="51.20104" lon="4.45150"></trkpt>
      <trkpt lat="51.20108" lon="4.45152"></trkpt>
      <trkpt lat="51.20113" lon="4.45154"></trkpt>
      <trkpt lat="51.20118" lon="4.45157"></trkpt>
      <trkpt lat="51.20120" lon="4.45162"></trkpt>
      <trkpt lat="51.20121" lon="4.45169"></trkpt>
      <trkpt lat="51.20121" lon="4.45176"></trkpt>
      <trkpt lat="51.20120" lon="4.45182"></trkpt>
      <trkpt lat="51.20119" lon="4.45189"></trkpt>
      <trkpt lat="51.20119" lon="4.45195"></trkpt>
      <trkpt lat="51.20118" lon="4.45202"></trkpt>
      <trkpt lat="51.20116" lon="4.45208"></trkpt>
      <trkpt lat="51.20115" lon="4.45214"></trkpt>
      <trkpt lat="51.20113" lon="4.45221"></trkpt>
      <trkpt lat="51.20111" lon="4.45227"></trkpt>
      <trkpt lat="51.20109" lon="4.45233"></trkpt>
      <trkpt lat="51.20108" lon="4.45240"></trkpt>
      <trkpt lat="51.20108" lon="4.45247"></trkpt>
      <trkpt lat="51.20110" lon="4.45253"></trkpt>
      <trkpt lat="51.20113" lon="4.45258"></trkpt>
      <trkpt lat="51.20116" lon="4.45263"></trkpt>
      <trkpt lat="51.20117" lon="4.45269"></trkpt>
      <trkpt lat="51.20115" lon="4.45274"></trkpt>
      <trkpt lat="51.20113" lon="4.45280"></trkpt>
      <trkpt lat="51.20111" lon="4.45285"></trkpt>
      <trkpt lat="51.20109" lon="4.45291"></trkpt>
      <trkpt lat="51.20107" lon="4.45296"></trkpt>
      <trkpt lat="51.20105" lon="4.45303"></trkpt>
      <trkpt lat="51.20102" lon="4.45309"></trkpt>
      <trkpt lat="51.20100" lon="4.45317"></trkpt>
      <trkpt lat="51.20098" lon="4.45323"></trkpt>
      <trkpt lat="51.20096" lon="4.45329"></trkpt>
      <trkpt lat="51.20094" lon="4.45336"></trkpt>
      <trkpt lat="51.20093" lon="4.45343"></trkpt>
      <trkpt lat="51.20090" lon="4.45349"></trkpt>
      <trkpt lat="51.20087" lon="4.45352"></trkpt>
      <trkpt lat="51.20084" lon="4.45355"></trkpt>
      <trkpt lat="51.20080" lon="4.45359"></trkpt>
      <trkpt lat="51.20078" lon="4.45365"></trkpt>
      <trkpt lat="51.20077" lon="4.45373"></trkpt>
      <trkpt lat="51.20077" lon="4.45380"></trkpt>
      <trkpt lat="51.20077" lon="4.45387"></trkpt>
      <trkpt lat="51.20077" lon="4.45395"></trkpt>
      <trkpt lat="51.20076" lon="4.45401"></trkpt>
      <trkpt lat="51.20075" lon="4.45407"></trkpt>
      <trkpt lat="51.20073" lon="4.45413"></trkpt>
      <trkpt lat="51.20071" lon="4.45419"></trkpt>
      <trkpt lat="51.20069" lon="4.45425"></trkpt>
      <trkpt lat="51.20068" lon="4.45431"></trkpt>
      <trkpt lat="51.20066" lon="4.45438"></trkpt>
      <trkpt lat="51.20064" lon="4.45443"></trkpt>
      <trkpt lat="51.20062" lon="4.45448"></trkpt>
      <trkpt lat="51.20060" lon="4.45454"></trkpt>
      <trkpt lat="51.20058" lon="4.45461"></trkpt>
      <trkpt lat="51.20056" lon="4.45467"></trkpt>
      <trkpt lat="51.20055" lon="4.45473"></trkpt>
      <trkpt lat="51.20053" lon="4.45479"></trkpt>
      <trkpt lat="51.20052" lon="4.45484"></trkpt>
      <trkpt lat="51.20050" lon="4.45490"></trkpt>
      <trkpt lat="51.20047" lon="4.45496"></trkpt>
      <trkpt lat="51.20045" lon="4.45503"></trkpt>
      <trkpt lat="51.20042" lon="4.45509"></trkpt>
      <trkpt lat="51.20041" lon="4.45517"></trkpt>
      <trkpt lat="51.20039" lon="4.45524"></trkpt>
      <trkpt lat="51.20038" lon="4.45531"></trkpt>
      <trkpt lat="51.20036" lon="4.45538"></trkpt>
      <trkpt lat="51.20037" lon="4.45544"></trkpt>
      <trkpt lat="51.20038" lon="4.45550"></trkpt>
      <trkpt lat="51.20041" lon="4.45556"></trkpt>
      <trkpt lat="51.20044" lon="4.45563"></trkpt>
      <trkpt lat="51.20046" lon="4.45570"></trkpt>
      <trkpt lat="51.20049" lon="4.45576"></trkpt>
      <trkpt lat="51.20050" lon="4.45582"></trkpt>
      <trkpt lat="51.20051" lon="4.45588"></trkpt>
      <trkpt lat="51.20052" lon="4.45595"></trkpt>
      <trkpt lat="51.20052" lon="4.45602"></trkpt>
      <trkpt lat="51.20052" lon="4.45608"></trkpt>
      <trkpt lat="51.20052" lon="4.45614"></trkpt>
      <trkpt lat="51.20052" lon="4.45621"></trkpt>
      <trkpt lat="51.20051" lon="4.45627"></trkpt>
      <trkpt lat="51.20050" lon="4.45634"></trkpt>
      <trkpt lat="51.20049" lon="4.45640"></trkpt>
      <trkpt lat="51.20048" lon="4.45647"></trkpt>
      <trkpt lat="51.20046" lon="4.45653"></trkpt>
      <trkpt lat="51.20045" lon="4.45659"></trkpt>
      <trkpt lat="51.20043" lon="4.45665"></trkpt>
      <trkpt lat="51.20041" lon="4.45671"></trkpt>
      <trkpt lat="51.20039" lon="4.45677"></trkpt>
      <trkpt lat="51.20037" lon="4.45682"></trkpt>
      <trkpt lat="51.20035" lon="4.45688"></trkpt>
      <trkpt lat="51.20033" lon="4.45694"></trkpt>
      <trkpt lat="51.20031" lon="4.45700"></trkpt>
      <trkpt lat="51.20030" lon="4.45705"></trkpt>
      <trkpt lat="51.20027" lon="4.45712"></trkpt>
      <trkpt lat="51.20026" lon="4.45718"></trkpt>
      <trkpt lat="51.20024" lon="4.45724"></trkpt>
      <trkpt lat="51.20024" lon="4.45731"></trkpt>
      <trkpt lat="51.20023" lon="4.45737"></trkpt>
      <trkpt lat="51.20024" lon="4.45744"></trkpt>
      <trkpt lat="51.20026" lon="4.45749"></trkpt>
      <trkpt lat="51.20029" lon="4.45754"></trkpt>
      <trkpt lat="51.20034" lon="4.45757"></trkpt>
      <trkpt lat="51.20039" lon="4.45759"></trkpt>
      <trkpt lat="51.20044" lon="4.45758"></trkpt>
      <trkpt lat="51.20049" lon="4.45756"></trkpt>
      <trkpt lat="51.20051" lon="4.45752"></trkpt>
      <trkpt lat="51.20053" lon="4.45750"></trkpt>
      <trkpt lat="51.20055" lon="4.45746"></trkpt>
      <trkpt lat="51.20057" lon="4.45742"></trkpt>
      <trkpt lat="51.20059" lon="4.45739"></trkpt>
      <trkpt lat="51.20061" lon="4.45736"></trkpt>
      <trkpt lat="51.20063" lon="4.45733"></trkpt>
      <trkpt lat="51.20064" lon="4.45730"></trkpt>
      <trkpt lat="51.20065" lon="4.45726"></trkpt>
      <trkpt lat="51.20067" lon="4.45721"></trkpt>
      <trkpt lat="51.20069" lon="4.45717"></trkpt>
      <trkpt lat="51.20071" lon="4.45713"></trkpt>
      <trkpt lat="51.20073" lon="4.45709"></trkpt>
      <trkpt lat="51.20075" lon="4.45706"></trkpt>
      <trkpt lat="51.20077" lon="4.45703"></trkpt>
      <trkpt lat="51.20079" lon="4.45699"></trkpt>
      <trkpt lat="51.20080" lon="4.45696"></trkpt>
      <trkpt lat="51.20082" lon="4.45692"></trkpt>
      <trkpt lat="51.20084" lon="4.45689"></trkpt>
      <trkpt lat="51.20087" lon="4.45686"></trkpt>
      <trkpt lat="51.20089" lon="4.45684"></trkpt>
      <trkpt lat="51.20092" lon="4.45681"></trkpt>
      <trkpt lat="51.20094" lon="4.45678"></trkpt>
      <trkpt lat="51.20097" lon="4.45676"></trkpt>
      <trkpt lat="51.20099" lon="4.45673"></trkpt>
      <trkpt lat="51.20101" lon="4.45671"></trkpt>
    </trkseg>
  </trk>
</gpx>