<?xml version="1.0" encoding="UTF-8"?>
<gpx version="1.1" creator="jeffry.running" xmlns="http://www.topografix.com/GPX/1/1">
  <metadata><time>2026-09-13T05:58:39.018Z</time></metadata>
  <trk>
    <trkseg>
      <trkpt lat="51.29371" lon="4.84829"></trkpt>
      <trkpt lat="51.29369" lon="4.84824"></trkpt>
      <trkpt lat="51.29365" lon="4.84814"></trkpt>
      <trkpt lat="51.29359" lon="4.84801"></trkpt>
      <trkpt lat="51.29356" lon="4.84789"></trkpt>
      <trkpt lat="51.29352" lon="4.84778"></trkpt>
      <trkpt lat="51.29347" lon="4.84770"></trkpt>
      <trkpt lat="51.29341" lon="4.84763"></trkpt>
      <trkpt lat="51.29336" lon="4.84754"></trkpt>
      <trkpt lat="51.29330" lon="4.84744"></trkpt>
      <trkpt lat="51.29326" lon="4.84732"></trkpt>
      <trkpt lat="51.29321" lon="4.84723"></trkpt>
      <trkpt lat="51.29316" lon="4.84715"></trkpt>
      <trkpt lat="51.29311" lon="4.84705"></trkpt>
      <trkpt lat="51.29305" lon="4.84695"></trkpt>
      <trkpt lat="51.29300" lon="4.84686"></trkpt>
      <trkpt lat="51.29294" lon="4.84678"></trkpt>
      <trkpt lat="51.29289" lon="4.84671"></trkpt>
      <trkpt lat="51.29287" lon="4.84665"></trkpt>
      <trkpt lat="51.29284" lon="4.84655"></trkpt>
      <trkpt lat="51.29280" lon="4.84644"></trkpt>
      <trkpt lat="51.29276" lon="4.84634"></trkpt>
      <trkpt lat="51.29271" lon="4.84624"></trkpt>
      <trkpt lat="51.29267" lon="4.84615"></trkpt>
      <trkpt lat="51.29263" lon="4.84605"></trkpt>
      <trkpt lat="51.29258" lon="4.84594"></trkpt>
      <trkpt lat="51.29253" lon="4.84585"></trkpt>
      <trkpt lat="51.29248" lon="4.84575"></trkpt>
      <trkpt lat="51.29243" lon="4.84564"></trkpt>
      <trkpt lat="51.29237" lon="4.84554"></trkpt>
      <trkpt lat="51.29232" lon="4.84544"></trkpt>
      <trkpt lat="51.29226" lon="4.84533"></trkpt>
      <trkpt lat="51.29221" lon="4.84522"></trkpt>
      <trkpt lat="51.29217" lon="4.84514"></trkpt>
      <trkpt lat="51.29212" lon="4.84503"></trkpt>
      <trkpt lat="51.29206" lon="4.84491"></trkpt>
      <trkpt lat="51.29202" lon="4.84480"></trkpt>
      <trkpt lat="51.29197" lon="4.84469"></trkpt>
      <trkpt lat="51.29192" lon="4.84460"></trkpt>
      <trkpt lat="51.29188" lon="4.84450"></trkpt>
      <trkpt lat="51.29183" lon="4.84439"></trkpt>
      <trkpt lat="51.29178" lon="4.84428"></trkpt>
      <trkpt lat="51.29173" lon="4.84418"></trkpt>
      <trkpt lat="51.29167" lon="4.84407"></trkpt>
      <trkpt lat="51.29163" lon="4.84398"></trkpt>
      <trkpt lat="51.29158" lon="4.84388"></trkpt>
      <trkpt lat="51.29153" lon="4.84379"></trkpt>
      <trkpt lat="51.29147" lon="4.84367"></trkpt>
      <trkpt lat="51.29142" lon="4.84359"></trkpt>
      <trkpt lat="51.29136" lon="4.84348"></trkpt>
      <trkpt lat="51.29132" lon="4.84337"></trkpt>
      <trkpt lat="51.29128" lon="4.84327"></trkpt>
      <trkpt lat="51.29124" lon="4.84317"></trkpt>
      <trkpt lat="51.29118" lon="4.84307"></trkpt>
      <trkpt lat="51.29113" lon="4.84296"></trkpt>
      <trkpt lat="51.29109" lon="4.84285"></trkpt>
      <trkpt lat="51.29104" lon="4.84274"></trkpt>
      <trkpt lat="51.29100" lon="4.84265"></trkpt>
      <trkpt lat="51.29093" lon="4.84255"></trkpt>
      <trkpt lat="51.29088" lon="4.84246"></trkpt>
      <trkpt lat="51.29083" lon="4.84236"></trkpt>
      <trkpt lat="51.29078" lon="4.84224"></trkpt>
      <trkpt lat="51.29072" lon="4.84213"></trkpt>
      <trkpt lat="51.29067" lon="4.84202"></trkpt>
      <trkpt lat="51.29063" lon="4.84191"></trkpt>
      <trkpt lat="51.29058" lon="4.84181"></trkpt>
      <trkpt lat="51.29054" lon="4.84172"></trkpt>
      <trkpt lat="51.29050" lon="4.84162"></trkpt>
      <trkpt lat="51.29044" lon="4.84152"></trkpt>
      <trkpt lat="51.29040" lon="4.84142"></trkpt>
      <trkpt lat="51.29035" lon="4.84133"></trkpt>
      <trkpt lat="51.29029" lon="4.84122"></trkpt>
      <trkpt lat="51.29024" lon="4.84111"></trkpt>
      <trkpt lat="51.29019" lon="4.84100"></trkpt>
      <trkpt lat="51.29014" lon="4.84089"></trkpt>
      <trkpt lat="51.29008" lon="4.84080"></trkpt>
      <trkpt lat="51.29002" lon="4.84072"></trkpt>
      <trkpt lat="51.28998" lon="4.84062"></trkpt>
      <trkpt lat="51.28993" lon="4.84055"></trkpt>
      <trkpt lat="51.28985" lon="4.84058"></trkpt>
      <trkpt lat="51.28978" lon="4.84064"></trkpt>
      <trkpt lat="51.28972" lon="4.84071"></trkpt>
      <trkpt lat="51.28966" lon="4.84078"></trkpt>
      <trkpt lat="51.28959" lon="4.84087"></trkpt>
      <trkpt lat="51.28953" lon="4.84095"></trkpt>
      <trkpt lat="51.28947" lon="4.84102"></trkpt>
      <trkpt lat="51.28940" lon="4.84107"></trkpt>
      <trkpt lat="51.28934" lon="4.84115"></trkpt>
      <trkpt lat="51.28928" lon="4.84123"></trkpt>
      <trkpt lat="51.28922" lon="4.84131"></trkpt>
      <trkpt lat="51.28915" lon="4.84140"></trkpt>
      <trkpt lat="51.28909" lon="4.84147"></trkpt>
      <trkpt lat="51.28902" lon="4.84154"></trkpt>
      <trkpt lat="51.28894" lon="4.84158"></trkpt>
      <trkpt lat="51.28889" lon="4.84156"></trkpt>
      <trkpt lat="51.28887" lon="4.84154"></trkpt>
      <trkpt lat="51.28881" lon="4.84153"></trkpt>
      <trkpt lat="51.28873" lon="4.84152"></trkpt>
      <trkpt lat="51.28866" lon="4.84149"></trkpt>
      <trkpt lat="51.28859" lon="4.84144"></trkpt>
      <trkpt lat="51.28852" lon="4.84138"></trkpt>
      <trkpt lat="51.28846" lon="4.84132"></trkpt>
      <trkpt lat="51.28840" lon="4.84125"></trkpt>
      <trkpt lat="51.28833" lon="4.84120"></trkpt>
      <trkpt lat="51.28826" lon="4.84115"></trkpt>
      <trkpt lat="51.28818" lon="4.84112"></trkpt>
      <trkpt lat="51.28810" lon="4.84107"></trkpt>
      <trkpt lat="51.28804" lon="4.84104"></trkpt>
      <trkpt lat="51.28796" lon="4.84101"></trkpt>
      <trkpt lat="51.28789" lon="4.84093"></trkpt>
      <trkpt lat="51.28783" lon="4.84085"></trkpt>
      <trkpt lat="51.28778" lon="4.84076"></trkpt>
      <trkpt lat="51.28770" lon="4.84068"></trkpt>
      <trkpt lat="51.28764" lon="4.84062"></trkpt>
      <trkpt lat="51.28760" lon="4.84053"></trkpt>
      <trkpt lat="51.28755" lon="4.84042"></trkpt>
      <trkpt lat="51.28750" lon="4.84031"></trkpt>
      <trkpt lat="51.28744" lon="4.84019"></trkpt>
      <trkpt lat="51.28739" lon="4.84007"></trkpt>
      <trkpt lat="51.28735" lon="4.83998"></trkpt>
      <trkpt lat="51.28731" lon="4.83989"></trkpt>
      <trkpt lat="51.28726" lon="4.83980"></trkpt>
      <trkpt lat="51.28723" lon="4.83969"></trkpt>
      <trkpt lat="51.28725" lon="4.83959"></trkpt>
      <trkpt lat="51.28731" lon="4.83952"></trkpt>
      <trkpt lat="51.28738" lon="4.83942"></trkpt>
      <trkpt lat="51.28745" lon="4.83933"></trkpt>
      <trkpt lat="51.28751" lon="4.83924"></trkpt>
      <trkpt lat="51.28757" lon="4.83917"></trkpt>
      <trkpt lat="51.28764" lon="4.83908"></trkpt>
      <trkpt lat="51.28771" lon="4.83900"></trkpt>
      <trkpt lat="51.28775" lon="4.83890"></trkpt>
      <trkpt lat="51.28780" lon="4.83881"></trkpt>
      <trkpt lat="51.28787" lon="4.83873"></trkpt>
      <trkpt lat="51.28795" lon="4.83864"></trkpt>
      <trkpt lat="51.28800" lon="4.83853"></trkpt>
      <trkpt lat="51.28805" lon="4.83846"></trkpt>
      <trkpt lat="51.28811" lon="4.83838"></trkpt>
      <trkpt lat="51.28814" lon="4.83830"></trkpt>
      <trkpt lat="51.28815" lon="4.83820"></trkpt>
      <trkpt lat="51.28815" lon="4.83810"></trkpt>
      <trkpt lat="51.28811" lon="4.83800"></trkpt>
      <trkpt lat="51.28803" lon="4.83792"></trkpt>
      <trkpt lat="51.28796" lon="4.83787"></trkpt>
      <trkpt lat="51.28788" lon="4.83784"></trkpt>
      <trkpt lat="51.28779" lon="4.83780"></trkpt>
      <trkpt lat="51.28772" lon="4.83777"></trkpt>
      <trkpt lat="51.28765" lon="4.83773"></trkpt>
      <trkpt lat="51.28758" lon="4.83767"></trkpt>
      <trkpt lat="51.28750" lon="4.83764"></trkpt>
      <trkpt lat="51.28744" lon="4.83762"></trkpt>
      <trkpt lat="51.28737" lon="4.83756"></trkpt>
      <trkpt lat="51.28729" lon="4.83752"></trkpt>
      <trkpt lat="51.28721" lon="4.83750"></trkpt>
      <trkpt lat="51.28714" lon="4.83746"></trkpt>
      <trkpt lat="51.28708" lon="4.83741"></trkpt>
      <trkpt lat="51.28702" lon="4.83734"></trkpt>
      <trkpt lat="51.28694" lon="4.83728"></trkpt>
      <trkpt lat="51.28686" lon="4.83723"></trkpt>
      <trkpt lat="51.28679" lon="4.83721"></trkpt>
      <trkpt lat="51.28672" lon="4.83718"></trkpt>
      <trkpt lat="51.28664" lon="4.83714"></trkpt>
      <trkpt lat="51.28657" lon="4.83710"></trkpt>
      <trkpt lat="51.28650" lon="4.83707"></trkpt>
      <trkpt lat="51.28642" lon="4.83703"></trkpt>
      <trkpt lat="51.28635" lon="4.83699"></trkpt>
      <trkpt lat="51.28627" lon="4.83697"></trkpt>
      <trkpt lat="51.28621" lon="4.83692"></trkpt>
      <trkpt lat="51.28614" lon="4.83688"></trkpt>
      <trkpt lat="51.28606" lon="4.83683"></trkpt>
      <trkpt lat="51.28600" lon="4.83681"></trkpt>
      <trkpt lat="51.28595" lon="4.83681"></trkpt>
      <trkpt lat="51.28590" lon="4.83680"></trkpt>
      <trkpt lat="51.28588" lon="4.83681"></trkpt>
      <trkpt lat="51.28588" lon="4.83681"></trkpt>
      <trkpt lat="51.28588" lon="4.83681"></trkpt>
      <trkpt lat="51.28588" lon="4.83680"></trkpt>
      <trkpt lat="51.28588" lon="4.83680"></trkpt>
      <trkpt lat="51.28588" lon="4.83679"></trkpt>
      <trkpt lat="51.28588" lon="4.83679"></trkpt>
      <trkpt lat="51.28588" lon="4.83679"></trkpt>
      <trkpt lat="51.28588" lon="4.83678"></trkpt>
      <trkpt lat="51.28584" lon="4.83673"></trkpt>
      <trkpt lat="51.28575" lon="4.83665"></trkpt>
      <trkpt lat="51.28566" lon="4.83659"></trkpt>
      <trkpt lat="51.28559" lon="4.83655"></trkpt>
      <trkpt lat="51.28551" lon="4.83652"></trkpt>
      <trkpt lat="51.28543" lon="4.83647"></trkpt>
      <trkpt lat="51.28536" lon="4.83642"></trkpt>
      <trkpt lat="51.28530" lon="4.83640"></trkpt>
      <trkpt lat="51.28523" lon="4.83636"></trkpt>
      <trkpt lat="51.28516" lon="4.83632"></trkpt>
      <trkpt lat="51.28509" lon="4.83628"></trkpt>
      <trkpt lat="51.28501" lon="4.83625"></trkpt>
      <trkpt lat="51.28493" lon="4.83621"></trkpt>
      <trkpt lat="51.28485" lon="4.83616"></trkpt>
      <trkpt lat="51.28478" lon="4.83612"></trkpt>
      <trkpt lat="51.28471" lon="4.83608"></trkpt>
      <trkpt lat="51.28464" lon="4.83602"></trkpt>
      <trkpt lat="51.28455" lon="4.83598"></trkpt>
      <trkpt lat="51.28448" lon="4.83593"></trkpt>
      <trkpt lat="51.28442" lon="4.83588"></trkpt>
      <trkpt lat="51.28440" lon="4.83586"></trkpt>
      <trkpt lat="51.28440" lon="4.83585"></trkpt>
      <trkpt lat="51.28440" lon="4.83584"></trkpt>
      <trkpt lat="51.28439" lon="4.83583"></trkpt>
      <trkpt lat="51.28439" lon="4.83583"></trkpt>
      <trkpt lat="51.28436" lon="4.83584"></trkpt>
      <trkpt lat="51.28426" lon="4.83582"></trkpt>
      <trkpt lat="51.28418" lon="4.83574"></trkpt>
      <trkpt lat="51.28410" lon="4.83568"></trkpt>
      <trkpt lat="51.28403" lon="4.83562"></trkpt>
      <trkpt lat="51.28396" lon="4.83554"></trkpt>
      <trkpt lat="51.28388" lon="4.83545"></trkpt>
      <trkpt lat="51.28380" lon="4.83537"></trkpt>
      <trkpt lat="51.28374" lon="4.83530"></trkpt>
      <trkpt lat="51.28367" lon="4.83523"></trkpt>
      <trkpt lat="51.28361" lon="4.83516"></trkpt>
      <trkpt lat="51.28354" lon="4.83507"></trkpt>
      <trkpt lat="51.28348" lon="4.83499"></trkpt>
      <trkpt lat="51.28341" lon="4.83494"></trkpt>
      <trkpt lat="51.28335" lon="4.83489"></trkpt>
      <trkpt lat="51.28328" lon="4.83481"></trkpt>
      <trkpt lat="51.28321" lon="4.83471"></trkpt>
      <trkpt lat="51.28316" lon="4.83459"></trkpt>
      <trkpt lat="51.28312" lon="4.83446"></trkpt>
      <trkpt lat="51.28309" lon="4.83436"></trkpt>
      <trkpt lat="51.28306" lon="4.83426"></trkpt>
      <trkpt lat="51.28303" lon="4.83418"></trkpt>
      <trkpt lat="51.28298" lon="4.83408"></trkpt>
      <trkpt lat="51.28293" lon="4.83396"></trkpt>
      <trkpt lat="51.28288" lon="4.83384"></trkpt>
      <trkpt lat="51.28283" lon="4.83373"></trkpt>
      <trkpt lat="51.28280" lon="4.83362"></trkpt>
      <trkpt lat="51.28275" lon="4.83352"></trkpt>
      <trkpt lat="51.28270" lon="4.83342"></trkpt>
      <trkpt lat="51.28263" lon="4.83331"></trkpt>
      <trkpt lat="51.28259" lon="4.83320"></trkpt>
      <trkpt lat="51.28255" lon="4.83310"></trkpt>
      <trkpt lat="51.28250" lon="4.83300"></trkpt>
      <trkpt lat="51.28245" lon="4.83291"></trkpt>
      <trkpt lat="51.28241" lon="4.83285"></trkpt>
      <trkpt lat="51.28238" lon="4.83277"></trkpt>
      <trkpt lat="51.28238" lon="4.83265"></trkpt>
      <trkpt lat="51.28236" lon="4.83257"></trkpt>
      <trkpt lat="51.28235" lon="4.83255"></trkpt>
      <trkpt lat="51.28235" lon="4.83254"></trkpt>
      <trkpt lat="51.28235" lon="4.83254"></trkpt>
      <trkpt lat="51.28235" lon="4.83254"></trkpt>
      <trkpt lat="51.28235" lon="4.83254"></trkpt>
      <trkpt lat="51.28235" lon="4.83254"></trkpt>
      <trkpt lat="51.28235" lon="4.83254"></trkpt>
      <trkpt lat="51.28235" lon="4.83254"></trkpt>
      <trkpt lat="51.28235" lon="4.83254"></trkpt>
      <trkpt lat="51.28235" lon="4.83254"></trkpt>
      <trkpt lat="51.28235" lon="4.83254"></trkpt>
      <trkpt lat="51.28235" lon="4.83254"></trkpt>
      <trkpt lat="51.28236" lon="4.83254"></trkpt>
      <trkpt lat="51.28236" lon="4.83255"></trkpt>
      <trkpt lat="51.28236" lon="4.83255"></trkpt>
      <trkpt lat="51.28236" lon="4.83255"></trkpt>
      <trkpt lat="51.28236" lon="4.83255"></trkpt>
      <trkpt lat="51.28236" lon="4.83255"></trkpt>
      <trkpt lat="51.28236" lon="4.83255"></trkpt>
      <trkpt lat="51.28236" lon="4.83255"></trkpt>
      <trkpt lat="51.28236" lon="4.83255"></trkpt>
      <trkpt lat="51.28236" lon="4.83255"></trkpt>
      <trkpt lat="51.28236" lon="4.83255"></trkpt>
      <trkpt lat="51.28237" lon="4.83256"></trkpt>
      <trkpt lat="51.28239" lon="4.83255"></trkpt>
      <trkpt lat="51.28245" lon="4.83248"></trkpt>
      <trkpt lat="51.28250" lon="4.83241"></trkpt>
      <trkpt lat="51.28255" lon="4.83231"></trkpt>
      <trkpt lat="51.28259" lon="4.83224"></trkpt>
      <trkpt lat="51.28265" lon="4.83215"></trkpt>
      <trkpt lat="51.28270" lon="4.83206"></trkpt>
      <trkpt lat="51.28275" lon="4.83197"></trkpt>
      <trkpt lat="51.28281" lon="4.83189"></trkpt>
      <trkpt lat="51.28287" lon="4.83181"></trkpt>
      <trkpt lat="51.28294" lon="4.83169"></trkpt>
      <trkpt lat="51.28299" lon="4.83159"></trkpt>
      <trkpt lat="51.28304" lon="4.83149"></trkpt>
      <trkpt lat="51.28310" lon="4.83140"></trkpt>
      <trkpt lat="51.28315" lon="4.83130"></trkpt>
      <trkpt lat="51.28321" lon="4.83120"></trkpt>
      <trkpt lat="51.28326" lon="4.83110"></trkpt>
      <trkpt lat="51.28332" lon="4.83100"></trkpt>
      <trkpt lat="51.28337" lon="4.83090"></trkpt>
      <trkpt lat="51.28340" lon="4.83078"></trkpt>
      <trkpt lat="51.28340" lon="4.83066"></trkpt>
      <trkpt lat="51.28335" lon="4.83053"></trkpt>
      <trkpt lat="51.28330" lon="4.83040"></trkpt>
      <trkpt lat="51.28328" lon="4.83029"></trkpt>
      <trkpt lat="51.28325" lon="4.83018"></trkpt>
      <trkpt lat="51.28322" lon="4.83007"></trkpt>
      <trkpt lat="51.28318" lon="4.82996"></trkpt>
      <trkpt lat="51.28314" lon="4.82984"></trkpt>
      <trkpt lat="51.28310" lon="4.82971"></trkpt>
      <trkpt lat="51.28307" lon="4.82958"></trkpt>
      <trkpt lat="51.28305" lon="4.82946"></trkpt>
      <trkpt lat="51.28303" lon="4.82934"></trkpt>
      <trkpt lat="51.28301" lon="4.82922"></trkpt>
      <trkpt lat="51.28298" lon="4.82910"></trkpt>
      <trkpt lat="51.28296" lon="4.82899"></trkpt>
      <trkpt lat="51.28295" lon="4.82886"></trkpt>
      <trkpt lat="51.28298" lon="4.82875"></trkpt>
      <trkpt lat="51.28303" lon="4.82864"></trkpt>
      <trkpt lat="51.28309" lon="4.82853"></trkpt>
      <trkpt lat="51.28313" lon="4.82841"></trkpt>
      <trkpt lat="51.28316" lon="4.82829"></trkpt>
      <trkpt lat="51.28321" lon="4.82822"></trkpt>
      <trkpt lat="51.28324" lon="4.82815"></trkpt>
      <trkpt lat="51.28326" lon="4.82807"></trkpt>
      <trkpt lat="51.28330" lon="4.82798"></trkpt>
      <trkpt lat="51.28334" lon="4.82789"></trkpt>
      <trkpt lat="51.28337" lon="4.82782"></trkpt>
      <trkpt lat="51.28339" lon="4.82775"></trkpt>
      <trkpt lat="51.28342" lon="4.82768"></trkpt>
      <trkpt lat="51.28344" lon="4.82759"></trkpt>
      <trkpt lat="51.28345" lon="4.82746"></trkpt>
      <trkpt lat="51.28349" lon="4.82736"></trkpt>
      <trkpt lat="51.28353" lon="4.82724"></trkpt>
      <trkpt lat="51.28355" lon="4.82711"></trkpt>
      <trkpt lat="51.28357" lon="4.82701"></trkpt>
      <trkpt lat="51.28360" lon="4.82689"></trkpt>
      <trkpt lat="51.28362" lon="4.82676"></trkpt>
      <trkpt lat="51.28366" lon="4.82664"></trkpt>
      <trkpt lat="51.28369" lon="4.82655"></trkpt>
      <trkpt lat="51.28372" lon="4.82645"></trkpt>
      <trkpt lat="51.28376" lon="4.82633"></trkpt>
      <trkpt lat="51.28377" lon="4.82620"></trkpt>
      <trkpt lat="51.28381" lon="4.82608"></trkpt>
      <trkpt lat="51.28383" lon="4.82595"></trkpt>
      <trkpt lat="51.28385" lon="4.82582"></trkpt>
      <trkpt lat="51.28389" lon="4.82570"></trkpt>
      <trkpt lat="51.28392" lon="4.82560"></trkpt>
      <trkpt lat="51.28395" lon="4.82547"></trkpt>
      <trkpt lat="51.28397" lon="4.82535"></trkpt>
      <trkpt lat="51.28400" lon="4.82525"></trkpt>
      <trkpt lat="51.28402" lon="4.82515"></trkpt>
      <trkpt lat="51.28405" lon="4.82506"></trkpt>
      <trkpt lat="51.28407" lon="4.82497"></trkpt>
      <trkpt lat="51.28410" lon="4.82491"></trkpt>
      <trkpt lat="51.28412" lon="4.82486"></trkpt>
      <trkpt lat="51.28413" lon="4.82479"></trkpt>
      <trkpt lat="51.28414" lon="4.82471"></trkpt>
      <trkpt lat="51.28416" lon="4.82464"></trkpt>
      <trkpt lat="51.28418" lon="4.82456"></trkpt>
      <trkpt lat="51.28419" lon="4.82448"></trkpt>
      <trkpt lat="51.28421" lon="4.82440"></trkpt>
      <trkpt lat="51.28423" lon="4.82433"></trkpt>
      <trkpt lat="51.28426" lon="4.82426"></trkpt>
      <trkpt lat="51.28429" lon="4.82419"></trkpt>
      <trkpt lat="51.28432" lon="4.82412"></trkpt>
      <trkpt lat="51.28434" lon="4.82405"></trkpt>
      <trkpt lat="51.28437" lon="4.82398"></trkpt>
      <trkpt lat="51.28439" lon="4.82391"></trkpt>
      <trkpt lat="51.28442" lon="4.82385"></trkpt>
      <trkpt lat="51.28446" lon="4.82379"></trkpt>
      <trkpt lat="51.28448" lon="4.82373"></trkpt>
      <trkpt lat="51.28451" lon="4.82367"></trkpt>
      <trkpt lat="51.28452" lon="4.82360"></trkpt>
      <trkpt lat="51.28454" lon="4.82352"></trkpt>
      <trkpt lat="51.28457" lon="4.82345"></trkpt>
      <trkpt lat="51.28459" lon="4.82337"></trkpt>
      <trkpt lat="51.28461" lon="4.82329"></trkpt>
      <trkpt lat="51.28464" lon="4.82321"></trkpt>
      <trkpt lat="51.28467" lon="4.82314"></trkpt>
      <trkpt lat="51.28468" lon="4.82304"></trkpt>
      <trkpt lat="51.28468" lon="4.82295"></trkpt>
      <trkpt lat="51.28469" lon="4.82291"></trkpt>
      <trkpt lat="51.28468" lon="4.82290"></trkpt>
      <trkpt lat="51.28467" lon="4.82289"></trkpt>
      <trkpt lat="51.28467" lon="4.82289"></trkpt>
      <trkpt lat="51.28467" lon="4.82289"></trkpt>
      <trkpt lat="51.28467" lon="4.82289"></trkpt>
      <trkpt lat="51.28467" lon="4.82289"></trkpt>
      <trkpt lat="51.28467" lon="4.82289"></trkpt>
      <trkpt lat="51.28467" lon="4.82289"></trkpt>
      <trkpt lat="51.28467" lon="4.82289"></trkpt>
      <trkpt lat="51.28467" lon="4.82289"></trkpt>
      <trkpt lat="51.28467" lon="4.82289"></trkpt>
      <trkpt lat="51.28467" lon="4.82289"></trkpt>
      <trkpt lat="51.28467" lon="4.82289"></trkpt>
      <trkpt lat="51.28468" lon="4.82289"></trkpt>
      <trkpt lat="51.28468" lon="4.82289"></trkpt>
      <trkpt lat="51.28468" lon="4.82289"></trkpt>
      <trkpt lat="51.28468" lon="4.82289"></trkpt>
      <trkpt lat="51.28468" lon="4.82289"></trkpt>
      <trkpt lat="51.28468" lon="4.82289"></trkpt>
      <trkpt lat="51.28468" lon="4.82289"></trkpt>
      <trkpt lat="51.28468" lon="4.82289"></trkpt>
      <trkpt lat="51.28468" lon="4.82289"></trkpt>
      <trkpt lat="51.28468" lon="4.82289"></trkpt>
      <trkpt lat="51.28468" lon="4.82289"></trkpt>
      <trkpt lat="51.28468" lon="4.82289"></trkpt>
      <trkpt lat="51.28468" lon="4.82289"></trkpt>
      <trkpt lat="51.28468" lon="4.82289"></trkpt>
      <trkpt lat="51.28468" lon="4.82289"></trkpt>
      <trkpt lat="51.28468" lon="4.82289"></trkpt>
      <trkpt lat="51.28468" lon="4.82289"></trkpt>
      <trkpt lat="51.28468" lon="4.82289"></trkpt>
      <trkpt lat="51.28468" lon="4.82289"></trkpt>
      <trkpt lat="51.28468" lon="4.82289"></trkpt>
      <trkpt lat="51.28468" lon="4.82289"></trkpt>
      <trkpt lat="51.28468" lon="4.82289"></trkpt>
      <trkpt lat="51.28468" lon="4.82289"></trkpt>
      <trkpt lat="51.28469" lon="4.82289"></trkpt>
      <trkpt lat="51.28469" lon="4.82289"></trkpt>
      <trkpt lat="51.28469" lon="4.82289"></trkpt>
      <trkpt lat="51.28469" lon="4.82289"></trkpt>
      <trkpt lat="51.28469" lon="4.82289"></trkpt>
      <trkpt lat="51.28469" lon="4.82289"></trkpt>
      <trkpt lat="51.28469" lon="4.82289"></trkpt>
      <trkpt lat="51.28469" lon="4.82289"></trkpt>
      <trkpt lat="51.28469" lon="4.82289"></trkpt>
      <trkpt lat="51.28469" lon="4.82289"></trkpt>
      <trkpt lat="51.28469" lon="4.82289"></trkpt>
      <trkpt lat="51.28469" lon="4.82289"></trkpt>
      <trkpt lat="51.28470" lon="4.82287"></trkpt>
      <trkpt lat="51.28473" lon="4.82277"></trkpt>
      <trkpt lat="51.28475" lon="4.82269"></trkpt>
      <trkpt lat="51.28476" lon="4.82263"></trkpt>
      <trkpt lat="51.28477" lon="4.82256"></trkpt>
      <trkpt lat="51.28477" lon="4.82253"></trkpt>
      <trkpt lat="51.28477" lon="4.82253"></trkpt>
      <trkpt lat="51.28477" lon="4.82253"></trkpt>
      <trkpt lat="51.28477" lon="4.82253"></trkpt>
      <trkpt lat="51.28477" lon="4.82253"></trkpt>
      <trkpt lat="51.28477" lon="4.82253"></trkpt>
      <trkpt lat="51.28477" lon="4.82253"></trkpt>
      <trkpt lat="51.28476" lon="4.82253"></trkpt>
      <trkpt lat="51.28476" lon="4.82252"></trkpt>
      <trkpt lat="51.28476" lon="4.82252"></trkpt>
      <trkpt lat="51.28476" lon="4.82252"></trkpt>
      <trkpt lat="51.28476" lon="4.82252"></trkpt>
      <trkpt lat="51.28476" lon="4.82252"></trkpt>
      <trkpt lat="51.28476" lon="4.82252"></trkpt>
      <trkpt lat="51.28476" lon="4.82252"></trkpt>
      <trkpt lat="51.28476" lon="4.82252"></trkpt>
      <trkpt lat="51.28476" lon="4.82251"></trkpt>
      <trkpt lat="51.28476" lon="4.82251"></trkpt>
      <trkpt lat="51.28476" lon="4.82251"></trkpt>
      <trkpt lat="51.28475" lon="4.82250"></trkpt>
      <trkpt lat="51.28477" lon="4.82242"></trkpt>
      <trkpt lat="51.28479" lon="4.82234"></trkpt>
      <trkpt lat="51.28487" lon="4.82225"></trkpt>
      <trkpt lat="51.28495" lon="4.82223"></trkpt>
      <trkpt lat="51.28503" lon="4.82226"></trkpt>
      <trkpt lat="51.28510" lon="4.82230"></trkpt>
      <trkpt lat="51.28518" lon="4.82235"></trkpt>
      <trkpt lat="51.28526" lon="4.82238"></trkpt>
      <trkpt lat="51.28534" lon="4.82241"></trkpt>
      <trkpt lat="51.28541" lon="4.82239"></trkpt>
      <trkpt lat="51.28547" lon="4.82238"></trkpt>
      <trkpt lat="51.28553" lon="4.82241"></trkpt>
      <trkpt lat="51.28560" lon="4.82247"></trkpt>
      <trkpt lat="51.28569" lon="4.82252"></trkpt>
      <trkpt lat="51.28577" lon="4.82255"></trkpt>
      <trkpt lat="51.28584" lon="4.82260"></trkpt>
      <trkpt lat="51.28591" lon="4.82264"></trkpt>
      <trkpt lat="51.28599" lon="4.82266"></trkpt>
      <trkpt lat="51.28606" lon="4.82270"></trkpt>
      <trkpt lat="51.28613" lon="4.82272"></trkpt>
      <trkpt lat="51.28620" lon="4.82275"></trkpt>
      <trkpt lat="51.28628" lon="4.82276"></trkpt>
      <trkpt lat="51.28636" lon="4.82281"></trkpt>
      <trkpt lat="51.28643" lon="4.82286"></trkpt>
      <trkpt lat="51.28652" lon="4.82289"></trkpt>
      <trkpt lat="51.28661" lon="4.82290"></trkpt>
      <trkpt lat="51.28666" lon="4.82292"></trkpt>
      <trkpt lat="51.28669" lon="4.82292"></trkpt>
      <trkpt lat="51.28670" lon="4.82291"></trkpt>
      <trkpt lat="51.28671" lon="4.82291"></trkpt>
      <trkpt lat="51.28671" lon="4.82291"></trkpt>
      <trkpt lat="51.28671" lon="4.82290"></trkpt>
      <trkpt lat="51.28671" lon="4.82290"></trkpt>
      <trkpt lat="51.28671" lon="4.82290"></trkpt>
      <trkpt lat="51.28671" lon="4.82289"></trkpt>
      <trkpt lat="51.28672" lon="4.82289"></trkpt>
      <trkpt lat="51.28672" lon="4.82289"></trkpt>
      <trkpt lat="51.28672" lon="4.82288"></trkpt>
      <trkpt lat="51.28672" lon="4.82288"></trkpt>
      <trkpt lat="51.28672" lon="4.82288"></trkpt>
      <trkpt lat="51.28673" lon="4.82287"></trkpt>
      <trkpt lat="51.28678" lon="4.82275"></trkpt>
      <trkpt lat="51.28682" lon="4.82262"></trkpt>
      <trkpt lat="51.28686" lon="4.82250"></trkpt>
      <trkpt lat="51.28690" lon="4.82240"></trkpt>
      <trkpt lat="51.28694" lon="4.82230"></trkpt>
      <trkpt lat="51.28698" lon="4.82219"></trkpt>
      <trkpt lat="51.28703" lon="4.82212"></trkpt>
      <trkpt lat="51.28710" lon="4.82214"></trkpt>
      <trkpt lat="51.28717" lon="4.82219"></trkpt>
      <trkpt lat="51.28723" lon="4.82225"></trkpt>
      <trkpt lat="51.28729" lon="4.82231"></trkpt>
      <trkpt lat="51.28734" lon="4.82239"></trkpt>
      <trkpt lat="51.28740" lon="4.82246"></trkpt>
      <trkpt lat="51.28748" lon="4.82255"></trkpt>
      <trkpt lat="51.28756" lon="4.82263"></trkpt>
      <trkpt lat="51.28763" lon="4.82271"></trkpt>
      <trkpt lat="51.28769" lon="4.82279"></trkpt>
      <trkpt lat="51.28776" lon="4.82288"></trkpt>
      <trkpt lat="51.28783" lon="4.82297"></trkpt>
      <trkpt lat="51.28791" lon="4.82304"></trkpt>
      <trkpt lat="51.28798" lon="4.82312"></trkpt>
      <trkpt lat="51.28804" lon="4.82321"></trkpt>
      <trkpt lat="51.28811" lon="4.82329"></trkpt>
      <trkpt lat="51.28817" lon="4.82336"></trkpt>
      <trkpt lat="51.28823" lon="4.82343"></trkpt>
      <trkpt lat="51.28827" lon="4.82347"></trkpt>
      <trkpt lat="51.28829" lon="4.82348"></trkpt>
      <trkpt lat="51.28831" lon="4.82350"></trkpt>
      <trkpt lat="51.28834" lon="4.82355"></trkpt>
      <trkpt lat="51.28838" lon="4.82359"></trkpt>
      <trkpt lat="51.28841" lon="4.82364"></trkpt>
      <trkpt lat="51.28845" lon="4.82369"></trkpt>
      <trkpt lat="51.28851" lon="4.82376"></trkpt>
      <trkpt lat="51.28857" lon="4.82385"></trkpt>
      <trkpt lat="51.28862" lon="4.82392"></trkpt>
      <trkpt lat="51.28870" lon="4.82398"></trkpt>
      <trkpt lat="51.28876" lon="4.82407"></trkpt>
      <trkpt lat="51.28884" lon="4.82407"></trkpt>
      <trkpt lat="51.28891" lon="4.82399"></trkpt>
      <trkpt lat="51.28894" lon="4.82387"></trkpt>
      <trkpt lat="51.28898" lon="4.82375"></trkpt>
      <trkpt lat="51.28902" lon="4.82363"></trkpt>
      <trkpt lat="51.28905" lon="4.82351"></trkpt>
      <trkpt lat="51.28909" lon="4.82339"></trkpt>
      <trkpt lat="51.28914" lon="4.82328"></trkpt>
      <trkpt lat="51.28917" lon="4.82316"></trkpt>
      <trkpt lat="51.28922" lon="4.82306"></trkpt>
      <trkpt lat="51.28926" lon="4.82295"></trkpt>
      <trkpt lat="51.28929" lon="4.82284"></trkpt>
      <trkpt lat="51.28931" lon="4.82277"></trkpt>
      <trkpt lat="51.28933" lon="4.82270"></trkpt>
      <trkpt lat="51.28935" lon="4.82264"></trkpt>
      <trkpt lat="51.28936" lon="4.82258"></trkpt>
      <trkpt lat="51.28938" lon="4.82250"></trkpt>
      <trkpt lat="51.28940" lon="4.82242"></trkpt>
      <trkpt lat="51.28942" lon="4.82234"></trkpt>
      <trkpt lat="51.28944" lon="4.82228"></trkpt>
      <trkpt lat="51.28947" lon="4.82221"></trkpt>
      <trkpt lat="51.28949" lon="4.82215"></trkpt>
      <trkpt lat="51.28951" lon="4.82209"></trkpt>
      <trkpt lat="51.28953" lon="4.82206"></trkpt>
      <trkpt lat="51.28953" lon="4.82206"></trkpt>
      <trkpt lat="51.28954" lon="4.82206"></trkpt>
      <trkpt lat="51.28954" lon="4.82206"></trkpt>
      <trkpt lat="51.28954" lon="4.82206"></trkpt>
      <trkpt lat="51.28954" lon="4.82206"></trkpt>
      <trkpt lat="51.28954" lon="4.82206"></trkpt>
      <trkpt lat="51.28954" lon="4.82206"></trkpt>
      <trkpt lat="51.28955" lon="4.82206"></trkpt>
      <trkpt lat="51.28955" lon="4.82206"></trkpt>
      <trkpt lat="51.28955" lon="4.82207"></trkpt>
      <trkpt lat="51.28958" lon="4.82208"></trkpt>
      <trkpt lat="51.28961" lon="4.82207"></trkpt>
      <trkpt lat="51.28964" lon="4.82208"></trkpt>
      <trkpt lat="51.28967" lon="4.82209"></trkpt>
      <trkpt lat="51.28969" lon="4.82211"></trkpt>
      <trkpt lat="51.28972" lon="4.82214"></trkpt>
      <trkpt lat="51.28976" lon="4.82217"></trkpt>
      <trkpt lat="51.28979" lon="4.82220"></trkpt>
      <trkpt lat="51.28983" lon="4.82224"></trkpt>
      <trkpt lat="51.28987" lon="4.82228"></trkpt>
      <trkpt lat="51.28992" lon="4.82232"></trkpt>
      <trkpt lat="51.28999" lon="4.82237"></trkpt>
      <trkpt lat="51.29006" lon="4.82243"></trkpt>
      <trkpt lat="51.29014" lon="4.82249"></trkpt>
      <trkpt lat="51.29022" lon="4.82254"></trkpt>
      <trkpt lat="51.29031" lon="4.82257"></trkpt>
      <trkpt lat="51.29039" lon="4.82260"></trkpt>
      <trkpt lat="51.29047" lon="4.82262"></trkpt>
      <trkpt lat="51.29054" lon="4.82265"></trkpt>
      <trkpt lat="51.29062" lon="4.82270"></trkpt>
      <trkpt lat="51.29069" lon="4.82274"></trkpt>
      <trkpt lat="51.29077" lon="4.82277"></trkpt>
      <trkpt lat="51.29086" lon="4.82280"></trkpt>
      <trkpt lat="51.29094" lon="4.82285"></trkpt>
      <trkpt lat="51.29102" lon="4.82289"></trkpt>
      <trkpt lat="51.29109" lon="4.82292"></trkpt>
      <trkpt lat="51.29117" lon="4.82296"></trkpt>
      <trkpt lat="51.29125" lon="4.82299"></trkpt>
      <trkpt lat="51.29133" lon="4.82302"></trkpt>
      <trkpt lat="51.29141" lon="4.82302"></trkpt>
      <trkpt lat="51.29149" lon="4.82302"></trkpt>
      <trkpt lat="51.29157" lon="4.82301"></trkpt>
      <trkpt lat="51.29165" lon="4.82297"></trkpt>
      <trkpt lat="51.29172" lon="4.82293"></trkpt>
      <trkpt lat="51.29180" lon="4.82290"></trkpt>
      <trkpt lat="51.29188" lon="4.82288"></trkpt>
      <trkpt lat="51.29196" lon="4.82286"></trkpt>
      <trkpt lat="51.29203" lon="4.82284"></trkpt>
      <trkpt lat="51.29210" lon="4.82282"></trkpt>
      <trkpt lat="51.29219" lon="4.82280"></trkpt>
      <trkpt lat="51.29227" lon="4.82278"></trkpt>
      <trkpt lat="51.29235" lon="4.82275"></trkpt>
      <trkpt lat="51.29243" lon="4.82274"></trkpt>
      <trkpt lat="51.29251" lon="4.82273"></trkpt>
      <trkpt lat="51.29259" lon="4.82270"></trkpt>
      <trkpt lat="51.29267" lon="4.82269"></trkpt>
      <trkpt lat="51.29275" lon="4.82265"></trkpt>
      <trkpt lat="51.29284" lon="4.82261"></trkpt>
      <trkpt lat="51.29291" lon="4.82259"></trkpt>
      <trkpt lat="51.29298" lon="4.82257"></trkpt>
      <trkpt lat="51.29304" lon="4.82255"></trkpt>
      <trkpt lat="51.29305" lon="4.82255"></trkpt>
      <trkpt lat="51.29305" lon="4.82254"></trkpt>
      <trkpt lat="51.29305" lon="4.82254"></trkpt>
      <trkpt lat="51.29305" lon="4.82254"></trkpt>
      <trkpt lat="51.29306" lon="4.82254"></trkpt>
      <trkpt lat="51.29306" lon="4.82254"></trkpt>
      <trkpt lat="51.29306" lon="4.82254"></trkpt>
      <trkpt lat="51.29306" lon="4.82254"></trkpt>
      <trkpt lat="51.29307" lon="4.82254"></trkpt>
      <trkpt lat="51.29307" lon="4.82254"></trkpt>
      <trkpt lat="51.29314" lon="4.82252"></trkpt>
      <trkpt lat="51.29320" lon="4.82250"></trkpt>
      <trkpt lat="51.29327" lon="4.82248"></trkpt>
      <trkpt lat="51.29334" lon="4.82245"></trkpt>
      <trkpt lat="51.29342" lon="4.82243"></trkpt>
      <trkpt lat="51.29350" lon="4.82241"></trkpt>
      <trkpt lat="51.29358" lon="4.82239"></trkpt>
      <trkpt lat="51.29366" lon="4.82237"></trkpt>
      <trkpt lat="51.29374" lon="4.82236"></trkpt>
      <trkpt lat="51.29382" lon="4.82235"></trkpt>
      <trkpt lat="51.29390" lon="4.82233"></trkpt>
      <trkpt lat="51.29398" lon="4.82230"></trkpt>
      <trkpt lat="51.29406" lon="4.82227"></trkpt>
      <trkpt lat="51.29411" lon="4.82220"></trkpt>
      <trkpt lat="51.29416" lon="4.82216"></trkpt>
      <trkpt lat="51.29424" lon="4.82215"></trkpt>
      <trkpt lat="51.29432" lon="4.82214"></trkpt>
      <trkpt lat="51.29440" lon="4.82213"></trkpt>
      <trkpt lat="51.29449" lon="4.82210"></trkpt>
      <trkpt lat="51.29456" lon="4.82207"></trkpt>
      <trkpt lat="51.29460" lon="4.82198"></trkpt>
      <trkpt lat="51.29457" lon="4.82188"></trkpt>
      <trkpt lat="51.29452" lon="4.82176"></trkpt>
      <trkpt lat="51.29449" lon="4.82165"></trkpt>
      <trkpt lat="51.29446" lon="4.82155"></trkpt>
      <trkpt lat="51.29442" lon="4.82145"></trkpt>
      <trkpt lat="51.29439" lon="4.82133"></trkpt>
      <trkpt lat="51.29435" lon="4.82122"></trkpt>
      <trkpt lat="51.29431" lon="4.82113"></trkpt>
      <trkpt lat="51.29428" lon="4.82103"></trkpt>
      <trkpt lat="51.29428" lon="4.82092"></trkpt>
      <trkpt lat="51.29428" lon="4.82081"></trkpt>
      <trkpt lat="51.29429" lon="4.82071"></trkpt>
      <trkpt lat="51.29430" lon="4.82060"></trkpt>
      <trkpt lat="51.29430" lon="4.82048"></trkpt>
      <trkpt lat="51.29427" lon="4.82036"></trkpt>
      <trkpt lat="51.29425" lon="4.82026"></trkpt>
      <trkpt lat="51.29423" lon="4.82018"></trkpt>
      <trkpt lat="51.29422" lon="4.82012"></trkpt>
      <trkpt lat="51.29419" lon="4.82005"></trkpt>
      <trkpt lat="51.29416" lon="4.81997"></trkpt>
      <trkpt lat="51.29416" lon="4.81987"></trkpt>
      <trkpt lat="51.29413" lon="4.81981"></trkpt>
      <trkpt lat="51.29411" lon="4.81970"></trkpt>
      <trkpt lat="51.29410" lon="4.81958"></trkpt>
      <trkpt lat="51.29409" lon="4.81946"></trkpt>
      <trkpt lat="51.29408" lon="4.81933"></trkpt>
      <trkpt lat="51.29408" lon="4.81919"></trkpt>
      <trkpt lat="51.29410" lon="4.81908"></trkpt>
      <trkpt lat="51.29414" lon="4.81896"></trkpt>
      <trkpt lat="51.29419" lon="4.81885"></trkpt>
      <trkpt lat="51.29423" lon="4.81874"></trkpt>
      <trkpt lat="51.29425" lon="4.81859"></trkpt>
      <trkpt lat="51.29427" lon="4.81847"></trkpt>
      <trkpt lat="51.29431" lon="4.81839"></trkpt>
      <trkpt lat="51.29437" lon="4.81828"></trkpt>
      <trkpt lat="51.29440" lon="4.81822"></trkpt>
      <trkpt lat="51.29444" lon="4.81816"></trkpt>
      <trkpt lat="51.29447" lon="4.81812"></trkpt>
      <trkpt lat="51.29449" lon="4.81810"></trkpt>
      <trkpt lat="51.29452" lon="4.81805"></trkpt>
      <trkpt lat="51.29455" lon="4.81802"></trkpt>
      <trkpt lat="51.29457" lon="4.81798"></trkpt>
      <trkpt lat="51.29460" lon="4.81794"></trkpt>
      <trkpt lat="51.29462" lon="4.81788"></trkpt>
      <trkpt lat="51.29464" lon="4.81784"></trkpt>
      <trkpt lat="51.29467" lon="4.81781"></trkpt>
      <trkpt lat="51.29469" lon="4.81778"></trkpt>
      <trkpt lat="51.29470" lon="4.81773"></trkpt>
      <trkpt lat="51.29471" lon="4.81766"></trkpt>
      <trkpt lat="51.29472" lon="4.81761"></trkpt>
      <trkpt lat="51.29473" lon="4.81755"></trkpt>
      <trkpt lat="51.29473" lon="4.81750"></trkpt>
      <trkpt lat="51.29475" lon="4.81743"></trkpt>
      <trkpt lat="51.29479" lon="4.81735"></trkpt>
      <trkpt lat="51.29481" lon="4.81728"></trkpt>
      <trkpt lat="51.29481" lon="4.81722"></trkpt>
      <trkpt lat="51.29481" lon="4.81715"></trkpt>
      <trkpt lat="51.29482" lon="4.81709"></trkpt>
      <trkpt lat="51.29482" lon="4.81703"></trkpt>
      <trkpt lat="51.29482" lon="4.81700"></trkpt>
      <trkpt lat="51.29483" lon="4.81698"></trkpt>
      <trkpt lat="51.29484" lon="4.81694"></trkpt>
      <trkpt lat="51.29484" lon="4.81692"></trkpt>
      <trkpt lat="51.29484" lon="4.81691"></trkpt>
      <trkpt lat="51.29484" lon="4.81688"></trkpt>
      <trkpt lat="51.29485" lon="4.81677"></trkpt>
      <trkpt lat="51.29486" lon="4.81667"></trkpt>
      <trkpt lat="51.29488" lon="4.81657"></trkpt>
      <trkpt lat="51.29490" lon="4.81647"></trkpt>
      <trkpt lat="51.29492" lon="4.81636"></trkpt>
      <trkpt lat="51.29493" lon="4.81624"></trkpt>
      <trkpt lat="51.29495" lon="4.81613"></trkpt>
      <trkpt lat="51.29497" lon="4.81600"></trkpt>
      <trkpt lat="51.29496" lon="4.81585"></trkpt>
      <trkpt lat="51.29496" lon="4.81572"></trkpt>
      <trkpt lat="51.29496" lon="4.81558"></trkpt>
      <trkpt lat="51.29496" lon="4.81544"></trkpt>
      <trkpt lat="51.29495" lon="4.81532"></trkpt>
      <trkpt lat="51.29494" lon="4.81519"></trkpt>
      <trkpt lat="51.29490" lon="4.81509"></trkpt>
      <trkpt lat="51.29486" lon="4.81500"></trkpt>
      <trkpt lat="51.29480" lon="4.81492"></trkpt>
      <trkpt lat="51.29475" lon="4.81484"></trkpt>
      <trkpt lat="51.29468" lon="4.81475"></trkpt>
      <trkpt lat="51.29460" lon="4.81470"></trkpt>
      <trkpt lat="51.29454" lon="4.81466"></trkpt>
      <trkpt lat="51.29449" lon="4.81461"></trkpt>
      <trkpt lat="51.29448" lon="4.81452"></trkpt>
      <trkpt lat="51.29452" lon="4.81442"></trkpt>
      <trkpt lat="51.29457" lon="4.81434"></trkpt>
      <trkpt lat="51.29462" lon="4.81427"></trkpt>
      <trkpt lat="51.29467" lon="4.81418"></trkpt>
      <trkpt lat="51.29473" lon="4.81407"></trkpt>
      <trkpt lat="51.29478" lon="4.81396"></trkpt>
      <trkpt lat="51.29483" lon="4.81385"></trkpt>
      <trkpt lat="51.29487" lon="4.81375"></trkpt>
      <trkpt lat="51.29492" lon="4.81365"></trkpt>
      <trkpt lat="51.29496" lon="4.81355"></trkpt>
      <trkpt lat="51.29501" lon="4.81344"></trkpt>
      <trkpt lat="51.29506" lon="4.81333"></trkpt>
      <trkpt lat="51.29511" lon="4.81323"></trkpt>
      <trkpt lat="51.29515" lon="4.81316"></trkpt>
      <trkpt lat="51.29517" lon="4.81311"></trkpt>
      <trkpt lat="51.29521" lon="4.81309"></trkpt>
      <trkpt lat="51.29524" lon="4.81307"></trkpt>
      <trkpt lat="51.29528" lon="4.81306"></trkpt>
      <trkpt lat="51.29532" lon="4.81305"></trkpt>
      <trkpt lat="51.29537" lon="4.81305"></trkpt>
      <trkpt lat="51.29545" lon="4.81306"></trkpt>
      <trkpt lat="51.29553" lon="4.81307"></trkpt>
      <trkpt lat="51.29561" lon="4.81306"></trkpt>
      <trkpt lat="51.29569" lon="4.81305"></trkpt>
      <trkpt lat="51.29577" lon="4.81303"></trkpt>
      <trkpt lat="51.29583" lon="4.81297"></trkpt>
      <trkpt lat="51.29584" lon="4.81283"></trkpt>
      <trkpt lat="51.29580" lon="4.81272"></trkpt>
      <trkpt lat="51.29577" lon="4.81261"></trkpt>
      <trkpt lat="51.29572" lon="4.81251"></trkpt>
      <trkpt lat="51.29568" lon="4.81238"></trkpt>
      <trkpt lat="51.29564" lon="4.81228"></trkpt>
      <trkpt lat="51.29562" lon="4.81220"></trkpt>
      <trkpt lat="51.29562" lon="4.81217"></trkpt>
      <trkpt lat="51.29562" lon="4.81215"></trkpt>
      <trkpt lat="51.29562" lon="4.81211"></trkpt>
      <trkpt lat="51.29559" lon="4.81204"></trkpt>
      <trkpt lat="51.29557" lon="4.81198"></trkpt>
      <trkpt lat="51.29554" lon="4.81190"></trkpt>
      <trkpt lat="51.29552" lon="4.81183"></trkpt>
      <trkpt lat="51.29549" lon="4.81176"></trkpt>
      <trkpt lat="51.29546" lon="4.81169"></trkpt>
      <trkpt lat="51.29543" lon="4.81163"></trkpt>
      <trkpt lat="51.29540" lon="4.81155"></trkpt>
      <trkpt lat="51.29538" lon="4.81149"></trkpt>
      <trkpt lat="51.29535" lon="4.81142"></trkpt>
      <trkpt lat="51.29532" lon="4.81136"></trkpt>
      <trkpt lat="51.29529" lon="4.81129"></trkpt>
      <trkpt lat="51.29527" lon="4.81121"></trkpt>
      <trkpt lat="51.29525" lon="4.81113"></trkpt>
      <trkpt lat="51.29521" lon="4.81103"></trkpt>
      <trkpt lat="51.29517" lon="4.81091"></trkpt>
      <trkpt lat="51.29513" lon="4.81078"></trkpt>
      <trkpt lat="51.29510" lon="4.81066"></trkpt>
      <trkpt lat="51.29507" lon="4.81054"></trkpt>
      <trkpt lat="51.29504" lon="4.81042"></trkpt>
      <trkpt lat="51.29499" lon="4.81029"></trkpt>
      <trkpt lat="51.29495" lon="4.81017"></trkpt>
      <trkpt lat="51.29490" lon="4.81006"></trkpt>
      <trkpt lat="51.29486" lon="4.80994"></trkpt>
      <trkpt lat="51.29483" lon="4.80982"></trkpt>
      <trkpt lat="51.29478" lon="4.80970"></trkpt>
      <trkpt lat="51.29475" lon="4.80959"></trkpt>
      <trkpt lat="51.29471" lon="4.80949"></trkpt>
      <trkpt lat="51.29466" lon="4.80939"></trkpt>
      <trkpt lat="51.29461" lon="4.80930"></trkpt>
      <trkpt lat="51.29454" lon="4.80925"></trkpt>
      <trkpt lat="51.29448" lon="4.80924"></trkpt>
      <trkpt lat="51.29444" lon="4.80925"></trkpt>
      <trkpt lat="51.29440" lon="4.80928"></trkpt>
      <trkpt lat="51.29437" lon="4.80928"></trkpt>
      <trkpt lat="51.29433" lon="4.80926"></trkpt>
      <trkpt lat="51.29431" lon="4.80923"></trkpt>
      <trkpt lat="51.29429" lon="4.80918"></trkpt>
      <trkpt lat="51.29427" lon="4.80916"></trkpt>
      <trkpt lat="51.29426" lon="4.80916"></trkpt>
      <trkpt lat="51.29426" lon="4.80915"></trkpt>
      <trkpt lat="51.29426" lon="4.80915"></trkpt>
      <trkpt lat="51.29426" lon="4.80914"></trkpt>
      <trkpt lat="51.29425" lon="4.80914"></trkpt>
      <trkpt lat="51.29425" lon="4.80913"></trkpt>
      <trkpt lat="51.29425" lon="4.80913"></trkpt>
      <trkpt lat="51.29425" lon="4.80913"></trkpt>
      <trkpt lat="51.29425" lon="4.80912"></trkpt>
      <trkpt lat="51.29425" lon="4.80912"></trkpt>
      <trkpt lat="51.29425" lon="4.80911"></trkpt>
      <trkpt lat="51.29425" lon="4.80911"></trkpt>
      <trkpt lat="51.29422" lon="4.80899"></trkpt>
      <trkpt lat="51.29418" lon="4.80884"></trkpt>
      <trkpt lat="51.29413" lon="4.80871"></trkpt>
      <trkpt lat="51.29408" lon="4.80860"></trkpt>
      <trkpt lat="51.29404" lon="4.80850"></trkpt>
      <trkpt lat="51.29401" lon="4.80840"></trkpt>
      <trkpt lat="51.29396" lon="4.80829"></trkpt>
      <trkpt lat="51.29389" lon="4.80824"></trkpt>
      <trkpt lat="51.29381" lon="4.80826"></trkpt>
      <trkpt lat="51.29374" lon="4.80829"></trkpt>
      <trkpt lat="51.29366" lon="4.80833"></trkpt>
      <trkpt lat="51.29359" lon="4.80834"></trkpt>
      <trkpt lat="51.29351" lon="4.80835"></trkpt>
      <trkpt lat="51.29343" lon="4.80838"></trkpt>
      <trkpt lat="51.29336" lon="4.80839"></trkpt>
      <trkpt lat="51.29328" lon="4.80840"></trkpt>
      <trkpt lat="51.29320" lon="4.80843"></trkpt>
      <trkpt lat="51.29313" lon="4.80846"></trkpt>
      <trkpt lat="51.29306" lon="4.80847"></trkpt>
      <trkpt lat="51.29298" lon="4.80848"></trkpt>
      <trkpt lat="51.29290" lon="4.80848"></trkpt>
      <trkpt lat="51.29282" lon="4.80850"></trkpt>
      <trkpt lat="51.29274" lon="4.80854"></trkpt>
      <trkpt lat="51.29267" lon="4.80857"></trkpt>
      <trkpt lat="51.29259" lon="4.80860"></trkpt>
      <trkpt lat="51.29250" lon="4.80864"></trkpt>
      <trkpt lat="51.29247" lon="4.80866"></trkpt>
      <trkpt lat="51.29246" lon="4.80867"></trkpt>
      <trkpt lat="51.29246" lon="4.80867"></trkpt>
      <trkpt lat="51.29245" lon="4.80867"></trkpt>
      <trkpt lat="51.29245" lon="4.80868"></trkpt>
      <trkpt lat="51.29245" lon="4.80868"></trkpt>
      <trkpt lat="51.29244" lon="4.80868"></trkpt>
      <trkpt lat="51.29244" lon="4.80868"></trkpt>
      <trkpt lat="51.29240" lon="4.80870"></trkpt>
      <trkpt lat="51.29231" lon="4.80873"></trkpt>
      <trkpt lat="51.29222" lon="4.80876"></trkpt>
      <trkpt lat="51.29214" lon="4.80878"></trkpt>
      <trkpt lat="51.29207" lon="4.80877"></trkpt>
      <trkpt lat="51.29204" lon="4.80868"></trkpt>
      <trkpt lat="51.29204" lon="4.80859"></trkpt>
      <trkpt lat="51.29208" lon="4.80853"></trkpt>
      <trkpt lat="51.29212" lon="4.80845"></trkpt>
      <trkpt lat="51.29217" lon="4.80835"></trkpt>
      <trkpt lat="51.29224" lon="4.80826"></trkpt>
      <trkpt lat="51.29230" lon="4.80817"></trkpt>
      <trkpt lat="51.29238" lon="4.80810"></trkpt>
      <trkpt lat="51.29245" lon="4.80801"></trkpt>
      <trkpt lat="51.29252" lon="4.80792"></trkpt>
      <trkpt lat="51.29259" lon="4.80784"></trkpt>
      <trkpt lat="51.29265" lon="4.80774"></trkpt>
      <trkpt lat="51.29270" lon="4.80765"></trkpt>
      <trkpt lat="51.29274" lon="4.80757"></trkpt>
      <trkpt lat="51.29277" lon="4.80749"></trkpt>
      <trkpt lat="51.29280" lon="4.80743"></trkpt>
      <trkpt lat="51.29281" lon="4.80740"></trkpt>
      <trkpt lat="51.29283" lon="4.80736"></trkpt>
      <trkpt lat="51.29284" lon="4.80733"></trkpt>
      <trkpt lat="51.29287" lon="4.80731"></trkpt>
      <trkpt lat="51.29290" lon="4.80726"></trkpt>
      <trkpt lat="51.29293" lon="4.80721"></trkpt>
      <trkpt lat="51.29297" lon="4.80714"></trkpt>
      <trkpt lat="51.29301" lon="4.80707"></trkpt>
      <trkpt lat="51.29304" lon="4.80701"></trkpt>
      <trkpt lat="51.29307" lon="4.80696"></trkpt>
      <trkpt lat="51.29310" lon="4.80689"></trkpt>
      <trkpt lat="51.29308" lon="4.80682"></trkpt>
      <trkpt lat="51.29303" lon="4.80676"></trkpt>
      <trkpt lat="51.29299" lon="4.80670"></trkpt>
      <trkpt lat="51.29295" lon="4.80665"></trkpt>
      <trkpt lat="51.29292" lon="4.80659"></trkpt>
      <trkpt lat="51.29289" lon="4.80652"></trkpt>
      <trkpt lat="51.29287" lon="4.80643"></trkpt>
      <trkpt lat="51.29287" lon="4.80633"></trkpt>
      <trkpt lat="51.29287" lon="4.80625"></trkpt>
      <trkpt lat="51.29287" lon="4.80616"></trkpt>
      <trkpt lat="51.29286" lon="4.80608"></trkpt>
      <trkpt lat="51.29287" lon="4.80598"></trkpt>
      <trkpt lat="51.29288" lon="4.80590"></trkpt>
      <trkpt lat="51.29289" lon="4.80583"></trkpt>
      <trkpt lat="51.29291" lon="4.80575"></trkpt>
      <trkpt lat="51.29292" lon="4.80567"></trkpt>
      <trkpt lat="51.29293" lon="4.80560"></trkpt>
      <trkpt lat="51.29294" lon="4.80553"></trkpt>
      <trkpt lat="51.29294" lon="4.80546"></trkpt>
      <trkpt lat="51.29295" lon="4.80538"></trkpt>
      <trkpt lat="51.29295" lon="4.80531"></trkpt>
      <trkpt lat="51.29295" lon="4.80522"></trkpt>
      <trkpt lat="51.29294" lon="4.80513"></trkpt>
      <trkpt lat="51.29294" lon="4.80505"></trkpt>
      <trkpt lat="51.29294" lon="4.80495"></trkpt>
      <trkpt lat="51.29295" lon="4.80483"></trkpt>
      <trkpt lat="51.29296" lon="4.80470"></trkpt>
      <trkpt lat="51.29299" lon="4.80458"></trkpt>
      <trkpt lat="51.29300" lon="4.80447"></trkpt>
      <trkpt lat="51.29298" lon="4.80436"></trkpt>
      <trkpt lat="51.29295" lon="4.80425"></trkpt>
      <trkpt lat="51.29291" lon="4.80413"></trkpt>
      <trkpt lat="51.29287" lon="4.80402"></trkpt>
      <trkpt lat="51.29284" lon="4.80391"></trkpt>
      <trkpt lat="51.29280" lon="4.80380"></trkpt>
      <trkpt lat="51.29276" lon="4.80368"></trkpt>
      <trkpt lat="51.29271" lon="4.80358"></trkpt>
      <trkpt lat="51.29266" lon="4.80348"></trkpt>
      <trkpt lat="51.29261" lon="4.80337"></trkpt>
      <trkpt lat="51.29258" lon="4.80325"></trkpt>
      <trkpt lat="51.29259" lon="4.80312"></trkpt>
      <trkpt lat="51.29262" lon="4.80300"></trkpt>
      <trkpt lat="51.29265" lon="4.80288"></trkpt>
      <trkpt lat="51.29267" lon="4.80276"></trkpt>
      <trkpt lat="51.29267" lon="4.80265"></trkpt>
      <trkpt lat="51.29265" lon="4.80252"></trkpt>
      <trkpt lat="51.29264" lon="4.80239"></trkpt>
      <trkpt lat="51.29262" lon="4.80226"></trkpt>
      <trkpt lat="51.29261" lon="4.80213"></trkpt>
      <trkpt lat="51.29259" lon="4.80201"></trkpt>
      <trkpt lat="51.29257" lon="4.80187"></trkpt>
      <trkpt lat="51.29256" lon="4.80174"></trkpt>
      <trkpt lat="51.29255" lon="4.80162"></trkpt>
      <trkpt lat="51.29252" lon="4.80149"></trkpt>
      <trkpt lat="51.29250" lon="4.80138"></trkpt>
      <trkpt lat="51.29246" lon="4.80128"></trkpt>
      <trkpt lat="51.29242" lon="4.80116"></trkpt>
      <trkpt lat="51.29239" lon="4.80105"></trkpt>
      <trkpt lat="51.29235" lon="4.80095"></trkpt>
      <trkpt lat="51.29230" lon="4.80086"></trkpt>
      <trkpt lat="51.29225" lon="4.80077"></trkpt>
      <trkpt lat="51.29223" lon="4.80065"></trkpt>
      <trkpt lat="51.29221" lon="4.80057"></trkpt>
      <trkpt lat="51.29219" lon="4.80052"></trkpt>
      <trkpt lat="51.29219" lon="4.80050"></trkpt>
      <trkpt lat="51.29219" lon="4.80050"></trkpt>
      <trkpt lat="51.29218" lon="4.80049"></trkpt>
      <trkpt lat="51.29218" lon="4.80048"></trkpt>
      <trkpt lat="51.29217" lon="4.80043"></trkpt>
      <trkpt lat="51.29217" lon="4.80040"></trkpt>
      <trkpt lat="51.29217" lon="4.80039"></trkpt>
      <trkpt lat="51.29217" lon="4.80037"></trkpt>
      <trkpt lat="51.29216" lon="4.80030"></trkpt>
      <trkpt lat="51.29215" lon="4.80017"></trkpt>
      <trkpt lat="51.29214" lon="4.80006"></trkpt>
      <trkpt lat="51.29213" lon="4.79993"></trkpt>
      <trkpt lat="51.29212" lon="4.79980"></trkpt>
      <trkpt lat="51.29211" lon="4.79966"></trkpt>
      <trkpt lat="51.29210" lon="4.79952"></trkpt>
      <trkpt lat="51.29209" lon="4.79939"></trkpt>
      <trkpt lat="51.29207" lon="4.79925"></trkpt>
      <trkpt lat="51.29206" lon="4.79911"></trkpt>
      <trkpt lat="51.29204" lon="4.79897"></trkpt>
      <trkpt lat="51.29203" lon="4.79884"></trkpt>
      <trkpt lat="51.29202" lon="4.79871"></trkpt>
      <trkpt lat="51.29202" lon="4.79859"></trkpt>
      <trkpt lat="51.29201" lon="4.79850"></trkpt>
      <trkpt lat="51.29201" lon="4.79849"></trkpt>
      <trkpt lat="51.29201" lon="4.79849"></trkpt>
      <trkpt lat="51.29201" lon="4.79849"></trkpt>
      <trkpt lat="51.29201" lon="4.79849"></trkpt>
      <trkpt lat="51.29201" lon="4.79849"></trkpt>
      <trkpt lat="51.29201" lon="4.79848"></trkpt>
      <trkpt lat="51.29201" lon="4.79848"></trkpt>
      <trkpt lat="51.29201" lon="4.79848"></trkpt>
      <trkpt lat="51.29201" lon="4.79848"></trkpt>
      <trkpt lat="51.29201" lon="4.79848"></trkpt>
      <trkpt lat="51.29201" lon="4.79847"></trkpt>
      <trkpt lat="51.29201" lon="4.79847"></trkpt>
      <trkpt lat="51.29201" lon="4.79847"></trkpt>
      <trkpt lat="51.29201" lon="4.79847"></trkpt>
      <trkpt lat="51.29201" lon="4.79847"></trkpt>
      <trkpt lat="51.29201" lon="4.79846"></trkpt>
      <trkpt lat="51.29201" lon="4.79846"></trkpt>
      <trkpt lat="51.29200" lon="4.79840"></trkpt>
      <trkpt lat="51.29198" lon="4.79823"></trkpt>
      <trkpt lat="51.29197" lon="4.79809"></trkpt>
      <trkpt lat="51.29195" lon="4.79796"></trkpt>
      <trkpt lat="51.29193" lon="4.79782"></trkpt>
      <trkpt lat="51.29192" lon="4.79769"></trkpt>
      <trkpt lat="51.29190" lon="4.79755"></trkpt>
      <trkpt lat="51.29188" lon="4.79742"></trkpt>
      <trkpt lat="51.29183" lon="4.79732"></trkpt>
      <trkpt lat="51.29176" lon="4.79725"></trkpt>
      <trkpt lat="51.29169" lon="4.79717"></trkpt>
      <trkpt lat="51.29163" lon="4.79707"></trkpt>
      <trkpt lat="51.29158" lon="4.79696"></trkpt>
      <trkpt lat="51.29154" lon="4.79684"></trkpt>
      <trkpt lat="51.29150" lon="4.79672"></trkpt>
      <trkpt lat="51.29147" lon="4.79659"></trkpt>
      <trkpt lat="51.29142" lon="4.79648"></trkpt>
      <trkpt lat="51.29138" lon="4.79638"></trkpt>
      <trkpt lat="51.29134" lon="4.79627"></trkpt>
      <trkpt lat="51.29130" lon="4.79616"></trkpt>
      <trkpt lat="51.29126" lon="4.79604"></trkpt>
      <trkpt lat="51.29122" lon="4.79593"></trkpt>
      <trkpt lat="51.29118" lon="4.79580"></trkpt>
      <trkpt lat="51.29114" lon="4.79568"></trkpt>
      <trkpt lat="51.29110" lon="4.79557"></trkpt>
      <trkpt lat="51.29106" lon="4.79547"></trkpt>
      <trkpt lat="51.29105" lon="4.79536"></trkpt>
      <trkpt lat="51.29108" lon="4.79526"></trkpt>
      <trkpt lat="51.29114" lon="4.79517"></trkpt>
      <trkpt lat="51.29119" lon="4.79509"></trkpt>
      <trkpt lat="51.29125" lon="4.79501"></trkpt>
      <trkpt lat="51.29130" lon="4.79493"></trkpt>
      <trkpt lat="51.29136" lon="4.79485"></trkpt>
      <trkpt lat="51.29142" lon="4.79478"></trkpt>
      <trkpt lat="51.29147" lon="4.79469"></trkpt>
      <trkpt lat="51.29152" lon="4.79459"></trkpt>
      <trkpt lat="51.29158" lon="4.79449"></trkpt>
      <trkpt lat="51.29163" lon="4.79438"></trkpt>
      <trkpt lat="51.29167" lon="4.79427"></trkpt>
      <trkpt lat="51.29170" lon="4.79417"></trkpt>
      <trkpt lat="51.29172" lon="4.79411"></trkpt>
      <trkpt lat="51.29174" lon="4.79408"></trkpt>
      <trkpt lat="51.29174" lon="4.79407"></trkpt>
      <trkpt lat="51.29175" lon="4.79406"></trkpt>
      <trkpt lat="51.29175" lon="4.79406"></trkpt>
      <trkpt lat="51.29175" lon="4.79406"></trkpt>
      <trkpt lat="51.29175" lon="4.79405"></trkpt>
      <trkpt lat="51.29175" lon="4.79405"></trkpt>
      <trkpt lat="51.29175" lon="4.79405"></trkpt>
      <trkpt lat="51.29175" lon="4.79404"></trkpt>
      <trkpt lat="51.29175" lon="4.79404"></trkpt>
      <trkpt lat="51.29176" lon="4.79404"></trkpt>
      <trkpt lat="51.29177" lon="4.79400"></trkpt>
      <trkpt lat="51.29179" lon="4.79390"></trkpt>
      <trkpt lat="51.29181" lon="4.79382"></trkpt>
      <trkpt lat="51.29184" lon="4.79378"></trkpt>
      <trkpt lat="51.29185" lon="4.79376"></trkpt>
      <trkpt lat="51.29186" lon="4.79370"></trkpt>
      <trkpt lat="51.29187" lon="4.79364"></trkpt>
      <trkpt lat="51.29189" lon="4.79358"></trkpt>
      <trkpt lat="51.29191" lon="4.79353"></trkpt>
      <trkpt lat="51.29193" lon="4.79348"></trkpt>
      <trkpt lat="51.29194" lon="4.79343"></trkpt>
      <trkpt lat="51.29195" lon="4.79340"></trkpt>
      <trkpt lat="51.29195" lon="4.79339"></trkpt>
      <trkpt lat="51.29196" lon="4.79339"></trkpt>
      <trkpt lat="51.29196" lon="4.79339"></trkpt>
      <trkpt lat="51.29196" lon="4.79338"></trkpt>
      <trkpt lat="51.29196" lon="4.79338"></trkpt>
      <trkpt lat="51.29196" lon="4.79338"></trkpt>
      <trkpt lat="51.29196" lon="4.79337"></trkpt>
      <trkpt lat="51.29196" lon="4.79337"></trkpt>
      <trkpt lat="51.29196" lon="4.79337"></trkpt>
      <trkpt lat="51.29196" lon="4.79336"></trkpt>
      <trkpt lat="51.29196" lon="4.79336"></trkpt>
      <trkpt lat="51.29198" lon="4.79327"></trkpt>
      <trkpt lat="51.29203" lon="4.79310"></trkpt>
      <trkpt lat="51.29207" lon="4.79298"></trkpt>
      <trkpt lat="51.29211" lon="4.79286"></trkpt>
      <trkpt lat="51.29214" lon="4.79274"></trkpt>
      <trkpt lat="51.29219" lon="4.79263"></trkpt>
      <trkpt lat="51.29222" lon="4.79251"></trkpt>
      <trkpt lat="51.29227" lon="4.79240"></trkpt>
      <trkpt lat="51.29231" lon="4.79229"></trkpt>
      <trkpt lat="51.29236" lon="4.79217"></trkpt>
      <trkpt lat="51.29241" lon="4.79205"></trkpt>
      <trkpt lat="51.29246" lon="4.79194"></trkpt>
      <trkpt lat="51.29249" lon="4.79182"></trkpt>
      <trkpt lat="51.29253" lon="4.79170"></trkpt>
      <trkpt lat="51.29256" lon="4.79158"></trkpt>
      <trkpt lat="51.29260" lon="4.79146"></trkpt>
      <trkpt lat="51.29263" lon="4.79133"></trkpt>
      <trkpt lat="51.29266" lon="4.79121"></trkpt>
      <trkpt lat="51.29268" lon="4.79108"></trkpt>
      <trkpt lat="51.29271" lon="4.79097"></trkpt>
      <trkpt lat="51.29273" lon="4.79086"></trkpt>
      <trkpt lat="51.29276" lon="4.79075"></trkpt>
      <trkpt lat="51.29278" lon="4.79063"></trkpt>
      <trkpt lat="51.29281" lon="4.79051"></trkpt>
      <trkpt lat="51.29283" lon="4.79039"></trkpt>
      <trkpt lat="51.29285" lon="4.79026"></trkpt>
      <trkpt lat="51.29287" lon="4.79015"></trkpt>
      <trkpt lat="51.29289" lon="4.79002"></trkpt>
      <trkpt lat="51.29291" lon="4.78990"></trkpt>
      <trkpt lat="51.29293" lon="4.78978"></trkpt>
      <trkpt lat="51.29294" lon="4.78964"></trkpt>
      <trkpt lat="51.29297" lon="4.78952"></trkpt>
      <trkpt lat="51.29300" lon="4.78940"></trkpt>
      <trkpt lat="51.29302" lon="4.78926"></trkpt>
      <trkpt lat="51.29304" lon="4.78914"></trkpt>
      <trkpt lat="51.29307" lon="4.78901"></trkpt>
      <trkpt lat="51.29309" lon="4.78887"></trkpt>
      <trkpt lat="51.29311" lon="4.78873"></trkpt>
      <trkpt lat="51.29314" lon="4.78861"></trkpt>
      <trkpt lat="51.29317" lon="4.78849"></trkpt>
      <trkpt lat="51.29319" lon="4.78837"></trkpt>
      <trkpt lat="51.29321" lon="4.78825"></trkpt>
      <trkpt lat="51.29323" lon="4.78814"></trkpt>
      <trkpt lat="51.29322" lon="4.78804"></trkpt>
      <trkpt lat="51.29316" lon="4.78804"></trkpt>
      <trkpt lat="51.29308" lon="4.78808"></trkpt>
      <trkpt lat="51.29301" lon="4.78810"></trkpt>
      <trkpt lat="51.29293" lon="4.78815"></trkpt>
      <trkpt lat="51.29286" lon="4.78818"></trkpt>
      <trkpt lat="51.29278" lon="4.78819"></trkpt>
      <trkpt lat="51.29269" lon="4.78820"></trkpt>
      <trkpt lat="51.29261" lon="4.78820"></trkpt>
      <trkpt lat="51.29253" lon="4.78818"></trkpt>
      <trkpt lat="51.29245" lon="4.78814"></trkpt>
      <trkpt lat="51.29238" lon="4.78809"></trkpt>
      <trkpt lat="51.29230" lon="4.78804"></trkpt>
      <trkpt lat="51.29222" lon="4.78799"></trkpt>
      <trkpt lat="51.29214" lon="4.78794"></trkpt>
      <trkpt lat="51.29206" lon="4.78789"></trkpt>
      <trkpt lat="51.29198" lon="4.78785"></trkpt>
      <trkpt lat="51.29190" lon="4.78780"></trkpt>
      <trkpt lat="51.29183" lon="4.78775"></trkpt>
      <trkpt lat="51.29175" lon="4.78770"></trkpt>
      <trkpt lat="51.29167" lon="4.78765"></trkpt>
      <trkpt lat="51.29158" lon="4.78760"></trkpt>
      <trkpt lat="51.29151" lon="4.78756"></trkpt>
      <trkpt lat="51.29143" lon="4.78751"></trkpt>
      <trkpt lat="51.29136" lon="4.78746"></trkpt>
      <trkpt lat="51.29128" lon="4.78743"></trkpt>
      <trkpt lat="51.29120" lon="4.78740"></trkpt>
      <trkpt lat="51.29113" lon="4.78736"></trkpt>
      <trkpt lat="51.29105" lon="4.78731"></trkpt>
      <trkpt lat="51.29098" lon="4.78726"></trkpt>
      <trkpt lat="51.29090" lon="4.78721"></trkpt>
      <trkpt lat="51.29082" lon="4.78716"></trkpt>
      <trkpt lat="51.29075" lon="4.78711"></trkpt>
      <trkpt lat="51.29067" lon="4.78706"></trkpt>
      <trkpt lat="51.29060" lon="4.78701"></trkpt>
      <trkpt lat="51.29052" lon="4.78695"></trkpt>
      <trkpt lat="51.29045" lon="4.78690"></trkpt>
      <trkpt lat="51.29037" lon="4.78685"></trkpt>
      <trkpt lat="51.29029" lon="4.78679"></trkpt>
      <trkpt lat="51.29022" lon="4.78674"></trkpt>
      <trkpt lat="51.29015" lon="4.78669"></trkpt>
      <trkpt lat="51.29008" lon="4.78663"></trkpt>
      <trkpt lat="51.29000" lon="4.78658"></trkpt>
      <trkpt lat="51.28993" lon="4.78652"></trkpt>
      <trkpt lat="51.28987" lon="4.78650"></trkpt>
      <trkpt lat="51.28983" lon="4.78652"></trkpt>
      <trkpt lat="51.28982" lon="4.78654"></trkpt>
      <trkpt lat="51.28981" lon="4.78656"></trkpt>
      <trkpt lat="51.28977" lon="4.78656"></trkpt>
      <trkpt lat="51.28975" lon="4.78653"></trkpt>
      <trkpt lat="51.28975" lon="4.78652"></trkpt>
      <trkpt lat="51.28974" lon="4.78651"></trkpt>
      <trkpt lat="51.28974" lon="4.78651"></trkpt>
      <trkpt lat="51.28974" lon="4.78651"></trkpt>
      <trkpt lat="51.28974" lon="4.78651"></trkpt>
      <trkpt lat="51.28974" lon="4.78651"></trkpt>
      <trkpt lat="51.28975" lon="4.78651"></trkpt>
      <trkpt lat="51.28975" lon="4.78651"></trkpt>
      <trkpt lat="51.28975" lon="4.78651"></trkpt>
      <trkpt lat="51.28975" lon="4.78652"></trkpt>
      <trkpt lat="51.28975" lon="4.78652"></trkpt>
      <trkpt lat="51.28975" lon="4.78652"></trkpt>
      <trkpt lat="51.28975" lon="4.78652"></trkpt>
      <trkpt lat="51.28975" lon="4.78652"></trkpt>
      <trkpt lat="51.28975" lon="4.78652"></trkpt>
      <trkpt lat="51.28975" lon="4.78652"></trkpt>
      <trkpt lat="51.28975" lon="4.78652"></trkpt>
      <trkpt lat="51.28975" lon="4.78652"></trkpt>
      <trkpt lat="51.28975" lon="4.78652"></trkpt>
      <trkpt lat="51.28975" lon="4.78652"></trkpt>
      <trkpt lat="51.28975" lon="4.78652"></trkpt>
      <trkpt lat="51.28975" lon="4.78652"></trkpt>
      <trkpt lat="51.28975" lon="4.78652"></trkpt>
      <trkpt lat="51.28975" lon="4.78652"></trkpt>
      <trkpt lat="51.28975" lon="4.78652"></trkpt>
      <trkpt lat="51.28975" lon="4.78652"></trkpt>
      <trkpt lat="51.28975" lon="4.78652"></trkpt>
      <trkpt lat="51.28975" lon="4.78652"></trkpt>
      <trkpt lat="51.28975" lon="4.78652"></trkpt>
      <trkpt lat="51.28975" lon="4.78652"></trkpt>
      <trkpt lat="51.28975" lon="4.78652"></trkpt>
      <trkpt lat="51.28975" lon="4.78652"></trkpt>
      <trkpt lat="51.28976" lon="4.78652"></trkpt>
      <trkpt lat="51.28976" lon="4.78652"></trkpt>
      <trkpt lat="51.28976" lon="4.78652"></trkpt>
      <trkpt lat="51.28976" lon="4.78652"></trkpt>
      <trkpt lat="51.28976" lon="4.78652"></trkpt>
      <trkpt lat="51.28976" lon="4.78652"></trkpt>
      <trkpt lat="51.28976" lon="4.78652"></trkpt>
      <trkpt lat="51.28976" lon="4.78652"></trkpt>
      <trkpt lat="51.28976" lon="4.78652"></trkpt>
      <trkpt lat="51.28976" lon="4.78652"></trkpt>
      <trkpt lat="51.28976" lon="4.78652"></trkpt>
      <trkpt lat="51.28976" lon="4.78652"></trkpt>
      <trkpt lat="51.28976" lon="4.78652"></trkpt>
      <trkpt lat="51.28976" lon="4.78652"></trkpt>
      <trkpt lat="51.28976" lon="4.78652"></trkpt>
      <trkpt lat="51.28976" lon="4.78652"></trkpt>
      <trkpt lat="51.28976" lon="4.78652"></trkpt>
      <trkpt lat="51.28976" lon="4.78652"></trkpt>
      <trkpt lat="51.28976" lon="4.78652"></trkpt>
      <trkpt lat="51.28976" lon="4.78652"></trkpt>
      <trkpt lat="51.28976" lon="4.78652"></trkpt>
      <trkpt lat="51.28976" lon="4.78652"></trkpt>
      <trkpt lat="51.28976" lon="4.78652"></trkpt>
      <trkpt lat="51.28976" lon="4.78653"></trkpt>
      <trkpt lat="51.28976" lon="4.78653"></trkpt>
      <trkpt lat="51.28976" lon="4.78653"></trkpt>
      <trkpt lat="51.28977" lon="4.78653"></trkpt>
      <trkpt lat="51.28977" lon="4.78653"></trkpt>
      <trkpt lat="51.28977" lon="4.78653"></trkpt>
      <trkpt lat="51.28977" lon="4.78653"></trkpt>
      <trkpt lat="51.28977" lon="4.78653"></trkpt>
      <trkpt lat="51.28980" lon="4.78653"></trkpt>
      <trkpt lat="51.28981" lon="4.78649"></trkpt>
      <trkpt lat="51.28977" lon="4.78642"></trkpt>
      <trkpt lat="51.28970" lon="4.78635"></trkpt>
      <trkpt lat="51.28962" lon="4.78629"></trkpt>
      <trkpt lat="51.28955" lon="4.78623"></trkpt>
      <trkpt lat="51.28948" lon="4.78616"></trkpt>
      <trkpt lat="51.28945" lon="4.78604"></trkpt>
      <trkpt lat="51.28947" lon="4.78591"></trkpt>
      <trkpt lat="51.28951" lon="4.78579"></trkpt>
      <trkpt lat="51.28954" lon="4.78566"></trkpt>
      <trkpt lat="51.28957" lon="4.78553"></trkpt>
      <trkpt lat="51.28961" lon="4.78540"></trkpt>
      <trkpt lat="51.28966" lon="4.78528"></trkpt>
      <trkpt lat="51.28971" lon="4.78517"></trkpt>
      <trkpt lat="51.28976" lon="4.78506"></trkpt>
      <trkpt lat="51.28981" lon="4.78495"></trkpt>
      <trkpt lat="51.28986" lon="4.78484"></trkpt>
      <trkpt lat="51.28993" lon="4.78474"></trkpt>
      <trkpt lat="51.28999" lon="4.78464"></trkpt>
      <trkpt lat="51.29005" lon="4.78454"></trkpt>
      <trkpt lat="51.29011" lon="4.78444"></trkpt>
      <trkpt lat="51.29017" lon="4.78434"></trkpt>
      <trkpt lat="51.29024" lon="4.78425"></trkpt>
      <trkpt lat="51.29029" lon="4.78414"></trkpt>
      <trkpt lat="51.29032" lon="4.78401"></trkpt>
      <trkpt lat="51.29030" lon="4.78387"></trkpt>
      <trkpt lat="51.29027" lon="4.78373"></trkpt>
      <trkpt lat="51.29023" lon="4.78360"></trkpt>
      <trkpt lat="51.29019" lon="4.78347"></trkpt>
      <trkpt lat="51.29017" lon="4.78334"></trkpt>
      <trkpt lat="51.29015" lon="4.78320"></trkpt>
      <trkpt lat="51.29014" lon="4.78307"></trkpt>
      <trkpt lat="51.29011" lon="4.78294"></trkpt>
      <trkpt lat="51.29009" lon="4.78281"></trkpt>
      <trkpt lat="51.29005" lon="4.78269"></trkpt>
      <trkpt lat="51.29002" lon="4.78256"></trkpt>
      <trkpt lat="51.29000" lon="4.78243"></trkpt>
      <trkpt lat="51.28998" lon="4.78230"></trkpt>
      <trkpt lat="51.28997" lon="4.78216"></trkpt>
      <trkpt lat="51.28996" lon="4.78203"></trkpt>
      <trkpt lat="51.28997" lon="4.78190"></trkpt>
      <trkpt lat="51.28999" lon="4.78177"></trkpt>
      <trkpt lat="51.29000" lon="4.78165"></trkpt>
      <trkpt lat="51.28996" lon="4.78156"></trkpt>
      <trkpt lat="51.28989" lon="4.78150"></trkpt>
      <trkpt lat="51.28981" lon="4.78146"></trkpt>
      <trkpt lat="51.28973" lon="4.78144"></trkpt>
      <trkpt lat="51.28965" lon="4.78145"></trkpt>
      <trkpt lat="51.28957" lon="4.78149"></trkpt>
      <trkpt lat="51.28949" lon="4.78152"></trkpt>
      <trkpt lat="51.28942" lon="4.78156"></trkpt>
      <trkpt lat="51.28934" lon="4.78160"></trkpt>
      <trkpt lat="51.28926" lon="4.78163"></trkpt>
      <trkpt lat="51.28918" lon="4.78167"></trkpt>
      <trkpt lat="51.28910" lon="4.78172"></trkpt>
      <trkpt lat="51.28902" lon="4.78176"></trkpt>
      <trkpt lat="51.28894" lon="4.78179"></trkpt>
      <trkpt lat="51.28886" lon="4.78183"></trkpt>
      <trkpt lat="51.28877" lon="4.78187"></trkpt>
      <trkpt lat="51.28869" lon="4.78191"></trkpt>
      <trkpt lat="51.28860" lon="4.78195"></trkpt>
      <trkpt lat="51.28854" lon="4.78199"></trkpt>
      <trkpt lat="51.28851" lon="4.78200"></trkpt>
      <trkpt lat="51.28851" lon="4.78200"></trkpt>
      <trkpt lat="51.28850" lon="4.78200"></trkpt>
      <trkpt lat="51.28850" lon="4.78201"></trkpt>
      <trkpt lat="51.28850" lon="4.78201"></trkpt>
      <trkpt lat="51.28849" lon="4.78201"></trkpt>
      <trkpt lat="51.28849" lon="4.78201"></trkpt>
      <trkpt lat="51.28848" lon="4.78201"></trkpt>
      <trkpt lat="51.28847" lon="4.78202"></trkpt>
      <trkpt lat="51.28839" lon="4.78205"></trkpt>
      <trkpt lat="51.28831" lon="4.78208"></trkpt>
      <trkpt lat="51.28823" lon="4.78213"></trkpt>
      <trkpt lat="51.28815" lon="4.78218"></trkpt>
      <trkpt lat="51.28807" lon="4.78220"></trkpt>
      <trkpt lat="51.28799" lon="4.78224"></trkpt>
      <trkpt lat="51.28790" lon="4.78228"></trkpt>
      <trkpt lat="51.28781" lon="4.78231"></trkpt>
      <trkpt lat="51.28773" lon="4.78235"></trkpt>
      <trkpt lat="51.28765" lon="4.78239"></trkpt>
      <trkpt lat="51.28757" lon="4.78242"></trkpt>
      <trkpt lat="51.28749" lon="4.78244"></trkpt>
      <trkpt lat="51.28742" lon="4.78246"></trkpt>
      <trkpt lat="51.28736" lon="4.78244"></trkpt>
      <trkpt lat="51.28729" lon="4.78238"></trkpt>
      <trkpt lat="51.28722" lon="4.78229"></trkpt>
      <trkpt lat="51.28716" lon="4.78221"></trkpt>
      <trkpt lat="51.28710" lon="4.78212"></trkpt>
      <trkpt lat="51.28704" lon="4.78203"></trkpt>
      <trkpt lat="51.28698" lon="4.78194"></trkpt>
      <trkpt lat="51.28692" lon="4.78185"></trkpt>
      <trkpt lat="51.28686" lon="4.78175"></trkpt>
      <trkpt lat="51.28681" lon="4.78165"></trkpt>
      <trkpt lat="51.28676" lon="4.78155"></trkpt>
      <trkpt lat="51.28671" lon="4.78144"></trkpt>
      <trkpt lat="51.28666" lon="4.78132"></trkpt>
      <trkpt lat="51.28662" lon="4.78120"></trkpt>
      <trkpt lat="51.28659" lon="4.78109"></trkpt>
      <trkpt lat="51.28655" lon="4.78098"></trkpt>
      <trkpt lat="51.28650" lon="4.78086"></trkpt>
      <trkpt lat="51.28646" lon="4.78073"></trkpt>
      <trkpt lat="51.28642" lon="4.78062"></trkpt>
      <trkpt lat="51.28640" lon="4.78054"></trkpt>
      <trkpt lat="51.28638" lon="4.78047"></trkpt>
      <trkpt lat="51.28637" lon="4.78041"></trkpt>
      <trkpt lat="51.28634" lon="4.78033"></trkpt>
      <trkpt lat="51.28631" lon="4.78021"></trkpt>
      <trkpt lat="51.28628" lon="4.78013"></trkpt>
      <trkpt lat="51.28624" lon="4.78013"></trkpt>
      <trkpt lat="51.28618" lon="4.78020"></trkpt>
      <trkpt lat="51.28611" lon="4.78029"></trkpt>
      <trkpt lat="51.28604" lon="4.78038"></trkpt>
      <trkpt lat="51.28597" lon="4.78047"></trkpt>
      <trkpt lat="51.28591" lon="4.78056"></trkpt>
      <trkpt lat="51.28585" lon="4.78064"></trkpt>
      <trkpt lat="51.28579" lon="4.78073"></trkpt>
      <trkpt lat="51.28572" lon="4.78082"></trkpt>
      <trkpt lat="51.28567" lon="4.78092"></trkpt>
      <trkpt lat="51.28561" lon="4.78100"></trkpt>
      <trkpt lat="51.28554" lon="4.78109"></trkpt>
      <trkpt lat="51.28551" lon="4.78115"></trkpt>
      <trkpt lat="51.28548" lon="4.78120"></trkpt>
      <trkpt lat="51.28545" lon="4.78124"></trkpt>
      <trkpt lat="51.28543" lon="4.78127"></trkpt>
      <trkpt lat="51.28542" lon="4.78128"></trkpt>
      <trkpt lat="51.28542" lon="4.78130"></trkpt>
      <trkpt lat="51.28538" lon="4.78136"></trkpt>
      <trkpt lat="51.28535" lon="4.78141"></trkpt>
      <trkpt lat="51.28531" lon="4.78145"></trkpt>
      <trkpt lat="51.28528" lon="4.78150"></trkpt>
      <trkpt lat="51.28525" lon="4.78154"></trkpt>
      <trkpt lat="51.28522" lon="4.78158"></trkpt>
      <trkpt lat="51.28519" lon="4.78162"></trkpt>
      <trkpt lat="51.28516" lon="4.78165"></trkpt>
      <trkpt lat="51.28514" lon="4.78169"></trkpt>
      <trkpt lat="51.28511" lon="4.78173"></trkpt>
      <trkpt lat="51.28509" lon="4.78178"></trkpt>
      <trkpt lat="51.28506" lon="4.78183"></trkpt>
      <trkpt lat="51.28503" lon="4.78187"></trkpt>
      <trkpt lat="51.28501" lon="4.78190"></trkpt>
      <trkpt lat="51.28499" lon="4.78193"></trkpt>
      <trkpt lat="51.28497" lon="4.78198"></trkpt>
      <trkpt lat="51.28494" lon="4.78203"></trkpt>
      <trkpt lat="51.28492" lon="4.78207"></trkpt>
      <trkpt lat="51.28489" lon="4.78213"></trkpt>
      <trkpt lat="51.28486" lon="4.78218"></trkpt>
      <trkpt lat="51.28484" lon="4.78224"></trkpt>
      <trkpt lat="51.28481" lon="4.78230"></trkpt>
      <trkpt lat="51.28478" lon="4.78236"></trkpt>
      <trkpt lat="51.28475" lon="4.78241"></trkpt>
      <trkpt lat="51.28472" lon="4.78247"></trkpt>
      <trkpt lat="51.28469" lon="4.78252"></trkpt>
      <trkpt lat="51.28466" lon="4.78258"></trkpt>
      <trkpt lat="51.28463" lon="4.78264"></trkpt>
      <trkpt lat="51.28460" lon="4.78269"></trkpt>
      <trkpt lat="51.28458" lon="4.78275"></trkpt>
      <trkpt lat="51.28455" lon="4.78280"></trkpt>
      <trkpt lat="51.28451" lon="4.78285"></trkpt>
      <trkpt lat="51.28448" lon="4.78291"></trkpt>
      <trkpt lat="51.28445" lon="4.78297"></trkpt>
      <trkpt lat="51.28442" lon="4.78303"></trkpt>
      <trkpt lat="51.28439" lon="4.78308"></trkpt>
      <trkpt lat="51.28435" lon="4.78313"></trkpt>
      <trkpt lat="51.28432" lon="4.78319"></trkpt>
      <trkpt lat="51.28429" lon="4.78325"></trkpt>
      <trkpt lat="51.28426" lon="4.78331"></trkpt>
      <trkpt lat="51.28423" lon="4.78337"></trkpt>
      <trkpt lat="51.28420" lon="4.78343"></trkpt>
      <trkpt lat="51.28416" lon="4.78349"></trkpt>
      <trkpt lat="51.28413" lon="4.78354"></trkpt>
      <trkpt lat="51.28410" lon="4.78360"></trkpt>
      <trkpt lat="51.28407" lon="4.78366"></trkpt>
      <trkpt lat="51.28404" lon="4.78372"></trkpt>
      <trkpt lat="51.28400" lon="4.78378"></trkpt>
      <trkpt lat="51.28397" lon="4.78384"></trkpt>
      <trkpt lat="51.28394" lon="4.78392"></trkpt>
      <trkpt lat="51.28391" lon="4.78399"></trkpt>
      <trkpt lat="51.28387" lon="4.78405"></trkpt>
      <trkpt lat="51.28383" lon="4.78411"></trkpt>
      <trkpt lat="51.28379" lon="4.78418"></trkpt>
      <trkpt lat="51.28376" lon="4.78425"></trkpt>
      <trkpt lat="51.28372" lon="4.78431"></trkpt>
      <trkpt lat="51.28369" lon="4.78437"></trkpt>
      <trkpt lat="51.28365" lon="4.78442"></trkpt>
      <trkpt lat="51.28362" lon="4.78447"></trkpt>
      <trkpt lat="51.28358" lon="4.78452"></trkpt>
      <trkpt lat="51.28355" lon="4.78454"></trkpt>
      <trkpt lat="51.28351" lon="4.78456"></trkpt>
      <trkpt lat="51.28348" lon="4.78458"></trkpt>
      <trkpt lat="51.28344" lon="4.78460"></trkpt>
      <trkpt lat="51.28340" lon="4.78463"></trkpt>
      <trkpt lat="51.28335" lon="4.78466"></trkpt>
      <trkpt lat="51.28331" lon="4.78468"></trkpt>
      <trkpt lat="51.28327" lon="4.78471"></trkpt>
      <trkpt lat="51.28322" lon="4.78473"></trkpt>
      <trkpt lat="51.28318" lon="4.78475"></trkpt>
      <trkpt lat="51.28314" lon="4.78475"></trkpt>
      <trkpt lat="51.28310" lon="4.78476"></trkpt>
      <trkpt lat="51.28306" lon="4.78476"></trkpt>
      <trkpt lat="51.28301" lon="4.78476"></trkpt>
      <trkpt lat="51.28297" lon="4.78475"></trkpt>
      <trkpt lat="51.28293" lon="4.78473"></trkpt>
      <trkpt lat="51.28288" lon="4.78470"></trkpt>
      <trkpt lat="51.28284" lon="4.78466"></trkpt>
      <trkpt lat="51.28279" lon="4.78464"></trkpt>
      <trkpt lat="51.28275" lon="4.78460"></trkpt>
      <trkpt lat="51.28271" lon="4.78458"></trkpt>
      <trkpt lat="51.28267" lon="4.78454"></trkpt>
      <trkpt lat="51.28262" lon="4.78450"></trkpt>
      <trkpt lat="51.28258" lon="4.78446"></trkpt>
      <trkpt lat="51.28253" lon="4.78443"></trkpt>
      <trkpt lat="51.28249" lon="4.78440"></trkpt>
      <trkpt lat="51.28244" lon="4.78436"></trkpt>
      <trkpt lat="51.28239" lon="4.78433"></trkpt>
      <trkpt lat="51.28235" lon="4.78430"></trkpt>
      <trkpt lat="51.28230" lon="4.78427"></trkpt>
      <trkpt lat="51.28226" lon="4.78423"></trkpt>
      <trkpt lat="51.28222" lon="4.78419"></trkpt>
      <trkpt lat="51.28219" lon="4.78415"></trkpt>
      <trkpt lat="51.28217" lon="4.78413"></trkpt>
      <trkpt lat="51.28216" lon="4.78411"></trkpt>
      <trkpt lat="51.28216" lon="4.78411"></trkpt>
      <trkpt lat="51.28215" lon="4.78411"></trkpt>
      <trkpt lat="51.28215" lon="4.78411"></trkpt>
      <trkpt lat="51.28215" lon="4.78412"></trkpt>
      <trkpt lat="51.28215" lon="4.78412"></trkpt>
      <trkpt lat="51.28214" lon="4.78412"></trkpt>
      <trkpt lat="51.28214" lon="4.78413"></trkpt>
      <trkpt lat="51.28214" lon="4.78413"></trkpt>
      <trkpt lat="51.28214" lon="4.78413"></trkpt>
      <trkpt lat="51.28213" lon="4.78414"></trkpt>
      <trkpt lat="51.28213" lon="4.78414"></trkpt>
      <trkpt lat="51.28213" lon="4.78414"></trkpt>
      <trkpt lat="51.28213" lon="4.78414"></trkpt>
      <trkpt lat="51.28212" lon="4.78415"></trkpt>
      <trkpt lat="51.28212" lon="4.78415"></trkpt>
      <trkpt lat="51.28212" lon="4.78415"></trkpt>
      <trkpt lat="51.28212" lon="4.78416"></trkpt>
      <trkpt lat="51.28211" lon="4.78416"></trkpt>
      <trkpt lat="51.28211" lon="4.78416"></trkpt>
      <trkpt lat="51.28209" lon="4.78416"></trkpt>
      <trkpt lat="51.28202" lon="4.78415"></trkpt>
      <trkpt lat="51.28196" lon="4.78410"></trkpt>
      <trkpt lat="51.28190" lon="4.78402"></trkpt>
      <trkpt lat="51.28182" lon="4.78396"></trkpt>
      <trkpt lat="51.28174" lon="4.78389"></trkpt>
      <trkpt lat="51.28168" lon="4.78384"></trkpt>
      <trkpt lat="51.28163" lon="4.78382"></trkpt>
      <trkpt lat="51.28159" lon="4.78382"></trkpt>
      <trkpt lat="51.28155" lon="4.78379"></trkpt>
      <trkpt lat="51.28149" lon="4.78374"></trkpt>
      <trkpt lat="51.28144" lon="4.78372"></trkpt>
      <trkpt lat="51.28138" lon="4.78369"></trkpt>
      <trkpt lat="51.28133" lon="4.78365"></trkpt>
      <trkpt lat="51.28127" lon="4.78362"></trkpt>
      <trkpt lat="51.28122" lon="4.78361"></trkpt>
      <trkpt lat="51.28116" lon="4.78359"></trkpt>
      <trkpt lat="51.28109" lon="4.78356"></trkpt>
      <trkpt lat="51.28101" lon="4.78350"></trkpt>
      <trkpt lat="51.28094" lon="4.78342"></trkpt>
      <trkpt lat="51.28086" lon="4.78338"></trkpt>
      <trkpt lat="51.28077" lon="4.78333"></trkpt>
      <trkpt lat="51.28071" lon="4.78326"></trkpt>
      <trkpt lat="51.28064" lon="4.78320"></trkpt>
      <trkpt lat="51.28057" lon="4.78315"></trkpt>
      <trkpt lat="51.28048" lon="4.78310"></trkpt>
      <trkpt lat="51.28040" lon="4.78305"></trkpt>
      <trkpt lat="51.28034" lon="4.78300"></trkpt>
      <trkpt lat="51.28029" lon="4.78295"></trkpt>
      <trkpt lat="51.28023" lon="4.78289"></trkpt>
      <trkpt lat="51.28019" lon="4.78283"></trkpt>
      <trkpt lat="51.28015" lon="4.78279"></trkpt>
      <trkpt lat="51.28011" lon="4.78274"></trkpt>
      <trkpt lat="51.28007" lon="4.78271"></trkpt>
      <trkpt lat="51.28002" lon="4.78268"></trkpt>
      <trkpt lat="51.27997" lon="4.78264"></trkpt>
      <trkpt lat="51.27991" lon="4.78261"></trkpt>
      <trkpt lat="51.27986" lon="4.78257"></trkpt>
      <trkpt lat="51.27981" lon="4.78255"></trkpt>
      <trkpt lat="51.27975" lon="4.78251"></trkpt>
      <trkpt lat="51.27970" lon="4.78249"></trkpt>
      <trkpt lat="51.27965" lon="4.78248"></trkpt>
      <trkpt lat="51.27959" lon="4.78248"></trkpt>
      <trkpt lat="51.27954" lon="4.78249"></trkpt>
      <trkpt lat="51.27951" lon="4.78249"></trkpt>
      <trkpt lat="51.27947" lon="4.78247"></trkpt>
      <trkpt lat="51.27944" lon="4.78246"></trkpt>
      <trkpt lat="51.27939" lon="4.78246"></trkpt>
      <trkpt lat="51.27933" lon="4.78248"></trkpt>
      <trkpt lat="51.27927" lon="4.78249"></trkpt>
      <trkpt lat="51.27921" lon="4.78249"></trkpt>
      <trkpt lat="51.27916" lon="4.78250"></trkpt>
      <trkpt lat="51.27911" lon="4.78251"></trkpt>
      <trkpt lat="51.27905" lon="4.78255"></trkpt>
      <trkpt lat="51.27899" lon="4.78259"></trkpt>
      <trkpt lat="51.27894" lon="4.78265"></trkpt>
      <trkpt lat="51.27889" lon="4.78271"></trkpt>
      <trkpt lat="51.27883" lon="4.78278"></trkpt>
      <trkpt lat="51.27879" lon="4.78283"></trkpt>
      <trkpt lat="51.27874" lon="4.78290"></trkpt>
      <trkpt lat="51.27868" lon="4.78296"></trkpt>
      <trkpt lat="51.27863" lon="4.78301"></trkpt>
      <trkpt lat="51.27858" lon="4.78306"></trkpt>
      <trkpt lat="51.27853" lon="4.78311"></trkpt>
      <trkpt lat="51.27848" lon="4.78317"></trkpt>
      <trkpt lat="51.27843" lon="4.78322"></trkpt>
      <trkpt lat="51.27838" lon="4.78328"></trkpt>
      <trkpt lat="51.27833" lon="4.78335"></trkpt>
      <trkpt lat="51.27828" lon="4.78342"></trkpt>
      <trkpt lat="51.27824" lon="4.78351"></trkpt>
      <trkpt lat="51.27822" lon="4.78359"></trkpt>
      <trkpt lat="51.27818" lon="4.78367"></trkpt>
      <trkpt lat="51.27815" lon="4.78374"></trkpt>
      <trkpt lat="51.27812" lon="4.78382"></trkpt>
      <trkpt lat="51.27808" lon="4.78390"></trkpt>
      <trkpt lat="51.27805" lon="4.78397"></trkpt>
      <trkpt lat="51.27802" lon="4.78404"></trkpt>
      <trkpt lat="51.27798" lon="4.78412"></trkpt>
      <trkpt lat="51.27795" lon="4.78421"></trkpt>
      <trkpt lat="51.27792" lon="4.78428"></trkpt>
      <trkpt lat="51.27788" lon="4.78437"></trkpt>
      <trkpt lat="51.27785" lon="4.78444"></trkpt>
      <trkpt lat="51.27782" lon="4.78453"></trkpt>
      <trkpt lat="51.27779" lon="4.78461"></trkpt>
      <trkpt lat="51.27776" lon="4.78470"></trkpt>
      <trkpt lat="51.27773" lon="4.78478"></trkpt>
      <trkpt lat="51.27769" lon="4.78486"></trkpt>
      <trkpt lat="51.27766" lon="4.78494"></trkpt>
      <trkpt lat="51.27763" lon="4.78502"></trkpt>
      <trkpt lat="51.27760" lon="4.78511"></trkpt>
      <trkpt lat="51.27758" lon="4.78518"></trkpt>
      <trkpt lat="51.27756" lon="4.78526"></trkpt>
      <trkpt lat="51.27752" lon="4.78533"></trkpt>
      <trkpt lat="51.27750" lon="4.78541"></trkpt>
      <trkpt lat="51.27747" lon="4.78549"></trkpt>
      <trkpt lat="51.27744" lon="4.78557"></trkpt>
      <trkpt lat="51.27742" lon="4.78566"></trkpt>
      <trkpt lat="51.27738" lon="4.78575"></trkpt>
      <trkpt lat="51.27735" lon="4.78583"></trkpt>
      <trkpt lat="51.27731" lon="4.78593"></trkpt>
      <trkpt lat="51.27727" lon="4.78602"></trkpt>
      <trkpt lat="51.27724" lon="4.78612"></trkpt>
      <trkpt lat="51.27722" lon="4.78621"></trkpt>
      <trkpt lat="51.27720" lon="4.78630"></trkpt>
      <trkpt lat="51.27718" lon="4.78638"></trkpt>
      <trkpt lat="51.27716" lon="4.78647"></trkpt>
      <trkpt lat="51.27715" lon="4.78657"></trkpt>
      <trkpt lat="51.27714" lon="4.78667"></trkpt>
      <trkpt lat="51.27713" lon="4.78675"></trkpt>
      <trkpt lat="51.27712" lon="4.78683"></trkpt>
      <trkpt lat="51.27711" lon="4.78692"></trkpt>
      <trkpt lat="51.27709" lon="4.78702"></trkpt>
      <trkpt lat="51.27707" lon="4.78710"></trkpt>
      <trkpt lat="51.27704" lon="4.78718"></trkpt>
      <trkpt lat="51.27702" lon="4.78726"></trkpt>
      <trkpt lat="51.27701" lon="4.78736"></trkpt>
      <trkpt lat="51.27699" lon="4.78745"></trkpt>
      <trkpt lat="51.27697" lon="4.78754"></trkpt>
      <trkpt lat="51.27695" lon="4.78763"></trkpt>
      <trkpt lat="51.27694" lon="4.78771"></trkpt>
      <trkpt lat="51.27693" lon="4.78779"></trkpt>
    </trkseg>
  </trk>
</gpx>