<?xml version="1.0" encoding="UTF-8"?>
<gpx version="1.1" creator="jeffry.running" xmlns="http://www.topografix.com/GPX/1/1">
  <metadata><time>2026-08-23T07:51:31.139Z</time></metadata>
  <trk>
    <trkseg>
      <trkpt lat="51.34494" lon="4.42198"></trkpt>
      <trkpt lat="51.34489" lon="4.42204"></trkpt>
      <trkpt lat="51.34483" lon="4.42211"></trkpt>
      <trkpt lat="51.34477" lon="4.42217"></trkpt>
      <trkpt lat="51.34470" lon="4.42224"></trkpt>
      <trkpt lat="51.34464" lon="4.42231"></trkpt>
      <trkpt lat="51.34457" lon="4.42238"></trkpt>
      <trkpt lat="51.34450" lon="4.42246"></trkpt>
      <trkpt lat="51.34444" lon="4.42253"></trkpt>
      <trkpt lat="51.34438" lon="4.42260"></trkpt>
      <trkpt lat="51.34432" lon="4.42268"></trkpt>
      <trkpt lat="51.34426" lon="4.42274"></trkpt>
      <trkpt lat="51.34419" lon="4.42280"></trkpt>
      <trkpt lat="51.34412" lon="4.42287"></trkpt>
      <trkpt lat="51.34406" lon="4.42296"></trkpt>
      <trkpt lat="51.34399" lon="4.42302"></trkpt>
      <trkpt lat="51.34393" lon="4.42309"></trkpt>
      <trkpt lat="51.34386" lon="4.42315"></trkpt>
      <trkpt lat="51.34379" lon="4.42324"></trkpt>
      <trkpt lat="51.34372" lon="4.42331"></trkpt>
      <trkpt lat="51.34365" lon="4.42338"></trkpt>
      <trkpt lat="51.34359" lon="4.42346"></trkpt>
      <trkpt lat="51.34355" lon="4.42352"></trkpt>
      <trkpt lat="51.34352" lon="4.42356"></trkpt>
      <trkpt lat="51.34352" lon="4.42356"></trkpt>
      <trkpt lat="51.34352" lon="4.42357"></trkpt>
      <trkpt lat="51.34352" lon="4.42357"></trkpt>
      <trkpt lat="51.34351" lon="4.42358"></trkpt>
      <trkpt lat="51.34351" lon="4.42358"></trkpt>
      <trkpt lat="51.34346" lon="4.42363"></trkpt>
      <trkpt lat="51.34336" lon="4.42371"></trkpt>
      <trkpt lat="51.34328" lon="4.42378"></trkpt>
      <trkpt lat="51.34321" lon="4.42385"></trkpt>
      <trkpt lat="51.34314" lon="4.42392"></trkpt>
      <trkpt lat="51.34307" lon="4.42400"></trkpt>
      <trkpt lat="51.34300" lon="4.42407"></trkpt>
      <trkpt lat="51.34293" lon="4.42414"></trkpt>
      <trkpt lat="51.34286" lon="4.42421"></trkpt>
      <trkpt lat="51.34279" lon="4.42429"></trkpt>
      <trkpt lat="51.34272" lon="4.42436"></trkpt>
      <trkpt lat="51.34266" lon="4.42442"></trkpt>
      <trkpt lat="51.34259" lon="4.42448"></trkpt>
      <trkpt lat="51.34251" lon="4.42456"></trkpt>
      <trkpt lat="51.34244" lon="4.42463"></trkpt>
      <trkpt lat="51.34236" lon="4.42471"></trkpt>
      <trkpt lat="51.34229" lon="4.42479"></trkpt>
      <trkpt lat="51.34222" lon="4.42487"></trkpt>
      <trkpt lat="51.34216" lon="4.42494"></trkpt>
      <trkpt lat="51.34209" lon="4.42500"></trkpt>
      <trkpt lat="51.34202" lon="4.42506"></trkpt>
      <trkpt lat="51.34194" lon="4.42512"></trkpt>
      <trkpt lat="51.34186" lon="4.42511"></trkpt>
      <trkpt lat="51.34179" lon="4.42503"></trkpt>
      <trkpt lat="51.34175" lon="4.42491"></trkpt>
      <trkpt lat="51.34172" lon="4.42478"></trkpt>
      <trkpt lat="51.34168" lon="4.42465"></trkpt>
      <trkpt lat="51.34165" lon="4.42451"></trkpt>
      <trkpt lat="51.34161" lon="4.42439"></trkpt>
      <trkpt lat="51.34158" lon="4.42427"></trkpt>
      <trkpt lat="51.34155" lon="4.42415"></trkpt>
      <trkpt lat="51.34152" lon="4.42402"></trkpt>
      <trkpt lat="51.34149" lon="4.42389"></trkpt>
      <trkpt lat="51.34147" lon="4.42377"></trkpt>
      <trkpt lat="51.34142" lon="4.42365"></trkpt>
      <trkpt lat="51.34139" lon="4.42352"></trkpt>
      <trkpt lat="51.34136" lon="4.42340"></trkpt>
      <trkpt lat="51.34133" lon="4.42327"></trkpt>
      <trkpt lat="51.34130" lon="4.42315"></trkpt>
      <trkpt lat="51.34127" lon="4.42302"></trkpt>
      <trkpt lat="51.34124" lon="4.42290"></trkpt>
      <trkpt lat="51.34120" lon="4.42277"></trkpt>
      <trkpt lat="51.34116" lon="4.42265"></trkpt>
      <trkpt lat="51.34113" lon="4.42254"></trkpt>
      <trkpt lat="51.34110" lon="4.42243"></trkpt>
      <trkpt lat="51.34108" lon="4.42232"></trkpt>
      <trkpt lat="51.34104" lon="4.42220"></trkpt>
      <trkpt lat="51.34101" lon="4.42207"></trkpt>
      <trkpt lat="51.34096" lon="4.42195"></trkpt>
      <trkpt lat="51.34090" lon="4.42188"></trkpt>
      <trkpt lat="51.34081" lon="4.42185"></trkpt>
      <trkpt lat="51.34074" lon="4.42188"></trkpt>
      <trkpt lat="51.34067" lon="4.42193"></trkpt>
      <trkpt lat="51.34059" lon="4.42198"></trkpt>
      <trkpt lat="51.34051" lon="4.42204"></trkpt>
      <trkpt lat="51.34043" lon="4.42210"></trkpt>
      <trkpt lat="51.34035" lon="4.42215"></trkpt>
      <trkpt lat="51.34028" lon="4.42221"></trkpt>
      <trkpt lat="51.34020" lon="4.42227"></trkpt>
      <trkpt lat="51.34012" lon="4.42232"></trkpt>
      <trkpt lat="51.34005" lon="4.42238"></trkpt>
      <trkpt lat="51.33997" lon="4.42242"></trkpt>
      <trkpt lat="51.33989" lon="4.42247"></trkpt>
      <trkpt lat="51.33982" lon="4.42252"></trkpt>
      <trkpt lat="51.33975" lon="4.42257"></trkpt>
      <trkpt lat="51.33968" lon="4.42262"></trkpt>
      <trkpt lat="51.33960" lon="4.42268"></trkpt>
      <trkpt lat="51.33952" lon="4.42274"></trkpt>
      <trkpt lat="51.33944" lon="4.42279"></trkpt>
      <trkpt lat="51.33937" lon="4.42285"></trkpt>
      <trkpt lat="51.33929" lon="4.42291"></trkpt>
      <trkpt lat="51.33922" lon="4.42298"></trkpt>
      <trkpt lat="51.33914" lon="4.42304"></trkpt>
      <trkpt lat="51.33906" lon="4.42309"></trkpt>
      <trkpt lat="51.33898" lon="4.42314"></trkpt>
      <trkpt lat="51.33891" lon="4.42320"></trkpt>
      <trkpt lat="51.33886" lon="4.42329"></trkpt>
      <trkpt lat="51.33886" lon="4.42343"></trkpt>
      <trkpt lat="51.33890" lon="4.42356"></trkpt>
      <trkpt lat="51.33894" lon="4.42368"></trkpt>
      <trkpt lat="51.33897" lon="4.42380"></trkpt>
      <trkpt lat="51.33901" lon="4.42392"></trkpt>
      <trkpt lat="51.33904" lon="4.42402"></trkpt>
      <trkpt lat="51.33907" lon="4.42412"></trkpt>
      <trkpt lat="51.33910" lon="4.42426"></trkpt>
      <trkpt lat="51.33913" lon="4.42442"></trkpt>
      <trkpt lat="51.33917" lon="4.42458"></trkpt>
      <trkpt lat="51.33919" lon="4.42471"></trkpt>
      <trkpt lat="51.33922" lon="4.42483"></trkpt>
      <trkpt lat="51.33926" lon="4.42496"></trkpt>
      <trkpt lat="51.33930" lon="4.42509"></trkpt>
      <trkpt lat="51.33933" lon="4.42522"></trkpt>
      <trkpt lat="51.33937" lon="4.42536"></trkpt>
      <trkpt lat="51.33941" lon="4.42549"></trkpt>
      <trkpt lat="51.33944" lon="4.42561"></trkpt>
      <trkpt lat="51.33948" lon="4.42573"></trkpt>
      <trkpt lat="51.33952" lon="4.42585"></trkpt>
      <trkpt lat="51.33955" lon="4.42596"></trkpt>
      <trkpt lat="51.33958" lon="4.42608"></trkpt>
      <trkpt lat="51.33960" lon="4.42621"></trkpt>
      <trkpt lat="51.33964" lon="4.42633"></trkpt>
      <trkpt lat="51.33968" lon="4.42645"></trkpt>
      <trkpt lat="51.33972" lon="4.42658"></trkpt>
      <trkpt lat="51.33975" lon="4.42670"></trkpt>
      <trkpt lat="51.33979" lon="4.42681"></trkpt>
      <trkpt lat="51.33982" lon="4.42693"></trkpt>
      <trkpt lat="51.33985" lon="4.42705"></trkpt>
      <trkpt lat="51.33989" lon="4.42718"></trkpt>
      <trkpt lat="51.33990" lon="4.42731"></trkpt>
      <trkpt lat="51.33984" lon="4.42740"></trkpt>
      <trkpt lat="51.33976" lon="4.42746"></trkpt>
      <trkpt lat="51.33967" lon="4.42752"></trkpt>
      <trkpt lat="51.33960" lon="4.42758"></trkpt>
      <trkpt lat="51.33952" lon="4.42764"></trkpt>
      <trkpt lat="51.33945" lon="4.42771"></trkpt>
      <trkpt lat="51.33938" lon="4.42779"></trkpt>
      <trkpt lat="51.33931" lon="4.42785"></trkpt>
      <trkpt lat="51.33924" lon="4.42792"></trkpt>
      <trkpt lat="51.33917" lon="4.42799"></trkpt>
      <trkpt lat="51.33910" lon="4.42806"></trkpt>
      <trkpt lat="51.33904" lon="4.42813"></trkpt>
      <trkpt lat="51.33897" lon="4.42820"></trkpt>
      <trkpt lat="51.33895" lon="4.42823"></trkpt>
      <trkpt lat="51.33895" lon="4.42822"></trkpt>
      <trkpt lat="51.33891" lon="4.42825"></trkpt>
      <trkpt lat="51.33884" lon="4.42833"></trkpt>
      <trkpt lat="51.33878" lon="4.42839"></trkpt>
      <trkpt lat="51.33871" lon="4.42846"></trkpt>
      <trkpt lat="51.33865" lon="4.42852"></trkpt>
      <trkpt lat="51.33858" lon="4.42858"></trkpt>
      <trkpt lat="51.33851" lon="4.42866"></trkpt>
      <trkpt lat="51.33845" lon="4.42874"></trkpt>
      <trkpt lat="51.33837" lon="4.42880"></trkpt>
      <trkpt lat="51.33831" lon="4.42887"></trkpt>
      <trkpt lat="51.33824" lon="4.42896"></trkpt>
      <trkpt lat="51.33817" lon="4.42904"></trkpt>
      <trkpt lat="51.33810" lon="4.42912"></trkpt>
      <trkpt lat="51.33803" lon="4.42919"></trkpt>
      <trkpt lat="51.33796" lon="4.42926"></trkpt>
      <trkpt lat="51.33789" lon="4.42933"></trkpt>
      <trkpt lat="51.33781" lon="4.42942"></trkpt>
      <trkpt lat="51.33774" lon="4.42951"></trkpt>
      <trkpt lat="51.33768" lon="4.42958"></trkpt>
      <trkpt lat="51.33760" lon="4.42966"></trkpt>
      <trkpt lat="51.33754" lon="4.42972"></trkpt>
      <trkpt lat="51.33746" lon="4.42980"></trkpt>
      <trkpt lat="51.33739" lon="4.42988"></trkpt>
      <trkpt lat="51.33731" lon="4.42995"></trkpt>
      <trkpt lat="51.33724" lon="4.43000"></trkpt>
      <trkpt lat="51.33717" lon="4.43007"></trkpt>
      <trkpt lat="51.33713" lon="4.43019"></trkpt>
      <trkpt lat="51.33715" lon="4.43033"></trkpt>
      <trkpt lat="51.33719" lon="4.43044"></trkpt>
      <trkpt lat="51.33722" lon="4.43058"></trkpt>
      <trkpt lat="51.33726" lon="4.43072"></trkpt>
      <trkpt lat="51.33730" lon="4.43084"></trkpt>
      <trkpt lat="51.33734" lon="4.43097"></trkpt>
      <trkpt lat="51.33739" lon="4.43109"></trkpt>
      <trkpt lat="51.33743" lon="4.43120"></trkpt>
      <trkpt lat="51.33748" lon="4.43132"></trkpt>
      <trkpt lat="51.33751" lon="4.43143"></trkpt>
      <trkpt lat="51.33755" lon="4.43155"></trkpt>
      <trkpt lat="51.33758" lon="4.43166"></trkpt>
      <trkpt lat="51.33761" lon="4.43178"></trkpt>
      <trkpt lat="51.33765" lon="4.43190"></trkpt>
      <trkpt lat="51.33769" lon="4.43202"></trkpt>
      <trkpt lat="51.33772" lon="4.43213"></trkpt>
      <trkpt lat="51.33776" lon="4.43225"></trkpt>
      <trkpt lat="51.33780" lon="4.43235"></trkpt>
      <trkpt lat="51.33784" lon="4.43246"></trkpt>
      <trkpt lat="51.33787" lon="4.43257"></trkpt>
      <trkpt lat="51.33790" lon="4.43268"></trkpt>
      <trkpt lat="51.33794" lon="4.43280"></trkpt>
      <trkpt lat="51.33798" lon="4.43292"></trkpt>
      <trkpt lat="51.33801" lon="4.43304"></trkpt>
      <trkpt lat="51.33804" lon="4.43316"></trkpt>
      <trkpt lat="51.33808" lon="4.43327"></trkpt>
      <trkpt lat="51.33812" lon="4.43339"></trkpt>
      <trkpt lat="51.33817" lon="4.43351"></trkpt>
      <trkpt lat="51.33821" lon="4.43363"></trkpt>
      <trkpt lat="51.33825" lon="4.43373"></trkpt>
      <trkpt lat="51.33829" lon="4.43383"></trkpt>
      <trkpt lat="51.33833" lon="4.43395"></trkpt>
      <trkpt lat="51.33836" lon="4.43407"></trkpt>
      <trkpt lat="51.33840" lon="4.43419"></trkpt>
      <trkpt lat="51.33843" lon="4.43431"></trkpt>
      <trkpt lat="51.33842" lon="4.43437"></trkpt>
      <trkpt lat="51.33835" lon="4.43438"></trkpt>
      <trkpt lat="51.33827" lon="4.43445"></trkpt>
      <trkpt lat="51.33820" lon="4.43451"></trkpt>
      <trkpt lat="51.33813" lon="4.43458"></trkpt>
      <trkpt lat="51.33806" lon="4.43465"></trkpt>
      <trkpt lat="51.33799" lon="4.43471"></trkpt>
      <trkpt lat="51.33792" lon="4.43478"></trkpt>
      <trkpt lat="51.33784" lon="4.43485"></trkpt>
      <trkpt lat="51.33776" lon="4.43492"></trkpt>
      <trkpt lat="51.33770" lon="4.43498"></trkpt>
      <trkpt lat="51.33763" lon="4.43504"></trkpt>
      <trkpt lat="51.33757" lon="4.43512"></trkpt>
      <trkpt lat="51.33754" lon="4.43523"></trkpt>
      <trkpt lat="51.33754" lon="4.43537"></trkpt>
      <trkpt lat="51.33756" lon="4.43550"></trkpt>
      <trkpt lat="51.33760" lon="4.43561"></trkpt>
      <trkpt lat="51.33763" lon="4.43573"></trkpt>
      <trkpt lat="51.33767" lon="4.43585"></trkpt>
      <trkpt lat="51.33771" lon="4.43596"></trkpt>
      <trkpt lat="51.33773" lon="4.43607"></trkpt>
      <trkpt lat="51.33777" lon="4.43619"></trkpt>
      <trkpt lat="51.33780" lon="4.43631"></trkpt>
      <trkpt lat="51.33784" lon="4.43642"></trkpt>
      <trkpt lat="51.33788" lon="4.43653"></trkpt>
      <trkpt lat="51.33792" lon="4.43666"></trkpt>
      <trkpt lat="51.33796" lon="4.43677"></trkpt>
      <trkpt lat="51.33799" lon="4.43689"></trkpt>
      <trkpt lat="51.33802" lon="4.43701"></trkpt>
      <trkpt lat="51.33808" lon="4.43712"></trkpt>
      <trkpt lat="51.33812" lon="4.43724"></trkpt>
      <trkpt lat="51.33816" lon="4.43736"></trkpt>
      <trkpt lat="51.33819" lon="4.43748"></trkpt>
      <trkpt lat="51.33822" lon="4.43760"></trkpt>
      <trkpt lat="51.33825" lon="4.43771"></trkpt>
      <trkpt lat="51.33830" lon="4.43783"></trkpt>
      <trkpt lat="51.33834" lon="4.43794"></trkpt>
      <trkpt lat="51.33838" lon="4.43806"></trkpt>
      <trkpt lat="51.33842" lon="4.43818"></trkpt>
      <trkpt lat="51.33846" lon="4.43830"></trkpt>
      <trkpt lat="51.33850" lon="4.43842"></trkpt>
      <trkpt lat="51.33854" lon="4.43854"></trkpt>
      <trkpt lat="51.33857" lon="4.43866"></trkpt>
      <trkpt lat="51.33861" lon="4.43876"></trkpt>
      <trkpt lat="51.33867" lon="4.43883"></trkpt>
      <trkpt lat="51.33874" lon="4.43883"></trkpt>
      <trkpt lat="51.33882" lon="4.43878"></trkpt>
      <trkpt lat="51.33888" lon="4.43871"></trkpt>
      <trkpt lat="51.33896" lon="4.43865"></trkpt>
      <trkpt lat="51.33903" lon="4.43859"></trkpt>
      <trkpt lat="51.33911" lon="4.43852"></trkpt>
      <trkpt lat="51.33917" lon="4.43844"></trkpt>
      <trkpt lat="51.33924" lon="4.43837"></trkpt>
      <trkpt lat="51.33931" lon="4.43830"></trkpt>
      <trkpt lat="51.33936" lon="4.43822"></trkpt>
      <trkpt lat="51.33942" lon="4.43814"></trkpt>
      <trkpt lat="51.33949" lon="4.43810"></trkpt>
      <trkpt lat="51.33957" lon="4.43813"></trkpt>
      <trkpt lat="51.33964" lon="4.43823"></trkpt>
      <trkpt lat="51.33969" lon="4.43835"></trkpt>
      <trkpt lat="51.33974" lon="4.43847"></trkpt>
      <trkpt lat="51.33978" lon="4.43859"></trkpt>
      <trkpt lat="51.33982" lon="4.43869"></trkpt>
      <trkpt lat="51.33986" lon="4.43880"></trkpt>
      <trkpt lat="51.33990" lon="4.43892"></trkpt>
      <trkpt lat="51.33994" lon="4.43903"></trkpt>
      <trkpt lat="51.33998" lon="4.43915"></trkpt>
      <trkpt lat="51.34001" lon="4.43927"></trkpt>
      <trkpt lat="51.34004" lon="4.43939"></trkpt>
      <trkpt lat="51.34008" lon="4.43951"></trkpt>
      <trkpt lat="51.34012" lon="4.43963"></trkpt>
      <trkpt lat="51.34016" lon="4.43973"></trkpt>
      <trkpt lat="51.34020" lon="4.43984"></trkpt>
      <trkpt lat="51.34024" lon="4.43995"></trkpt>
      <trkpt lat="51.34028" lon="4.44006"></trkpt>
      <trkpt lat="51.34032" lon="4.44017"></trkpt>
      <trkpt lat="51.34036" lon="4.44028"></trkpt>
      <trkpt lat="51.34040" lon="4.44039"></trkpt>
      <trkpt lat="51.34045" lon="4.44044"></trkpt>
      <trkpt lat="51.34051" lon="4.44042"></trkpt>
      <trkpt lat="51.34057" lon="4.44034"></trkpt>
      <trkpt lat="51.34064" lon="4.44028"></trkpt>
      <trkpt lat="51.34071" lon="4.44023"></trkpt>
      <trkpt lat="51.34077" lon="4.44017"></trkpt>
      <trkpt lat="51.34084" lon="4.44011"></trkpt>
      <trkpt lat="51.34090" lon="4.44004"></trkpt>
      <trkpt lat="51.34097" lon="4.43996"></trkpt>
      <trkpt lat="51.34103" lon="4.43988"></trkpt>
      <trkpt lat="51.34110" lon="4.43980"></trkpt>
      <trkpt lat="51.34115" lon="4.43973"></trkpt>
      <trkpt lat="51.34116" lon="4.43972"></trkpt>
      <trkpt lat="51.34116" lon="4.43971"></trkpt>
      <trkpt lat="51.34117" lon="4.43971"></trkpt>
      <trkpt lat="51.34117" lon="4.43970"></trkpt>
      <trkpt lat="51.34118" lon="4.43970"></trkpt>
      <trkpt lat="51.34123" lon="4.43967"></trkpt>
      <trkpt lat="51.34132" lon="4.43958"></trkpt>
      <trkpt lat="51.34140" lon="4.43950"></trkpt>
      <trkpt lat="51.34148" lon="4.43943"></trkpt>
      <trkpt lat="51.34156" lon="4.43936"></trkpt>
      <trkpt lat="51.34164" lon="4.43929"></trkpt>
      <trkpt lat="51.34172" lon="4.43923"></trkpt>
      <trkpt lat="51.34181" lon="4.43920"></trkpt>
      <trkpt lat="51.34189" lon="4.43922"></trkpt>
      <trkpt lat="51.34194" lon="4.43932"></trkpt>
      <trkpt lat="51.34200" lon="4.43945"></trkpt>
      <trkpt lat="51.34204" lon="4.43956"></trkpt>
      <trkpt lat="51.34208" lon="4.43968"></trkpt>
      <trkpt lat="51.34213" lon="4.43979"></trkpt>
      <trkpt lat="51.34217" lon="4.43991"></trkpt>
      <trkpt lat="51.34221" lon="4.44002"></trkpt>
      <trkpt lat="51.34225" lon="4.44014"></trkpt>
      <trkpt lat="51.34230" lon="4.44025"></trkpt>
      <trkpt lat="51.34233" lon="4.44036"></trkpt>
      <trkpt lat="51.34238" lon="4.44047"></trkpt>
      <trkpt lat="51.34242" lon="4.44059"></trkpt>
      <trkpt lat="51.34246" lon="4.44070"></trkpt>
      <trkpt lat="51.34250" lon="4.44083"></trkpt>
      <trkpt lat="51.34254" lon="4.44094"></trkpt>
      <trkpt lat="51.34259" lon="4.44106"></trkpt>
      <trkpt lat="51.34263" lon="4.44118"></trkpt>
      <trkpt lat="51.34268" lon="4.44128"></trkpt>
      <trkpt lat="51.34272" lon="4.44138"></trkpt>
      <trkpt lat="51.34276" lon="4.44148"></trkpt>
      <trkpt lat="51.34280" lon="4.44159"></trkpt>
      <trkpt lat="51.34284" lon="4.44169"></trkpt>
      <trkpt lat="51.34288" lon="4.44181"></trkpt>
      <trkpt lat="51.34292" lon="4.44192"></trkpt>
      <trkpt lat="51.34296" lon="4.44204"></trkpt>
      <trkpt lat="51.34299" lon="4.44216"></trkpt>
      <trkpt lat="51.34304" lon="4.44223"></trkpt>
      <trkpt lat="51.34310" lon="4.44217"></trkpt>
      <trkpt lat="51.34313" lon="4.44206"></trkpt>
      <trkpt lat="51.34317" lon="4.44195"></trkpt>
      <trkpt lat="51.34321" lon="4.44184"></trkpt>
      <trkpt lat="51.34325" lon="4.44173"></trkpt>
      <trkpt lat="51.34329" lon="4.44163"></trkpt>
      <trkpt lat="51.34333" lon="4.44151"></trkpt>
      <trkpt lat="51.34337" lon="4.44139"></trkpt>
      <trkpt lat="51.34341" lon="4.44128"></trkpt>
      <trkpt lat="51.34345" lon="4.44118"></trkpt>
      <trkpt lat="51.34351" lon="4.44107"></trkpt>
      <trkpt lat="51.34356" lon="4.44096"></trkpt>
      <trkpt lat="51.34361" lon="4.44084"></trkpt>
      <trkpt lat="51.34366" lon="4.44073"></trkpt>
      <trkpt lat="51.34370" lon="4.44062"></trkpt>
      <trkpt lat="51.34375" lon="4.44051"></trkpt>
      <trkpt lat="51.34379" lon="4.44040"></trkpt>
      <trkpt lat="51.34384" lon="4.44029"></trkpt>
      <trkpt lat="51.34388" lon="4.44017"></trkpt>
      <trkpt lat="51.34392" lon="4.44007"></trkpt>
      <trkpt lat="51.34397" lon="4.43997"></trkpt>
      <trkpt lat="51.34401" lon="4.43986"></trkpt>
      <trkpt lat="51.34405" lon="4.43975"></trkpt>
      <trkpt lat="51.34409" lon="4.43965"></trkpt>
      <trkpt lat="51.34413" lon="4.43953"></trkpt>
      <trkpt lat="51.34415" lon="4.43941"></trkpt>
      <trkpt lat="51.34413" lon="4.43928"></trkpt>
      <trkpt lat="51.34410" lon="4.43915"></trkpt>
      <trkpt lat="51.34406" lon="4.43904"></trkpt>
      <trkpt lat="51.34403" lon="4.43892"></trkpt>
      <trkpt lat="51.34400" lon="4.43879"></trkpt>
      <trkpt lat="51.34397" lon="4.43867"></trkpt>
      <trkpt lat="51.34393" lon="4.43857"></trkpt>
      <trkpt lat="51.34390" lon="4.43846"></trkpt>
      <trkpt lat="51.34386" lon="4.43835"></trkpt>
      <trkpt lat="51.34383" lon="4.43825"></trkpt>
      <trkpt lat="51.34381" lon="4.43815"></trkpt>
      <trkpt lat="51.34378" lon="4.43804"></trkpt>
      <trkpt lat="51.34374" lon="4.43792"></trkpt>
      <trkpt lat="51.34370" lon="4.43781"></trkpt>
      <trkpt lat="51.34365" lon="4.43768"></trkpt>
      <trkpt lat="51.34362" lon="4.43755"></trkpt>
      <trkpt lat="51.34359" lon="4.43742"></trkpt>
      <trkpt lat="51.34356" lon="4.43730"></trkpt>
      <trkpt lat="51.34353" lon="4.43719"></trkpt>
      <trkpt lat="51.34349" lon="4.43707"></trkpt>
      <trkpt lat="51.34345" lon="4.43695"></trkpt>
      <trkpt lat="51.34342" lon="4.43683"></trkpt>
      <trkpt lat="51.34338" lon="4.43671"></trkpt>
      <trkpt lat="51.34334" lon="4.43659"></trkpt>
      <trkpt lat="51.34332" lon="4.43646"></trkpt>
      <trkpt lat="51.34328" lon="4.43634"></trkpt>
      <trkpt lat="51.34325" lon="4.43621"></trkpt>
      <trkpt lat="51.34322" lon="4.43608"></trkpt>
      <trkpt lat="51.34318" lon="4.43596"></trkpt>
      <trkpt lat="51.34314" lon="4.43584"></trkpt>
      <trkpt lat="51.34310" lon="4.43572"></trkpt>
      <trkpt lat="51.34308" lon="4.43560"></trkpt>
      <trkpt lat="51.34305" lon="4.43548"></trkpt>
      <trkpt lat="51.34302" lon="4.43536"></trkpt>
      <trkpt lat="51.34298" lon="4.43524"></trkpt>
      <trkpt lat="51.34294" lon="4.43512"></trkpt>
      <trkpt lat="51.34291" lon="4.43500"></trkpt>
      <trkpt lat="51.34287" lon="4.43488"></trkpt>
      <trkpt lat="51.34283" lon="4.43475"></trkpt>
      <trkpt lat="51.34280" lon="4.43463"></trkpt>
      <trkpt lat="51.34276" lon="4.43451"></trkpt>
      <trkpt lat="51.34274" lon="4.43438"></trkpt>
      <trkpt lat="51.34272" lon="4.43425"></trkpt>
      <trkpt lat="51.34273" lon="4.43412"></trkpt>
      <trkpt lat="51.34279" lon="4.43406"></trkpt>
      <trkpt lat="51.34286" lon="4.43402"></trkpt>
      <trkpt lat="51.34293" lon="4.43398"></trkpt>
      <trkpt lat="51.34301" lon="4.43393"></trkpt>
      <trkpt lat="51.34309" lon="4.43388"></trkpt>
      <trkpt lat="51.34316" lon="4.43382"></trkpt>
      <trkpt lat="51.34324" lon="4.43375"></trkpt>
      <trkpt lat="51.34332" lon="4.43371"></trkpt>
      <trkpt lat="51.34341" lon="4.43369"></trkpt>
      <trkpt lat="51.34349" lon="4.43365"></trkpt>
      <trkpt lat="51.34357" lon="4.43362"></trkpt>
      <trkpt lat="51.34364" lon="4.43370"></trkpt>
      <trkpt lat="51.34369" lon="4.43382"></trkpt>
      <trkpt lat="51.34373" lon="4.43394"></trkpt>
      <trkpt lat="51.34377" lon="4.43406"></trkpt>
      <trkpt lat="51.34380" lon="4.43417"></trkpt>
      <trkpt lat="51.34385" lon="4.43429"></trkpt>
      <trkpt lat="51.34388" lon="4.43440"></trkpt>
      <trkpt lat="51.34392" lon="4.43452"></trkpt>
      <trkpt lat="51.34396" lon="4.43464"></trkpt>
      <trkpt lat="51.34401" lon="4.43475"></trkpt>
      <trkpt lat="51.34407" lon="4.43482"></trkpt>
      <trkpt lat="51.34412" lon="4.43485"></trkpt>
      <trkpt lat="51.34410" lon="4.43482"></trkpt>
      <trkpt lat="51.34408" lon="4.43476"></trkpt>
      <trkpt lat="51.34410" lon="4.43472"></trkpt>
      <trkpt lat="51.34414" lon="4.43470"></trkpt>
      <trkpt lat="51.34420" lon="4.43468"></trkpt>
      <trkpt lat="51.34427" lon="4.43467"></trkpt>
      <trkpt lat="51.34433" lon="4.43463"></trkpt>
      <trkpt lat="51.34438" lon="4.43457"></trkpt>
      <trkpt lat="51.34439" lon="4.43456"></trkpt>
      <trkpt lat="51.34439" lon="4.43455"></trkpt>
      <trkpt lat="51.34440" lon="4.43455"></trkpt>
      <trkpt lat="51.34440" lon="4.43455"></trkpt>
      <trkpt lat="51.34440" lon="4.43454"></trkpt>
      <trkpt lat="51.34440" lon="4.43454"></trkpt>
      <trkpt lat="51.34467" lon="4.43428"></trkpt>
      <trkpt lat="51.34481" lon="4.43414"></trkpt>
      <trkpt lat="51.34488" lon="4.43406"></trkpt>
      <trkpt lat="51.34496" lon="4.43399"></trkpt>
      <trkpt lat="51.34504" lon="4.43393"></trkpt>
      <trkpt lat="51.34509" lon="4.43384"></trkpt>
      <trkpt lat="51.34510" lon="4.43371"></trkpt>
      <trkpt lat="51.34507" lon="4.43359"></trkpt>
      <trkpt lat="51.34503" lon="4.43347"></trkpt>
      <trkpt lat="51.34499" lon="4.43336"></trkpt>
      <trkpt lat="51.34494" lon="4.43324"></trkpt>
      <trkpt lat="51.34490" lon="4.43311"></trkpt>
      <trkpt lat="51.34485" lon="4.43299"></trkpt>
      <trkpt lat="51.34482" lon="4.43286"></trkpt>
      <trkpt lat="51.34478" lon="4.43274"></trkpt>
      <trkpt lat="51.34473" lon="4.43262"></trkpt>
      <trkpt lat="51.34469" lon="4.43249"></trkpt>
      <trkpt lat="51.34466" lon="4.43236"></trkpt>
      <trkpt lat="51.34461" lon="4.43223"></trkpt>
      <trkpt lat="51.34458" lon="4.43210"></trkpt>
      <trkpt lat="51.34454" lon="4.43197"></trkpt>
      <trkpt lat="51.34451" lon="4.43185"></trkpt>
      <trkpt lat="51.34448" lon="4.43171"></trkpt>
      <trkpt lat="51.34445" lon="4.43158"></trkpt>
      <trkpt lat="51.34442" lon="4.43146"></trkpt>
      <trkpt lat="51.34439" lon="4.43134"></trkpt>
      <trkpt lat="51.34435" lon="4.43123"></trkpt>
      <trkpt lat="51.34431" lon="4.43111"></trkpt>
      <trkpt lat="51.34427" lon="4.43099"></trkpt>
      <trkpt lat="51.34424" lon="4.43087"></trkpt>
      <trkpt lat="51.34421" lon="4.43076"></trkpt>
      <trkpt lat="51.34417" lon="4.43065"></trkpt>
      <trkpt lat="51.34413" lon="4.43054"></trkpt>
      <trkpt lat="51.34409" lon="4.43043"></trkpt>
      <trkpt lat="51.34405" lon="4.43031"></trkpt>
      <trkpt lat="51.34402" lon="4.43020"></trkpt>
      <trkpt lat="51.34398" lon="4.43008"></trkpt>
      <trkpt lat="51.34393" lon="4.42996"></trkpt>
      <trkpt lat="51.34390" lon="4.42984"></trkpt>
      <trkpt lat="51.34386" lon="4.42972"></trkpt>
      <trkpt lat="51.34383" lon="4.42960"></trkpt>
      <trkpt lat="51.34380" lon="4.42948"></trkpt>
      <trkpt lat="51.34376" lon="4.42936"></trkpt>
      <trkpt lat="51.34372" lon="4.42923"></trkpt>
      <trkpt lat="51.34368" lon="4.42911"></trkpt>
      <trkpt lat="51.34364" lon="4.42897"></trkpt>
      <trkpt lat="51.34361" lon="4.42884"></trkpt>
      <trkpt lat="51.34359" lon="4.42872"></trkpt>
      <trkpt lat="51.34361" lon="4.42858"></trkpt>
      <trkpt lat="51.34367" lon="4.42848"></trkpt>
      <trkpt lat="51.34374" lon="4.42840"></trkpt>
      <trkpt lat="51.34381" lon="4.42833"></trkpt>
      <trkpt lat="51.34387" lon="4.42825"></trkpt>
      <trkpt lat="51.34393" lon="4.42817"></trkpt>
      <trkpt lat="51.34398" lon="4.42807"></trkpt>
      <trkpt lat="51.34403" lon="4.42796"></trkpt>
      <trkpt lat="51.34408" lon="4.42786"></trkpt>
      <trkpt lat="51.34413" lon="4.42776"></trkpt>
      <trkpt lat="51.34418" lon="4.42767"></trkpt>
      <trkpt lat="51.34424" lon="4.42758"></trkpt>
      <trkpt lat="51.34431" lon="4.42752"></trkpt>
      <trkpt lat="51.34439" lon="4.42745"></trkpt>
      <trkpt lat="51.34447" lon="4.42740"></trkpt>
      <trkpt lat="51.34455" lon="4.42735"></trkpt>
      <trkpt lat="51.34463" lon="4.42731"></trkpt>
      <trkpt lat="51.34471" lon="4.42725"></trkpt>
      <trkpt lat="51.34479" lon="4.42720"></trkpt>
      <trkpt lat="51.34485" lon="4.42717"></trkpt>
      <trkpt lat="51.34486" lon="4.42716"></trkpt>
      <trkpt lat="51.34487" lon="4.42716"></trkpt>
      <trkpt lat="51.34487" lon="4.42716"></trkpt>
      <trkpt lat="51.34490" lon="4.42714"></trkpt>
      <trkpt lat="51.34498" lon="4.42708"></trkpt>
      <trkpt lat="51.34507" lon="4.42703"></trkpt>
      <trkpt lat="51.34514" lon="4.42697"></trkpt>
      <trkpt lat="51.34521" lon="4.42692"></trkpt>
      <trkpt lat="51.34529" lon="4.42686"></trkpt>
      <trkpt lat="51.34536" lon="4.42681"></trkpt>
      <trkpt lat="51.34544" lon="4.42676"></trkpt>
      <trkpt lat="51.34552" lon="4.42671"></trkpt>
      <trkpt lat="51.34560" lon="4.42667"></trkpt>
      <trkpt lat="51.34567" lon="4.42661"></trkpt>
      <trkpt lat="51.34575" lon="4.42656"></trkpt>
      <trkpt lat="51.34583" lon="4.42651"></trkpt>
      <trkpt lat="51.34591" lon="4.42645"></trkpt>
      <trkpt lat="51.34597" lon="4.42636"></trkpt>
      <trkpt lat="51.34601" lon="4.42623"></trkpt>
      <trkpt lat="51.34604" lon="4.42609"></trkpt>
      <trkpt lat="51.34607" lon="4.42595"></trkpt>
      <trkpt lat="51.34608" lon="4.42583"></trkpt>
      <trkpt lat="51.34606" lon="4.42570"></trkpt>
      <trkpt lat="51.34602" lon="4.42558"></trkpt>
      <trkpt lat="51.34596" lon="4.42547"></trkpt>
      <trkpt lat="51.34592" lon="4.42535"></trkpt>
      <trkpt lat="51.34589" lon="4.42522"></trkpt>
      <trkpt lat="51.34588" lon="4.42509"></trkpt>
      <trkpt lat="51.34584" lon="4.42496"></trkpt>
      <trkpt lat="51.34581" lon="4.42484"></trkpt>
      <trkpt lat="51.34578" lon="4.42472"></trkpt>
      <trkpt lat="51.34574" lon="4.42459"></trkpt>
      <trkpt lat="51.34571" lon="4.42448"></trkpt>
      <trkpt lat="51.34567" lon="4.42436"></trkpt>
      <trkpt lat="51.34563" lon="4.42423"></trkpt>
      <trkpt lat="51.34560" lon="4.42412"></trkpt>
      <trkpt lat="51.34556" lon="4.42400"></trkpt>
      <trkpt lat="51.34553" lon="4.42387"></trkpt>
      <trkpt lat="51.34549" lon="4.42375"></trkpt>
      <trkpt lat="51.34546" lon="4.42362"></trkpt>
      <trkpt lat="51.34542" lon="4.42350"></trkpt>
      <trkpt lat="51.34538" lon="4.42336"></trkpt>
      <trkpt lat="51.34535" lon="4.42324"></trkpt>
      <trkpt lat="51.34531" lon="4.42312"></trkpt>
      <trkpt lat="51.34528" lon="4.42301"></trkpt>
      <trkpt lat="51.34525" lon="4.42290"></trkpt>
      <trkpt lat="51.34521" lon="4.42279"></trkpt>
      <trkpt lat="51.34516" lon="4.42268"></trkpt>
      <trkpt lat="51.34514" lon="4.42256"></trkpt>
      <trkpt lat="51.34512" lon="4.42243"></trkpt>
      <trkpt lat="51.34509" lon="4.42231"></trkpt>
      <trkpt lat="51.34506" lon="4.42218"></trkpt>
      <trkpt lat="51.34503" lon="4.42206"></trkpt>
      <trkpt lat="51.34502" lon="4.42193"></trkpt>
      <trkpt lat="51.34508" lon="4.42183"></trkpt>
      <trkpt lat="51.34514" lon="4.42175"></trkpt>
      <trkpt lat="51.34521" lon="4.42166"></trkpt>
      <trkpt lat="51.34528" lon="4.42159"></trkpt>
      <trkpt lat="51.34535" lon="4.42151"></trkpt>
      <trkpt lat="51.34537" lon="4.42147"></trkpt>
      <trkpt lat="51.34536" lon="4.42145"></trkpt>
      <trkpt lat="51.34540" lon="4.42143"></trkpt>
      <trkpt lat="51.34546" lon="4.42140"></trkpt>
      <trkpt lat="51.34553" lon="4.42147"></trkpt>
      <trkpt lat="51.34559" lon="4.42159"></trkpt>
      <trkpt lat="51.34561" lon="4.42168"></trkpt>
      <trkpt lat="51.34561" lon="4.42170"></trkpt>
      <trkpt lat="51.34560" lon="4.42171"></trkpt>
      <trkpt lat="51.34560" lon="4.42171"></trkpt>
      <trkpt lat="51.34559" lon="4.42171"></trkpt>
      <trkpt lat="51.34559" lon="4.42171"></trkpt>
      <trkpt lat="51.34559" lon="4.42171"></trkpt>
      <trkpt lat="51.34559" lon="4.42171"></trkpt>
      <trkpt lat="51.34559" lon="4.42171"></trkpt>
      <trkpt lat="51.34559" lon="4.42171"></trkpt>
      <trkpt lat="51.34559" lon="4.42171"></trkpt>
      <trkpt lat="51.34559" lon="4.42171"></trkpt>
      <trkpt lat="51.34559" lon="4.42171"></trkpt>
      <trkpt lat="51.34559" lon="4.42171"></trkpt>
      <trkpt lat="51.34559" lon="4.42171"></trkpt>
      <trkpt lat="51.34559" lon="4.42171"></trkpt>
      <trkpt lat="51.34559" lon="4.42171"></trkpt>
      <trkpt lat="51.34559" lon="4.42171"></trkpt>
      <trkpt lat="51.34559" lon="4.42171"></trkpt>
      <trkpt lat="51.34559" lon="4.42170"></trkpt>
      <trkpt lat="51.34559" lon="4.42170"></trkpt>
      <trkpt lat="51.34559" lon="4.42170"></trkpt>
      <trkpt lat="51.34559" lon="4.42170"></trkpt>
      <trkpt lat="51.34559" lon="4.42170"></trkpt>
      <trkpt lat="51.34559" lon="4.42170"></trkpt>
      <trkpt lat="51.34559" lon="4.42170"></trkpt>
      <trkpt lat="51.34559" lon="4.42170"></trkpt>
      <trkpt lat="51.34559" lon="4.42170"></trkpt>
      <trkpt lat="51.34559" lon="4.42170"></trkpt>
      <trkpt lat="51.34559" lon="4.42170"></trkpt>
      <trkpt lat="51.34559" lon="4.42170"></trkpt>
      <trkpt lat="51.34559" lon="4.42170"></trkpt>
      <trkpt lat="51.34559" lon="4.42170"></trkpt>
      <trkpt lat="51.34559" lon="4.42170"></trkpt>
      <trkpt lat="51.34559" lon="4.42170"></trkpt>
      <trkpt lat="51.34559" lon="4.42170"></trkpt>
      <trkpt lat="51.34559" lon="4.42170"></trkpt>
      <trkpt lat="51.34559" lon="4.42170"></trkpt>
      <trkpt lat="51.34559" lon="4.42169"></trkpt>
      <trkpt lat="51.34558" lon="4.42169"></trkpt>
      <trkpt lat="51.34558" lon="4.42169"></trkpt>
      <trkpt lat="51.34558" lon="4.42169"></trkpt>
      <trkpt lat="51.34558" lon="4.42169"></trkpt>
      <trkpt lat="51.34558" lon="4.42169"></trkpt>
      <trkpt lat="51.34558" lon="4.42169"></trkpt>
      <trkpt lat="51.34558" lon="4.42169"></trkpt>
      <trkpt lat="51.34558" lon="4.42169"></trkpt>
      <trkpt lat="51.34558" lon="4.42169"></trkpt>
      <trkpt lat="51.34558" lon="4.42169"></trkpt>
      <trkpt lat="51.34558" lon="4.42169"></trkpt>
      <trkpt lat="51.34558" lon="4.42169"></trkpt>
      <trkpt lat="51.34556" lon="4.42164"></trkpt>
      <trkpt lat="51.34547" lon="4.42151"></trkpt>
      <trkpt lat="51.34540" lon="4.42151"></trkpt>
      <trkpt lat="51.34534" lon="4.42158"></trkpt>
      <trkpt lat="51.34528" lon="4.42164"></trkpt>
      <trkpt lat="51.34523" lon="4.42170"></trkpt>
      <trkpt lat="51.34516" lon="4.42177"></trkpt>
      <trkpt lat="51.34510" lon="4.42184"></trkpt>
      <trkpt lat="51.34505" lon="4.42193"></trkpt>
      <trkpt lat="51.34505" lon="4.42206"></trkpt>
      <trkpt lat="51.34509" lon="4.42219"></trkpt>
      <trkpt lat="51.34513" lon="4.42231"></trkpt>
      <trkpt lat="51.34516" lon="4.42244"></trkpt>
      <trkpt lat="51.34519" lon="4.42257"></trkpt>
      <trkpt lat="51.34522" lon="4.42268"></trkpt>
      <trkpt lat="51.34527" lon="4.42279"></trkpt>
      <trkpt lat="51.34531" lon="4.42291"></trkpt>
      <trkpt lat="51.34534" lon="4.42304"></trkpt>
      <trkpt lat="51.34537" lon="4.42316"></trkpt>
      <trkpt lat="51.34540" lon="4.42327"></trkpt>
      <trkpt lat="51.34542" lon="4.42335"></trkpt>
      <trkpt lat="51.34542" lon="4.42339"></trkpt>
      <trkpt lat="51.34543" lon="4.42342"></trkpt>
      <trkpt lat="51.34544" lon="4.42348"></trkpt>
      <trkpt lat="51.34545" lon="4.42355"></trkpt>
      <trkpt lat="51.34546" lon="4.42362"></trkpt>
      <trkpt lat="51.34548" lon="4.42368"></trkpt>
      <trkpt lat="51.34550" lon="4.42375"></trkpt>
      <trkpt lat="51.34552" lon="4.42382"></trkpt>
      <trkpt lat="51.34555" lon="4.42388"></trkpt>
      <trkpt lat="51.34557" lon="4.42396"></trkpt>
      <trkpt lat="51.34560" lon="4.42404"></trkpt>
      <trkpt lat="51.34563" lon="4.42412"></trkpt>
      <trkpt lat="51.34565" lon="4.42419"></trkpt>
      <trkpt lat="51.34567" lon="4.42426"></trkpt>
      <trkpt lat="51.34569" lon="4.42437"></trkpt>
      <trkpt lat="51.34573" lon="4.42450"></trkpt>
      <trkpt lat="51.34578" lon="4.42463"></trkpt>
      <trkpt lat="51.34581" lon="4.42475"></trkpt>
      <trkpt lat="51.34584" lon="4.42488"></trkpt>
      <trkpt lat="51.34587" lon="4.42501"></trkpt>
      <trkpt lat="51.34590" lon="4.42514"></trkpt>
      <trkpt lat="51.34593" lon="4.42527"></trkpt>
      <trkpt lat="51.34597" lon="4.42539"></trkpt>
      <trkpt lat="51.34602" lon="4.42550"></trkpt>
      <trkpt lat="51.34607" lon="4.42560"></trkpt>
      <trkpt lat="51.34610" lon="4.42573"></trkpt>
      <trkpt lat="51.34614" lon="4.42583"></trkpt>
      <trkpt lat="51.34621" lon="4.42586"></trkpt>
      <trkpt lat="51.34629" lon="4.42586"></trkpt>
      <trkpt lat="51.34637" lon="4.42583"></trkpt>
      <trkpt lat="51.34644" lon="4.42579"></trkpt>
      <trkpt lat="51.34648" lon="4.42568"></trkpt>
      <trkpt lat="51.34649" lon="4.42554"></trkpt>
      <trkpt lat="51.34649" lon="4.42540"></trkpt>
      <trkpt lat="51.34651" lon="4.42527"></trkpt>
      <trkpt lat="51.34652" lon="4.42514"></trkpt>
      <trkpt lat="51.34650" lon="4.42501"></trkpt>
      <trkpt lat="51.34650" lon="4.42488"></trkpt>
      <trkpt lat="51.34654" lon="4.42485"></trkpt>
      <trkpt lat="51.34659" lon="4.42496"></trkpt>
      <trkpt lat="51.34661" lon="4.42509"></trkpt>
      <trkpt lat="51.34662" lon="4.42523"></trkpt>
      <trkpt lat="51.34663" lon="4.42537"></trkpt>
      <trkpt lat="51.34663" lon="4.42550"></trkpt>
      <trkpt lat="51.34662" lon="4.42563"></trkpt>
      <trkpt lat="51.34661" lon="4.42576"></trkpt>
      <trkpt lat="51.34659" lon="4.42589"></trkpt>
      <trkpt lat="51.34657" lon="4.42601"></trkpt>
      <trkpt lat="51.34655" lon="4.42614"></trkpt>
      <trkpt lat="51.34653" lon="4.42627"></trkpt>
      <trkpt lat="51.34652" lon="4.42639"></trkpt>
      <trkpt lat="51.34650" lon="4.42652"></trkpt>
      <trkpt lat="51.34649" lon="4.42666"></trkpt>
      <trkpt lat="51.34647" lon="4.42680"></trkpt>
      <trkpt lat="51.34646" lon="4.42694"></trkpt>
      <trkpt lat="51.34644" lon="4.42708"></trkpt>
      <trkpt lat="51.34643" lon="4.42721"></trkpt>
      <trkpt lat="51.34641" lon="4.42733"></trkpt>
      <trkpt lat="51.34640" lon="4.42745"></trkpt>
      <trkpt lat="51.34639" lon="4.42757"></trkpt>
      <trkpt lat="51.34638" lon="4.42769"></trkpt>
      <trkpt lat="51.34637" lon="4.42783"></trkpt>
      <trkpt lat="51.34638" lon="4.42796"></trkpt>
      <trkpt lat="51.34640" lon="4.42810"></trkpt>
      <trkpt lat="51.34642" lon="4.42823"></trkpt>
      <trkpt lat="51.34646" lon="4.42836"></trkpt>
      <trkpt lat="51.34651" lon="4.42846"></trkpt>
      <trkpt lat="51.34657" lon="4.42853"></trkpt>
      <trkpt lat="51.34665" lon="4.42859"></trkpt>
      <trkpt lat="51.34672" lon="4.42865"></trkpt>
      <trkpt lat="51.34680" lon="4.42870"></trkpt>
      <trkpt lat="51.34687" lon="4.42875"></trkpt>
      <trkpt lat="51.34695" lon="4.42879"></trkpt>
      <trkpt lat="51.34702" lon="4.42880"></trkpt>
      <trkpt lat="51.34709" lon="4.42878"></trkpt>
      <trkpt lat="51.34718" lon="4.42877"></trkpt>
      <trkpt lat="51.34726" lon="4.42876"></trkpt>
      <trkpt lat="51.34733" lon="4.42876"></trkpt>
      <trkpt lat="51.34741" lon="4.42877"></trkpt>
      <trkpt lat="51.34749" lon="4.42876"></trkpt>
      <trkpt lat="51.34757" lon="4.42876"></trkpt>
      <trkpt lat="51.34764" lon="4.42877"></trkpt>
      <trkpt lat="51.34772" lon="4.42879"></trkpt>
      <trkpt lat="51.34779" lon="4.42884"></trkpt>
      <trkpt lat="51.34787" lon="4.42889"></trkpt>
      <trkpt lat="51.34795" lon="4.42895"></trkpt>
      <trkpt lat="51.34802" lon="4.42902"></trkpt>
      <trkpt lat="51.34808" lon="4.42910"></trkpt>
      <trkpt lat="51.34815" lon="4.42916"></trkpt>
      <trkpt lat="51.34822" lon="4.42922"></trkpt>
      <trkpt lat="51.34830" lon="4.42928"></trkpt>
      <trkpt lat="51.34836" lon="4.42934"></trkpt>
      <trkpt lat="51.34844" lon="4.42941"></trkpt>
      <trkpt lat="51.34852" lon="4.42948"></trkpt>
      <trkpt lat="51.34858" lon="4.42957"></trkpt>
      <trkpt lat="51.34865" lon="4.42968"></trkpt>
      <trkpt lat="51.34871" lon="4.42977"></trkpt>
      <trkpt lat="51.34877" lon="4.42984"></trkpt>
      <trkpt lat="51.34885" lon="4.42988"></trkpt>
      <trkpt lat="51.34893" lon="4.42991"></trkpt>
      <trkpt lat="51.34901" lon="4.42992"></trkpt>
      <trkpt lat="51.34908" lon="4.42998"></trkpt>
      <trkpt lat="51.34915" lon="4.43005"></trkpt>
      <trkpt lat="51.34923" lon="4.43003"></trkpt>
      <trkpt lat="51.34929" lon="4.42993"></trkpt>
      <trkpt lat="51.34934" lon="4.42981"></trkpt>
      <trkpt lat="51.34939" lon="4.42968"></trkpt>
      <trkpt lat="51.34943" lon="4.42957"></trkpt>
      <trkpt lat="51.34949" lon="4.42946"></trkpt>
      <trkpt lat="51.34955" lon="4.42937"></trkpt>
      <trkpt lat="51.34962" lon="4.42935"></trkpt>
      <trkpt lat="51.34971" lon="4.42940"></trkpt>
      <trkpt lat="51.34979" lon="4.42946"></trkpt>
      <trkpt lat="51.34986" lon="4.42952"></trkpt>
      <trkpt lat="51.34993" lon="4.42959"></trkpt>
      <trkpt lat="51.35000" lon="4.42966"></trkpt>
      <trkpt lat="51.35007" lon="4.42973"></trkpt>
      <trkpt lat="51.35008" lon="4.42975"></trkpt>
      <trkpt lat="51.35009" lon="4.42975"></trkpt>
      <trkpt lat="51.35009" lon="4.42976"></trkpt>
      <trkpt lat="51.35009" lon="4.42976"></trkpt>
      <trkpt lat="51.35009" lon="4.42976"></trkpt>
      <trkpt lat="51.35012" lon="4.42978"></trkpt>
      <trkpt lat="51.35021" lon="4.42987"></trkpt>
      <trkpt lat="51.35029" lon="4.42995"></trkpt>
      <trkpt lat="51.35036" lon="4.43003"></trkpt>
      <trkpt lat="51.35043" lon="4.43010"></trkpt>
      <trkpt lat="51.35050" lon="4.43017"></trkpt>
      <trkpt lat="51.35058" lon="4.43024"></trkpt>
      <trkpt lat="51.35065" lon="4.43032"></trkpt>
      <trkpt lat="51.35073" lon="4.43039"></trkpt>
      <trkpt lat="51.35080" lon="4.43046"></trkpt>
      <trkpt lat="51.35087" lon="4.43052"></trkpt>
      <trkpt lat="51.35094" lon="4.43059"></trkpt>
      <trkpt lat="51.35100" lon="4.43065"></trkpt>
      <trkpt lat="51.35107" lon="4.43070"></trkpt>
      <trkpt lat="51.35114" lon="4.43075"></trkpt>
      <trkpt lat="51.35121" lon="4.43082"></trkpt>
      <trkpt lat="51.35129" lon="4.43090"></trkpt>
      <trkpt lat="51.35137" lon="4.43098"></trkpt>
      <trkpt lat="51.35144" lon="4.43106"></trkpt>
      <trkpt lat="51.35150" lon="4.43114"></trkpt>
      <trkpt lat="51.35157" lon="4.43121"></trkpt>
      <trkpt lat="51.35164" lon="4.43129"></trkpt>
      <trkpt lat="51.35171" lon="4.43137"></trkpt>
      <trkpt lat="51.35179" lon="4.43143"></trkpt>
      <trkpt lat="51.35186" lon="4.43149"></trkpt>
      <trkpt lat="51.35193" lon="4.43156"></trkpt>
      <trkpt lat="51.35199" lon="4.43162"></trkpt>
      <trkpt lat="51.35207" lon="4.43168"></trkpt>
      <trkpt lat="51.35214" lon="4.43175"></trkpt>
      <trkpt lat="51.35220" lon="4.43183"></trkpt>
      <trkpt lat="51.35227" lon="4.43189"></trkpt>
      <trkpt lat="51.35233" lon="4.43196"></trkpt>
      <trkpt lat="51.35240" lon="4.43203"></trkpt>
      <trkpt lat="51.35246" lon="4.43210"></trkpt>
      <trkpt lat="51.35253" lon="4.43217"></trkpt>
      <trkpt lat="51.35261" lon="4.43223"></trkpt>
      <trkpt lat="51.35269" lon="4.43230"></trkpt>
      <trkpt lat="51.35277" lon="4.43237"></trkpt>
      <trkpt lat="51.35284" lon="4.43244"></trkpt>
      <trkpt lat="51.35291" lon="4.43251"></trkpt>
      <trkpt lat="51.35298" lon="4.43258"></trkpt>
      <trkpt lat="51.35304" lon="4.43266"></trkpt>
      <trkpt lat="51.35311" lon="4.43272"></trkpt>
      <trkpt lat="51.35319" lon="4.43274"></trkpt>
      <trkpt lat="51.35327" lon="4.43269"></trkpt>
      <trkpt lat="51.35332" lon="4.43259"></trkpt>
      <trkpt lat="51.35336" lon="4.43249"></trkpt>
      <trkpt lat="51.35340" lon="4.43239"></trkpt>
      <trkpt lat="51.35345" lon="4.43228"></trkpt>
      <trkpt lat="51.35350" lon="4.43216"></trkpt>
      <trkpt lat="51.35354" lon="4.43205"></trkpt>
      <trkpt lat="51.35358" lon="4.43194"></trkpt>
      <trkpt lat="51.35363" lon="4.43183"></trkpt>
      <trkpt lat="51.35369" lon="4.43172"></trkpt>
      <trkpt lat="51.35374" lon="4.43159"></trkpt>
      <trkpt lat="51.35379" lon="4.43147"></trkpt>
      <trkpt lat="51.35382" lon="4.43133"></trkpt>
      <trkpt lat="51.35382" lon="4.43119"></trkpt>
      <trkpt lat="51.35377" lon="4.43107"></trkpt>
      <trkpt lat="51.35374" lon="4.43095"></trkpt>
      <trkpt lat="51.35373" lon="4.43081"></trkpt>
      <trkpt lat="51.35370" lon="4.43068"></trkpt>
      <trkpt lat="51.35367" lon="4.43055"></trkpt>
      <trkpt lat="51.35364" lon="4.43042"></trkpt>
      <trkpt lat="51.35359" lon="4.43033"></trkpt>
      <trkpt lat="51.35352" lon="4.43030"></trkpt>
      <trkpt lat="51.35346" lon="4.43029"></trkpt>
      <trkpt lat="51.35339" lon="4.43025"></trkpt>
      <trkpt lat="51.35332" lon="4.43017"></trkpt>
      <trkpt lat="51.35328" lon="4.43007"></trkpt>
      <trkpt lat="51.35327" lon="4.42996"></trkpt>
      <trkpt lat="51.35328" lon="4.42984"></trkpt>
      <trkpt lat="51.35329" lon="4.42971"></trkpt>
      <trkpt lat="51.35330" lon="4.42957"></trkpt>
      <trkpt lat="51.35332" lon="4.42945"></trkpt>
      <trkpt lat="51.35335" lon="4.42933"></trkpt>
      <trkpt lat="51.35335" lon="4.42921"></trkpt>
      <trkpt lat="51.35333" lon="4.42910"></trkpt>
      <trkpt lat="51.35329" lon="4.42901"></trkpt>
      <trkpt lat="51.35324" lon="4.42892"></trkpt>
      <trkpt lat="51.35326" lon="4.42880"></trkpt>
      <trkpt lat="51.35331" lon="4.42869"></trkpt>
      <trkpt lat="51.35336" lon="4.42858"></trkpt>
      <trkpt lat="51.35340" lon="4.42847"></trkpt>
      <trkpt lat="51.35343" lon="4.42835"></trkpt>
      <trkpt lat="51.35348" lon="4.42825"></trkpt>
      <trkpt lat="51.35353" lon="4.42814"></trkpt>
      <trkpt lat="51.35357" lon="4.42802"></trkpt>
      <trkpt lat="51.35362" lon="4.42791"></trkpt>
      <trkpt lat="51.35366" lon="4.42781"></trkpt>
      <trkpt lat="51.35370" lon="4.42769"></trkpt>
      <trkpt lat="51.35374" lon="4.42757"></trkpt>
      <trkpt lat="51.35378" lon="4.42746"></trkpt>
      <trkpt lat="51.35382" lon="4.42735"></trkpt>
      <trkpt lat="51.35387" lon="4.42723"></trkpt>
      <trkpt lat="51.35391" lon="4.42711"></trkpt>
      <trkpt lat="51.35397" lon="4.42700"></trkpt>
      <trkpt lat="51.35402" lon="4.42689"></trkpt>
      <trkpt lat="51.35407" lon="4.42678"></trkpt>
      <trkpt lat="51.35411" lon="4.42667"></trkpt>
      <trkpt lat="51.35415" lon="4.42655"></trkpt>
      <trkpt lat="51.35419" lon="4.42643"></trkpt>
      <trkpt lat="51.35423" lon="4.42632"></trkpt>
      <trkpt lat="51.35428" lon="4.42620"></trkpt>
      <trkpt lat="51.35432" lon="4.42609"></trkpt>
      <trkpt lat="51.35437" lon="4.42597"></trkpt>
      <trkpt lat="51.35443" lon="4.42586"></trkpt>
      <trkpt lat="51.35448" lon="4.42575"></trkpt>
      <trkpt lat="51.35452" lon="4.42564"></trkpt>
      <trkpt lat="51.35457" lon="4.42553"></trkpt>
      <trkpt lat="51.35461" lon="4.42542"></trkpt>
      <trkpt lat="51.35465" lon="4.42531"></trkpt>
      <trkpt lat="51.35470" lon="4.42519"></trkpt>
      <trkpt lat="51.35474" lon="4.42507"></trkpt>
      <trkpt lat="51.35478" lon="4.42495"></trkpt>
      <trkpt lat="51.35483" lon="4.42484"></trkpt>
      <trkpt lat="51.35485" lon="4.42472"></trkpt>
      <trkpt lat="51.35482" lon="4.42460"></trkpt>
      <trkpt lat="51.35475" lon="4.42450"></trkpt>
      <trkpt lat="51.35468" lon="4.42443"></trkpt>
      <trkpt lat="51.35462" lon="4.42436"></trkpt>
      <trkpt lat="51.35456" lon="4.42430"></trkpt>
      <trkpt lat="51.35449" lon="4.42423"></trkpt>
      <trkpt lat="51.35443" lon="4.42414"></trkpt>
      <trkpt lat="51.35436" lon="4.42406"></trkpt>
      <trkpt lat="51.35428" lon="4.42400"></trkpt>
      <trkpt lat="51.35421" lon="4.42393"></trkpt>
      <trkpt lat="51.35414" lon="4.42385"></trkpt>
      <trkpt lat="51.35408" lon="4.42377"></trkpt>
      <trkpt lat="51.35402" lon="4.42368"></trkpt>
      <trkpt lat="51.35396" lon="4.42360"></trkpt>
      <trkpt lat="51.35390" lon="4.42353"></trkpt>
      <trkpt lat="51.35384" lon="4.42345"></trkpt>
      <trkpt lat="51.35376" lon="4.42337"></trkpt>
      <trkpt lat="51.35369" lon="4.42329"></trkpt>
      <trkpt lat="51.35361" lon="4.42323"></trkpt>
      <trkpt lat="51.35353" lon="4.42316"></trkpt>
      <trkpt lat="51.35346" lon="4.42309"></trkpt>
      <trkpt lat="51.35339" lon="4.42301"></trkpt>
      <trkpt lat="51.35332" lon="4.42294"></trkpt>
      <trkpt lat="51.35324" lon="4.42287"></trkpt>
      <trkpt lat="51.35317" lon="4.42280"></trkpt>
      <trkpt lat="51.35311" lon="4.42273"></trkpt>
      <trkpt lat="51.35304" lon="4.42265"></trkpt>
      <trkpt lat="51.35297" lon="4.42259"></trkpt>
      <trkpt lat="51.35290" lon="4.42251"></trkpt>
      <trkpt lat="51.35284" lon="4.42244"></trkpt>
      <trkpt lat="51.35277" lon="4.42237"></trkpt>
      <trkpt lat="51.35269" lon="4.42230"></trkpt>
      <trkpt lat="51.35261" lon="4.42222"></trkpt>
      <trkpt lat="51.35254" lon="4.42215"></trkpt>
      <trkpt lat="51.35249" lon="4.42206"></trkpt>
      <trkpt lat="51.35242" lon="4.42202"></trkpt>
      <trkpt lat="51.35235" lon="4.42206"></trkpt>
      <trkpt lat="51.35228" lon="4.42211"></trkpt>
      <trkpt lat="51.35221" lon="4.42215"></trkpt>
      <trkpt lat="51.35214" lon="4.42220"></trkpt>
      <trkpt lat="51.35207" lon="4.42223"></trkpt>
      <trkpt lat="51.35199" lon="4.42227"></trkpt>
      <trkpt lat="51.35192" lon="4.42231"></trkpt>
      <trkpt lat="51.35185" lon="4.42237"></trkpt>
      <trkpt lat="51.35177" lon="4.42243"></trkpt>
      <trkpt lat="51.35169" lon="4.42248"></trkpt>
      <trkpt lat="51.35161" lon="4.42254"></trkpt>
      <trkpt lat="51.35154" lon="4.42259"></trkpt>
      <trkpt lat="51.35147" lon="4.42263"></trkpt>
      <trkpt lat="51.35140" lon="4.42267"></trkpt>
      <trkpt lat="51.35132" lon="4.42272"></trkpt>
      <trkpt lat="51.35124" lon="4.42277"></trkpt>
      <trkpt lat="51.35116" lon="4.42283"></trkpt>
      <trkpt lat="51.35108" lon="4.42290"></trkpt>
      <trkpt lat="51.35100" lon="4.42295"></trkpt>
      <trkpt lat="51.35092" lon="4.42299"></trkpt>
      <trkpt lat="51.35084" lon="4.42299"></trkpt>
      <trkpt lat="51.35079" lon="4.42290"></trkpt>
      <trkpt lat="51.35076" lon="4.42278"></trkpt>
      <trkpt lat="51.35073" lon="4.42265"></trkpt>
      <trkpt lat="51.35070" lon="4.42253"></trkpt>
      <trkpt lat="51.35067" lon="4.42242"></trkpt>
      <trkpt lat="51.35064" lon="4.42232"></trkpt>
      <trkpt lat="51.35062" lon="4.42221"></trkpt>
      <trkpt lat="51.35059" lon="4.42211"></trkpt>
      <trkpt lat="51.35056" lon="4.42200"></trkpt>
      <trkpt lat="51.35052" lon="4.42188"></trkpt>
      <trkpt lat="51.35049" lon="4.42176"></trkpt>
      <trkpt lat="51.35046" lon="4.42164"></trkpt>
      <trkpt lat="51.35043" lon="4.42152"></trkpt>
      <trkpt lat="51.35039" lon="4.42140"></trkpt>
      <trkpt lat="51.35036" lon="4.42129"></trkpt>
      <trkpt lat="51.35031" lon="4.42116"></trkpt>
      <trkpt lat="51.35027" lon="4.42104"></trkpt>
      <trkpt lat="51.35024" lon="4.42091"></trkpt>
      <trkpt lat="51.35022" lon="4.42077"></trkpt>
      <trkpt lat="51.35018" lon="4.42064"></trkpt>
      <trkpt lat="51.35015" lon="4.42051"></trkpt>
      <trkpt lat="51.35012" lon="4.42039"></trkpt>
      <trkpt lat="51.35009" lon="4.42027"></trkpt>
      <trkpt lat="51.35005" lon="4.42013"></trkpt>
      <trkpt lat="51.35002" lon="4.42000"></trkpt>
      <trkpt lat="51.34999" lon="4.41987"></trkpt>
      <trkpt lat="51.34996" lon="4.41974"></trkpt>
      <trkpt lat="51.34992" lon="4.41961"></trkpt>
      <trkpt lat="51.34989" lon="4.41948"></trkpt>
      <trkpt lat="51.34986" lon="4.41936"></trkpt>
      <trkpt lat="51.34982" lon="4.41924"></trkpt>
      <trkpt lat="51.34979" lon="4.41912"></trkpt>
      <trkpt lat="51.34976" lon="4.41900"></trkpt>
      <trkpt lat="51.34973" lon="4.41888"></trkpt>
      <trkpt lat="51.34970" lon="4.41877"></trkpt>
      <trkpt lat="51.34967" lon="4.41865"></trkpt>
      <trkpt lat="51.34963" lon="4.41853"></trkpt>
      <trkpt lat="51.34960" lon="4.41840"></trkpt>
      <trkpt lat="51.34957" lon="4.41827"></trkpt>
      <trkpt lat="51.34954" lon="4.41816"></trkpt>
      <trkpt lat="51.34950" lon="4.41803"></trkpt>
      <trkpt lat="51.34947" lon="4.41791"></trkpt>
      <trkpt lat="51.34944" lon="4.41778"></trkpt>
      <trkpt lat="51.34940" lon="4.41766"></trkpt>
      <trkpt lat="51.34937" lon="4.41754"></trkpt>
      <trkpt lat="51.34933" lon="4.41745"></trkpt>
      <trkpt lat="51.34927" lon="4.41744"></trkpt>
      <trkpt lat="51.34920" lon="4.41747"></trkpt>
      <trkpt lat="51.34913" lon="4.41752"></trkpt>
      <trkpt lat="51.34906" lon="4.41757"></trkpt>
      <trkpt lat="51.34898" lon="4.41760"></trkpt>
      <trkpt lat="51.34890" lon="4.41765"></trkpt>
      <trkpt lat="51.34882" lon="4.41770"></trkpt>
      <trkpt lat="51.34875" lon="4.41773"></trkpt>
      <trkpt lat="51.34867" lon="4.41777"></trkpt>
      <trkpt lat="51.34859" lon="4.41782"></trkpt>
      <trkpt lat="51.34851" lon="4.41786"></trkpt>
      <trkpt lat="51.34842" lon="4.41791"></trkpt>
      <trkpt lat="51.34834" lon="4.41796"></trkpt>
      <trkpt lat="51.34825" lon="4.41801"></trkpt>
      <trkpt lat="51.34816" lon="4.41806"></trkpt>
      <trkpt lat="51.34808" lon="4.41811"></trkpt>
      <trkpt lat="51.34799" lon="4.41815"></trkpt>
      <trkpt lat="51.34790" lon="4.41821"></trkpt>
      <trkpt lat="51.34781" lon="4.41826"></trkpt>
      <trkpt lat="51.34773" lon="4.41830"></trkpt>
      <trkpt lat="51.34766" lon="4.41835"></trkpt>
      <trkpt lat="51.34765" lon="4.41844"></trkpt>
      <trkpt lat="51.34767" lon="4.41857"></trkpt>
      <trkpt lat="51.34770" lon="4.41870"></trkpt>
      <trkpt lat="51.34772" lon="4.41882"></trkpt>
      <trkpt lat="51.34774" lon="4.41894"></trkpt>
      <trkpt lat="51.34778" lon="4.41907"></trkpt>
      <trkpt lat="51.34782" lon="4.41920"></trkpt>
      <trkpt lat="51.34785" lon="4.41933"></trkpt>
      <trkpt lat="51.34789" lon="4.41946"></trkpt>
      <trkpt lat="51.34794" lon="4.41957"></trkpt>
      <trkpt lat="51.34798" lon="4.41969"></trkpt>
      <trkpt lat="51.34801" lon="4.41981"></trkpt>
      <trkpt lat="51.34803" lon="4.41993"></trkpt>
      <trkpt lat="51.34806" lon="4.42006"></trkpt>
      <trkpt lat="51.34810" lon="4.42019"></trkpt>
      <trkpt lat="51.34813" lon="4.42031"></trkpt>
      <trkpt lat="51.34818" lon="4.42042"></trkpt>
      <trkpt lat="51.34821" lon="4.42052"></trkpt>
      <trkpt lat="51.34825" lon="4.42066"></trkpt>
      <trkpt lat="51.34828" lon="4.42079"></trkpt>
      <trkpt lat="51.34832" lon="4.42092"></trkpt>
      <trkpt lat="51.34835" lon="4.42104"></trkpt>
      <trkpt lat="51.34838" lon="4.42116"></trkpt>
      <trkpt lat="51.34841" lon="4.42126"></trkpt>
      <trkpt lat="51.34844" lon="4.42139"></trkpt>
      <trkpt lat="51.34846" lon="4.42152"></trkpt>
      <trkpt lat="51.34849" lon="4.42165"></trkpt>
      <trkpt lat="51.34852" lon="4.42178"></trkpt>
      <trkpt lat="51.34856" lon="4.42190"></trkpt>
      <trkpt lat="51.34858" lon="4.42202"></trkpt>
      <trkpt lat="51.34860" lon="4.42214"></trkpt>
      <trkpt lat="51.34860" lon="4.42227"></trkpt>
      <trkpt lat="51.34857" lon="4.42238"></trkpt>
      <trkpt lat="51.34852" lon="4.42248"></trkpt>
      <trkpt lat="51.34845" lon="4.42254"></trkpt>
      <trkpt lat="51.34837" lon="4.42257"></trkpt>
      <trkpt lat="51.34829" lon="4.42261"></trkpt>
      <trkpt lat="51.34821" lon="4.42265"></trkpt>
      <trkpt lat="51.34813" lon="4.42269"></trkpt>
      <trkpt lat="51.34804" lon="4.42271"></trkpt>
      <trkpt lat="51.34796" lon="4.42272"></trkpt>
      <trkpt lat="51.34788" lon="4.42274"></trkpt>
      <trkpt lat="51.34780" lon="4.42277"></trkpt>
      <trkpt lat="51.34772" lon="4.42281"></trkpt>
      <trkpt lat="51.34763" lon="4.42285"></trkpt>
      <trkpt lat="51.34755" lon="4.42288"></trkpt>
      <trkpt lat="51.34747" lon="4.42290"></trkpt>
      <trkpt lat="51.34740" lon="4.42292"></trkpt>
      <trkpt lat="51.34733" lon="4.42298"></trkpt>
      <trkpt lat="51.34725" lon="4.42303"></trkpt>
      <trkpt lat="51.34717" lon="4.42305"></trkpt>
      <trkpt lat="51.34709" lon="4.42310"></trkpt>
      <trkpt lat="51.34703" lon="4.42319"></trkpt>
      <trkpt lat="51.34697" lon="4.42327"></trkpt>
      <trkpt lat="51.34692" lon="4.42336"></trkpt>
      <trkpt lat="51.34686" lon="4.42345"></trkpt>
      <trkpt lat="51.34681" lon="4.42355"></trkpt>
      <trkpt lat="51.34677" lon="4.42366"></trkpt>
      <trkpt lat="51.34674" lon="4.42379"></trkpt>
      <trkpt lat="51.34672" lon="4.42392"></trkpt>
      <trkpt lat="51.34670" lon="4.42407"></trkpt>
      <trkpt lat="51.34668" lon="4.42421"></trkpt>
      <trkpt lat="51.34668" lon="4.42434"></trkpt>
      <trkpt lat="51.34668" lon="4.42447"></trkpt>
      <trkpt lat="51.34667" lon="4.42461"></trkpt>
      <trkpt lat="51.34664" lon="4.42473"></trkpt>
      <trkpt lat="51.34661" lon="4.42483"></trkpt>
      <trkpt lat="51.34657" lon="4.42488"></trkpt>
      <trkpt lat="51.34658" lon="4.42500"></trkpt>
      <trkpt lat="51.34658" lon="4.42513"></trkpt>
      <trkpt lat="51.34657" lon="4.42527"></trkpt>
      <trkpt lat="51.34656" lon="4.42540"></trkpt>
      <trkpt lat="51.34654" lon="4.42554"></trkpt>
      <trkpt lat="51.34653" lon="4.42568"></trkpt>
      <trkpt lat="51.34652" lon="4.42580"></trkpt>
      <trkpt lat="51.34645" lon="4.42586"></trkpt>
      <trkpt lat="51.34636" lon="4.42589"></trkpt>
      <trkpt lat="51.34627" lon="4.42592"></trkpt>
      <trkpt lat="51.34618" lon="4.42590"></trkpt>
      <trkpt lat="51.34613" lon="4.42579"></trkpt>
      <trkpt lat="51.34610" lon="4.42567"></trkpt>
      <trkpt lat="51.34605" lon="4.42556"></trkpt>
      <trkpt lat="51.34601" lon="4.42544"></trkpt>
      <trkpt lat="51.34597" lon="4.42532"></trkpt>
      <trkpt lat="51.34594" lon="4.42518"></trkpt>
      <trkpt lat="51.34591" lon="4.42505"></trkpt>
      <trkpt lat="51.34587" lon="4.42493"></trkpt>
      <trkpt lat="51.34584" lon="4.42481"></trkpt>
      <trkpt lat="51.34580" lon="4.42468"></trkpt>
      <trkpt lat="51.34576" lon="4.42457"></trkpt>
      <trkpt lat="51.34572" lon="4.42443"></trkpt>
      <trkpt lat="51.34568" lon="4.42431"></trkpt>
      <trkpt lat="51.34564" lon="4.42419"></trkpt>
      <trkpt lat="51.34561" lon="4.42406"></trkpt>
      <trkpt lat="51.34558" lon="4.42394"></trkpt>
      <trkpt lat="51.34554" lon="4.42382"></trkpt>
      <trkpt lat="51.34550" lon="4.42370"></trkpt>
      <trkpt lat="51.34547" lon="4.42357"></trkpt>
      <trkpt lat="51.34543" lon="4.42346"></trkpt>
      <trkpt lat="51.34540" lon="4.42333"></trkpt>
      <trkpt lat="51.34538" lon="4.42319"></trkpt>
      <trkpt lat="51.34535" lon="4.42307"></trkpt>
      <trkpt lat="51.34531" lon="4.42294"></trkpt>
      <trkpt lat="51.34527" lon="4.42282"></trkpt>
      <trkpt lat="51.34522" lon="4.42272"></trkpt>
      <trkpt lat="51.34517" lon="4.42261"></trkpt>
      <trkpt lat="51.34515" lon="4.42248"></trkpt>
      <trkpt lat="51.34512" lon="4.42236"></trkpt>
      <trkpt lat="51.34509" lon="4.42225"></trkpt>
      <trkpt lat="51.34506" lon="4.42213"></trkpt>
      <trkpt lat="51.34501" lon="4.42204"></trkpt>
      <trkpt lat="51.34494" lon="4.42200"></trkpt>
      <trkpt lat="51.34487" lon="4.42205"></trkpt>
      <trkpt lat="51.34480" lon="4.42213"></trkpt>
      <trkpt lat="51.34474" lon="4.42222"></trkpt>
      <trkpt lat="51.34466" lon="4.42229"></trkpt>
      <trkpt lat="51.34459" lon="4.42238"></trkpt>
      <trkpt lat="51.34452" lon="4.42245"></trkpt>
      <trkpt lat="51.34446" lon="4.42252"></trkpt>
      <trkpt lat="51.34439" lon="4.42259"></trkpt>
      <trkpt lat="51.34431" lon="4.42267"></trkpt>
      <trkpt lat="51.34424" lon="4.42275"></trkpt>
      <trkpt lat="51.34417" lon="4.42282"></trkpt>
      <trkpt lat="51.34409" lon="4.42289"></trkpt>
      <trkpt lat="51.34403" lon="4.42296"></trkpt>
      <trkpt lat="51.34397" lon="4.42303"></trkpt>
      <trkpt lat="51.34390" lon="4.42310"></trkpt>
      <trkpt lat="51.34383" lon="4.42318"></trkpt>
      <trkpt lat="51.34376" lon="4.42326"></trkpt>
      <trkpt lat="51.34368" lon="4.42333"></trkpt>
      <trkpt lat="51.34363" lon="4.42339"></trkpt>
      <trkpt lat="51.34356" lon="4.42345"></trkpt>
      <trkpt lat="51.34349" lon="4.42352"></trkpt>
      <trkpt lat="51.34343" lon="4.42360"></trkpt>
      <trkpt lat="51.34336" lon="4.42367"></trkpt>
      <trkpt lat="51.34329" lon="4.42375"></trkpt>
      <trkpt lat="51.34323" lon="4.42380"></trkpt>
      <trkpt lat="51.34317" lon="4.42386"></trkpt>
      <trkpt lat="51.34310" lon="4.42395"></trkpt>
      <trkpt lat="51.34303" lon="4.42401"></trkpt>
      <trkpt lat="51.34296" lon="4.42408"></trkpt>
      <trkpt lat="51.34289" lon="4.42416"></trkpt>
      <trkpt lat="51.34283" lon="4.42424"></trkpt>
      <trkpt lat="51.34278" lon="4.42432"></trkpt>
      <trkpt lat="51.34271" lon="4.42439"></trkpt>
      <trkpt lat="51.34264" lon="4.42446"></trkpt>
      <trkpt lat="51.34257" lon="4.42452"></trkpt>
      <trkpt lat="51.34250" lon="4.42459"></trkpt>
      <trkpt lat="51.34242" lon="4.42467"></trkpt>
      <trkpt lat="51.34236" lon="4.42475"></trkpt>
      <trkpt lat="51.34228" lon="4.42484"></trkpt>
      <trkpt lat="51.34221" lon="4.42493"></trkpt>
      <trkpt lat="51.34214" lon="4.42500"></trkpt>
      <trkpt lat="51.34207" lon="4.42507"></trkpt>
      <trkpt lat="51.34198" lon="4.42512"></trkpt>
      <trkpt lat="51.34189" lon="4.42510"></trkpt>
      <trkpt lat="51.34184" lon="4.42499"></trkpt>
      <trkpt lat="51.34179" lon="4.42487"></trkpt>
      <trkpt lat="51.34177" lon="4.42475"></trkpt>
      <trkpt lat="51.34173" lon="4.42464"></trkpt>
      <trkpt lat="51.34168" lon="4.42452"></trkpt>
      <trkpt lat="51.34165" lon="4.42442"></trkpt>
      <trkpt lat="51.34162" lon="4.42430"></trkpt>
      <trkpt lat="51.34159" lon="4.42419"></trkpt>
      <trkpt lat="51.34156" lon="4.42409"></trkpt>
      <trkpt lat="51.34153" lon="4.42398"></trkpt>
      <trkpt lat="51.34150" lon="4.42387"></trkpt>
      <trkpt lat="51.34146" lon="4.42376"></trkpt>
      <trkpt lat="51.34143" lon="4.42364"></trkpt>
      <trkpt lat="51.34140" lon="4.42353"></trkpt>
      <trkpt lat="51.34136" lon="4.42340"></trkpt>
      <trkpt lat="51.34132" lon="4.42326"></trkpt>
      <trkpt lat="51.34130" lon="4.42313"></trkpt>
      <trkpt lat="51.34126" lon="4.42300"></trkpt>
      <trkpt lat="51.34123" lon="4.42288"></trkpt>
      <trkpt lat="51.34121" lon="4.42276"></trkpt>
      <trkpt lat="51.34118" lon="4.42264"></trkpt>
      <trkpt lat="51.34115" lon="4.42252"></trkpt>
      <trkpt lat="51.34112" lon="4.42240"></trkpt>
      <trkpt lat="51.34109" lon="4.42229"></trkpt>
      <trkpt lat="51.34106" lon="4.42218"></trkpt>
      <trkpt lat="51.34102" lon="4.42206"></trkpt>
      <trkpt lat="51.34098" lon="4.42195"></trkpt>
      <trkpt lat="51.34093" lon="4.42186"></trkpt>
      <trkpt lat="51.34085" lon="4.42184"></trkpt>
      <trkpt lat="51.34079" lon="4.42185"></trkpt>
      <trkpt lat="51.34072" lon="4.42189"></trkpt>
      <trkpt lat="51.34065" lon="4.42194"></trkpt>
      <trkpt lat="51.34058" lon="4.42199"></trkpt>
      <trkpt lat="51.34052" lon="4.42205"></trkpt>
      <trkpt lat="51.34045" lon="4.42210"></trkpt>
      <trkpt lat="51.34037" lon="4.42216"></trkpt>
      <trkpt lat="51.34029" lon="4.42223"></trkpt>
      <trkpt lat="51.34020" lon="4.42228"></trkpt>
      <trkpt lat="51.34012" lon="4.42233"></trkpt>
      <trkpt lat="51.34004" lon="4.42240"></trkpt>
      <trkpt lat="51.33996" lon="4.42246"></trkpt>
      <trkpt lat="51.33989" lon="4.42251"></trkpt>
      <trkpt lat="51.33981" lon="4.42257"></trkpt>
      <trkpt lat="51.33973" lon="4.42264"></trkpt>
      <trkpt lat="51.33964" lon="4.42270"></trkpt>
      <trkpt lat="51.33957" lon="4.42276"></trkpt>
      <trkpt lat="51.33949" lon="4.42282"></trkpt>
      <trkpt lat="51.33942" lon="4.42288"></trkpt>
      <trkpt lat="51.33933" lon="4.42294"></trkpt>
      <trkpt lat="51.33925" lon="4.42300"></trkpt>
      <trkpt lat="51.33918" lon="4.42306"></trkpt>
      <trkpt lat="51.33911" lon="4.42311"></trkpt>
      <trkpt lat="51.33903" lon="4.42317"></trkpt>
      <trkpt lat="51.33895" lon="4.42324"></trkpt>
      <trkpt lat="51.33891" lon="4.42335"></trkpt>
      <trkpt lat="51.33892" lon="4.42349"></trkpt>
      <trkpt lat="51.33895" lon="4.42361"></trkpt>
      <trkpt lat="51.33898" lon="4.42373"></trkpt>
      <trkpt lat="51.33901" lon="4.42386"></trkpt>
      <trkpt lat="51.33904" lon="4.42399"></trkpt>
      <trkpt lat="51.33907" lon="4.42412"></trkpt>
      <trkpt lat="51.33910" lon="4.42424"></trkpt>
      <trkpt lat="51.33913" lon="4.42437"></trkpt>
      <trkpt lat="51.33917" lon="4.42451"></trkpt>
      <trkpt lat="51.33920" lon="4.42463"></trkpt>
      <trkpt lat="51.33924" lon="4.42475"></trkpt>
      <trkpt lat="51.33927" lon="4.42488"></trkpt>
      <trkpt lat="51.33931" lon="4.42501"></trkpt>
      <trkpt lat="51.33934" lon="4.42513"></trkpt>
      <trkpt lat="51.33938" lon="4.42526"></trkpt>
      <trkpt lat="51.33942" lon="4.42538"></trkpt>
      <trkpt lat="51.33946" lon="4.42550"></trkpt>
      <trkpt lat="51.33949" lon="4.42563"></trkpt>
      <trkpt lat="51.33953" lon="4.42576"></trkpt>
      <trkpt lat="51.33956" lon="4.42588"></trkpt>
      <trkpt lat="51.33959" lon="4.42601"></trkpt>
      <trkpt lat="51.33963" lon="4.42613"></trkpt>
      <trkpt lat="51.33967" lon="4.42625"></trkpt>
      <trkpt lat="51.33970" lon="4.42637"></trkpt>
      <trkpt lat="51.33974" lon="4.42650"></trkpt>
      <trkpt lat="51.33976" lon="4.42662"></trkpt>
      <trkpt lat="51.33979" lon="4.42675"></trkpt>
      <trkpt lat="51.33983" lon="4.42688"></trkpt>
      <trkpt lat="51.33987" lon="4.42701"></trkpt>
      <trkpt lat="51.33990" lon="4.42713"></trkpt>
      <trkpt lat="51.33992" lon="4.42726"></trkpt>
      <trkpt lat="51.33989" lon="4.42736"></trkpt>
      <trkpt lat="51.33982" lon="4.42743"></trkpt>
      <trkpt lat="51.33974" lon="4.42749"></trkpt>
      <trkpt lat="51.33966" lon="4.42756"></trkpt>
      <trkpt lat="51.33959" lon="4.42762"></trkpt>
      <trkpt lat="51.33952" lon="4.42770"></trkpt>
      <trkpt lat="51.33944" lon="4.42778"></trkpt>
      <trkpt lat="51.33937" lon="4.42786"></trkpt>
      <trkpt lat="51.33930" lon="4.42792"></trkpt>
      <trkpt lat="51.33923" lon="4.42799"></trkpt>
      <trkpt lat="51.33916" lon="4.42807"></trkpt>
      <trkpt lat="51.33908" lon="4.42815"></trkpt>
      <trkpt lat="51.33900" lon="4.42822"></trkpt>
      <trkpt lat="51.33893" lon="4.42828"></trkpt>
      <trkpt lat="51.33886" lon="4.42833"></trkpt>
      <trkpt lat="51.33880" lon="4.42840"></trkpt>
      <trkpt lat="51.33873" lon="4.42848"></trkpt>
      <trkpt lat="51.33866" lon="4.42855"></trkpt>
      <trkpt lat="51.33860" lon="4.42861"></trkpt>
      <trkpt lat="51.33853" lon="4.42867"></trkpt>
      <trkpt lat="51.33846" lon="4.42874"></trkpt>
      <trkpt lat="51.33839" lon="4.42882"></trkpt>
      <trkpt lat="51.33832" lon="4.42891"></trkpt>
      <trkpt lat="51.33825" lon="4.42898"></trkpt>
      <trkpt lat="51.33819" lon="4.42906"></trkpt>
      <trkpt lat="51.33811" lon="4.42914"></trkpt>
      <trkpt lat="51.33804" lon="4.42921"></trkpt>
      <trkpt lat="51.33799" lon="4.42931"></trkpt>
      <trkpt lat="51.33797" lon="4.42937"></trkpt>
      <trkpt lat="51.33796" lon="4.42939"></trkpt>
      <trkpt lat="51.33796" lon="4.42939"></trkpt>
      <trkpt lat="51.33795" lon="4.42939"></trkpt>
      <trkpt lat="51.33794" lon="4.42939"></trkpt>
      <trkpt lat="51.33794" lon="4.42939"></trkpt>
      <trkpt lat="51.33790" lon="4.42941"></trkpt>
      <trkpt lat="51.33780" lon="4.42948"></trkpt>
      <trkpt lat="51.33778" lon="4.42950"></trkpt>
      <trkpt lat="51.33778" lon="4.42950"></trkpt>
      <trkpt lat="51.33777" lon="4.42951"></trkpt>
      <trkpt lat="51.33777" lon="4.42951"></trkpt>
      <trkpt lat="51.33777" lon="4.42952"></trkpt>
      <trkpt lat="51.33776" lon="4.42953"></trkpt>
      <trkpt lat="51.33776" lon="4.42953"></trkpt>
      <trkpt lat="51.33776" lon="4.42954"></trkpt>
      <trkpt lat="51.33775" lon="4.42955"></trkpt>
      <trkpt lat="51.33775" lon="4.42956"></trkpt>
      <trkpt lat="51.33771" lon="4.42960"></trkpt>
      <trkpt lat="51.33767" lon="4.42966"></trkpt>
      <trkpt lat="51.33764" lon="4.42968"></trkpt>
      <trkpt lat="51.33762" lon="4.42969"></trkpt>
      <trkpt lat="51.33759" lon="4.42971"></trkpt>
      <trkpt lat="51.33756" lon="4.42974"></trkpt>
      <trkpt lat="51.33753" lon="4.42979"></trkpt>
      <trkpt lat="51.33748" lon="4.42983"></trkpt>
      <trkpt lat="51.33742" lon="4.42986"></trkpt>
      <trkpt lat="51.33738" lon="4.42991"></trkpt>
      <trkpt lat="51.33735" lon="4.42995"></trkpt>
      <trkpt lat="51.33732" lon="4.42998"></trkpt>
      <trkpt lat="51.33729" lon="4.43001"></trkpt>
      <trkpt lat="51.33726" lon="4.43005"></trkpt>
      <trkpt lat="51.33722" lon="4.43008"></trkpt>
      <trkpt lat="51.33718" lon="4.43012"></trkpt>
      <trkpt lat="51.33714" lon="4.43017"></trkpt>
      <trkpt lat="51.33711" lon="4.43022"></trkpt>
      <trkpt lat="51.33709" lon="4.43027"></trkpt>
      <trkpt lat="51.33709" lon="4.43032"></trkpt>
      <trkpt lat="51.33709" lon="4.43035"></trkpt>
      <trkpt lat="51.33709" lon="4.43035"></trkpt>
      <trkpt lat="51.33709" lon="4.43035"></trkpt>
      <trkpt lat="51.33709" lon="4.43035"></trkpt>
      <trkpt lat="51.33709" lon="4.43035"></trkpt>
      <trkpt lat="51.33709" lon="4.43036"></trkpt>
      <trkpt lat="51.33709" lon="4.43036"></trkpt>
      <trkpt lat="51.33709" lon="4.43036"></trkpt>
      <trkpt lat="51.33709" lon="4.43036"></trkpt>
      <trkpt lat="51.33709" lon="4.43036"></trkpt>
      <trkpt lat="51.33709" lon="4.43036"></trkpt>
      <trkpt lat="51.33709" lon="4.43036"></trkpt>
      <trkpt lat="51.33709" lon="4.43037"></trkpt>
      <trkpt lat="51.33709" lon="4.43037"></trkpt>
      <trkpt lat="51.33709" lon="4.43037"></trkpt>
      <trkpt lat="51.33709" lon="4.43037"></trkpt>
      <trkpt lat="51.33709" lon="4.43037"></trkpt>
      <trkpt lat="51.33709" lon="4.43037"></trkpt>
      <trkpt lat="51.33709" lon="4.43038"></trkpt>
      <trkpt lat="51.33709" lon="4.43038"></trkpt>
      <trkpt lat="51.33709" lon="4.43038"></trkpt>
      <trkpt lat="51.33710" lon="4.43039"></trkpt>
      <trkpt lat="51.33712" lon="4.43047"></trkpt>
      <trkpt lat="51.33712" lon="4.43053"></trkpt>
      <trkpt lat="51.33713" lon="4.43057"></trkpt>
      <trkpt lat="51.33715" lon="4.43061"></trkpt>
      <trkpt lat="51.33715" lon="4.43063"></trkpt>
      <trkpt lat="51.33715" lon="4.43062"></trkpt>
      <trkpt lat="51.33715" lon="4.43062"></trkpt>
      <trkpt lat="51.33715" lon="4.43062"></trkpt>
      <trkpt lat="51.33715" lon="4.43061"></trkpt>
      <trkpt lat="51.33715" lon="4.43061"></trkpt>
      <trkpt lat="51.33715" lon="4.43061"></trkpt>
      <trkpt lat="51.33715" lon="4.43060"></trkpt>
      <trkpt lat="51.33715" lon="4.43060"></trkpt>
      <trkpt lat="51.33715" lon="4.43059"></trkpt>
      <trkpt lat="51.33714" lon="4.43055"></trkpt>
      <trkpt lat="51.33712" lon="4.43050"></trkpt>
      <trkpt lat="51.33710" lon="4.43046"></trkpt>
      <trkpt lat="51.33709" lon="4.43042"></trkpt>
    </trkseg>
  </trk>
</gpx>