<?xml version="1.0" encoding="UTF-8"?>
<gpx version="1.1" creator="jeffry.running" xmlns="http://www.topografix.com/GPX/1/1">
  <metadata><time>2026-10-04T06:21:21.356Z</time></metadata>
  <trk>
    <trkseg>
      <trkpt lat="51.34517" lon="4.42173"></trkpt>
      <trkpt lat="51.34495" lon="4.42197"></trkpt>
      <trkpt lat="51.34473" lon="4.42223"></trkpt>
      <trkpt lat="51.34451" lon="4.42247"></trkpt>
      <trkpt lat="51.34429" lon="4.42272"></trkpt>
      <trkpt lat="51.34407" lon="4.42297"></trkpt>
      <trkpt lat="51.34385" lon="4.42320"></trkpt>
      <trkpt lat="51.34363" lon="4.42345"></trkpt>
      <trkpt lat="51.34339" lon="4.42369"></trkpt>
      <trkpt lat="51.34314" lon="4.42393"></trkpt>
      <trkpt lat="51.34291" lon="4.42417"></trkpt>
      <trkpt lat="51.34267" lon="4.42443"></trkpt>
      <trkpt lat="51.34259" lon="4.42451"></trkpt>
      <trkpt lat="51.34281" lon="4.42425"></trkpt>
      <trkpt lat="51.34304" lon="4.42397"></trkpt>
      <trkpt lat="51.34328" lon="4.42373"></trkpt>
      <trkpt lat="51.34351" lon="4.42350"></trkpt>
      <trkpt lat="51.34375" lon="4.42323"></trkpt>
      <trkpt lat="51.34400" lon="4.42296"></trkpt>
      <trkpt lat="51.34425" lon="4.42269"></trkpt>
      <trkpt lat="51.34450" lon="4.42242"></trkpt>
      <trkpt lat="51.34475" lon="4.42217"></trkpt>
      <trkpt lat="51.34500" lon="4.42192"></trkpt>
      <trkpt lat="51.34523" lon="4.42163"></trkpt>
      <trkpt lat="51.34546" lon="4.42147"></trkpt>
      <trkpt lat="51.34556" lon="4.42163"></trkpt>
      <trkpt lat="51.34555" lon="4.42163"></trkpt>
      <trkpt lat="51.34555" lon="4.42162"></trkpt>
      <trkpt lat="51.34554" lon="4.42158"></trkpt>
      <trkpt lat="51.34536" lon="4.42155"></trkpt>
      <trkpt lat="51.34512" lon="4.42181"></trkpt>
      <trkpt lat="51.34488" lon="4.42210"></trkpt>
      <trkpt lat="51.34467" lon="4.42233"></trkpt>
      <trkpt lat="51.34447" lon="4.42254"></trkpt>
      <trkpt lat="51.34422" lon="4.42279"></trkpt>
      <trkpt lat="51.34398" lon="4.42306"></trkpt>
      <trkpt lat="51.34375" lon="4.42330"></trkpt>
      <trkpt lat="51.34350" lon="4.42357"></trkpt>
      <trkpt lat="51.34324" lon="4.42384"></trkpt>
      <trkpt lat="51.34298" lon="4.42408"></trkpt>
      <trkpt lat="51.34273" lon="4.42431"></trkpt>
      <trkpt lat="51.34248" lon="4.42458"></trkpt>
      <trkpt lat="51.34223" lon="4.42485"></trkpt>
      <trkpt lat="51.34209" lon="4.42500"></trkpt>
      <trkpt lat="51.34194" lon="4.42515"></trkpt>
      <trkpt lat="51.34174" lon="4.42503"></trkpt>
      <trkpt lat="51.34163" lon="4.42456"></trkpt>
      <trkpt lat="51.34154" lon="4.42423"></trkpt>
      <trkpt lat="51.34150" lon="4.42407"></trkpt>
      <trkpt lat="51.34140" lon="4.42362"></trkpt>
      <trkpt lat="51.34127" lon="4.42317"></trkpt>
      <trkpt lat="51.34117" lon="4.42273"></trkpt>
      <trkpt lat="51.34104" lon="4.42231"></trkpt>
      <trkpt lat="51.34091" lon="4.42195"></trkpt>
      <trkpt lat="51.34067" lon="4.42194"></trkpt>
      <trkpt lat="51.34041" lon="4.42211"></trkpt>
      <trkpt lat="51.34022" lon="4.42224"></trkpt>
      <trkpt lat="51.34014" lon="4.42232"></trkpt>
      <trkpt lat="51.33997" lon="4.42244"></trkpt>
      <trkpt lat="51.33972" lon="4.42262"></trkpt>
      <trkpt lat="51.33948" lon="4.42279"></trkpt>
      <trkpt lat="51.33931" lon="4.42292"></trkpt>
      <trkpt lat="51.33915" lon="4.42305"></trkpt>
      <trkpt lat="51.33894" lon="4.42323"></trkpt>
      <trkpt lat="51.33889" lon="4.42360"></trkpt>
      <trkpt lat="51.33902" lon="4.42403"></trkpt>
      <trkpt lat="51.33916" lon="4.42446"></trkpt>
      <trkpt lat="51.33928" lon="4.42490"></trkpt>
      <trkpt lat="51.33939" lon="4.42535"></trkpt>
      <trkpt lat="51.33952" lon="4.42580"></trkpt>
      <trkpt lat="51.33963" lon="4.42623"></trkpt>
      <trkpt lat="51.33977" lon="4.42667"></trkpt>
      <trkpt lat="51.33990" lon="4.42711"></trkpt>
      <trkpt lat="51.33978" lon="4.42747"></trkpt>
      <trkpt lat="51.33952" lon="4.42770"></trkpt>
      <trkpt lat="51.33936" lon="4.42786"></trkpt>
      <trkpt lat="51.33921" lon="4.42800"></trkpt>
      <trkpt lat="51.33906" lon="4.42815"></trkpt>
      <trkpt lat="51.33885" lon="4.42835"></trkpt>
      <trkpt lat="51.33861" lon="4.42859"></trkpt>
      <trkpt lat="51.33837" lon="4.42885"></trkpt>
      <trkpt lat="51.33813" lon="4.42913"></trkpt>
      <trkpt lat="51.33788" lon="4.42937"></trkpt>
      <trkpt lat="51.33763" lon="4.42965"></trkpt>
      <trkpt lat="51.33737" lon="4.42992"></trkpt>
      <trkpt lat="51.33717" lon="4.43025"></trkpt>
      <trkpt lat="51.33724" lon="4.43068"></trkpt>
      <trkpt lat="51.33737" lon="4.43108"></trkpt>
      <trkpt lat="51.33753" lon="4.43147"></trkpt>
      <trkpt lat="51.33766" lon="4.43187"></trkpt>
      <trkpt lat="51.33780" lon="4.43227"></trkpt>
      <trkpt lat="51.33793" lon="4.43266"></trkpt>
      <trkpt lat="51.33807" lon="4.43307"></trkpt>
      <trkpt lat="51.33820" lon="4.43348"></trkpt>
      <trkpt lat="51.33834" lon="4.43389"></trkpt>
      <trkpt lat="51.33839" lon="4.43430"></trkpt>
      <trkpt lat="51.33817" lon="4.43461"></trkpt>
      <trkpt lat="51.33793" lon="4.43484"></trkpt>
      <trkpt lat="51.33767" lon="4.43507"></trkpt>
      <trkpt lat="51.33758" lon="4.43547"></trkpt>
      <trkpt lat="51.33771" lon="4.43590"></trkpt>
      <trkpt lat="51.33785" lon="4.43629"></trkpt>
      <trkpt lat="51.33798" lon="4.43668"></trkpt>
      <trkpt lat="51.33816" lon="4.43707"></trkpt>
      <trkpt lat="51.33831" lon="4.43749"></trkpt>
      <trkpt lat="51.33844" lon="4.43789"></trkpt>
      <trkpt lat="51.33856" lon="4.43832"></trkpt>
      <trkpt lat="51.33872" lon="4.43871"></trkpt>
      <trkpt lat="51.33893" lon="4.43871"></trkpt>
      <trkpt lat="51.33916" lon="4.43849"></trkpt>
      <trkpt lat="51.33940" lon="4.43823"></trkpt>
      <trkpt lat="51.33963" lon="4.43815"></trkpt>
      <trkpt lat="51.33983" lon="4.43852"></trkpt>
      <trkpt lat="51.33999" lon="4.43894"></trkpt>
      <trkpt lat="51.34013" lon="4.43933"></trkpt>
      <trkpt lat="51.34022" lon="4.43967"></trkpt>
      <trkpt lat="51.34034" lon="4.44007"></trkpt>
      <trkpt lat="51.34049" lon="4.44038"></trkpt>
      <trkpt lat="51.34068" lon="4.44025"></trkpt>
      <trkpt lat="51.34092" lon="4.44000"></trkpt>
      <trkpt lat="51.34117" lon="4.43979"></trkpt>
      <trkpt lat="51.34142" lon="4.43953"></trkpt>
      <trkpt lat="51.34169" lon="4.43930"></trkpt>
      <trkpt lat="51.34194" lon="4.43932"></trkpt>
      <trkpt lat="51.34213" lon="4.43972"></trkpt>
      <trkpt lat="51.34229" lon="4.44012"></trkpt>
      <trkpt lat="51.34240" lon="4.44043"></trkpt>
      <trkpt lat="51.34240" lon="4.44048"></trkpt>
      <trkpt lat="51.34244" lon="4.44065"></trkpt>
      <trkpt lat="51.34253" lon="4.44097"></trkpt>
      <trkpt lat="51.34260" lon="4.44117"></trkpt>
      <trkpt lat="51.34267" lon="4.44135"></trkpt>
      <trkpt lat="51.34275" lon="4.44151"></trkpt>
      <trkpt lat="51.34279" lon="4.44160"></trkpt>
      <trkpt lat="51.34287" lon="4.44182"></trkpt>
      <trkpt lat="51.34296" lon="4.44204"></trkpt>
      <trkpt lat="51.34301" lon="4.44217"></trkpt>
      <trkpt lat="51.34301" lon="4.44219"></trkpt>
      <trkpt lat="51.34303" lon="4.44219"></trkpt>
      <trkpt lat="51.34313" lon="4.44211"></trkpt>
      <trkpt lat="51.34320" lon="4.44192"></trkpt>
      <trkpt lat="51.34331" lon="4.44165"></trkpt>
      <trkpt lat="51.34347" lon="4.44125"></trkpt>
      <trkpt lat="51.34364" lon="4.44085"></trkpt>
      <trkpt lat="51.34381" lon="4.44044"></trkpt>
      <trkpt lat="51.34396" lon="4.44005"></trkpt>
      <trkpt lat="51.34411" lon="4.43964"></trkpt>
      <trkpt lat="51.34418" lon="4.43935"></trkpt>
      <trkpt lat="51.34419" lon="4.43933"></trkpt>
      <trkpt lat="51.34425" lon="4.43921"></trkpt>
      <trkpt lat="51.34437" lon="4.43894"></trkpt>
      <trkpt lat="51.34441" lon="4.43898"></trkpt>
      <trkpt lat="51.34449" lon="4.43901"></trkpt>
      <trkpt lat="51.34443" lon="4.43895"></trkpt>
      <trkpt lat="51.34449" lon="4.43870"></trkpt>
      <trkpt lat="51.34458" lon="4.43846"></trkpt>
      <trkpt lat="51.34467" lon="4.43821"></trkpt>
      <trkpt lat="51.34477" lon="4.43796"></trkpt>
      <trkpt lat="51.34487" lon="4.43769"></trkpt>
      <trkpt lat="51.34499" lon="4.43746"></trkpt>
      <trkpt lat="51.34510" lon="4.43724"></trkpt>
      <trkpt lat="51.34518" lon="4.43688"></trkpt>
      <trkpt lat="51.34522" lon="4.43659"></trkpt>
      <trkpt lat="51.34510" lon="4.43647"></trkpt>
      <trkpt lat="51.34496" lon="4.43637"></trkpt>
      <trkpt lat="51.34492" lon="4.43633"></trkpt>
      <trkpt lat="51.34492" lon="4.43634"></trkpt>
      <trkpt lat="51.34492" lon="4.43634"></trkpt>
      <trkpt lat="51.34493" lon="4.43635"></trkpt>
      <trkpt lat="51.34493" lon="4.43635"></trkpt>
      <trkpt lat="51.34500" lon="4.43637"></trkpt>
      <trkpt lat="51.34509" lon="4.43638"></trkpt>
      <trkpt lat="51.34516" lon="4.43622"></trkpt>
      <trkpt lat="51.34520" lon="4.43595"></trkpt>
      <trkpt lat="51.34526" lon="4.43569"></trkpt>
      <trkpt lat="51.34531" lon="4.43544"></trkpt>
      <trkpt lat="51.34534" lon="4.43525"></trkpt>
      <trkpt lat="51.34538" lon="4.43502"></trkpt>
      <trkpt lat="51.34543" lon="4.43460"></trkpt>
      <trkpt lat="51.34533" lon="4.43416"></trkpt>
      <trkpt lat="51.34518" lon="4.43372"></trkpt>
      <trkpt lat="51.34504" lon="4.43333"></trkpt>
      <trkpt lat="51.34490" lon="4.43291"></trkpt>
      <trkpt lat="51.34474" lon="4.43249"></trkpt>
      <trkpt lat="51.34460" lon="4.43207"></trkpt>
      <trkpt lat="51.34447" lon="4.43163"></trkpt>
      <trkpt lat="51.34433" lon="4.43119"></trkpt>
      <trkpt lat="51.34420" lon="4.43075"></trkpt>
      <trkpt lat="51.34406" lon="4.43031"></trkpt>
      <trkpt lat="51.34391" lon="4.42990"></trkpt>
      <trkpt lat="51.34378" lon="4.42946"></trkpt>
      <trkpt lat="51.34366" lon="4.42903"></trkpt>
      <trkpt lat="51.34364" lon="4.42859"></trkpt>
      <trkpt lat="51.34386" lon="4.42826"></trkpt>
      <trkpt lat="51.34408" lon="4.42794"></trkpt>
      <trkpt lat="51.34428" lon="4.42760"></trkpt>
      <trkpt lat="51.34454" lon="4.42739"></trkpt>
      <trkpt lat="51.34483" lon="4.42720"></trkpt>
      <trkpt lat="51.34512" lon="4.42702"></trkpt>
      <trkpt lat="51.34539" lon="4.42684"></trkpt>
      <trkpt lat="51.34568" lon="4.42665"></trkpt>
      <trkpt lat="51.34594" lon="4.42641"></trkpt>
      <trkpt lat="51.34609" lon="4.42601"></trkpt>
      <trkpt lat="51.34634" lon="4.42586"></trkpt>
      <trkpt lat="51.34648" lon="4.42549"></trkpt>
      <trkpt lat="51.34645" lon="4.42501"></trkpt>
      <trkpt lat="51.34634" lon="4.42456"></trkpt>
      <trkpt lat="51.34621" lon="4.42413"></trkpt>
      <trkpt lat="51.34610" lon="4.42369"></trkpt>
      <trkpt lat="51.34598" lon="4.42323"></trkpt>
      <trkpt lat="51.34588" lon="4.42279"></trkpt>
      <trkpt lat="51.34576" lon="4.42234"></trkpt>
      <trkpt lat="51.34565" lon="4.42190"></trkpt>
      <trkpt lat="51.34559" lon="4.42166"></trkpt>
      <trkpt lat="51.34558" lon="4.42165"></trkpt>
      <trkpt lat="51.34558" lon="4.42165"></trkpt>
      <trkpt lat="51.34558" lon="4.42165"></trkpt>
      <trkpt lat="51.34559" lon="4.42165"></trkpt>
      <trkpt lat="51.34559" lon="4.42164"></trkpt>
      <trkpt lat="51.34559" lon="4.42164"></trkpt>
      <trkpt lat="51.34559" lon="4.42164"></trkpt>
      <trkpt lat="51.34559" lon="4.42164"></trkpt>
      <trkpt lat="51.34559" lon="4.42164"></trkpt>
      <trkpt lat="51.34559" lon="4.42164"></trkpt>
      <trkpt lat="51.34559" lon="4.42164"></trkpt>
      <trkpt lat="51.34559" lon="4.42164"></trkpt>
      <trkpt lat="51.34560" lon="4.42164"></trkpt>
      <trkpt lat="51.34560" lon="4.42164"></trkpt>
      <trkpt lat="51.34560" lon="4.42164"></trkpt>
      <trkpt lat="51.34560" lon="4.42164"></trkpt>
      <trkpt lat="51.34560" lon="4.42164"></trkpt>
      <trkpt lat="51.34560" lon="4.42164"></trkpt>
      <trkpt lat="51.34560" lon="4.42164"></trkpt>
      <trkpt lat="51.34560" lon="4.42163"></trkpt>
      <trkpt lat="51.34560" lon="4.42163"></trkpt>
      <trkpt lat="51.34560" lon="4.42163"></trkpt>
      <trkpt lat="51.34556" lon="4.42153"></trkpt>
      <trkpt lat="51.34540" lon="4.42155"></trkpt>
      <trkpt lat="51.34516" lon="4.42180"></trkpt>
      <trkpt lat="51.34507" lon="4.42218"></trkpt>
      <trkpt lat="51.34515" lon="4.42264"></trkpt>
      <trkpt lat="51.34529" lon="4.42305"></trkpt>
      <trkpt lat="51.34543" lon="4.42348"></trkpt>
      <trkpt lat="51.34554" lon="4.42391"></trkpt>
      <trkpt lat="51.34565" lon="4.42434"></trkpt>
      <trkpt lat="51.34579" lon="4.42476"></trkpt>
      <trkpt lat="51.34591" lon="4.42520"></trkpt>
      <trkpt lat="51.34605" lon="4.42559"></trkpt>
      <trkpt lat="51.34622" lon="4.42588"></trkpt>
      <trkpt lat="51.34645" lon="4.42574"></trkpt>
      <trkpt lat="51.34654" lon="4.42528"></trkpt>
      <trkpt lat="51.34653" lon="4.42494"></trkpt>
      <trkpt lat="51.34661" lon="4.42529"></trkpt>
      <trkpt lat="51.34659" lon="4.42575"></trkpt>
      <trkpt lat="51.34656" lon="4.42621"></trkpt>
      <trkpt lat="51.34650" lon="4.42666"></trkpt>
      <trkpt lat="51.34642" lon="4.42713"></trkpt>
      <trkpt lat="51.34637" lon="4.42760"></trkpt>
      <trkpt lat="51.34638" lon="4.42811"></trkpt>
      <trkpt lat="51.34652" lon="4.42853"></trkpt>
      <trkpt lat="51.34677" lon="4.42877"></trkpt>
      <trkpt lat="51.34701" lon="4.42886"></trkpt>
      <trkpt lat="51.34715" lon="4.42883"></trkpt>
      <trkpt lat="51.34734" lon="4.42881"></trkpt>
      <trkpt lat="51.34750" lon="4.42883"></trkpt>
      <trkpt lat="51.34765" lon="4.42883"></trkpt>
      <trkpt lat="51.34781" lon="4.42887"></trkpt>
      <trkpt lat="51.34796" lon="4.42895"></trkpt>
      <trkpt lat="51.34809" lon="4.42909"></trkpt>
      <trkpt lat="51.34824" lon="4.42922"></trkpt>
      <trkpt lat="51.34839" lon="4.42934"></trkpt>
      <trkpt lat="51.34851" lon="4.42947"></trkpt>
      <trkpt lat="51.34867" lon="4.42967"></trkpt>
      <trkpt lat="51.34890" lon="4.42987"></trkpt>
      <trkpt lat="51.34919" lon="4.42996"></trkpt>
      <trkpt lat="51.34940" lon="4.42972"></trkpt>
      <trkpt lat="51.34961" lon="4.42936"></trkpt>
      <trkpt lat="51.34988" lon="4.42948"></trkpt>
      <trkpt lat="51.35015" lon="4.42971"></trkpt>
      <trkpt lat="51.35041" lon="4.42998"></trkpt>
      <trkpt lat="51.35066" lon="4.43023"></trkpt>
      <trkpt lat="51.35091" lon="4.43048"></trkpt>
      <trkpt lat="51.35116" lon="4.43075"></trkpt>
      <trkpt lat="51.35140" lon="4.43101"></trkpt>
      <trkpt lat="51.35167" lon="4.43127"></trkpt>
      <trkpt lat="51.35194" lon="4.43154"></trkpt>
      <trkpt lat="51.35219" lon="4.43181"></trkpt>
      <trkpt lat="51.35246" lon="4.43207"></trkpt>
      <trkpt lat="51.35272" lon="4.43231"></trkpt>
      <trkpt lat="51.35299" lon="4.43256"></trkpt>
      <trkpt lat="51.35325" lon="4.43266"></trkpt>
      <trkpt lat="51.35344" lon="4.43230"></trkpt>
      <trkpt lat="51.35358" lon="4.43186"></trkpt>
      <trkpt lat="51.35374" lon="4.43141"></trkpt>
      <trkpt lat="51.35375" lon="4.43100"></trkpt>
      <trkpt lat="51.35365" lon="4.43057"></trkpt>
      <trkpt lat="51.35345" lon="4.43033"></trkpt>
      <trkpt lat="51.35325" lon="4.43007"></trkpt>
      <trkpt lat="51.35326" lon="4.42963"></trkpt>
      <trkpt lat="51.35329" lon="4.42921"></trkpt>
      <trkpt lat="51.35325" lon="4.42884"></trkpt>
      <trkpt lat="51.35340" lon="4.42843"></trkpt>
      <trkpt lat="51.35352" lon="4.42820"></trkpt>
      <trkpt lat="51.35352" lon="4.42819"></trkpt>
      <trkpt lat="51.35353" lon="4.42812"></trkpt>
      <trkpt lat="51.35366" lon="4.42772"></trkpt>
      <trkpt lat="51.35382" lon="4.42733"></trkpt>
      <trkpt lat="51.35400" lon="4.42689"></trkpt>
      <trkpt lat="51.35416" lon="4.42647"></trkpt>
      <trkpt lat="51.35433" lon="4.42604"></trkpt>
      <trkpt lat="51.35450" lon="4.42565"></trkpt>
      <trkpt lat="51.35465" lon="4.42530"></trkpt>
      <trkpt lat="51.35478" lon="4.42489"></trkpt>
      <trkpt lat="51.35468" lon="4.42453"></trkpt>
      <trkpt lat="51.35444" lon="4.42426"></trkpt>
      <trkpt lat="51.35419" lon="4.42399"></trkpt>
      <trkpt lat="51.35395" lon="4.42371"></trkpt>
      <trkpt lat="51.35369" lon="4.42342"></trkpt>
      <trkpt lat="51.35345" lon="4.42314"></trkpt>
      <trkpt lat="51.35321" lon="4.42287"></trkpt>
      <trkpt lat="51.35295" lon="4.42259"></trkpt>
      <trkpt lat="51.35270" lon="4.42231"></trkpt>
      <trkpt lat="51.35245" lon="4.42209"></trkpt>
      <trkpt lat="51.35219" lon="4.42218"></trkpt>
      <trkpt lat="51.35191" lon="4.42237"></trkpt>
      <trkpt lat="51.35165" lon="4.42255"></trkpt>
      <trkpt lat="51.35138" lon="4.42274"></trkpt>
      <trkpt lat="51.35108" lon="4.42294"></trkpt>
      <trkpt lat="51.35083" lon="4.42287"></trkpt>
      <trkpt lat="51.35068" lon="4.42244"></trkpt>
      <trkpt lat="51.35055" lon="4.42198"></trkpt>
      <trkpt lat="51.35041" lon="4.42153"></trkpt>
      <trkpt lat="51.35027" lon="4.42109"></trkpt>
      <trkpt lat="51.35014" lon="4.42065"></trkpt>
      <trkpt lat="51.35002" lon="4.42021"></trkpt>
      <trkpt lat="51.34991" lon="4.41975"></trkpt>
      <trkpt lat="51.34980" lon="4.41929"></trkpt>
      <trkpt lat="51.34968" lon="4.41883"></trkpt>
      <trkpt lat="51.34958" lon="4.41840"></trkpt>
      <trkpt lat="51.34946" lon="4.41797"></trkpt>
      <trkpt lat="51.34934" lon="4.41754"></trkpt>
      <trkpt lat="51.34923" lon="4.41708"></trkpt>
      <trkpt lat="51.34912" lon="4.41665"></trkpt>
      <trkpt lat="51.34902" lon="4.41622"></trkpt>
      <trkpt lat="51.34890" lon="4.41576"></trkpt>
      <trkpt lat="51.34879" lon="4.41531"></trkpt>
      <trkpt lat="51.34866" lon="4.41484"></trkpt>
      <trkpt lat="51.34853" lon="4.41439"></trkpt>
      <trkpt lat="51.34842" lon="4.41394"></trkpt>
      <trkpt lat="51.34835" lon="4.41367"></trkpt>
      <trkpt lat="51.34833" lon="4.41357"></trkpt>
      <trkpt lat="51.34827" lon="4.41336"></trkpt>
      <trkpt lat="51.34816" lon="4.41285"></trkpt>
      <trkpt lat="51.34804" lon="4.41235"></trkpt>
      <trkpt lat="51.34793" lon="4.41185"></trkpt>
      <trkpt lat="51.34782" lon="4.41140"></trkpt>
      <trkpt lat="51.34773" lon="4.41096"></trkpt>
      <trkpt lat="51.34761" lon="4.41054"></trkpt>
      <trkpt lat="51.34750" lon="4.41010"></trkpt>
      <trkpt lat="51.34739" lon="4.40965"></trkpt>
      <trkpt lat="51.34728" lon="4.40921"></trkpt>
      <trkpt lat="51.34726" lon="4.40874"></trkpt>
      <trkpt lat="51.34736" lon="4.40826"></trkpt>
      <trkpt lat="51.34746" lon="4.40778"></trkpt>
      <trkpt lat="51.34746" lon="4.40730"></trkpt>
      <trkpt lat="51.34735" lon="4.40683"></trkpt>
      <trkpt lat="51.34722" lon="4.40637"></trkpt>
      <trkpt lat="51.34710" lon="4.40590"></trkpt>
      <trkpt lat="51.34697" lon="4.40545"></trkpt>
      <trkpt lat="51.34688" lon="4.40497"></trkpt>
      <trkpt lat="51.34676" lon="4.40450"></trkpt>
      <trkpt lat="51.34670" lon="4.40405"></trkpt>
      <trkpt lat="51.34671" lon="4.40359"></trkpt>
      <trkpt lat="51.34672" lon="4.40310"></trkpt>
      <trkpt lat="51.34675" lon="4.40260"></trkpt>
      <trkpt lat="51.34677" lon="4.40213"></trkpt>
      <trkpt lat="51.34691" lon="4.40190"></trkpt>
      <trkpt lat="51.34692" lon="4.40191"></trkpt>
      <trkpt lat="51.34704" lon="4.40171"></trkpt>
      <trkpt lat="51.34708" lon="4.40120"></trkpt>
      <trkpt lat="51.34712" lon="4.40069"></trkpt>
      <trkpt lat="51.34710" lon="4.40017"></trkpt>
      <trkpt lat="51.34700" lon="4.39969"></trkpt>
      <trkpt lat="51.34690" lon="4.39942"></trkpt>
      <trkpt lat="51.34680" lon="4.39918"></trkpt>
      <trkpt lat="51.34666" lon="4.39878"></trkpt>
      <trkpt lat="51.34651" lon="4.39839"></trkpt>
      <trkpt lat="51.34636" lon="4.39799"></trkpt>
      <trkpt lat="51.34621" lon="4.39757"></trkpt>
      <trkpt lat="51.34606" lon="4.39713"></trkpt>
      <trkpt lat="51.34590" lon="4.39669"></trkpt>
      <trkpt lat="51.34573" lon="4.39627"></trkpt>
      <trkpt lat="51.34557" lon="4.39584"></trkpt>
      <trkpt lat="51.34541" lon="4.39541"></trkpt>
      <trkpt lat="51.34526" lon="4.39500"></trkpt>
      <trkpt lat="51.34516" lon="4.39472"></trkpt>
      <trkpt lat="51.34508" lon="4.39448"></trkpt>
      <trkpt lat="51.34500" lon="4.39429"></trkpt>
      <trkpt lat="51.34498" lon="4.39426"></trkpt>
      <trkpt lat="51.34498" lon="4.39425"></trkpt>
      <trkpt lat="51.34497" lon="4.39425"></trkpt>
      <trkpt lat="51.34492" lon="4.39412"></trkpt>
      <trkpt lat="51.34477" lon="4.39369"></trkpt>
      <trkpt lat="51.34483" lon="4.39322"></trkpt>
      <trkpt lat="51.34500" lon="4.39285"></trkpt>
      <trkpt lat="51.34499" lon="4.39247"></trkpt>
      <trkpt lat="51.34478" lon="4.39210"></trkpt>
      <trkpt lat="51.34457" lon="4.39173"></trkpt>
      <trkpt lat="51.34437" lon="4.39133"></trkpt>
      <trkpt lat="51.34417" lon="4.39094"></trkpt>
      <trkpt lat="51.34396" lon="4.39053"></trkpt>
      <trkpt lat="51.34375" lon="4.39013"></trkpt>
      <trkpt lat="51.34355" lon="4.38974"></trkpt>
      <trkpt lat="51.34336" lon="4.38937"></trkpt>
      <trkpt lat="51.34318" lon="4.38899"></trkpt>
      <trkpt lat="51.34298" lon="4.38860"></trkpt>
      <trkpt lat="51.34294" lon="4.38820"></trkpt>
      <trkpt lat="51.34318" lon="4.38786"></trkpt>
      <trkpt lat="51.34341" lon="4.38756"></trkpt>
      <trkpt lat="51.34363" lon="4.38725"></trkpt>
      <trkpt lat="51.34385" lon="4.38694"></trkpt>
      <trkpt lat="51.34404" lon="4.38660"></trkpt>
      <trkpt lat="51.34408" lon="4.38614"></trkpt>
      <trkpt lat="51.34410" lon="4.38566"></trkpt>
      <trkpt lat="51.34410" lon="4.38521"></trkpt>
      <trkpt lat="51.34410" lon="4.38472"></trkpt>
      <trkpt lat="51.34412" lon="4.38423"></trkpt>
      <trkpt lat="51.34414" lon="4.38372"></trkpt>
      <trkpt lat="51.34416" lon="4.38321"></trkpt>
      <trkpt lat="51.34410" lon="4.38270"></trkpt>
      <trkpt lat="51.34393" lon="4.38225"></trkpt>
      <trkpt lat="51.34377" lon="4.38189"></trkpt>
      <trkpt lat="51.34373" lon="4.38181"></trkpt>
      <trkpt lat="51.34358" lon="4.38143"></trkpt>
      <trkpt lat="51.34341" lon="4.38102"></trkpt>
      <trkpt lat="51.34327" lon="4.38069"></trkpt>
      <trkpt lat="51.34314" lon="4.38038"></trkpt>
      <trkpt lat="51.34297" lon="4.37994"></trkpt>
      <trkpt lat="51.34280" lon="4.37951"></trkpt>
      <trkpt lat="51.34270" lon="4.37903"></trkpt>
      <trkpt lat="51.34276" lon="4.37853"></trkpt>
      <trkpt lat="51.34285" lon="4.37804"></trkpt>
      <trkpt lat="51.34293" lon="4.37754"></trkpt>
      <trkpt lat="51.34302" lon="4.37704"></trkpt>
      <trkpt lat="51.34310" lon="4.37653"></trkpt>
      <trkpt lat="51.34318" lon="4.37602"></trkpt>
      <trkpt lat="51.34327" lon="4.37553"></trkpt>
      <trkpt lat="51.34335" lon="4.37505"></trkpt>
      <trkpt lat="51.34331" lon="4.37457"></trkpt>
      <trkpt lat="51.34316" lon="4.37412"></trkpt>
      <trkpt lat="51.34300" lon="4.37367"></trkpt>
      <trkpt lat="51.34282" lon="4.37324"></trkpt>
      <trkpt lat="51.34265" lon="4.37279"></trkpt>
      <trkpt lat="51.34249" lon="4.37237"></trkpt>
      <trkpt lat="51.34234" lon="4.37194"></trkpt>
      <trkpt lat="51.34218" lon="4.37152"></trkpt>
      <trkpt lat="51.34201" lon="4.37110"></trkpt>
      <trkpt lat="51.34184" lon="4.37065"></trkpt>
      <trkpt lat="51.34168" lon="4.37020"></trkpt>
      <trkpt lat="51.34152" lon="4.36973"></trkpt>
      <trkpt lat="51.34135" lon="4.36929"></trkpt>
      <trkpt lat="51.34119" lon="4.36883"></trkpt>
      <trkpt lat="51.34118" lon="4.36831"></trkpt>
      <trkpt lat="51.34128" lon="4.36782"></trkpt>
      <trkpt lat="51.34138" lon="4.36735"></trkpt>
      <trkpt lat="51.34149" lon="4.36686"></trkpt>
      <trkpt lat="51.34160" lon="4.36638"></trkpt>
      <trkpt lat="51.34169" lon="4.36590"></trkpt>
      <trkpt lat="51.34178" lon="4.36542"></trkpt>
      <trkpt lat="51.34188" lon="4.36494"></trkpt>
      <trkpt lat="51.34199" lon="4.36445"></trkpt>
      <trkpt lat="51.34209" lon="4.36396"></trkpt>
      <trkpt lat="51.34218" lon="4.36347"></trkpt>
      <trkpt lat="51.34229" lon="4.36299"></trkpt>
      <trkpt lat="51.34239" lon="4.36251"></trkpt>
      <trkpt lat="51.34249" lon="4.36202"></trkpt>
      <trkpt lat="51.34249" lon="4.36151"></trkpt>
      <trkpt lat="51.34242" lon="4.36100"></trkpt>
      <trkpt lat="51.34235" lon="4.36052"></trkpt>
      <trkpt lat="51.34231" lon="4.36023"></trkpt>
      <trkpt lat="51.34231" lon="4.36020"></trkpt>
      <trkpt lat="51.34228" lon="4.36005"></trkpt>
      <trkpt lat="51.34221" lon="4.35960"></trkpt>
      <trkpt lat="51.34216" lon="4.35930"></trkpt>
      <trkpt lat="51.34211" lon="4.35891"></trkpt>
      <trkpt lat="51.34204" lon="4.35844"></trkpt>
      <trkpt lat="51.34198" lon="4.35795"></trkpt>
      <trkpt lat="51.34191" lon="4.35745"></trkpt>
      <trkpt lat="51.34184" lon="4.35693"></trkpt>
      <trkpt lat="51.34178" lon="4.35641"></trkpt>
      <trkpt lat="51.34170" lon="4.35588"></trkpt>
      <trkpt lat="51.34161" lon="4.35538"></trkpt>
      <trkpt lat="51.34149" lon="4.35487"></trkpt>
      <trkpt lat="51.34137" lon="4.35436"></trkpt>
      <trkpt lat="51.34125" lon="4.35387"></trkpt>
      <trkpt lat="51.34114" lon="4.35340"></trkpt>
      <trkpt lat="51.34098" lon="4.35296"></trkpt>
      <trkpt lat="51.34078" lon="4.35255"></trkpt>
      <trkpt lat="51.34057" lon="4.35212"></trkpt>
      <trkpt lat="51.34038" lon="4.35171"></trkpt>
      <trkpt lat="51.34034" lon="4.35123"></trkpt>
      <trkpt lat="51.34057" lon="4.35088"></trkpt>
      <trkpt lat="51.34081" lon="4.35058"></trkpt>
      <trkpt lat="51.34105" lon="4.35028"></trkpt>
      <trkpt lat="51.34129" lon="4.34998"></trkpt>
      <trkpt lat="51.34153" lon="4.34968"></trkpt>
      <trkpt lat="51.34178" lon="4.34937"></trkpt>
      <trkpt lat="51.34203" lon="4.34904"></trkpt>
      <trkpt lat="51.34228" lon="4.34872"></trkpt>
      <trkpt lat="51.34252" lon="4.34841"></trkpt>
      <trkpt lat="51.34277" lon="4.34810"></trkpt>
      <trkpt lat="51.34302" lon="4.34778"></trkpt>
      <trkpt lat="51.34328" lon="4.34747"></trkpt>
      <trkpt lat="51.34351" lon="4.34721"></trkpt>
      <trkpt lat="51.34346" lon="4.34747"></trkpt>
      <trkpt lat="51.34361" lon="4.34793"></trkpt>
      <trkpt lat="51.34376" lon="4.34837"></trkpt>
      <trkpt lat="51.34392" lon="4.34879"></trkpt>
      <trkpt lat="51.34404" lon="4.34907"></trkpt>
      <trkpt lat="51.34413" lon="4.34928"></trkpt>
      <trkpt lat="51.34423" lon="4.34952"></trkpt>
      <trkpt lat="51.34432" lon="4.34975"></trkpt>
      <trkpt lat="51.34441" lon="4.34998"></trkpt>
      <trkpt lat="51.34453" lon="4.35025"></trkpt>
      <trkpt lat="51.34470" lon="4.35065"></trkpt>
      <trkpt lat="51.34488" lon="4.35109"></trkpt>
      <trkpt lat="51.34506" lon="4.35153"></trkpt>
      <trkpt lat="51.34524" lon="4.35194"></trkpt>
      <trkpt lat="51.34544" lon="4.35232"></trkpt>
      <trkpt lat="51.34562" lon="4.35275"></trkpt>
      <trkpt lat="51.34581" lon="4.35319"></trkpt>
      <trkpt lat="51.34599" lon="4.35363"></trkpt>
      <trkpt lat="51.34616" lon="4.35405"></trkpt>
      <trkpt lat="51.34634" lon="4.35446"></trkpt>
      <trkpt lat="51.34651" lon="4.35488"></trkpt>
      <trkpt lat="51.34668" lon="4.35530"></trkpt>
      <trkpt lat="51.34686" lon="4.35570"></trkpt>
      <trkpt lat="51.34703" lon="4.35611"></trkpt>
      <trkpt lat="51.34720" lon="4.35651"></trkpt>
      <trkpt lat="51.34738" lon="4.35692"></trkpt>
      <trkpt lat="51.34757" lon="4.35734"></trkpt>
      <trkpt lat="51.34775" lon="4.35777"></trkpt>
      <trkpt lat="51.34793" lon="4.35821"></trkpt>
      <trkpt lat="51.34812" lon="4.35863"></trkpt>
      <trkpt lat="51.34831" lon="4.35905"></trkpt>
      <trkpt lat="51.34849" lon="4.35947"></trkpt>
      <trkpt lat="51.34864" lon="4.35989"></trkpt>
      <trkpt lat="51.34879" lon="4.36027"></trkpt>
      <trkpt lat="51.34888" lon="4.36047"></trkpt>
      <trkpt lat="51.34893" lon="4.36060"></trkpt>
      <trkpt lat="51.34901" lon="4.36078"></trkpt>
      <trkpt lat="51.34913" lon="4.36105"></trkpt>
      <trkpt lat="51.34921" lon="4.36123"></trkpt>
      <trkpt lat="51.34936" lon="4.36159"></trkpt>
      <trkpt lat="51.34954" lon="4.36200"></trkpt>
      <trkpt lat="51.34971" lon="4.36240"></trkpt>
      <trkpt lat="51.34987" lon="4.36283"></trkpt>
      <trkpt lat="51.35005" lon="4.36324"></trkpt>
      <trkpt lat="51.35024" lon="4.36365"></trkpt>
      <trkpt lat="51.35042" lon="4.36405"></trkpt>
      <trkpt lat="51.35059" lon="4.36445"></trkpt>
      <trkpt lat="51.35077" lon="4.36487"></trkpt>
      <trkpt lat="51.35095" lon="4.36530"></trkpt>
      <trkpt lat="51.35114" lon="4.36572"></trkpt>
      <trkpt lat="51.35133" lon="4.36614"></trkpt>
      <trkpt lat="51.35152" lon="4.36655"></trkpt>
      <trkpt lat="51.35172" lon="4.36697"></trkpt>
      <trkpt lat="51.35190" lon="4.36737"></trkpt>
      <trkpt lat="51.35207" lon="4.36777"></trkpt>
      <trkpt lat="51.35225" lon="4.36814"></trkpt>
      <trkpt lat="51.35240" lon="4.36851"></trkpt>
      <trkpt lat="51.35258" lon="4.36885"></trkpt>
      <trkpt lat="51.35277" lon="4.36923"></trkpt>
      <trkpt lat="51.35295" lon="4.36963"></trkpt>
      <trkpt lat="51.35312" lon="4.37000"></trkpt>
      <trkpt lat="51.35329" lon="4.37039"></trkpt>
      <trkpt lat="51.35343" lon="4.37082"></trkpt>
      <trkpt lat="51.35359" lon="4.37120"></trkpt>
      <trkpt lat="51.35365" lon="4.37136"></trkpt>
      <trkpt lat="51.35354" lon="4.37151"></trkpt>
      <trkpt lat="51.35342" lon="4.37168"></trkpt>
      <trkpt lat="51.35329" lon="4.37181"></trkpt>
      <trkpt lat="51.35315" lon="4.37202"></trkpt>
      <trkpt lat="51.35298" lon="4.37229"></trkpt>
      <trkpt lat="51.35286" lon="4.37246"></trkpt>
      <trkpt lat="51.35264" lon="4.37280"></trkpt>
      <trkpt lat="51.35241" lon="4.37313"></trkpt>
      <trkpt lat="51.35227" lon="4.37350"></trkpt>
      <trkpt lat="51.35231" lon="4.37397"></trkpt>
      <trkpt lat="51.35242" lon="4.37444"></trkpt>
      <trkpt lat="51.35252" lon="4.37490"></trkpt>
      <trkpt lat="51.35263" lon="4.37535"></trkpt>
      <trkpt lat="51.35270" lon="4.37582"></trkpt>
      <trkpt lat="51.35276" lon="4.37630"></trkpt>
      <trkpt lat="51.35286" lon="4.37678"></trkpt>
      <trkpt lat="51.35296" lon="4.37725"></trkpt>
      <trkpt lat="51.35305" lon="4.37772"></trkpt>
      <trkpt lat="51.35314" lon="4.37821"></trkpt>
      <trkpt lat="51.35323" lon="4.37868"></trkpt>
      <trkpt lat="51.35331" lon="4.37917"></trkpt>
      <trkpt lat="51.35338" lon="4.37965"></trkpt>
      <trkpt lat="51.35343" lon="4.38005"></trkpt>
      <trkpt lat="51.35323" lon="4.38038"></trkpt>
      <trkpt lat="51.35301" lon="4.38067"></trkpt>
      <trkpt lat="51.35280" lon="4.38093"></trkpt>
      <trkpt lat="51.35261" lon="4.38116"></trkpt>
      <trkpt lat="51.35254" lon="4.38125"></trkpt>
      <trkpt lat="51.35238" lon="4.38146"></trkpt>
      <trkpt lat="51.35214" lon="4.38174"></trkpt>
      <trkpt lat="51.35190" lon="4.38204"></trkpt>
      <trkpt lat="51.35168" lon="4.38231"></trkpt>
      <trkpt lat="51.35143" lon="4.38266"></trkpt>
      <trkpt lat="51.35126" lon="4.38286"></trkpt>
      <trkpt lat="51.35108" lon="4.38309"></trkpt>
      <trkpt lat="51.35082" lon="4.38340"></trkpt>
      <trkpt lat="51.35062" lon="4.38375"></trkpt>
      <trkpt lat="51.35059" lon="4.38382"></trkpt>
      <trkpt lat="51.35052" lon="4.38363"></trkpt>
      <trkpt lat="51.35054" lon="4.38364"></trkpt>
      <trkpt lat="51.35058" lon="4.38390"></trkpt>
      <trkpt lat="51.35066" lon="4.38434"></trkpt>
      <trkpt lat="51.35077" lon="4.38475"></trkpt>
      <trkpt lat="51.35088" lon="4.38517"></trkpt>
      <trkpt lat="51.35086" lon="4.38563"></trkpt>
      <trkpt lat="51.35075" lon="4.38610"></trkpt>
      <trkpt lat="51.35060" lon="4.38644"></trkpt>
      <trkpt lat="51.35029" lon="4.38651"></trkpt>
      <trkpt lat="51.35005" lon="4.38663"></trkpt>
      <trkpt lat="51.35006" lon="4.38703"></trkpt>
      <trkpt lat="51.35015" lon="4.38751"></trkpt>
      <trkpt lat="51.35024" lon="4.38800"></trkpt>
      <trkpt lat="51.35032" lon="4.38848"></trkpt>
      <trkpt lat="51.35016" lon="4.38869"></trkpt>
      <trkpt lat="51.34989" lon="4.38879"></trkpt>
      <trkpt lat="51.34958" lon="4.38901"></trkpt>
      <trkpt lat="51.34930" lon="4.38927"></trkpt>
      <trkpt lat="51.34902" lon="4.38952"></trkpt>
      <trkpt lat="51.34873" lon="4.38975"></trkpt>
      <trkpt lat="51.34845" lon="4.38996"></trkpt>
      <trkpt lat="51.34817" lon="4.39017"></trkpt>
      <trkpt lat="51.34788" lon="4.39037"></trkpt>
      <trkpt lat="51.34759" lon="4.39059"></trkpt>
      <trkpt lat="51.34731" lon="4.39078"></trkpt>
      <trkpt lat="51.34703" lon="4.39099"></trkpt>
      <trkpt lat="51.34674" lon="4.39120"></trkpt>
      <trkpt lat="51.34646" lon="4.39141"></trkpt>
      <trkpt lat="51.34618" lon="4.39160"></trkpt>
      <trkpt lat="51.34601" lon="4.39172"></trkpt>
      <trkpt lat="51.34586" lon="4.39183"></trkpt>
      <trkpt lat="51.34570" lon="4.39195"></trkpt>
      <trkpt lat="51.34555" lon="4.39204"></trkpt>
      <trkpt lat="51.34540" lon="4.39206"></trkpt>
      <trkpt lat="51.34536" lon="4.39207"></trkpt>
      <trkpt lat="51.34529" lon="4.39215"></trkpt>
      <trkpt lat="51.34510" lon="4.39237"></trkpt>
      <trkpt lat="51.34508" lon="4.39243"></trkpt>
      <trkpt lat="51.34508" lon="4.39251"></trkpt>
      <trkpt lat="51.34510" lon="4.39275"></trkpt>
      <trkpt lat="51.34497" lon="4.39288"></trkpt>
      <trkpt lat="51.34485" lon="4.39277"></trkpt>
      <trkpt lat="51.34471" lon="4.39289"></trkpt>
      <trkpt lat="51.34458" lon="4.39307"></trkpt>
      <trkpt lat="51.34447" lon="4.39325"></trkpt>
      <trkpt lat="51.34451" lon="4.39350"></trkpt>
      <trkpt lat="51.34457" lon="4.39363"></trkpt>
      <trkpt lat="51.34458" lon="4.39364"></trkpt>
      <trkpt lat="51.34458" lon="4.39365"></trkpt>
      <trkpt lat="51.34456" lon="4.39373"></trkpt>
      <trkpt lat="51.34452" lon="4.39385"></trkpt>
      <trkpt lat="51.34459" lon="4.39392"></trkpt>
      <trkpt lat="51.34467" lon="4.39410"></trkpt>
      <trkpt lat="51.34470" lon="4.39416"></trkpt>
      <trkpt lat="51.34472" lon="4.39423"></trkpt>
      <trkpt lat="51.34480" lon="4.39445"></trkpt>
      <trkpt lat="51.34488" lon="4.39466"></trkpt>
      <trkpt lat="51.34497" lon="4.39489"></trkpt>
      <trkpt lat="51.34506" lon="4.39513"></trkpt>
      <trkpt lat="51.34520" lon="4.39551"></trkpt>
      <trkpt lat="51.34535" lon="4.39593"></trkpt>
      <trkpt lat="51.34551" lon="4.39635"></trkpt>
      <trkpt lat="51.34566" lon="4.39677"></trkpt>
      <trkpt lat="51.34581" lon="4.39719"></trkpt>
      <trkpt lat="51.34597" lon="4.39760"></trkpt>
      <trkpt lat="51.34613" lon="4.39803"></trkpt>
      <trkpt lat="51.34630" lon="4.39847"></trkpt>
      <trkpt lat="51.34647" lon="4.39891"></trkpt>
      <trkpt lat="51.34662" lon="4.39934"></trkpt>
      <trkpt lat="51.34680" lon="4.39977"></trkpt>
      <trkpt lat="51.34696" lon="4.40013"></trkpt>
      <trkpt lat="51.34711" lon="4.40032"></trkpt>
      <trkpt lat="51.34714" lon="4.40076"></trkpt>
      <trkpt lat="51.34710" lon="4.40126"></trkpt>
      <trkpt lat="51.34707" lon="4.40176"></trkpt>
      <trkpt lat="51.34704" lon="4.40225"></trkpt>
      <trkpt lat="51.34701" lon="4.40273"></trkpt>
      <trkpt lat="51.34697" lon="4.40323"></trkpt>
      <trkpt lat="51.34693" lon="4.40372"></trkpt>
      <trkpt lat="51.34693" lon="4.40423"></trkpt>
      <trkpt lat="51.34702" lon="4.40470"></trkpt>
      <trkpt lat="51.34712" lon="4.40516"></trkpt>
      <trkpt lat="51.34724" lon="4.40564"></trkpt>
      <trkpt lat="51.34736" lon="4.40611"></trkpt>
      <trkpt lat="51.34749" lon="4.40658"></trkpt>
      <trkpt lat="51.34759" lon="4.40705"></trkpt>
      <trkpt lat="51.34768" lon="4.40750"></trkpt>
      <trkpt lat="51.34763" lon="4.40796"></trkpt>
      <trkpt lat="51.34753" lon="4.40840"></trkpt>
      <trkpt lat="51.34744" lon="4.40886"></trkpt>
      <trkpt lat="51.34730" lon="4.40916"></trkpt>
      <trkpt lat="51.34714" lon="4.40931"></trkpt>
      <trkpt lat="51.34704" lon="4.40977"></trkpt>
      <trkpt lat="51.34694" lon="4.41021"></trkpt>
      <trkpt lat="51.34684" lon="4.41067"></trkpt>
      <trkpt lat="51.34673" lon="4.41113"></trkpt>
      <trkpt lat="51.34663" lon="4.41161"></trkpt>
      <trkpt lat="51.34653" lon="4.41207"></trkpt>
      <trkpt lat="51.34643" lon="4.41254"></trkpt>
      <trkpt lat="51.34634" lon="4.41300"></trkpt>
      <trkpt lat="51.34628" lon="4.41348"></trkpt>
      <trkpt lat="51.34633" lon="4.41393"></trkpt>
      <trkpt lat="51.34644" lon="4.41438"></trkpt>
      <trkpt lat="51.34655" lon="4.41484"></trkpt>
      <trkpt lat="51.34666" lon="4.41531"></trkpt>
      <trkpt lat="51.34677" lon="4.41578"></trkpt>
      <trkpt lat="51.34688" lon="4.41625"></trkpt>
      <trkpt lat="51.34699" lon="4.41670"></trkpt>
      <trkpt lat="51.34709" lon="4.41717"></trkpt>
      <trkpt lat="51.34721" lon="4.41766"></trkpt>
      <trkpt lat="51.34732" lon="4.41813"></trkpt>
      <trkpt lat="51.34732" lon="4.41858"></trkpt>
      <trkpt lat="51.34731" lon="4.41875"></trkpt>
      <trkpt lat="51.34726" lon="4.41877"></trkpt>
      <trkpt lat="51.34701" lon="4.41891"></trkpt>
      <trkpt lat="51.34674" lon="4.41907"></trkpt>
      <trkpt lat="51.34644" lon="4.41922"></trkpt>
      <trkpt lat="51.34627" lon="4.41949"></trkpt>
      <trkpt lat="51.34641" lon="4.41994"></trkpt>
      <trkpt lat="51.34652" lon="4.42039"></trkpt>
      <trkpt lat="51.34644" lon="4.42084"></trkpt>
      <trkpt lat="51.34622" lon="4.42119"></trkpt>
      <trkpt lat="51.34594" lon="4.42139"></trkpt>
      <trkpt lat="51.34563" lon="4.42135"></trkpt>
      <trkpt lat="51.34556" lon="4.42160"></trkpt>
      <trkpt lat="51.34557" lon="4.42166"></trkpt>
      <trkpt lat="51.34557" lon="4.42166"></trkpt>
      <trkpt lat="51.34557" lon="4.42166"></trkpt>
      <trkpt lat="51.34557" lon="4.42166"></trkpt>
      <trkpt lat="51.34557" lon="4.42166"></trkpt>
      <trkpt lat="51.34557" lon="4.42166"></trkpt>
      <trkpt lat="51.34557" lon="4.42165"></trkpt>
      <trkpt lat="51.34557" lon="4.42165"></trkpt>
      <trkpt lat="51.34558" lon="4.42165"></trkpt>
      <trkpt lat="51.34558" lon="4.42165"></trkpt>
      <trkpt lat="51.34558" lon="4.42165"></trkpt>
      <trkpt lat="51.34558" lon="4.42165"></trkpt>
      <trkpt lat="51.34558" lon="4.42165"></trkpt>
      <trkpt lat="51.34558" lon="4.42165"></trkpt>
      <trkpt lat="51.34558" lon="4.42165"></trkpt>
      <trkpt lat="51.34558" lon="4.42165"></trkpt>
      <trkpt lat="51.34558" lon="4.42165"></trkpt>
      <trkpt lat="51.34558" lon="4.42165"></trkpt>
      <trkpt lat="51.34558" lon="4.42165"></trkpt>
      <trkpt lat="51.34558" lon="4.42164"></trkpt>
      <trkpt lat="51.34558" lon="4.42164"></trkpt>
      <trkpt lat="51.34558" lon="4.42164"></trkpt>
      <trkpt lat="51.34558" lon="4.42164"></trkpt>
      <trkpt lat="51.34558" lon="4.42164"></trkpt>
      <trkpt lat="51.34558" lon="4.42164"></trkpt>
      <trkpt lat="51.34558" lon="4.42164"></trkpt>
      <trkpt lat="51.34558" lon="4.42164"></trkpt>
      <trkpt lat="51.34558" lon="4.42164"></trkpt>
      <trkpt lat="51.34558" lon="4.42164"></trkpt>
      <trkpt lat="51.34558" lon="4.42164"></trkpt>
      <trkpt lat="51.34558" lon="4.42164"></trkpt>
      <trkpt lat="51.34558" lon="4.42163"></trkpt>
      <trkpt lat="51.34558" lon="4.42163"></trkpt>
      <trkpt lat="51.34558" lon="4.42163"></trkpt>
      <trkpt lat="51.34557" lon="4.42161"></trkpt>
      <trkpt lat="51.34552" lon="4.42151"></trkpt>
      <trkpt lat="51.34546" lon="4.42142"></trkpt>
      <trkpt lat="51.34546" lon="4.42143"></trkpt>
      <trkpt lat="51.34545" lon="4.42144"></trkpt>
      <trkpt lat="51.34537" lon="4.42153"></trkpt>
      <trkpt lat="51.34528" lon="4.42161"></trkpt>
      <trkpt lat="51.34527" lon="4.42163"></trkpt>
      <trkpt lat="51.34527" lon="4.42163"></trkpt>
      <trkpt lat="51.34527" lon="4.42164"></trkpt>
      <trkpt lat="51.34527" lon="4.42164"></trkpt>
      <trkpt lat="51.34527" lon="4.42164"></trkpt>
      <trkpt lat="51.34527" lon="4.42165"></trkpt>
      <trkpt lat="51.34527" lon="4.42165"></trkpt>
      <trkpt lat="51.34527" lon="4.42167"></trkpt>
      <trkpt lat="51.34527" lon="4.42170"></trkpt>
      <trkpt lat="51.34526" lon="4.42171"></trkpt>
      <trkpt lat="51.34518" lon="4.42181"></trkpt>
      <trkpt lat="51.34509" lon="4.42187"></trkpt>
      <trkpt lat="51.34507" lon="4.42190"></trkpt>
      <trkpt lat="51.34500" lon="4.42201"></trkpt>
      <trkpt lat="51.34489" lon="4.42215"></trkpt>
      <trkpt lat="51.34477" lon="4.42228"></trkpt>
      <trkpt lat="51.34456" lon="4.42248"></trkpt>
      <trkpt lat="51.34435" lon="4.42271"></trkpt>
      <trkpt lat="51.34422" lon="4.42284"></trkpt>
      <trkpt lat="51.34407" lon="4.42299"></trkpt>
      <trkpt lat="51.34392" lon="4.42315"></trkpt>
      <trkpt lat="51.34378" lon="4.42331"></trkpt>
      <trkpt lat="51.34361" lon="4.42347"></trkpt>
      <trkpt lat="51.34346" lon="4.42364"></trkpt>
      <trkpt lat="51.34329" lon="4.42382"></trkpt>
      <trkpt lat="51.34313" lon="4.42397"></trkpt>
      <trkpt lat="51.34297" lon="4.42414"></trkpt>
      <trkpt lat="51.34282" lon="4.42430"></trkpt>
      <trkpt lat="51.34263" lon="4.42449"></trkpt>
      <trkpt lat="51.34237" lon="4.42476"></trkpt>
      <trkpt lat="51.34212" lon="4.42506"></trkpt>
      <trkpt lat="51.34185" lon="4.42518"></trkpt>
      <trkpt lat="51.34171" lon="4.42477"></trkpt>
      <trkpt lat="51.34159" lon="4.42431"></trkpt>
      <trkpt lat="51.34148" lon="4.42383"></trkpt>
      <trkpt lat="51.34135" lon="4.42337"></trkpt>
      <trkpt lat="51.34124" lon="4.42291"></trkpt>
      <trkpt lat="51.34112" lon="4.42246"></trkpt>
      <trkpt lat="51.34100" lon="4.42204"></trkpt>
      <trkpt lat="51.34075" lon="4.42193"></trkpt>
      <trkpt lat="51.34047" lon="4.42213"></trkpt>
      <trkpt lat="51.34018" lon="4.42231"></trkpt>
      <trkpt lat="51.33989" lon="4.42251"></trkpt>
      <trkpt lat="51.33959" lon="4.42276"></trkpt>
      <trkpt lat="51.33932" lon="4.42298"></trkpt>
      <trkpt lat="51.33903" lon="4.42318"></trkpt>
      <trkpt lat="51.33888" lon="4.42350"></trkpt>
      <trkpt lat="51.33896" lon="4.42386"></trkpt>
      <trkpt lat="51.33900" lon="4.42391"></trkpt>
      <trkpt lat="51.33900" lon="4.42394"></trkpt>
      <trkpt lat="51.33908" lon="4.42430"></trkpt>
      <trkpt lat="51.33920" lon="4.42476"></trkpt>
      <trkpt lat="51.33933" lon="4.42523"></trkpt>
      <trkpt lat="51.33946" lon="4.42570"></trkpt>
      <trkpt lat="51.33957" lon="4.42617"></trkpt>
      <trkpt lat="51.33969" lon="4.42664"></trkpt>
      <trkpt lat="51.33982" lon="4.42709"></trkpt>
      <trkpt lat="51.33976" lon="4.42749"></trkpt>
      <trkpt lat="51.33948" lon="4.42775"></trkpt>
      <trkpt lat="51.33920" lon="4.42801"></trkpt>
      <trkpt lat="51.33895" lon="4.42826"></trkpt>
      <trkpt lat="51.33871" lon="4.42852"></trkpt>
      <trkpt lat="51.33847" lon="4.42879"></trkpt>
      <trkpt lat="51.33822" lon="4.42907"></trkpt>
      <trkpt lat="51.33797" lon="4.42933"></trkpt>
      <trkpt lat="51.33774" lon="4.42956"></trkpt>
      <trkpt lat="51.33750" lon="4.42981"></trkpt>
      <trkpt lat="51.33723" lon="4.43008"></trkpt>
      <trkpt lat="51.33717" lon="4.43051"></trkpt>
      <trkpt lat="51.33731" lon="4.43094"></trkpt>
      <trkpt lat="51.33744" lon="4.43135"></trkpt>
      <trkpt lat="51.33757" lon="4.43176"></trkpt>
      <trkpt lat="51.33771" lon="4.43217"></trkpt>
      <trkpt lat="51.33786" lon="4.43257"></trkpt>
      <trkpt lat="51.33798" lon="4.43299"></trkpt>
      <trkpt lat="51.33811" lon="4.43341"></trkpt>
      <trkpt lat="51.33826" lon="4.43382"></trkpt>
      <trkpt lat="51.33839" lon="4.43420"></trkpt>
      <trkpt lat="51.33851" lon="4.43458"></trkpt>
      <trkpt lat="51.33863" lon="4.43498"></trkpt>
      <trkpt lat="51.33876" lon="4.43540"></trkpt>
      <trkpt lat="51.33891" lon="4.43583"></trkpt>
      <trkpt lat="51.33906" lon="4.43625"></trkpt>
      <trkpt lat="51.33920" lon="4.43667"></trkpt>
      <trkpt lat="51.33932" lon="4.43706"></trkpt>
      <trkpt lat="51.33946" lon="4.43750"></trkpt>
      <trkpt lat="51.33956" lon="4.43786"></trkpt>
      <trkpt lat="51.33964" lon="4.43813"></trkpt>
      <trkpt lat="51.33968" lon="4.43827"></trkpt>
      <trkpt lat="51.33968" lon="4.43828"></trkpt>
      <trkpt lat="51.33969" lon="4.43828"></trkpt>
      <trkpt lat="51.33969" lon="4.43829"></trkpt>
      <trkpt lat="51.33969" lon="4.43829"></trkpt>
      <trkpt lat="51.33975" lon="4.43839"></trkpt>
      <trkpt lat="51.33981" lon="4.43859"></trkpt>
      <trkpt lat="51.33983" lon="4.43866"></trkpt>
      <trkpt lat="51.33984" lon="4.43867"></trkpt>
      <trkpt lat="51.33984" lon="4.43868"></trkpt>
      <trkpt lat="51.33986" lon="4.43871"></trkpt>
      <trkpt lat="51.33994" lon="4.43887"></trkpt>
      <trkpt lat="51.34001" lon="4.43905"></trkpt>
      <trkpt lat="51.34008" lon="4.43924"></trkpt>
      <trkpt lat="51.34015" lon="4.43944"></trkpt>
      <trkpt lat="51.34021" lon="4.43966"></trkpt>
      <trkpt lat="51.34030" lon="4.43988"></trkpt>
      <trkpt lat="51.34039" lon="4.44009"></trkpt>
      <trkpt lat="51.34047" lon="4.44029"></trkpt>
      <trkpt lat="51.34055" lon="4.44042"></trkpt>
      <trkpt lat="51.34066" lon="4.44030"></trkpt>
      <trkpt lat="51.34076" lon="4.44017"></trkpt>
      <trkpt lat="51.34088" lon="4.44003"></trkpt>
      <trkpt lat="51.34104" lon="4.43990"></trkpt>
      <trkpt lat="51.34118" lon="4.43977"></trkpt>
      <trkpt lat="51.34132" lon="4.43964"></trkpt>
      <trkpt lat="51.34147" lon="4.43949"></trkpt>
      <trkpt lat="51.34163" lon="4.43935"></trkpt>
      <trkpt lat="51.34178" lon="4.43923"></trkpt>
      <trkpt lat="51.34192" lon="4.43918"></trkpt>
      <trkpt lat="51.34200" lon="4.43932"></trkpt>
      <trkpt lat="51.34205" lon="4.43952"></trkpt>
      <trkpt lat="51.34213" lon="4.43971"></trkpt>
      <trkpt lat="51.34222" lon="4.43993"></trkpt>
      <trkpt lat="51.34230" lon="4.44019"></trkpt>
      <trkpt lat="51.34240" lon="4.44044"></trkpt>
      <trkpt lat="51.34252" lon="4.44071"></trkpt>
      <trkpt lat="51.34259" lon="4.44096"></trkpt>
      <trkpt lat="51.34267" lon="4.44118"></trkpt>
      <trkpt lat="51.34277" lon="4.44141"></trkpt>
      <trkpt lat="51.34284" lon="4.44161"></trkpt>
      <trkpt lat="51.34292" lon="4.44181"></trkpt>
      <trkpt lat="51.34299" lon="4.44200"></trkpt>
      <trkpt lat="51.34306" lon="4.44217"></trkpt>
      <trkpt lat="51.34317" lon="4.44210"></trkpt>
      <trkpt lat="51.34324" lon="4.44190"></trkpt>
      <trkpt lat="51.34332" lon="4.44169"></trkpt>
      <trkpt lat="51.34340" lon="4.44147"></trkpt>
      <trkpt lat="51.34346" lon="4.44126"></trkpt>
      <trkpt lat="51.34354" lon="4.44107"></trkpt>
      <trkpt lat="51.34363" lon="4.44086"></trkpt>
      <trkpt lat="51.34372" lon="4.44066"></trkpt>
      <trkpt lat="51.34380" lon="4.44047"></trkpt>
      <trkpt lat="51.34388" lon="4.44026"></trkpt>
      <trkpt lat="51.34392" lon="4.44016"></trkpt>
      <trkpt lat="51.34404" lon="4.43987"></trkpt>
      <trkpt lat="51.34418" lon="4.43946"></trkpt>
      <trkpt lat="51.34413" lon="4.43904"></trkpt>
      <trkpt lat="51.34401" lon="4.43865"></trkpt>
      <trkpt lat="51.34388" lon="4.43826"></trkpt>
      <trkpt lat="51.34377" lon="4.43784"></trkpt>
      <trkpt lat="51.34364" lon="4.43743"></trkpt>
      <trkpt lat="51.34353" lon="4.43704"></trkpt>
      <trkpt lat="51.34342" lon="4.43668"></trkpt>
      <trkpt lat="51.34331" lon="4.43626"></trkpt>
      <trkpt lat="51.34318" lon="4.43585"></trkpt>
      <trkpt lat="51.34308" lon="4.43544"></trkpt>
      <trkpt lat="51.34295" lon="4.43502"></trkpt>
      <trkpt lat="51.34282" lon="4.43460"></trkpt>
      <trkpt lat="51.34274" lon="4.43419"></trkpt>
      <trkpt lat="51.34295" lon="4.43397"></trkpt>
      <trkpt lat="51.34320" lon="4.43379"></trkpt>
      <trkpt lat="51.34347" lon="4.43367"></trkpt>
      <trkpt lat="51.34370" lon="4.43381"></trkpt>
      <trkpt lat="51.34382" lon="4.43420"></trkpt>
      <trkpt lat="51.34397" lon="4.43460"></trkpt>
      <trkpt lat="51.34417" lon="4.43484"></trkpt>
      <trkpt lat="51.34443" lon="4.43465"></trkpt>
      <trkpt lat="51.34468" lon="4.43440"></trkpt>
      <trkpt lat="51.34493" lon="4.43414"></trkpt>
      <trkpt lat="51.34517" lon="4.43389"></trkpt>
      <trkpt lat="51.34513" lon="4.43348"></trkpt>
      <trkpt lat="51.34499" lon="4.43310"></trkpt>
      <trkpt lat="51.34483" lon="4.43271"></trkpt>
      <trkpt lat="51.34470" lon="4.43231"></trkpt>
      <trkpt lat="51.34457" lon="4.43189"></trkpt>
      <trkpt lat="51.34445" lon="4.43148"></trkpt>
      <trkpt lat="51.34431" lon="4.43106"></trkpt>
      <trkpt lat="51.34417" lon="4.43065"></trkpt>
      <trkpt lat="51.34402" lon="4.43022"></trkpt>
      <trkpt lat="51.34391" lon="4.42982"></trkpt>
      <trkpt lat="51.34380" lon="4.42941"></trkpt>
      <trkpt lat="51.34367" lon="4.42902"></trkpt>
      <trkpt lat="51.34363" lon="4.42863"></trkpt>
      <trkpt lat="51.34380" lon="4.42837"></trkpt>
      <trkpt lat="51.34398" lon="4.42818"></trkpt>
      <trkpt lat="51.34413" lon="4.42793"></trkpt>
      <trkpt lat="51.34429" lon="4.42764"></trkpt>
      <trkpt lat="51.34452" lon="4.42740"></trkpt>
      <trkpt lat="51.34477" lon="4.42723"></trkpt>
      <trkpt lat="51.34502" lon="4.42708"></trkpt>
      <trkpt lat="51.34529" lon="4.42690"></trkpt>
      <trkpt lat="51.34556" lon="4.42671"></trkpt>
      <trkpt lat="51.34582" lon="4.42654"></trkpt>
      <trkpt lat="51.34603" lon="4.42626"></trkpt>
      <trkpt lat="51.34610" lon="4.42583"></trkpt>
      <trkpt lat="51.34599" lon="4.42545"></trkpt>
      <trkpt lat="51.34586" lon="4.42506"></trkpt>
      <trkpt lat="51.34574" lon="4.42466"></trkpt>
      <trkpt lat="51.34562" lon="4.42425"></trkpt>
      <trkpt lat="51.34550" lon="4.42383"></trkpt>
      <trkpt lat="51.34541" lon="4.42342"></trkpt>
      <trkpt lat="51.34529" lon="4.42300"></trkpt>
      <trkpt lat="51.34514" lon="4.42260"></trkpt>
      <trkpt lat="51.34504" lon="4.42215"></trkpt>
      <trkpt lat="51.34514" lon="4.42178"></trkpt>
      <trkpt lat="51.34537" lon="4.42152"></trkpt>
      <trkpt lat="51.34554" lon="4.42153"></trkpt>
      <trkpt lat="51.34559" lon="4.42162"></trkpt>
      <trkpt lat="51.34559" lon="4.42163"></trkpt>
      <trkpt lat="51.34559" lon="4.42162"></trkpt>
      <trkpt lat="51.34559" lon="4.42161"></trkpt>
      <trkpt lat="51.34558" lon="4.42161"></trkpt>
      <trkpt lat="51.34558" lon="4.42160"></trkpt>
      <trkpt lat="51.34558" lon="4.42159"></trkpt>
      <trkpt lat="51.34557" lon="4.42158"></trkpt>
      <trkpt lat="51.34549" lon="4.42147"></trkpt>
      <trkpt lat="51.34538" lon="4.42154"></trkpt>
      <trkpt lat="51.34517" lon="4.42180"></trkpt>
      <trkpt lat="51.34505" lon="4.42214"></trkpt>
      <trkpt lat="51.34515" lon="4.42255"></trkpt>
      <trkpt lat="51.34529" lon="4.42291"></trkpt>
      <trkpt lat="51.34540" lon="4.42329"></trkpt>
      <trkpt lat="51.34551" lon="4.42372"></trkpt>
      <trkpt lat="51.34562" lon="4.42413"></trkpt>
      <trkpt lat="51.34572" lon="4.42452"></trkpt>
      <trkpt lat="51.34584" lon="4.42493"></trkpt>
      <trkpt lat="51.34594" lon="4.42537"></trkpt>
      <trkpt lat="51.34609" lon="4.42575"></trkpt>
      <trkpt lat="51.34630" lon="4.42585"></trkpt>
      <trkpt lat="51.34649" lon="4.42559"></trkpt>
      <trkpt lat="51.34650" lon="4.42516"></trkpt>
      <trkpt lat="51.34653" lon="4.42491"></trkpt>
      <trkpt lat="51.34657" lon="4.42528"></trkpt>
      <trkpt lat="51.34655" lon="4.42574"></trkpt>
      <trkpt lat="51.34648" lon="4.42617"></trkpt>
      <trkpt lat="51.34641" lon="4.42663"></trkpt>
      <trkpt lat="51.34636" lon="4.42710"></trkpt>
      <trkpt lat="51.34630" lon="4.42752"></trkpt>
      <trkpt lat="51.34631" lon="4.42795"></trkpt>
      <trkpt lat="51.34641" lon="4.42838"></trkpt>
      <trkpt lat="51.34664" lon="4.42865"></trkpt>
      <trkpt lat="51.34691" lon="4.42878"></trkpt>
      <trkpt lat="51.34708" lon="4.42878"></trkpt>
      <trkpt lat="51.34722" lon="4.42878"></trkpt>
      <trkpt lat="51.34743" lon="4.42877"></trkpt>
      <trkpt lat="51.34770" lon="4.42879"></trkpt>
      <trkpt lat="51.34798" lon="4.42897"></trkpt>
      <trkpt lat="51.34824" lon="4.42919"></trkpt>
      <trkpt lat="51.34851" lon="4.42938"></trkpt>
      <trkpt lat="51.34874" lon="4.42967"></trkpt>
      <trkpt lat="51.34898" lon="4.42985"></trkpt>
      <trkpt lat="51.34924" lon="4.42996"></trkpt>
      <trkpt lat="51.34943" lon="4.42975"></trkpt>
      <trkpt lat="51.34960" lon="4.42939"></trkpt>
      <trkpt lat="51.34985" lon="4.42941"></trkpt>
      <trkpt lat="51.35009" lon="4.42964"></trkpt>
      <trkpt lat="51.35033" lon="4.42988"></trkpt>
      <trkpt lat="51.35056" lon="4.43011"></trkpt>
      <trkpt lat="51.35079" lon="4.43034"></trkpt>
      <trkpt lat="51.35102" lon="4.43058"></trkpt>
      <trkpt lat="51.35120" lon="4.43075"></trkpt>
      <trkpt lat="51.35133" lon="4.43092"></trkpt>
      <trkpt lat="51.35147" lon="4.43108"></trkpt>
      <trkpt lat="51.35163" lon="4.43122"></trkpt>
      <trkpt lat="51.35176" lon="4.43134"></trkpt>
      <trkpt lat="51.35189" lon="4.43146"></trkpt>
      <trkpt lat="51.35199" lon="4.43157"></trkpt>
      <trkpt lat="51.35215" lon="4.43172"></trkpt>
      <trkpt lat="51.35237" lon="4.43194"></trkpt>
      <trkpt lat="51.35259" lon="4.43216"></trkpt>
      <trkpt lat="51.35282" lon="4.43237"></trkpt>
      <trkpt lat="51.35304" lon="4.43259"></trkpt>
      <trkpt lat="51.35327" lon="4.43262"></trkpt>
      <trkpt lat="51.35346" lon="4.43229"></trkpt>
      <trkpt lat="51.35362" lon="4.43190"></trkpt>
      <trkpt lat="51.35376" lon="4.43151"></trkpt>
      <trkpt lat="51.35380" lon="4.43110"></trkpt>
      <trkpt lat="51.35371" lon="4.43070"></trkpt>
      <trkpt lat="51.35354" lon="4.43038"></trkpt>
      <trkpt lat="51.35328" lon="4.43026"></trkpt>
      <trkpt lat="51.35320" lon="4.42988"></trkpt>
      <trkpt lat="51.35327" lon="4.42943"></trkpt>
      <trkpt lat="51.35321" lon="4.42903"></trkpt>
      <trkpt lat="51.35326" lon="4.42863"></trkpt>
      <trkpt lat="51.35342" lon="4.42824"></trkpt>
      <trkpt lat="51.35362" lon="4.42787"></trkpt>
      <trkpt lat="51.35379" lon="4.42750"></trkpt>
      <trkpt lat="51.35394" lon="4.42712"></trkpt>
      <trkpt lat="51.35410" lon="4.42675"></trkpt>
      <trkpt lat="51.35423" lon="4.42637"></trkpt>
      <trkpt lat="51.35438" lon="4.42600"></trkpt>
      <trkpt lat="51.35453" lon="4.42561"></trkpt>
      <trkpt lat="51.35466" lon="4.42523"></trkpt>
      <trkpt lat="51.35480" lon="4.42486"></trkpt>
      <trkpt lat="51.35478" lon="4.42455"></trkpt>
      <trkpt lat="51.35455" lon="4.42430"></trkpt>
      <trkpt lat="51.35431" lon="4.42408"></trkpt>
      <trkpt lat="51.35407" lon="4.42384"></trkpt>
      <trkpt lat="51.35385" lon="4.42359"></trkpt>
      <trkpt lat="51.35360" lon="4.42334"></trkpt>
      <trkpt lat="51.35335" lon="4.42309"></trkpt>
      <trkpt lat="51.35309" lon="4.42284"></trkpt>
      <trkpt lat="51.35284" lon="4.42259"></trkpt>
      <trkpt lat="51.35260" lon="4.42235"></trkpt>
      <trkpt lat="51.35238" lon="4.42212"></trkpt>
      <trkpt lat="51.35211" lon="4.42223"></trkpt>
      <trkpt lat="51.35189" lon="4.42238"></trkpt>
      <trkpt lat="51.35166" lon="4.42253"></trkpt>
      <trkpt lat="51.35143" lon="4.42269"></trkpt>
      <trkpt lat="51.35117" lon="4.42286"></trkpt>
      <trkpt lat="51.35090" lon="4.42303"></trkpt>
      <trkpt lat="51.35072" lon="4.42283"></trkpt>
      <trkpt lat="51.35061" lon="4.42241"></trkpt>
      <trkpt lat="51.35050" lon="4.42197"></trkpt>
      <trkpt lat="51.35038" lon="4.42153"></trkpt>
      <trkpt lat="51.35026" lon="4.42111"></trkpt>
      <trkpt lat="51.35017" lon="4.42067"></trkpt>
      <trkpt lat="51.35006" lon="4.42023"></trkpt>
      <trkpt lat="51.34997" lon="4.41981"></trkpt>
      <trkpt lat="51.34987" lon="4.41940"></trkpt>
      <trkpt lat="51.34978" lon="4.41901"></trkpt>
      <trkpt lat="51.34967" lon="4.41860"></trkpt>
      <trkpt lat="51.34957" lon="4.41820"></trkpt>
      <trkpt lat="51.34944" lon="4.41777"></trkpt>
      <trkpt lat="51.34926" lon="4.41749"></trkpt>
      <trkpt lat="51.34899" lon="4.41760"></trkpt>
      <trkpt lat="51.34871" lon="4.41776"></trkpt>
      <trkpt lat="51.34845" lon="4.41792"></trkpt>
      <trkpt lat="51.34818" lon="4.41807"></trkpt>
      <trkpt lat="51.34792" lon="4.41822"></trkpt>
      <trkpt lat="51.34767" lon="4.41836"></trkpt>
      <trkpt lat="51.34763" lon="4.41858"></trkpt>
      <trkpt lat="51.34769" lon="4.41880"></trkpt>
      <trkpt lat="51.34777" lon="4.41904"></trkpt>
      <trkpt lat="51.34782" lon="4.41929"></trkpt>
      <trkpt lat="51.34789" lon="4.41955"></trkpt>
      <trkpt lat="51.34797" lon="4.41980"></trkpt>
      <trkpt lat="51.34802" lon="4.42004"></trkpt>
      <trkpt lat="51.34806" lon="4.42029"></trkpt>
      <trkpt lat="51.34814" lon="4.42054"></trkpt>
      <trkpt lat="51.34819" lon="4.42079"></trkpt>
      <trkpt lat="51.34827" lon="4.42106"></trkpt>
      <trkpt lat="51.34834" lon="4.42129"></trkpt>
      <trkpt lat="51.34840" lon="4.42158"></trkpt>
      <trkpt lat="51.34848" lon="4.42198"></trkpt>
      <trkpt lat="51.34855" lon="4.42227"></trkpt>
      <trkpt lat="51.34843" lon="4.42257"></trkpt>
      <trkpt lat="51.34819" lon="4.42268"></trkpt>
      <trkpt lat="51.34796" lon="4.42277"></trkpt>
      <trkpt lat="51.34769" lon="4.42287"></trkpt>
      <trkpt lat="51.34748" lon="4.42295"></trkpt>
      <trkpt lat="51.34722" lon="4.42308"></trkpt>
      <trkpt lat="51.34697" lon="4.42325"></trkpt>
      <trkpt lat="51.34677" lon="4.42355"></trkpt>
      <trkpt lat="51.34666" lon="4.42395"></trkpt>
      <trkpt lat="51.34664" lon="4.42439"></trkpt>
      <trkpt lat="51.34661" lon="4.42478"></trkpt>
      <trkpt lat="51.34656" lon="4.42486"></trkpt>
      <trkpt lat="51.34651" lon="4.42512"></trkpt>
      <trkpt lat="51.34650" lon="4.42555"></trkpt>
      <trkpt lat="51.34635" lon="4.42589"></trkpt>
      <trkpt lat="51.34610" lon="4.42584"></trkpt>
      <trkpt lat="51.34596" lon="4.42545"></trkpt>
      <trkpt lat="51.34584" lon="4.42502"></trkpt>
      <trkpt lat="51.34572" lon="4.42461"></trkpt>
      <trkpt lat="51.34558" lon="4.42420"></trkpt>
      <trkpt lat="51.34545" lon="4.42379"></trkpt>
      <trkpt lat="51.34534" lon="4.42336"></trkpt>
      <trkpt lat="51.34523" lon="4.42295"></trkpt>
      <trkpt lat="51.34512" lon="4.42254"></trkpt>
      <trkpt lat="51.34503" lon="4.42210"></trkpt>
      <trkpt lat="51.34519" lon="4.42174"></trkpt>
      <trkpt lat="51.34543" lon="4.42148"></trkpt>
      <trkpt lat="51.34557" lon="4.42156"></trkpt>
      <trkpt lat="51.34558" lon="4.42163"></trkpt>
      <trkpt lat="51.34558" lon="4.42163"></trkpt>
      <trkpt lat="51.34558" lon="4.42163"></trkpt>
      <trkpt lat="51.34558" lon="4.42163"></trkpt>
      <trkpt lat="51.34558" lon="4.42163"></trkpt>
      <trkpt lat="51.34559" lon="4.42163"></trkpt>
      <trkpt lat="51.34559" lon="4.42164"></trkpt>
      <trkpt lat="51.34559" lon="4.42164"></trkpt>
      <trkpt lat="51.34559" lon="4.42164"></trkpt>
      <trkpt lat="51.34559" lon="4.42164"></trkpt>
      <trkpt lat="51.34559" lon="4.42164"></trkpt>
      <trkpt lat="51.34559" lon="4.42164"></trkpt>
      <trkpt lat="51.34559" lon="4.42164"></trkpt>
      <trkpt lat="51.34559" lon="4.42164"></trkpt>
      <trkpt lat="51.34559" lon="4.42164"></trkpt>
      <trkpt lat="51.34559" lon="4.42164"></trkpt>
      <trkpt lat="51.34559" lon="4.42164"></trkpt>
      <trkpt lat="51.34559" lon="4.42165"></trkpt>
      <trkpt lat="51.34559" lon="4.42165"></trkpt>
      <trkpt lat="51.34559" lon="4.42165"></trkpt>
      <trkpt lat="51.34559" lon="4.42165"></trkpt>
      <trkpt lat="51.34559" lon="4.42165"></trkpt>
      <trkpt lat="51.34559" lon="4.42165"></trkpt>
      <trkpt lat="51.34559" lon="4.42163"></trkpt>
      <trkpt lat="51.34558" lon="4.42156"></trkpt>
      <trkpt lat="51.34554" lon="4.42148"></trkpt>
      <trkpt lat="51.34553" lon="4.42147"></trkpt>
      <trkpt lat="51.34552" lon="4.42147"></trkpt>
      <trkpt lat="51.34552" lon="4.42147"></trkpt>
      <trkpt lat="51.34552" lon="4.42146"></trkpt>
      <trkpt lat="51.34551" lon="4.42146"></trkpt>
      <trkpt lat="51.34542" lon="4.42152"></trkpt>
      <trkpt lat="51.34522" lon="4.42171"></trkpt>
      <trkpt lat="51.34498" lon="4.42198"></trkpt>
      <trkpt lat="51.34482" lon="4.42212"></trkpt>
      <trkpt lat="51.34472" lon="4.42223"></trkpt>
      <trkpt lat="51.34462" lon="4.42232"></trkpt>
      <trkpt lat="51.34446" lon="4.42249"></trkpt>
      <trkpt lat="51.34430" lon="4.42266"></trkpt>
      <trkpt lat="51.34408" lon="4.42288"></trkpt>
      <trkpt lat="51.34384" lon="4.42313"></trkpt>
      <trkpt lat="51.34358" lon="4.42337"></trkpt>
      <trkpt lat="51.34333" lon="4.42365"></trkpt>
      <trkpt lat="51.34308" lon="4.42391"></trkpt>
      <trkpt lat="51.34284" lon="4.42416"></trkpt>
      <trkpt lat="51.34258" lon="4.42440"></trkpt>
      <trkpt lat="51.34234" lon="4.42468"></trkpt>
      <trkpt lat="51.34210" lon="4.42495"></trkpt>
      <trkpt lat="51.34188" lon="4.42516"></trkpt>
      <trkpt lat="51.34176" lon="4.42511"></trkpt>
      <trkpt lat="51.34163" lon="4.42472"></trkpt>
      <trkpt lat="51.34151" lon="4.42430"></trkpt>
      <trkpt lat="51.34141" lon="4.42388"></trkpt>
      <trkpt lat="51.34133" lon="4.42355"></trkpt>
      <trkpt lat="51.34124" lon="4.42318"></trkpt>
      <trkpt lat="51.34115" lon="4.42275"></trkpt>
      <trkpt lat="51.34104" lon="4.42231"></trkpt>
      <trkpt lat="51.34089" lon="4.42194"></trkpt>
      <trkpt lat="51.34062" lon="4.42198"></trkpt>
      <trkpt lat="51.34032" lon="4.42218"></trkpt>
      <trkpt lat="51.34003" lon="4.42240"></trkpt>
      <trkpt lat="51.33977" lon="4.42260"></trkpt>
      <trkpt lat="51.33951" lon="4.42278"></trkpt>
      <trkpt lat="51.33925" lon="4.42300"></trkpt>
      <trkpt lat="51.33897" lon="4.42321"></trkpt>
      <trkpt lat="51.33880" lon="4.42350"></trkpt>
      <trkpt lat="51.33891" lon="4.42390"></trkpt>
      <trkpt lat="51.33903" lon="4.42430"></trkpt>
      <trkpt lat="51.33915" lon="4.42470"></trkpt>
      <trkpt lat="51.33926" lon="4.42512"></trkpt>
      <trkpt lat="51.33939" lon="4.42551"></trkpt>
      <trkpt lat="51.33948" lon="4.42584"></trkpt>
      <trkpt lat="51.33958" lon="4.42624"></trkpt>
      <trkpt lat="51.33970" lon="4.42666"></trkpt>
      <trkpt lat="51.33981" lon="4.42707"></trkpt>
      <trkpt lat="51.33977" lon="4.42744"></trkpt>
      <trkpt lat="51.33951" lon="4.42767"></trkpt>
      <trkpt lat="51.33923" lon="4.42793"></trkpt>
      <trkpt lat="51.33898" lon="4.42821"></trkpt>
      <trkpt lat="51.33873" lon="4.42845"></trkpt>
      <trkpt lat="51.33853" lon="4.42870"></trkpt>
      <trkpt lat="51.33831" lon="4.42893"></trkpt>
      <trkpt lat="51.33809" lon="4.42918"></trkpt>
      <trkpt lat="51.33786" lon="4.42943"></trkpt>
      <trkpt lat="51.33762" lon="4.42966"></trkpt>
      <trkpt lat="51.33739" lon="4.42989"></trkpt>
      <trkpt lat="51.33715" lon="4.43018"></trkpt>
      <trkpt lat="51.33714" lon="4.43059"></trkpt>
      <trkpt lat="51.33728" lon="4.43099"></trkpt>
      <trkpt lat="51.33742" lon="4.43138"></trkpt>
      <trkpt lat="51.33755" lon="4.43177"></trkpt>
      <trkpt lat="51.33766" lon="4.43216"></trkpt>
      <trkpt lat="51.33779" lon="4.43253"></trkpt>
      <trkpt lat="51.33792" lon="4.43292"></trkpt>
      <trkpt lat="51.33805" lon="4.43331"></trkpt>
      <trkpt lat="51.33817" lon="4.43368"></trkpt>
      <trkpt lat="51.33832" lon="4.43407"></trkpt>
      <trkpt lat="51.33845" lon="4.43446"></trkpt>
      <trkpt lat="51.33858" lon="4.43486"></trkpt>
      <trkpt lat="51.33869" lon="4.43527"></trkpt>
      <trkpt lat="51.33883" lon="4.43566"></trkpt>
      <trkpt lat="51.33895" lon="4.43605"></trkpt>
      <trkpt lat="51.33909" lon="4.43645"></trkpt>
      <trkpt lat="51.33925" lon="4.43688"></trkpt>
      <trkpt lat="51.33937" lon="4.43726"></trkpt>
      <trkpt lat="51.33948" lon="4.43759"></trkpt>
      <trkpt lat="51.33963" lon="4.43802"></trkpt>
      <trkpt lat="51.33977" lon="4.43843"></trkpt>
      <trkpt lat="51.33991" lon="4.43885"></trkpt>
      <trkpt lat="51.34005" lon="4.43927"></trkpt>
      <trkpt lat="51.34017" lon="4.43966"></trkpt>
      <trkpt lat="51.34030" lon="4.44007"></trkpt>
      <trkpt lat="51.34045" lon="4.44041"></trkpt>
      <trkpt lat="51.34069" lon="4.44026"></trkpt>
      <trkpt lat="51.34095" lon="4.43999"></trkpt>
      <trkpt lat="51.34120" lon="4.43972"></trkpt>
      <trkpt lat="51.34144" lon="4.43947"></trkpt>
      <trkpt lat="51.34170" lon="4.43927"></trkpt>
      <trkpt lat="51.34195" lon="4.43928"></trkpt>
      <trkpt lat="51.34210" lon="4.43967"></trkpt>
      <trkpt lat="51.34224" lon="4.44009"></trkpt>
      <trkpt lat="51.34238" lon="4.44051"></trkpt>
      <trkpt lat="51.34251" lon="4.44091"></trkpt>
      <trkpt lat="51.34269" lon="4.44132"></trkpt>
      <trkpt lat="51.34283" lon="4.44173"></trkpt>
      <trkpt lat="51.34297" lon="4.44211"></trkpt>
      <trkpt lat="51.34304" lon="4.44226"></trkpt>
      <trkpt lat="51.34309" lon="4.44246"></trkpt>
      <trkpt lat="51.34323" lon="4.44250"></trkpt>
      <trkpt lat="51.34336" lon="4.44215"></trkpt>
      <trkpt lat="51.34353" lon="4.44178"></trkpt>
      <trkpt lat="51.34367" lon="4.44138"></trkpt>
      <trkpt lat="51.34378" lon="4.44100"></trkpt>
      <trkpt lat="51.34394" lon="4.44067"></trkpt>
      <trkpt lat="51.34407" lon="4.44033"></trkpt>
      <trkpt lat="51.34423" lon="4.44001"></trkpt>
      <trkpt lat="51.34436" lon="4.43967"></trkpt>
      <trkpt lat="51.34451" lon="4.43933"></trkpt>
      <trkpt lat="51.34467" lon="4.43897"></trkpt>
      <trkpt lat="51.34481" lon="4.43862"></trkpt>
      <trkpt lat="51.34497" lon="4.43830"></trkpt>
      <trkpt lat="51.34505" lon="4.43788"></trkpt>
      <trkpt lat="51.34511" lon="4.43744"></trkpt>
      <trkpt lat="51.34517" lon="4.43699"></trkpt>
      <trkpt lat="51.34521" lon="4.43656"></trkpt>
      <trkpt lat="51.34528" lon="4.43615"></trkpt>
      <trkpt lat="51.34535" lon="4.43572"></trkpt>
      <trkpt lat="51.34541" lon="4.43528"></trkpt>
      <trkpt lat="51.34545" lon="4.43487"></trkpt>
      <trkpt lat="51.34536" lon="4.43447"></trkpt>
      <trkpt lat="51.34524" lon="4.43407"></trkpt>
      <trkpt lat="51.34510" lon="4.43370"></trkpt>
      <trkpt lat="51.34503" lon="4.43351"></trkpt>
      <trkpt lat="51.34497" lon="4.43328"></trkpt>
      <trkpt lat="51.34489" lon="4.43303"></trkpt>
      <trkpt lat="51.34480" lon="4.43278"></trkpt>
      <trkpt lat="51.34473" lon="4.43255"></trkpt>
      <trkpt lat="51.34464" lon="4.43232"></trkpt>
      <trkpt lat="51.34454" lon="4.43201"></trkpt>
      <trkpt lat="51.34442" lon="4.43158"></trkpt>
      <trkpt lat="51.34431" lon="4.43116"></trkpt>
      <trkpt lat="51.34418" lon="4.43074"></trkpt>
      <trkpt lat="51.34406" lon="4.43034"></trkpt>
      <trkpt lat="51.34393" lon="4.42994"></trkpt>
      <trkpt lat="51.34380" lon="4.42953"></trkpt>
      <trkpt lat="51.34368" lon="4.42912"></trkpt>
      <trkpt lat="51.34361" lon="4.42871"></trkpt>
      <trkpt lat="51.34379" lon="4.42841"></trkpt>
      <trkpt lat="51.34400" lon="4.42810"></trkpt>
      <trkpt lat="51.34419" lon="4.42774"></trkpt>
      <trkpt lat="51.34434" lon="4.42755"></trkpt>
      <trkpt lat="51.34449" lon="4.42739"></trkpt>
      <trkpt lat="51.34471" lon="4.42725"></trkpt>
      <trkpt lat="51.34495" lon="4.42710"></trkpt>
      <trkpt lat="51.34518" lon="4.42696"></trkpt>
      <trkpt lat="51.34545" lon="4.42678"></trkpt>
      <trkpt lat="51.34571" lon="4.42661"></trkpt>
      <trkpt lat="51.34595" lon="4.42638"></trkpt>
      <trkpt lat="51.34605" lon="4.42594"></trkpt>
      <trkpt lat="51.34598" lon="4.42552"></trkpt>
      <trkpt lat="51.34585" lon="4.42511"></trkpt>
      <trkpt lat="51.34572" lon="4.42468"></trkpt>
      <trkpt lat="51.34558" lon="4.42424"></trkpt>
      <trkpt lat="51.34546" lon="4.42384"></trkpt>
      <trkpt lat="51.34537" lon="4.42343"></trkpt>
      <trkpt lat="51.34526" lon="4.42300"></trkpt>
      <trkpt lat="51.34512" lon="4.42258"></trkpt>
      <trkpt lat="51.34502" lon="4.42213"></trkpt>
      <trkpt lat="51.34516" lon="4.42174"></trkpt>
      <trkpt lat="51.34541" lon="4.42150"></trkpt>
      <trkpt lat="51.34557" lon="4.42160"></trkpt>
      <trkpt lat="51.34558" lon="4.42163"></trkpt>
      <trkpt lat="51.34558" lon="4.42163"></trkpt>
      <trkpt lat="51.34558" lon="4.42163"></trkpt>
      <trkpt lat="51.34558" lon="4.42163"></trkpt>
      <trkpt lat="51.34558" lon="4.42163"></trkpt>
      <trkpt lat="51.34558" lon="4.42163"></trkpt>
      <trkpt lat="51.34558" lon="4.42164"></trkpt>
      <trkpt lat="51.34558" lon="4.42164"></trkpt>
      <trkpt lat="51.34558" lon="4.42164"></trkpt>
      <trkpt lat="51.34558" lon="4.42164"></trkpt>
      <trkpt lat="51.34558" lon="4.42164"></trkpt>
      <trkpt lat="51.34558" lon="4.42164"></trkpt>
      <trkpt lat="51.34558" lon="4.42164"></trkpt>
      <trkpt lat="51.34558" lon="4.42164"></trkpt>
      <trkpt lat="51.34557" lon="4.42165"></trkpt>
      <trkpt lat="51.34557" lon="4.42165"></trkpt>
      <trkpt lat="51.34557" lon="4.42165"></trkpt>
      <trkpt lat="51.34557" lon="4.42165"></trkpt>
      <trkpt lat="51.34557" lon="4.42165"></trkpt>
      <trkpt lat="51.34557" lon="4.42165"></trkpt>
      <trkpt lat="51.34557" lon="4.42164"></trkpt>
      <trkpt lat="51.34548" lon="4.42148"></trkpt>
      <trkpt lat="51.34543" lon="4.42148"></trkpt>
      <trkpt lat="51.34523" lon="4.42170"></trkpt>
      <trkpt lat="51.34504" lon="4.42198"></trkpt>
      <trkpt lat="51.34508" lon="4.42241"></trkpt>
      <trkpt lat="51.34519" lon="4.42281"></trkpt>
      <trkpt lat="51.34535" lon="4.42322"></trkpt>
      <trkpt lat="51.34546" lon="4.42364"></trkpt>
      <trkpt lat="51.34557" lon="4.42402"></trkpt>
      <trkpt lat="51.34570" lon="4.42440"></trkpt>
      <trkpt lat="51.34582" lon="4.42479"></trkpt>
      <trkpt lat="51.34591" lon="4.42521"></trkpt>
      <trkpt lat="51.34604" lon="4.42561"></trkpt>
      <trkpt lat="51.34622" lon="4.42589"></trkpt>
      <trkpt lat="51.34647" lon="4.42576"></trkpt>
      <trkpt lat="51.34652" lon="4.42534"></trkpt>
      <trkpt lat="51.34650" lon="4.42494"></trkpt>
      <trkpt lat="51.34656" lon="4.42505"></trkpt>
      <trkpt lat="51.34659" lon="4.42549"></trkpt>
      <trkpt lat="51.34656" lon="4.42595"></trkpt>
      <trkpt lat="51.34649" lon="4.42640"></trkpt>
      <trkpt lat="51.34644" lon="4.42686"></trkpt>
      <trkpt lat="51.34638" lon="4.42734"></trkpt>
      <trkpt lat="51.34633" lon="4.42778"></trkpt>
      <trkpt lat="51.34638" lon="4.42824"></trkpt>
      <trkpt lat="51.34655" lon="4.42860"></trkpt>
      <trkpt lat="51.34679" lon="4.42879"></trkpt>
      <trkpt lat="51.34707" lon="4.42884"></trkpt>
      <trkpt lat="51.34734" lon="4.42883"></trkpt>
      <trkpt lat="51.34763" lon="4.42881"></trkpt>
      <trkpt lat="51.34790" lon="4.42893"></trkpt>
      <trkpt lat="51.34817" lon="4.42915"></trkpt>
      <trkpt lat="51.34845" lon="4.42936"></trkpt>
      <trkpt lat="51.34869" lon="4.42965"></trkpt>
      <trkpt lat="51.34892" lon="4.42988"></trkpt>
      <trkpt lat="51.34918" lon="4.42999"></trkpt>
      <trkpt lat="51.34939" lon="4.42980"></trkpt>
      <trkpt lat="51.34957" lon="4.42943"></trkpt>
      <trkpt lat="51.34982" lon="4.42946"></trkpt>
      <trkpt lat="51.35008" lon="4.42964"></trkpt>
      <trkpt lat="51.35028" lon="4.42983"></trkpt>
      <trkpt lat="51.35053" lon="4.43009"></trkpt>
      <trkpt lat="51.35077" lon="4.43034"></trkpt>
      <trkpt lat="51.35103" lon="4.43058"></trkpt>
      <trkpt lat="51.35127" lon="4.43084"></trkpt>
      <trkpt lat="51.35149" lon="4.43110"></trkpt>
      <trkpt lat="51.35172" lon="4.43134"></trkpt>
      <trkpt lat="51.35198" lon="4.43158"></trkpt>
      <trkpt lat="51.35223" lon="4.43182"></trkpt>
      <trkpt lat="51.35247" lon="4.43206"></trkpt>
      <trkpt lat="51.35272" lon="4.43230"></trkpt>
      <trkpt lat="51.35297" lon="4.43253"></trkpt>
      <trkpt lat="51.35322" lon="4.43267"></trkpt>
      <trkpt lat="51.35340" lon="4.43241"></trkpt>
      <trkpt lat="51.35355" lon="4.43206"></trkpt>
      <trkpt lat="51.35371" lon="4.43166"></trkpt>
      <trkpt lat="51.35380" lon="4.43126"></trkpt>
      <trkpt lat="51.35372" lon="4.43085"></trkpt>
      <trkpt lat="51.35360" lon="4.43047"></trkpt>
      <trkpt lat="51.35336" lon="4.43032"></trkpt>
      <trkpt lat="51.35321" lon="4.42999"></trkpt>
      <trkpt lat="51.35327" lon="4.42956"></trkpt>
      <trkpt lat="51.35326" lon="4.42915"></trkpt>
      <trkpt lat="51.35325" lon="4.42878"></trkpt>
      <trkpt lat="51.35340" lon="4.42837"></trkpt>
      <trkpt lat="51.35355" lon="4.42799"></trkpt>
      <trkpt lat="51.35370" lon="4.42759"></trkpt>
      <trkpt lat="51.35387" lon="4.42720"></trkpt>
      <trkpt lat="51.35404" lon="4.42681"></trkpt>
      <trkpt lat="51.35420" lon="4.42639"></trkpt>
      <trkpt lat="51.35437" lon="4.42599"></trkpt>
      <trkpt lat="51.35453" lon="4.42560"></trkpt>
      <trkpt lat="51.35468" lon="4.42522"></trkpt>
      <trkpt lat="51.35480" lon="4.42483"></trkpt>
      <trkpt lat="51.35467" lon="4.42450"></trkpt>
      <trkpt lat="51.35443" lon="4.42425"></trkpt>
      <trkpt lat="51.35418" lon="4.42401"></trkpt>
      <trkpt lat="51.35394" lon="4.42376"></trkpt>
      <trkpt lat="51.35370" lon="4.42352"></trkpt>
      <trkpt lat="51.35347" lon="4.42328"></trkpt>
      <trkpt lat="51.35324" lon="4.42304"></trkpt>
      <trkpt lat="51.35299" lon="4.42278"></trkpt>
      <trkpt lat="51.35275" lon="4.42253"></trkpt>
      <trkpt lat="51.35250" lon="4.42225"></trkpt>
      <trkpt lat="51.35226" lon="4.42216"></trkpt>
      <trkpt lat="51.35201" lon="4.42230"></trkpt>
      <trkpt lat="51.35174" lon="4.42248"></trkpt>
      <trkpt lat="51.35147" lon="4.42266"></trkpt>
      <trkpt lat="51.35124" lon="4.42283"></trkpt>
      <trkpt lat="51.35107" lon="4.42295"></trkpt>
      <trkpt lat="51.35089" lon="4.42307"></trkpt>
      <trkpt lat="51.35072" lon="4.42300"></trkpt>
      <trkpt lat="51.35060" lon="4.42257"></trkpt>
      <trkpt lat="51.35048" lon="4.42211"></trkpt>
      <trkpt lat="51.35037" lon="4.42166"></trkpt>
      <trkpt lat="51.35026" lon="4.42123"></trkpt>
      <trkpt lat="51.35015" lon="4.42079"></trkpt>
      <trkpt lat="51.35005" lon="4.42036"></trkpt>
      <trkpt lat="51.34995" lon="4.41992"></trkpt>
      <trkpt lat="51.34984" lon="4.41947"></trkpt>
      <trkpt lat="51.34972" lon="4.41903"></trkpt>
      <trkpt lat="51.34961" lon="4.41859"></trkpt>
      <trkpt lat="51.34951" lon="4.41818"></trkpt>
      <trkpt lat="51.34941" lon="4.41778"></trkpt>
      <trkpt lat="51.34927" lon="4.41750"></trkpt>
      <trkpt lat="51.34899" lon="4.41760"></trkpt>
      <trkpt lat="51.34871" lon="4.41776"></trkpt>
      <trkpt lat="51.34844" lon="4.41793"></trkpt>
      <trkpt lat="51.34816" lon="4.41808"></trkpt>
      <trkpt lat="51.34789" lon="4.41823"></trkpt>
      <trkpt lat="51.34765" lon="4.41841"></trkpt>
      <trkpt lat="51.34770" lon="4.41876"></trkpt>
      <trkpt lat="51.34782" lon="4.41918"></trkpt>
      <trkpt lat="51.34793" lon="4.41959"></trkpt>
      <trkpt lat="51.34804" lon="4.42000"></trkpt>
      <trkpt lat="51.34815" lon="4.42041"></trkpt>
      <trkpt lat="51.34827" lon="4.42081"></trkpt>
      <trkpt lat="51.34837" lon="4.42123"></trkpt>
      <trkpt lat="51.34847" lon="4.42165"></trkpt>
      <trkpt lat="51.34857" lon="4.42208"></trkpt>
      <trkpt lat="51.34843" lon="4.42243"></trkpt>
      <trkpt lat="51.34815" lon="4.42256"></trkpt>
      <trkpt lat="51.34786" lon="4.42268"></trkpt>
      <trkpt lat="51.34764" lon="4.42278"></trkpt>
      <trkpt lat="51.34741" lon="4.42288"></trkpt>
      <trkpt lat="51.34736" lon="4.42311"></trkpt>
      <trkpt lat="51.34762" lon="4.42329"></trkpt>
      <trkpt lat="51.34789" lon="4.42343"></trkpt>
      <trkpt lat="51.34816" lon="4.42361"></trkpt>
      <trkpt lat="51.34844" lon="4.42380"></trkpt>
      <trkpt lat="51.34871" lon="4.42400"></trkpt>
      <trkpt lat="51.34889" lon="4.42434"></trkpt>
      <trkpt lat="51.34891" lon="4.42477"></trkpt>
      <trkpt lat="51.34884" lon="4.42520"></trkpt>
      <trkpt lat="51.34876" lon="4.42565"></trkpt>
      <trkpt lat="51.34867" lon="4.42607"></trkpt>
      <trkpt lat="51.34863" lon="4.42642"></trkpt>
      <trkpt lat="51.34862" lon="4.42667"></trkpt>
      <trkpt lat="51.34862" lon="4.42692"></trkpt>
      <trkpt lat="51.34864" lon="4.42719"></trkpt>
      <trkpt lat="51.34865" lon="4.42745"></trkpt>
      <trkpt lat="51.34865" lon="4.42771"></trkpt>
      <trkpt lat="51.34865" lon="4.42797"></trkpt>
      <trkpt lat="51.34857" lon="4.42826"></trkpt>
      <trkpt lat="51.34834" lon="4.42852"></trkpt>
      <trkpt lat="51.34806" lon="4.42867"></trkpt>
      <trkpt lat="51.34777" lon="4.42872"></trkpt>
      <trkpt lat="51.34749" lon="4.42871"></trkpt>
      <trkpt lat="51.34719" lon="4.42875"></trkpt>
      <trkpt lat="51.34689" lon="4.42874"></trkpt>
      <trkpt lat="51.34661" lon="4.42859"></trkpt>
      <trkpt lat="51.34640" lon="4.42827"></trkpt>
      <trkpt lat="51.34634" lon="4.42782"></trkpt>
      <trkpt lat="51.34638" lon="4.42736"></trkpt>
      <trkpt lat="51.34645" lon="4.42689"></trkpt>
      <trkpt lat="51.34651" lon="4.42642"></trkpt>
      <trkpt lat="51.34656" lon="4.42595"></trkpt>
      <trkpt lat="51.34660" lon="4.42548"></trkpt>
      <trkpt lat="51.34658" lon="4.42501"></trkpt>
      <trkpt lat="51.34650" lon="4.42507"></trkpt>
      <trkpt lat="51.34651" lon="4.42553"></trkpt>
      <trkpt lat="51.34637" lon="4.42585"></trkpt>
      <trkpt lat="51.34611" lon="4.42576"></trkpt>
      <trkpt lat="51.34594" lon="4.42537"></trkpt>
      <trkpt lat="51.34583" lon="4.42494"></trkpt>
      <trkpt lat="51.34571" lon="4.42451"></trkpt>
      <trkpt lat="51.34557" lon="4.42409"></trkpt>
      <trkpt lat="51.34545" lon="4.42366"></trkpt>
      <trkpt lat="51.34535" lon="4.42323"></trkpt>
      <trkpt lat="51.34521" lon="4.42280"></trkpt>
      <trkpt lat="51.34510" lon="4.42236"></trkpt>
      <trkpt lat="51.34491" lon="4.42208"></trkpt>
      <trkpt lat="51.34466" lon="4.42230"></trkpt>
      <trkpt lat="51.34441" lon="4.42258"></trkpt>
      <trkpt lat="51.34416" lon="4.42281"></trkpt>
      <trkpt lat="51.34392" lon="4.42306"></trkpt>
      <trkpt lat="51.34366" lon="4.42332"></trkpt>
      <trkpt lat="51.34341" lon="4.42358"></trkpt>
      <trkpt lat="51.34316" lon="4.42385"></trkpt>
      <trkpt lat="51.34289" lon="4.42413"></trkpt>
      <trkpt lat="51.34262" lon="4.42440"></trkpt>
      <trkpt lat="51.34235" lon="4.42468"></trkpt>
      <trkpt lat="51.34209" lon="4.42496"></trkpt>
      <trkpt lat="51.34184" lon="4.42523"></trkpt>
      <trkpt lat="51.34159" lon="4.42551"></trkpt>
      <trkpt lat="51.34138" lon="4.42583"></trkpt>
      <trkpt lat="51.34144" lon="4.42624"></trkpt>
      <trkpt lat="51.34157" lon="4.42665"></trkpt>
      <trkpt lat="51.34171" lon="4.42709"></trkpt>
      <trkpt lat="51.34183" lon="4.42752"></trkpt>
      <trkpt lat="51.34194" lon="4.42795"></trkpt>
      <trkpt lat="51.34207" lon="4.42838"></trkpt>
      <trkpt lat="51.34219" lon="4.42881"></trkpt>
      <trkpt lat="51.34231" lon="4.42925"></trkpt>
      <trkpt lat="51.34243" lon="4.42965"></trkpt>
      <trkpt lat="51.34264" lon="4.42954"></trkpt>
      <trkpt lat="51.34290" lon="4.42931"></trkpt>
      <trkpt lat="51.34315" lon="4.42906"></trkpt>
      <trkpt lat="51.34341" lon="4.42882"></trkpt>
      <trkpt lat="51.34366" lon="4.42853"></trkpt>
      <trkpt lat="51.34391" lon="4.42822"></trkpt>
      <trkpt lat="51.34414" lon="4.42788"></trkpt>
      <trkpt lat="51.34427" lon="4.42763"></trkpt>
    </trkseg>
  </trk>
</gpx>