<?xml version="1.0" encoding="UTF-8"?>
<gpx version="1.1" creator="jeffry.running" xmlns="http://www.topografix.com/GPX/1/1">
  <metadata><time>2026-09-06T06:24:07.394Z</time></metadata>
  <trk>
    <trkseg>
      <trkpt lat="51.34545" lon="4.42145"></trkpt>
      <trkpt lat="51.34529" lon="4.42161"></trkpt>
      <trkpt lat="51.34511" lon="4.42178"></trkpt>
      <trkpt lat="51.34494" lon="4.42197"></trkpt>
      <trkpt lat="51.34477" lon="4.42215"></trkpt>
      <trkpt lat="51.34471" lon="4.42225"></trkpt>
      <trkpt lat="51.34488" lon="4.42208"></trkpt>
      <trkpt lat="51.34507" lon="4.42186"></trkpt>
      <trkpt lat="51.34525" lon="4.42166"></trkpt>
      <trkpt lat="51.34539" lon="4.42148"></trkpt>
      <trkpt lat="51.34552" lon="4.42146"></trkpt>
      <trkpt lat="51.34563" lon="4.42176"></trkpt>
      <trkpt lat="51.34565" lon="4.42185"></trkpt>
      <trkpt lat="51.34565" lon="4.42184"></trkpt>
      <trkpt lat="51.34564" lon="4.42184"></trkpt>
      <trkpt lat="51.34564" lon="4.42183"></trkpt>
      <trkpt lat="51.34564" lon="4.42183"></trkpt>
      <trkpt lat="51.34564" lon="4.42182"></trkpt>
      <trkpt lat="51.34563" lon="4.42182"></trkpt>
      <trkpt lat="51.34557" lon="4.42161"></trkpt>
      <trkpt lat="51.34542" lon="4.42148"></trkpt>
      <trkpt lat="51.34525" lon="4.42165"></trkpt>
      <trkpt lat="51.34507" lon="4.42184"></trkpt>
      <trkpt lat="51.34491" lon="4.42204"></trkpt>
      <trkpt lat="51.34473" lon="4.42224"></trkpt>
      <trkpt lat="51.34455" lon="4.42243"></trkpt>
      <trkpt lat="51.34437" lon="4.42261"></trkpt>
      <trkpt lat="51.34420" lon="4.42279"></trkpt>
      <trkpt lat="51.34403" lon="4.42295"></trkpt>
      <trkpt lat="51.34386" lon="4.42313"></trkpt>
      <trkpt lat="51.34367" lon="4.42331"></trkpt>
      <trkpt lat="51.34351" lon="4.42347"></trkpt>
      <trkpt lat="51.34334" lon="4.42365"></trkpt>
      <trkpt lat="51.34316" lon="4.42387"></trkpt>
      <trkpt lat="51.34300" lon="4.42405"></trkpt>
      <trkpt lat="51.34282" lon="4.42422"></trkpt>
      <trkpt lat="51.34266" lon="4.42438"></trkpt>
      <trkpt lat="51.34248" lon="4.42456"></trkpt>
      <trkpt lat="51.34230" lon="4.42475"></trkpt>
      <trkpt lat="51.34213" lon="4.42495"></trkpt>
      <trkpt lat="51.34194" lon="4.42511"></trkpt>
      <trkpt lat="51.34177" lon="4.42500"></trkpt>
      <trkpt lat="51.34168" lon="4.42469"></trkpt>
      <trkpt lat="51.34161" lon="4.42437"></trkpt>
      <trkpt lat="51.34153" lon="4.42406"></trkpt>
      <trkpt lat="51.34146" lon="4.42374"></trkpt>
      <trkpt lat="51.34138" lon="4.42345"></trkpt>
      <trkpt lat="51.34129" lon="4.42314"></trkpt>
      <trkpt lat="51.34120" lon="4.42282"></trkpt>
      <trkpt lat="51.34110" lon="4.42250"></trkpt>
      <trkpt lat="51.34101" lon="4.42219"></trkpt>
      <trkpt lat="51.34090" lon="4.42193"></trkpt>
      <trkpt lat="51.34071" lon="4.42191"></trkpt>
      <trkpt lat="51.34052" lon="4.42203"></trkpt>
      <trkpt lat="51.34034" lon="4.42217"></trkpt>
      <trkpt lat="51.34015" lon="4.42230"></trkpt>
      <trkpt lat="51.33995" lon="4.42245"></trkpt>
      <trkpt lat="51.33975" lon="4.42259"></trkpt>
      <trkpt lat="51.33957" lon="4.42273"></trkpt>
      <trkpt lat="51.33938" lon="4.42285"></trkpt>
      <trkpt lat="51.33919" lon="4.42300"></trkpt>
      <trkpt lat="51.33900" lon="4.42314"></trkpt>
      <trkpt lat="51.33886" lon="4.42338"></trkpt>
      <trkpt lat="51.33890" lon="4.42370"></trkpt>
      <trkpt lat="51.33899" lon="4.42402"></trkpt>
      <trkpt lat="51.33908" lon="4.42433"></trkpt>
      <trkpt lat="51.33916" lon="4.42463"></trkpt>
      <trkpt lat="51.33925" lon="4.42494"></trkpt>
      <trkpt lat="51.33934" lon="4.42524"></trkpt>
      <trkpt lat="51.33941" lon="4.42555"></trkpt>
      <trkpt lat="51.33949" lon="4.42587"></trkpt>
      <trkpt lat="51.33957" lon="4.42618"></trkpt>
      <trkpt lat="51.33966" lon="4.42650"></trkpt>
      <trkpt lat="51.33974" lon="4.42681"></trkpt>
      <trkpt lat="51.33984" lon="4.42712"></trkpt>
      <trkpt lat="51.33982" lon="4.42740"></trkpt>
      <trkpt lat="51.33963" lon="4.42758"></trkpt>
      <trkpt lat="51.33944" lon="4.42775"></trkpt>
      <trkpt lat="51.33927" lon="4.42792"></trkpt>
      <trkpt lat="51.33909" lon="4.42810"></trkpt>
      <trkpt lat="51.33891" lon="4.42828"></trkpt>
      <trkpt lat="51.33874" lon="4.42847"></trkpt>
      <trkpt lat="51.33857" lon="4.42865"></trkpt>
      <trkpt lat="51.33839" lon="4.42884"></trkpt>
      <trkpt lat="51.33821" lon="4.42903"></trkpt>
      <trkpt lat="51.33804" lon="4.42921"></trkpt>
      <trkpt lat="51.33787" lon="4.42940"></trkpt>
      <trkpt lat="51.33771" lon="4.42956"></trkpt>
      <trkpt lat="51.33754" lon="4.42973"></trkpt>
      <trkpt lat="51.33736" lon="4.42990"></trkpt>
      <trkpt lat="51.33720" lon="4.43006"></trkpt>
      <trkpt lat="51.33714" lon="4.43037"></trkpt>
      <trkpt lat="51.33722" lon="4.43068"></trkpt>
      <trkpt lat="51.33732" lon="4.43097"></trkpt>
      <trkpt lat="51.33742" lon="4.43128"></trkpt>
      <trkpt lat="51.33751" lon="4.43159"></trkpt>
      <trkpt lat="51.33761" lon="4.43189"></trkpt>
      <trkpt lat="51.33771" lon="4.43218"></trkpt>
      <trkpt lat="51.33781" lon="4.43246"></trkpt>
      <trkpt lat="51.33785" lon="4.43261"></trkpt>
      <trkpt lat="51.33786" lon="4.43262"></trkpt>
      <trkpt lat="51.33787" lon="4.43263"></trkpt>
      <trkpt lat="51.33789" lon="4.43274"></trkpt>
      <trkpt lat="51.33800" lon="4.43306"></trkpt>
      <trkpt lat="51.33809" lon="4.43334"></trkpt>
      <trkpt lat="51.33818" lon="4.43363"></trkpt>
      <trkpt lat="51.33829" lon="4.43392"></trkpt>
      <trkpt lat="51.33838" lon="4.43421"></trkpt>
      <trkpt lat="51.33848" lon="4.43451"></trkpt>
      <trkpt lat="51.33858" lon="4.43481"></trkpt>
      <trkpt lat="51.33867" lon="4.43510"></trkpt>
      <trkpt lat="51.33878" lon="4.43538"></trkpt>
      <trkpt lat="51.33888" lon="4.43565"></trkpt>
      <trkpt lat="51.33899" lon="4.43595"></trkpt>
      <trkpt lat="51.33908" lon="4.43625"></trkpt>
      <trkpt lat="51.33918" lon="4.43654"></trkpt>
      <trkpt lat="51.33930" lon="4.43682"></trkpt>
      <trkpt lat="51.33940" lon="4.43711"></trkpt>
      <trkpt lat="51.33948" lon="4.43742"></trkpt>
      <trkpt lat="51.33957" lon="4.43775"></trkpt>
      <trkpt lat="51.33968" lon="4.43805"></trkpt>
      <trkpt lat="51.33978" lon="4.43835"></trkpt>
      <trkpt lat="51.33988" lon="4.43865"></trkpt>
      <trkpt lat="51.33998" lon="4.43896"></trkpt>
      <trkpt lat="51.34010" lon="4.43925"></trkpt>
      <trkpt lat="51.34019" lon="4.43953"></trkpt>
      <trkpt lat="51.34026" lon="4.43977"></trkpt>
      <trkpt lat="51.34031" lon="4.43994"></trkpt>
      <trkpt lat="51.34036" lon="4.44012"></trkpt>
      <trkpt lat="51.34042" lon="4.44028"></trkpt>
      <trkpt lat="51.34048" lon="4.44043"></trkpt>
      <trkpt lat="51.34038" lon="4.44058"></trkpt>
      <trkpt lat="51.34020" lon="4.44077"></trkpt>
      <trkpt lat="51.34001" lon="4.44096"></trkpt>
      <trkpt lat="51.33990" lon="4.44117"></trkpt>
      <trkpt lat="51.33980" lon="4.44122"></trkpt>
      <trkpt lat="51.33964" lon="4.44135"></trkpt>
      <trkpt lat="51.33951" lon="4.44147"></trkpt>
      <trkpt lat="51.33952" lon="4.44143"></trkpt>
      <trkpt lat="51.33969" lon="4.44126"></trkpt>
      <trkpt lat="51.33989" lon="4.44118"></trkpt>
      <trkpt lat="51.34009" lon="4.44134"></trkpt>
      <trkpt lat="51.34026" lon="4.44155"></trkpt>
      <trkpt lat="51.34043" lon="4.44177"></trkpt>
      <trkpt lat="51.34060" lon="4.44195"></trkpt>
      <trkpt lat="51.34072" lon="4.44208"></trkpt>
      <trkpt lat="51.34082" lon="4.44216"></trkpt>
      <trkpt lat="51.34091" lon="4.44226"></trkpt>
      <trkpt lat="51.34094" lon="4.44229"></trkpt>
      <trkpt lat="51.34109" lon="4.44247"></trkpt>
      <trkpt lat="51.34125" lon="4.44267"></trkpt>
      <trkpt lat="51.34146" lon="4.44278"></trkpt>
      <trkpt lat="51.34166" lon="4.44283"></trkpt>
      <trkpt lat="51.34186" lon="4.44288"></trkpt>
      <trkpt lat="51.34206" lon="4.44289"></trkpt>
      <trkpt lat="51.34227" lon="4.44285"></trkpt>
      <trkpt lat="51.34248" lon="4.44289"></trkpt>
      <trkpt lat="51.34265" lon="4.44279"></trkpt>
      <trkpt lat="51.34277" lon="4.44251"></trkpt>
      <trkpt lat="51.34289" lon="4.44223"></trkpt>
      <trkpt lat="51.34303" lon="4.44220"></trkpt>
      <trkpt lat="51.34313" lon="4.44250"></trkpt>
      <trkpt lat="51.34320" lon="4.44277"></trkpt>
      <trkpt lat="51.34319" lon="4.44294"></trkpt>
      <trkpt lat="51.34319" lon="4.44279"></trkpt>
      <trkpt lat="51.34322" lon="4.44249"></trkpt>
      <trkpt lat="51.34329" lon="4.44222"></trkpt>
      <trkpt lat="51.34341" lon="4.44201"></trkpt>
      <trkpt lat="51.34353" lon="4.44177"></trkpt>
      <trkpt lat="51.34362" lon="4.44153"></trkpt>
      <trkpt lat="51.34370" lon="4.44130"></trkpt>
      <trkpt lat="51.34381" lon="4.44105"></trkpt>
      <trkpt lat="51.34393" lon="4.44081"></trkpt>
      <trkpt lat="51.34404" lon="4.44054"></trkpt>
      <trkpt lat="51.34415" lon="4.44027"></trkpt>
      <trkpt lat="51.34425" lon="4.43999"></trkpt>
      <trkpt lat="51.34436" lon="4.43974"></trkpt>
      <trkpt lat="51.34446" lon="4.43947"></trkpt>
      <trkpt lat="51.34458" lon="4.43921"></trkpt>
      <trkpt lat="51.34469" lon="4.43895"></trkpt>
      <trkpt lat="51.34480" lon="4.43869"></trkpt>
      <trkpt lat="51.34491" lon="4.43842"></trkpt>
      <trkpt lat="51.34500" lon="4.43813"></trkpt>
      <trkpt lat="51.34506" lon="4.43782"></trkpt>
      <trkpt lat="51.34511" lon="4.43751"></trkpt>
      <trkpt lat="51.34515" lon="4.43719"></trkpt>
      <trkpt lat="51.34521" lon="4.43687"></trkpt>
      <trkpt lat="51.34525" lon="4.43656"></trkpt>
      <trkpt lat="51.34530" lon="4.43625"></trkpt>
      <trkpt lat="51.34534" lon="4.43593"></trkpt>
      <trkpt lat="51.34538" lon="4.43560"></trkpt>
      <trkpt lat="51.34542" lon="4.43529"></trkpt>
      <trkpt lat="51.34547" lon="4.43498"></trkpt>
      <trkpt lat="51.34552" lon="4.43468"></trkpt>
      <trkpt lat="51.34557" lon="4.43436"></trkpt>
      <trkpt lat="51.34564" lon="4.43405"></trkpt>
      <trkpt lat="51.34568" lon="4.43374"></trkpt>
      <trkpt lat="51.34573" lon="4.43345"></trkpt>
      <trkpt lat="51.34577" lon="4.43313"></trkpt>
      <trkpt lat="51.34581" lon="4.43281"></trkpt>
      <trkpt lat="51.34585" lon="4.43250"></trkpt>
      <trkpt lat="51.34588" lon="4.43229"></trkpt>
      <trkpt lat="51.34590" lon="4.43213"></trkpt>
      <trkpt lat="51.34594" lon="4.43189"></trkpt>
      <trkpt lat="51.34599" lon="4.43158"></trkpt>
      <trkpt lat="51.34606" lon="4.43125"></trkpt>
      <trkpt lat="51.34609" lon="4.43089"></trkpt>
      <trkpt lat="51.34614" lon="4.43057"></trkpt>
      <trkpt lat="51.34618" lon="4.43025"></trkpt>
      <trkpt lat="51.34622" lon="4.42993"></trkpt>
      <trkpt lat="51.34628" lon="4.42961"></trkpt>
      <trkpt lat="51.34633" lon="4.42927"></trkpt>
      <trkpt lat="51.34638" lon="4.42894"></trkpt>
      <trkpt lat="51.34637" lon="4.42863"></trkpt>
      <trkpt lat="51.34628" lon="4.42834"></trkpt>
      <trkpt lat="51.34624" lon="4.42801"></trkpt>
      <trkpt lat="51.34621" lon="4.42798"></trkpt>
      <trkpt lat="51.34621" lon="4.42801"></trkpt>
      <trkpt lat="51.34625" lon="4.42772"></trkpt>
      <trkpt lat="51.34629" lon="4.42738"></trkpt>
      <trkpt lat="51.34632" lon="4.42705"></trkpt>
      <trkpt lat="51.34636" lon="4.42672"></trkpt>
      <trkpt lat="51.34640" lon="4.42640"></trkpt>
      <trkpt lat="51.34644" lon="4.42607"></trkpt>
      <trkpt lat="51.34646" lon="4.42573"></trkpt>
      <trkpt lat="51.34647" lon="4.42539"></trkpt>
      <trkpt lat="51.34647" lon="4.42506"></trkpt>
      <trkpt lat="51.34639" lon="4.42474"></trkpt>
      <trkpt lat="51.34630" lon="4.42444"></trkpt>
      <trkpt lat="51.34622" lon="4.42415"></trkpt>
      <trkpt lat="51.34614" lon="4.42383"></trkpt>
      <trkpt lat="51.34605" lon="4.42350"></trkpt>
      <trkpt lat="51.34596" lon="4.42319"></trkpt>
      <trkpt lat="51.34588" lon="4.42286"></trkpt>
      <trkpt lat="51.34580" lon="4.42254"></trkpt>
      <trkpt lat="51.34573" lon="4.42222"></trkpt>
      <trkpt lat="51.34565" lon="4.42194"></trkpt>
      <trkpt lat="51.34563" lon="4.42188"></trkpt>
      <trkpt lat="51.34563" lon="4.42189"></trkpt>
      <trkpt lat="51.34563" lon="4.42189"></trkpt>
      <trkpt lat="51.34563" lon="4.42190"></trkpt>
      <trkpt lat="51.34563" lon="4.42190"></trkpt>
      <trkpt lat="51.34563" lon="4.42191"></trkpt>
      <trkpt lat="51.34563" lon="4.42193"></trkpt>
      <trkpt lat="51.34563" lon="4.42192"></trkpt>
      <trkpt lat="51.34564" lon="4.42189"></trkpt>
      <trkpt lat="51.34564" lon="4.42187"></trkpt>
      <trkpt lat="51.34564" lon="4.42187"></trkpt>
      <trkpt lat="51.34564" lon="4.42186"></trkpt>
      <trkpt lat="51.34564" lon="4.42185"></trkpt>
      <trkpt lat="51.34563" lon="4.42181"></trkpt>
      <trkpt lat="51.34560" lon="4.42168"></trkpt>
      <trkpt lat="51.34555" lon="4.42153"></trkpt>
      <trkpt lat="51.34548" lon="4.42145"></trkpt>
      <trkpt lat="51.34545" lon="4.42149"></trkpt>
      <trkpt lat="51.34537" lon="4.42158"></trkpt>
      <trkpt lat="51.34532" lon="4.42163"></trkpt>
      <trkpt lat="51.34519" lon="4.42178"></trkpt>
      <trkpt lat="51.34507" lon="4.42202"></trkpt>
      <trkpt lat="51.34514" lon="4.42234"></trkpt>
      <trkpt lat="51.34522" lon="4.42267"></trkpt>
      <trkpt lat="51.34534" lon="4.42295"></trkpt>
      <trkpt lat="51.34543" lon="4.42325"></trkpt>
      <trkpt lat="51.34549" lon="4.42349"></trkpt>
      <trkpt lat="51.34550" lon="4.42353"></trkpt>
      <trkpt lat="51.34550" lon="4.42355"></trkpt>
      <trkpt lat="51.34552" lon="4.42366"></trkpt>
      <trkpt lat="51.34557" lon="4.42381"></trkpt>
      <trkpt lat="51.34561" lon="4.42397"></trkpt>
      <trkpt lat="51.34566" lon="4.42412"></trkpt>
      <trkpt lat="51.34572" lon="4.42433"></trkpt>
      <trkpt lat="51.34581" lon="4.42463"></trkpt>
      <trkpt lat="51.34589" lon="4.42497"></trkpt>
      <trkpt lat="51.34598" lon="4.42530"></trkpt>
      <trkpt lat="51.34609" lon="4.42560"></trkpt>
      <trkpt lat="51.34619" lon="4.42585"></trkpt>
      <trkpt lat="51.34636" lon="4.42586"></trkpt>
      <trkpt lat="51.34649" lon="4.42572"></trkpt>
      <trkpt lat="51.34651" lon="4.42541"></trkpt>
      <trkpt lat="51.34651" lon="4.42509"></trkpt>
      <trkpt lat="51.34653" lon="4.42487"></trkpt>
      <trkpt lat="51.34656" lon="4.42491"></trkpt>
      <trkpt lat="51.34656" lon="4.42493"></trkpt>
      <trkpt lat="51.34657" lon="4.42493"></trkpt>
      <trkpt lat="51.34657" lon="4.42493"></trkpt>
      <trkpt lat="51.34657" lon="4.42494"></trkpt>
      <trkpt lat="51.34657" lon="4.42494"></trkpt>
      <trkpt lat="51.34658" lon="4.42494"></trkpt>
      <trkpt lat="51.34659" lon="4.42497"></trkpt>
      <trkpt lat="51.34662" lon="4.42512"></trkpt>
      <trkpt lat="51.34662" lon="4.42538"></trkpt>
      <trkpt lat="51.34661" lon="4.42573"></trkpt>
      <trkpt lat="51.34657" lon="4.42606"></trkpt>
      <trkpt lat="51.34652" lon="4.42637"></trkpt>
      <trkpt lat="51.34647" lon="4.42671"></trkpt>
      <trkpt lat="51.34643" lon="4.42706"></trkpt>
      <trkpt lat="51.34639" lon="4.42739"></trkpt>
      <trkpt lat="51.34636" lon="4.42772"></trkpt>
      <trkpt lat="51.34637" lon="4.42804"></trkpt>
      <trkpt lat="51.34643" lon="4.42835"></trkpt>
      <trkpt lat="51.34656" lon="4.42859"></trkpt>
      <trkpt lat="51.34673" lon="4.42874"></trkpt>
      <trkpt lat="51.34691" lon="4.42884"></trkpt>
      <trkpt lat="51.34710" lon="4.42884"></trkpt>
      <trkpt lat="51.34730" lon="4.42881"></trkpt>
      <trkpt lat="51.34750" lon="4.42877"></trkpt>
      <trkpt lat="51.34771" lon="4.42879"></trkpt>
      <trkpt lat="51.34791" lon="4.42888"></trkpt>
      <trkpt lat="51.34805" lon="4.42900"></trkpt>
      <trkpt lat="51.34814" lon="4.42909"></trkpt>
      <trkpt lat="51.34822" lon="4.42917"></trkpt>
      <trkpt lat="51.34832" lon="4.42925"></trkpt>
      <trkpt lat="51.34843" lon="4.42933"></trkpt>
      <trkpt lat="51.34855" lon="4.42944"></trkpt>
      <trkpt lat="51.34870" lon="4.42965"></trkpt>
      <trkpt lat="51.34887" lon="4.42983"></trkpt>
      <trkpt lat="51.34906" lon="4.42989"></trkpt>
      <trkpt lat="51.34923" lon="4.42999"></trkpt>
      <trkpt lat="51.34937" lon="4.42979"></trkpt>
      <trkpt lat="51.34948" lon="4.42952"></trkpt>
      <trkpt lat="51.34963" lon="4.42934"></trkpt>
      <trkpt lat="51.34982" lon="4.42944"></trkpt>
      <trkpt lat="51.35001" lon="4.42960"></trkpt>
      <trkpt lat="51.35019" lon="4.42977"></trkpt>
      <trkpt lat="51.35035" lon="4.42996"></trkpt>
      <trkpt lat="51.35043" lon="4.43002"></trkpt>
      <trkpt lat="51.35044" lon="4.43003"></trkpt>
      <trkpt lat="51.35045" lon="4.43003"></trkpt>
      <trkpt lat="51.35050" lon="4.43008"></trkpt>
      <trkpt lat="51.35052" lon="4.43010"></trkpt>
      <trkpt lat="51.35052" lon="4.43010"></trkpt>
      <trkpt lat="51.35053" lon="4.43011"></trkpt>
      <trkpt lat="51.35053" lon="4.43011"></trkpt>
      <trkpt lat="51.35053" lon="4.43011"></trkpt>
      <trkpt lat="51.35054" lon="4.43012"></trkpt>
      <trkpt lat="51.35061" lon="4.43021"></trkpt>
      <trkpt lat="51.35067" lon="4.43029"></trkpt>
      <trkpt lat="51.35074" lon="4.43039"></trkpt>
      <trkpt lat="51.35084" lon="4.43047"></trkpt>
      <trkpt lat="51.35094" lon="4.43055"></trkpt>
      <trkpt lat="51.35104" lon="4.43066"></trkpt>
      <trkpt lat="51.35113" lon="4.43074"></trkpt>
      <trkpt lat="51.35123" lon="4.43085"></trkpt>
      <trkpt lat="51.35139" lon="4.43100"></trkpt>
      <trkpt lat="51.35157" lon="4.43118"></trkpt>
      <trkpt lat="51.35174" lon="4.43135"></trkpt>
      <trkpt lat="51.35189" lon="4.43152"></trkpt>
      <trkpt lat="51.35207" lon="4.43168"></trkpt>
      <trkpt lat="51.35225" lon="4.43184"></trkpt>
      <trkpt lat="51.35243" lon="4.43201"></trkpt>
      <trkpt lat="51.35261" lon="4.43217"></trkpt>
      <trkpt lat="51.35279" lon="4.43233"></trkpt>
      <trkpt lat="51.35296" lon="4.43249"></trkpt>
      <trkpt lat="51.35313" lon="4.43266"></trkpt>
      <trkpt lat="51.35328" lon="4.43265"></trkpt>
      <trkpt lat="51.35334" lon="4.43249"></trkpt>
      <trkpt lat="51.35340" lon="4.43236"></trkpt>
      <trkpt lat="51.35345" lon="4.43224"></trkpt>
      <trkpt lat="51.35351" lon="4.43213"></trkpt>
      <trkpt lat="51.35355" lon="4.43199"></trkpt>
      <trkpt lat="51.35360" lon="4.43185"></trkpt>
      <trkpt lat="51.35365" lon="4.43170"></trkpt>
      <trkpt lat="51.35372" lon="4.43155"></trkpt>
      <trkpt lat="51.35377" lon="4.43139"></trkpt>
      <trkpt lat="51.35377" lon="4.43122"></trkpt>
      <trkpt lat="51.35371" lon="4.43107"></trkpt>
      <trkpt lat="51.35369" lon="4.43089"></trkpt>
      <trkpt lat="51.35366" lon="4.43070"></trkpt>
      <trkpt lat="51.35362" lon="4.43052"></trkpt>
      <trkpt lat="51.35355" lon="4.43037"></trkpt>
      <trkpt lat="51.35347" lon="4.43034"></trkpt>
      <trkpt lat="51.35338" lon="4.43031"></trkpt>
      <trkpt lat="51.35328" lon="4.43024"></trkpt>
      <trkpt lat="51.35321" lon="4.43011"></trkpt>
      <trkpt lat="51.35319" lon="4.43004"></trkpt>
      <trkpt lat="51.35318" lon="4.43003"></trkpt>
      <trkpt lat="51.35318" lon="4.43002"></trkpt>
      <trkpt lat="51.35318" lon="4.43002"></trkpt>
      <trkpt lat="51.35318" lon="4.43001"></trkpt>
      <trkpt lat="51.35318" lon="4.43001"></trkpt>
      <trkpt lat="51.35318" lon="4.43000"></trkpt>
      <trkpt lat="51.35318" lon="4.43000"></trkpt>
      <trkpt lat="51.35318" lon="4.42986"></trkpt>
      <trkpt lat="51.35319" lon="4.42967"></trkpt>
      <trkpt lat="51.35323" lon="4.42947"></trkpt>
      <trkpt lat="51.35325" lon="4.42919"></trkpt>
      <trkpt lat="51.35316" lon="4.42894"></trkpt>
      <trkpt lat="51.35325" lon="4.42868"></trkpt>
      <trkpt lat="51.35334" lon="4.42841"></trkpt>
      <trkpt lat="51.35345" lon="4.42814"></trkpt>
      <trkpt lat="51.35357" lon="4.42788"></trkpt>
      <trkpt lat="51.35367" lon="4.42760"></trkpt>
      <trkpt lat="51.35379" lon="4.42733"></trkpt>
      <trkpt lat="51.35390" lon="4.42707"></trkpt>
      <trkpt lat="51.35400" lon="4.42678"></trkpt>
      <trkpt lat="51.35410" lon="4.42649"></trkpt>
      <trkpt lat="51.35422" lon="4.42622"></trkpt>
      <trkpt lat="51.35430" lon="4.42604"></trkpt>
      <trkpt lat="51.35435" lon="4.42592"></trkpt>
      <trkpt lat="51.35440" lon="4.42579"></trkpt>
      <trkpt lat="51.35444" lon="4.42568"></trkpt>
      <trkpt lat="51.35448" lon="4.42557"></trkpt>
      <trkpt lat="51.35453" lon="4.42544"></trkpt>
      <trkpt lat="51.35457" lon="4.42532"></trkpt>
      <trkpt lat="51.35461" lon="4.42522"></trkpt>
      <trkpt lat="51.35466" lon="4.42510"></trkpt>
      <trkpt lat="51.35471" lon="4.42497"></trkpt>
      <trkpt lat="51.35477" lon="4.42484"></trkpt>
      <trkpt lat="51.35479" lon="4.42469"></trkpt>
      <trkpt lat="51.35474" lon="4.42456"></trkpt>
      <trkpt lat="51.35466" lon="4.42448"></trkpt>
      <trkpt lat="51.35459" lon="4.42441"></trkpt>
      <trkpt lat="51.35451" lon="4.42432"></trkpt>
      <trkpt lat="51.35443" lon="4.42423"></trkpt>
      <trkpt lat="51.35436" lon="4.42414"></trkpt>
      <trkpt lat="51.35427" lon="4.42405"></trkpt>
      <trkpt lat="51.35418" lon="4.42396"></trkpt>
      <trkpt lat="51.35409" lon="4.42386"></trkpt>
      <trkpt lat="51.35399" lon="4.42376"></trkpt>
      <trkpt lat="51.35389" lon="4.42366"></trkpt>
      <trkpt lat="51.35380" lon="4.42362"></trkpt>
      <trkpt lat="51.35379" lon="4.42362"></trkpt>
      <trkpt lat="51.35379" lon="4.42362"></trkpt>
      <trkpt lat="51.35379" lon="4.42362"></trkpt>
      <trkpt lat="51.35379" lon="4.42362"></trkpt>
      <trkpt lat="51.35379" lon="4.42362"></trkpt>
      <trkpt lat="51.35379" lon="4.42361"></trkpt>
      <trkpt lat="51.35379" lon="4.42361"></trkpt>
      <trkpt lat="51.35379" lon="4.42361"></trkpt>
      <trkpt lat="51.35379" lon="4.42361"></trkpt>
      <trkpt lat="51.35379" lon="4.42361"></trkpt>
      <trkpt lat="51.35379" lon="4.42360"></trkpt>
      <trkpt lat="51.35379" lon="4.42360"></trkpt>
      <trkpt lat="51.35379" lon="4.42360"></trkpt>
      <trkpt lat="51.35379" lon="4.42354"></trkpt>
      <trkpt lat="51.35372" lon="4.42338"></trkpt>
      <trkpt lat="51.35364" lon="4.42329"></trkpt>
      <trkpt lat="51.35353" lon="4.42320"></trkpt>
      <trkpt lat="51.35342" lon="4.42311"></trkpt>
      <trkpt lat="51.35332" lon="4.42301"></trkpt>
      <trkpt lat="51.35321" lon="4.42290"></trkpt>
      <trkpt lat="51.35311" lon="4.42280"></trkpt>
      <trkpt lat="51.35299" lon="4.42269"></trkpt>
      <trkpt lat="51.35285" lon="4.42257"></trkpt>
      <trkpt lat="51.35271" lon="4.42243"></trkpt>
      <trkpt lat="51.35257" lon="4.42227"></trkpt>
      <trkpt lat="51.35242" lon="4.42210"></trkpt>
      <trkpt lat="51.35225" lon="4.42215"></trkpt>
      <trkpt lat="51.35208" lon="4.42224"></trkpt>
      <trkpt lat="51.35192" lon="4.42233"></trkpt>
      <trkpt lat="51.35175" lon="4.42245"></trkpt>
      <trkpt lat="51.35158" lon="4.42256"></trkpt>
      <trkpt lat="51.35141" lon="4.42267"></trkpt>
      <trkpt lat="51.35125" lon="4.42277"></trkpt>
      <trkpt lat="51.35109" lon="4.42288"></trkpt>
      <trkpt lat="51.35091" lon="4.42300"></trkpt>
      <trkpt lat="51.35076" lon="4.42293"></trkpt>
      <trkpt lat="51.35068" lon="4.42268"></trkpt>
      <trkpt lat="51.35060" lon="4.42244"></trkpt>
      <trkpt lat="51.35054" lon="4.42222"></trkpt>
      <trkpt lat="51.35050" lon="4.42208"></trkpt>
      <trkpt lat="51.35046" lon="4.42197"></trkpt>
      <trkpt lat="51.35043" lon="4.42187"></trkpt>
      <trkpt lat="51.35042" lon="4.42174"></trkpt>
      <trkpt lat="51.35039" lon="4.42159"></trkpt>
      <trkpt lat="51.35034" lon="4.42143"></trkpt>
      <trkpt lat="51.35029" lon="4.42128"></trkpt>
      <trkpt lat="51.35024" lon="4.42112"></trkpt>
      <trkpt lat="51.35019" lon="4.42095"></trkpt>
      <trkpt lat="51.35015" lon="4.42077"></trkpt>
      <trkpt lat="51.35010" lon="4.42061"></trkpt>
      <trkpt lat="51.35006" lon="4.42044"></trkpt>
      <trkpt lat="51.35002" lon="4.42026"></trkpt>
      <trkpt lat="51.34997" lon="4.42009"></trkpt>
      <trkpt lat="51.34993" lon="4.41992"></trkpt>
      <trkpt lat="51.34989" lon="4.41976"></trkpt>
      <trkpt lat="51.34984" lon="4.41959"></trkpt>
      <trkpt lat="51.34980" lon="4.41941"></trkpt>
      <trkpt lat="51.34976" lon="4.41924"></trkpt>
      <trkpt lat="51.34971" lon="4.41905"></trkpt>
      <trkpt lat="51.34966" lon="4.41888"></trkpt>
      <trkpt lat="51.34963" lon="4.41870"></trkpt>
      <trkpt lat="51.34958" lon="4.41853"></trkpt>
      <trkpt lat="51.34953" lon="4.41836"></trkpt>
      <trkpt lat="51.34949" lon="4.41818"></trkpt>
      <trkpt lat="51.34944" lon="4.41800"></trkpt>
      <trkpt lat="51.34940" lon="4.41783"></trkpt>
      <trkpt lat="51.34936" lon="4.41767"></trkpt>
      <trkpt lat="51.34936" lon="4.41763"></trkpt>
      <trkpt lat="51.34936" lon="4.41762"></trkpt>
      <trkpt lat="51.34933" lon="4.41752"></trkpt>
      <trkpt lat="51.34930" lon="4.41747"></trkpt>
      <trkpt lat="51.34929" lon="4.41748"></trkpt>
      <trkpt lat="51.34928" lon="4.41748"></trkpt>
      <trkpt lat="51.34924" lon="4.41751"></trkpt>
      <trkpt lat="51.34913" lon="4.41758"></trkpt>
      <trkpt lat="51.34904" lon="4.41764"></trkpt>
      <trkpt lat="51.34893" lon="4.41769"></trkpt>
      <trkpt lat="51.34882" lon="4.41777"></trkpt>
      <trkpt lat="51.34871" lon="4.41783"></trkpt>
      <trkpt lat="51.34860" lon="4.41793"></trkpt>
      <trkpt lat="51.34849" lon="4.41802"></trkpt>
      <trkpt lat="51.34839" lon="4.41807"></trkpt>
      <trkpt lat="51.34827" lon="4.41811"></trkpt>
      <trkpt lat="51.34816" lon="4.41814"></trkpt>
      <trkpt lat="51.34804" lon="4.41820"></trkpt>
      <trkpt lat="51.34794" lon="4.41828"></trkpt>
      <trkpt lat="51.34783" lon="4.41836"></trkpt>
      <trkpt lat="51.34770" lon="4.41841"></trkpt>
      <trkpt lat="51.34761" lon="4.41848"></trkpt>
      <trkpt lat="51.34764" lon="4.41864"></trkpt>
      <trkpt lat="51.34770" lon="4.41883"></trkpt>
      <trkpt lat="51.34776" lon="4.41908"></trkpt>
      <trkpt lat="51.34784" lon="4.41935"></trkpt>
      <trkpt lat="51.34793" lon="4.41961"></trkpt>
      <trkpt lat="51.34801" lon="4.41990"></trkpt>
      <trkpt lat="51.34809" lon="4.42019"></trkpt>
      <trkpt lat="51.34817" lon="4.42046"></trkpt>
      <trkpt lat="51.34824" lon="4.42075"></trkpt>
      <trkpt lat="51.34832" lon="4.42101"></trkpt>
      <trkpt lat="51.34840" lon="4.42129"></trkpt>
      <trkpt lat="51.34848" lon="4.42159"></trkpt>
      <trkpt lat="51.34856" lon="4.42190"></trkpt>
      <trkpt lat="51.34861" lon="4.42220"></trkpt>
      <trkpt lat="51.34853" lon="4.42244"></trkpt>
      <trkpt lat="51.34833" lon="4.42257"></trkpt>
      <trkpt lat="51.34812" lon="4.42266"></trkpt>
      <trkpt lat="51.34794" lon="4.42274"></trkpt>
      <trkpt lat="51.34783" lon="4.42278"></trkpt>
      <trkpt lat="51.34773" lon="4.42283"></trkpt>
      <trkpt lat="51.34762" lon="4.42285"></trkpt>
      <trkpt lat="51.34747" lon="4.42291"></trkpt>
      <trkpt lat="51.34727" lon="4.42302"></trkpt>
      <trkpt lat="51.34707" lon="4.42314"></trkpt>
      <trkpt lat="51.34690" lon="4.42332"></trkpt>
      <trkpt lat="51.34676" lon="4.42355"></trkpt>
      <trkpt lat="51.34668" lon="4.42384"></trkpt>
      <trkpt lat="51.34665" lon="4.42414"></trkpt>
      <trkpt lat="51.34665" lon="4.42443"></trkpt>
      <trkpt lat="51.34662" lon="4.42471"></trkpt>
      <trkpt lat="51.34656" lon="4.42482"></trkpt>
      <trkpt lat="51.34652" lon="4.42495"></trkpt>
      <trkpt lat="51.34654" lon="4.42519"></trkpt>
      <trkpt lat="51.34652" lon="4.42548"></trkpt>
      <trkpt lat="51.34649" lon="4.42576"></trkpt>
      <trkpt lat="51.34634" lon="4.42586"></trkpt>
      <trkpt lat="51.34615" lon="4.42584"></trkpt>
      <trkpt lat="51.34604" lon="4.42556"></trkpt>
      <trkpt lat="51.34593" lon="4.42527"></trkpt>
      <trkpt lat="51.34587" lon="4.42502"></trkpt>
      <trkpt lat="51.34583" lon="4.42487"></trkpt>
      <trkpt lat="51.34580" lon="4.42473"></trkpt>
      <trkpt lat="51.34576" lon="4.42459"></trkpt>
      <trkpt lat="51.34571" lon="4.42444"></trkpt>
      <trkpt lat="51.34565" lon="4.42428"></trkpt>
      <trkpt lat="51.34559" lon="4.42413"></trkpt>
      <trkpt lat="51.34554" lon="4.42397"></trkpt>
      <trkpt lat="51.34549" lon="4.42380"></trkpt>
      <trkpt lat="51.34544" lon="4.42363"></trkpt>
      <trkpt lat="51.34538" lon="4.42343"></trkpt>
      <trkpt lat="51.34531" lon="4.42312"></trkpt>
      <trkpt lat="51.34521" lon="4.42284"></trkpt>
      <trkpt lat="51.34512" lon="4.42257"></trkpt>
      <trkpt lat="51.34506" lon="4.42228"></trkpt>
      <trkpt lat="51.34493" lon="4.42206"></trkpt>
      <trkpt lat="51.34477" lon="4.42216"></trkpt>
      <trkpt lat="51.34460" lon="4.42234"></trkpt>
      <trkpt lat="51.34444" lon="4.42251"></trkpt>
      <trkpt lat="51.34429" lon="4.42268"></trkpt>
      <trkpt lat="51.34413" lon="4.42286"></trkpt>
      <trkpt lat="51.34398" lon="4.42302"></trkpt>
      <trkpt lat="51.34384" lon="4.42314"></trkpt>
      <trkpt lat="51.34369" lon="4.42328"></trkpt>
      <trkpt lat="51.34354" lon="4.42347"></trkpt>
      <trkpt lat="51.34337" lon="4.42366"></trkpt>
      <trkpt lat="51.34319" lon="4.42383"></trkpt>
      <trkpt lat="51.34302" lon="4.42398"></trkpt>
      <trkpt lat="51.34285" lon="4.42416"></trkpt>
      <trkpt lat="51.34269" lon="4.42433"></trkpt>
      <trkpt lat="51.34251" lon="4.42450"></trkpt>
      <trkpt lat="51.34235" lon="4.42468"></trkpt>
      <trkpt lat="51.34217" lon="4.42486"></trkpt>
      <trkpt lat="51.34200" lon="4.42505"></trkpt>
      <trkpt lat="51.34183" lon="4.42506"></trkpt>
      <trkpt lat="51.34172" lon="4.42479"></trkpt>
      <trkpt lat="51.34164" lon="4.42450"></trkpt>
      <trkpt lat="51.34155" lon="4.42421"></trkpt>
      <trkpt lat="51.34147" lon="4.42390"></trkpt>
      <trkpt lat="51.34139" lon="4.42361"></trkpt>
      <trkpt lat="51.34130" lon="4.42332"></trkpt>
      <trkpt lat="51.34121" lon="4.42301"></trkpt>
      <trkpt lat="51.34113" lon="4.42270"></trkpt>
      <trkpt lat="51.34108" lon="4.42249"></trkpt>
      <trkpt lat="51.34109" lon="4.42248"></trkpt>
      <trkpt lat="51.34109" lon="4.42247"></trkpt>
      <trkpt lat="51.34108" lon="4.42244"></trkpt>
      <trkpt lat="51.34102" lon="4.42217"></trkpt>
      <trkpt lat="51.34090" lon="4.42194"></trkpt>
      <trkpt lat="51.34072" lon="4.42191"></trkpt>
      <trkpt lat="51.34053" lon="4.42205"></trkpt>
      <trkpt lat="51.34035" lon="4.42218"></trkpt>
      <trkpt lat="51.34015" lon="4.42232"></trkpt>
      <trkpt lat="51.33996" lon="4.42248"></trkpt>
      <trkpt lat="51.33977" lon="4.42261"></trkpt>
      <trkpt lat="51.33961" lon="4.42273"></trkpt>
      <trkpt lat="51.33943" lon="4.42284"></trkpt>
      <trkpt lat="51.33924" lon="4.42299"></trkpt>
      <trkpt lat="51.33905" lon="4.42311"></trkpt>
      <trkpt lat="51.33887" lon="4.42329"></trkpt>
      <trkpt lat="51.33889" lon="4.42360"></trkpt>
      <trkpt lat="51.33898" lon="4.42390"></trkpt>
      <trkpt lat="51.33908" lon="4.42420"></trkpt>
      <trkpt lat="51.33916" lon="4.42449"></trkpt>
      <trkpt lat="51.33925" lon="4.42477"></trkpt>
      <trkpt lat="51.33935" lon="4.42506"></trkpt>
      <trkpt lat="51.33943" lon="4.42537"></trkpt>
      <trkpt lat="51.33951" lon="4.42569"></trkpt>
      <trkpt lat="51.33958" lon="4.42600"></trkpt>
      <trkpt lat="51.33967" lon="4.42632"></trkpt>
      <trkpt lat="51.33975" lon="4.42664"></trkpt>
      <trkpt lat="51.33985" lon="4.42695"></trkpt>
      <trkpt lat="51.33990" lon="4.42726"></trkpt>
      <trkpt lat="51.33974" lon="4.42748"></trkpt>
      <trkpt lat="51.33956" lon="4.42763"></trkpt>
      <trkpt lat="51.33937" lon="4.42779"></trkpt>
      <trkpt lat="51.33920" lon="4.42797"></trkpt>
      <trkpt lat="51.33901" lon="4.42815"></trkpt>
      <trkpt lat="51.33884" lon="4.42832"></trkpt>
      <trkpt lat="51.33866" lon="4.42851"></trkpt>
      <trkpt lat="51.33848" lon="4.42870"></trkpt>
      <trkpt lat="51.33831" lon="4.42886"></trkpt>
      <trkpt lat="51.33814" lon="4.42902"></trkpt>
      <trkpt lat="51.33800" lon="4.42917"></trkpt>
      <trkpt lat="51.33783" lon="4.42934"></trkpt>
      <trkpt lat="51.33766" lon="4.42954"></trkpt>
      <trkpt lat="51.33747" lon="4.42973"></trkpt>
      <trkpt lat="51.33730" lon="4.42992"></trkpt>
      <trkpt lat="51.33716" lon="4.43015"></trkpt>
      <trkpt lat="51.33720" lon="4.43049"></trkpt>
      <trkpt lat="51.33729" lon="4.43079"></trkpt>
      <trkpt lat="51.33738" lon="4.43109"></trkpt>
      <trkpt lat="51.33747" lon="4.43137"></trkpt>
      <trkpt lat="51.33758" lon="4.43167"></trkpt>
      <trkpt lat="51.33767" lon="4.43196"></trkpt>
      <trkpt lat="51.33777" lon="4.43225"></trkpt>
      <trkpt lat="51.33785" lon="4.43252"></trkpt>
      <trkpt lat="51.33794" lon="4.43278"></trkpt>
      <trkpt lat="51.33803" lon="4.43305"></trkpt>
      <trkpt lat="51.33811" lon="4.43334"></trkpt>
      <trkpt lat="51.33820" lon="4.43361"></trkpt>
      <trkpt lat="51.33832" lon="4.43387"></trkpt>
      <trkpt lat="51.33840" lon="4.43415"></trkpt>
      <trkpt lat="51.33848" lon="4.43445"></trkpt>
      <trkpt lat="51.33858" lon="4.43473"></trkpt>
      <trkpt lat="51.33868" lon="4.43499"></trkpt>
      <trkpt lat="51.33878" lon="4.43526"></trkpt>
      <trkpt lat="51.33888" lon="4.43554"></trkpt>
      <trkpt lat="51.33898" lon="4.43581"></trkpt>
      <trkpt lat="51.33908" lon="4.43610"></trkpt>
      <trkpt lat="51.33917" lon="4.43639"></trkpt>
      <trkpt lat="51.33925" lon="4.43666"></trkpt>
      <trkpt lat="51.33935" lon="4.43691"></trkpt>
      <trkpt lat="51.33944" lon="4.43717"></trkpt>
      <trkpt lat="51.33954" lon="4.43747"></trkpt>
      <trkpt lat="51.33962" lon="4.43776"></trkpt>
      <trkpt lat="51.33971" lon="4.43806"></trkpt>
      <trkpt lat="51.33982" lon="4.43835"></trkpt>
      <trkpt lat="51.33991" lon="4.43854"></trkpt>
      <trkpt lat="51.33993" lon="4.43853"></trkpt>
      <trkpt lat="51.33992" lon="4.43855"></trkpt>
      <trkpt lat="51.33992" lon="4.43859"></trkpt>
      <trkpt lat="51.33998" lon="4.43887"></trkpt>
      <trkpt lat="51.34006" lon="4.43917"></trkpt>
      <trkpt lat="51.34017" lon="4.43946"></trkpt>
      <trkpt lat="51.34027" lon="4.43976"></trkpt>
      <trkpt lat="51.34037" lon="4.44006"></trkpt>
      <trkpt lat="51.34048" lon="4.44034"></trkpt>
      <trkpt lat="51.34061" lon="4.44035"></trkpt>
      <trkpt lat="51.34076" lon="4.44019"></trkpt>
      <trkpt lat="51.34091" lon="4.44002"></trkpt>
      <trkpt lat="51.34107" lon="4.43985"></trkpt>
      <trkpt lat="51.34124" lon="4.43968"></trkpt>
      <trkpt lat="51.34141" lon="4.43951"></trkpt>
      <trkpt lat="51.34159" lon="4.43935"></trkpt>
      <trkpt lat="51.34177" lon="4.43923"></trkpt>
      <trkpt lat="51.34194" lon="4.43933"></trkpt>
      <trkpt lat="51.34203" lon="4.43961"></trkpt>
      <trkpt lat="51.34212" lon="4.43989"></trkpt>
      <trkpt lat="51.34221" lon="4.44019"></trkpt>
      <trkpt lat="51.34232" lon="4.44047"></trkpt>
      <trkpt lat="51.34243" lon="4.44075"></trkpt>
      <trkpt lat="51.34255" lon="4.44104"></trkpt>
      <trkpt lat="51.34267" lon="4.44132"></trkpt>
      <trkpt lat="51.34278" lon="4.44159"></trkpt>
      <trkpt lat="51.34291" lon="4.44186"></trkpt>
      <trkpt lat="51.34302" lon="4.44212"></trkpt>
      <trkpt lat="51.34315" lon="4.44213"></trkpt>
      <trkpt lat="51.34324" lon="4.44187"></trkpt>
      <trkpt lat="51.34333" lon="4.44159"></trkpt>
      <trkpt lat="51.34344" lon="4.44131"></trkpt>
      <trkpt lat="51.34354" lon="4.44104"></trkpt>
      <trkpt lat="51.34365" lon="4.44076"></trkpt>
      <trkpt lat="51.34376" lon="4.44050"></trkpt>
      <trkpt lat="51.34388" lon="4.44023"></trkpt>
      <trkpt lat="51.34399" lon="4.43997"></trkpt>
      <trkpt lat="51.34409" lon="4.43970"></trkpt>
      <trkpt lat="51.34415" lon="4.43940"></trkpt>
      <trkpt lat="51.34408" lon="4.43909"></trkpt>
      <trkpt lat="51.34400" lon="4.43879"></trkpt>
      <trkpt lat="51.34392" lon="4.43849"></trkpt>
      <trkpt lat="51.34384" lon="4.43817"></trkpt>
      <trkpt lat="51.34375" lon="4.43786"></trkpt>
      <trkpt lat="51.34367" lon="4.43754"></trkpt>
      <trkpt lat="51.34359" lon="4.43724"></trkpt>
      <trkpt lat="51.34350" lon="4.43696"></trkpt>
      <trkpt lat="51.34340" lon="4.43667"></trkpt>
      <trkpt lat="51.34331" lon="4.43635"></trkpt>
      <trkpt lat="51.34324" lon="4.43605"></trkpt>
      <trkpt lat="51.34315" lon="4.43576"></trkpt>
      <trkpt lat="51.34307" lon="4.43546"></trkpt>
      <trkpt lat="51.34298" lon="4.43517"></trkpt>
      <trkpt lat="51.34289" lon="4.43487"></trkpt>
      <trkpt lat="51.34281" lon="4.43457"></trkpt>
      <trkpt lat="51.34274" lon="4.43427"></trkpt>
      <trkpt lat="51.34284" lon="4.43405"></trkpt>
      <trkpt lat="51.34302" lon="4.43392"></trkpt>
      <trkpt lat="51.34314" lon="4.43382"></trkpt>
      <trkpt lat="51.34324" lon="4.43373"></trkpt>
      <trkpt lat="51.34337" lon="4.43370"></trkpt>
      <trkpt lat="51.34349" lon="4.43367"></trkpt>
      <trkpt lat="51.34358" lon="4.43360"></trkpt>
      <trkpt lat="51.34367" lon="4.43370"></trkpt>
      <trkpt lat="51.34372" lon="4.43389"></trkpt>
      <trkpt lat="51.34377" lon="4.43406"></trkpt>
      <trkpt lat="51.34382" lon="4.43425"></trkpt>
      <trkpt lat="51.34388" lon="4.43443"></trkpt>
      <trkpt lat="51.34394" lon="4.43462"></trkpt>
      <trkpt lat="51.34403" lon="4.43480"></trkpt>
      <trkpt lat="51.34416" lon="4.43482"></trkpt>
      <trkpt lat="51.34425" lon="4.43471"></trkpt>
      <trkpt lat="51.34436" lon="4.43462"></trkpt>
      <trkpt lat="51.34447" lon="4.43449"></trkpt>
      <trkpt lat="51.34457" lon="4.43438"></trkpt>
      <trkpt lat="51.34467" lon="4.43428"></trkpt>
      <trkpt lat="51.34477" lon="4.43416"></trkpt>
      <trkpt lat="51.34488" lon="4.43406"></trkpt>
      <trkpt lat="51.34498" lon="4.43398"></trkpt>
      <trkpt lat="51.34507" lon="4.43385"></trkpt>
      <trkpt lat="51.34509" lon="4.43365"></trkpt>
      <trkpt lat="51.34502" lon="4.43347"></trkpt>
      <trkpt lat="51.34493" lon="4.43323"></trkpt>
      <trkpt lat="51.34484" lon="4.43294"></trkpt>
      <trkpt lat="51.34475" lon="4.43265"></trkpt>
      <trkpt lat="51.34465" lon="4.43234"></trkpt>
      <trkpt lat="51.34455" lon="4.43204"></trkpt>
      <trkpt lat="51.34446" lon="4.43173"></trkpt>
      <trkpt lat="51.34440" lon="4.43142"></trkpt>
      <trkpt lat="51.34430" lon="4.43112"></trkpt>
      <trkpt lat="51.34420" lon="4.43083"></trkpt>
      <trkpt lat="51.34410" lon="4.43051"></trkpt>
      <trkpt lat="51.34401" lon="4.43021"></trkpt>
      <trkpt lat="51.34391" lon="4.42991"></trkpt>
      <trkpt lat="51.34382" lon="4.42961"></trkpt>
      <trkpt lat="51.34373" lon="4.42931"></trkpt>
      <trkpt lat="51.34364" lon="4.42901"></trkpt>
      <trkpt lat="51.34361" lon="4.42870"></trkpt>
      <trkpt lat="51.34375" lon="4.42844"></trkpt>
      <trkpt lat="51.34392" lon="4.42823"></trkpt>
      <trkpt lat="51.34406" lon="4.42796"></trkpt>
      <trkpt lat="51.34418" lon="4.42768"></trkpt>
      <trkpt lat="51.34434" lon="4.42748"></trkpt>
      <trkpt lat="51.34454" lon="4.42734"></trkpt>
      <trkpt lat="51.34474" lon="4.42723"></trkpt>
      <trkpt lat="51.34494" lon="4.42711"></trkpt>
      <trkpt lat="51.34514" lon="4.42699"></trkpt>
      <trkpt lat="51.34533" lon="4.42685"></trkpt>
      <trkpt lat="51.34553" lon="4.42672"></trkpt>
      <trkpt lat="51.34573" lon="4.42659"></trkpt>
      <trkpt lat="51.34591" lon="4.42645"></trkpt>
      <trkpt lat="51.34602" lon="4.42617"></trkpt>
      <trkpt lat="51.34607" lon="4.42585"></trkpt>
      <trkpt lat="51.34598" lon="4.42554"></trkpt>
      <trkpt lat="51.34589" lon="4.42523"></trkpt>
      <trkpt lat="51.34582" lon="4.42490"></trkpt>
      <trkpt lat="51.34573" lon="4.42460"></trkpt>
      <trkpt lat="51.34563" lon="4.42429"></trkpt>
      <trkpt lat="51.34554" lon="4.42397"></trkpt>
      <trkpt lat="51.34545" lon="4.42366"></trkpt>
      <trkpt lat="51.34537" lon="4.42335"></trkpt>
      <trkpt lat="51.34528" lon="4.42304"></trkpt>
      <trkpt lat="51.34517" lon="4.42276"></trkpt>
      <trkpt lat="51.34509" lon="4.42245"></trkpt>
      <trkpt lat="51.34502" lon="4.42213"></trkpt>
      <trkpt lat="51.34507" lon="4.42186"></trkpt>
      <trkpt lat="51.34524" lon="4.42166"></trkpt>
      <trkpt lat="51.34541" lon="4.42148"></trkpt>
      <trkpt lat="51.34556" lon="4.42164"></trkpt>
      <trkpt lat="51.34560" lon="4.42186"></trkpt>
      <trkpt lat="51.34560" lon="4.42189"></trkpt>
      <trkpt lat="51.34560" lon="4.42189"></trkpt>
      <trkpt lat="51.34560" lon="4.42188"></trkpt>
      <trkpt lat="51.34560" lon="4.42188"></trkpt>
      <trkpt lat="51.34560" lon="4.42188"></trkpt>
      <trkpt lat="51.34560" lon="4.42188"></trkpt>
      <trkpt lat="51.34560" lon="4.42188"></trkpt>
      <trkpt lat="51.34561" lon="4.42188"></trkpt>
      <trkpt lat="51.34561" lon="4.42188"></trkpt>
      <trkpt lat="51.34561" lon="4.42188"></trkpt>
      <trkpt lat="51.34561" lon="4.42188"></trkpt>
      <trkpt lat="51.34561" lon="4.42188"></trkpt>
      <trkpt lat="51.34561" lon="4.42188"></trkpt>
      <trkpt lat="51.34561" lon="4.42188"></trkpt>
      <trkpt lat="51.34561" lon="4.42187"></trkpt>
      <trkpt lat="51.34561" lon="4.42187"></trkpt>
      <trkpt lat="51.34561" lon="4.42187"></trkpt>
      <trkpt lat="51.34561" lon="4.42187"></trkpt>
      <trkpt lat="51.34561" lon="4.42187"></trkpt>
      <trkpt lat="51.34561" lon="4.42187"></trkpt>
      <trkpt lat="51.34561" lon="4.42187"></trkpt>
      <trkpt lat="51.34561" lon="4.42187"></trkpt>
      <trkpt lat="51.34561" lon="4.42187"></trkpt>
      <trkpt lat="51.34561" lon="4.42187"></trkpt>
      <trkpt lat="51.34561" lon="4.42187"></trkpt>
      <trkpt lat="51.34561" lon="4.42187"></trkpt>
      <trkpt lat="51.34561" lon="4.42186"></trkpt>
      <trkpt lat="51.34562" lon="4.42186"></trkpt>
      <trkpt lat="51.34562" lon="4.42186"></trkpt>
      <trkpt lat="51.34562" lon="4.42186"></trkpt>
      <trkpt lat="51.34562" lon="4.42186"></trkpt>
      <trkpt lat="51.34562" lon="4.42186"></trkpt>
      <trkpt lat="51.34562" lon="4.42186"></trkpt>
      <trkpt lat="51.34562" lon="4.42185"></trkpt>
      <trkpt lat="51.34563" lon="4.42178"></trkpt>
      <trkpt lat="51.34562" lon="4.42177"></trkpt>
      <trkpt lat="51.34562" lon="4.42177"></trkpt>
      <trkpt lat="51.34562" lon="4.42177"></trkpt>
      <trkpt lat="51.34562" lon="4.42176"></trkpt>
      <trkpt lat="51.34562" lon="4.42176"></trkpt>
      <trkpt lat="51.34561" lon="4.42176"></trkpt>
      <trkpt lat="51.34561" lon="4.42176"></trkpt>
      <trkpt lat="51.34561" lon="4.42175"></trkpt>
      <trkpt lat="51.34561" lon="4.42175"></trkpt>
      <trkpt lat="51.34560" lon="4.42173"></trkpt>
      <trkpt lat="51.34553" lon="4.42157"></trkpt>
      <trkpt lat="51.34546" lon="4.42146"></trkpt>
      <trkpt lat="51.34533" lon="4.42158"></trkpt>
      <trkpt lat="51.34516" lon="4.42176"></trkpt>
      <trkpt lat="51.34503" lon="4.42200"></trkpt>
      <trkpt lat="51.34509" lon="4.42233"></trkpt>
      <trkpt lat="51.34515" lon="4.42265"></trkpt>
      <trkpt lat="51.34525" lon="4.42292"></trkpt>
      <trkpt lat="51.34534" lon="4.42321"></trkpt>
      <trkpt lat="51.34542" lon="4.42352"></trkpt>
      <trkpt lat="51.34550" lon="4.42383"></trkpt>
      <trkpt lat="51.34558" lon="4.42414"></trkpt>
      <trkpt lat="51.34568" lon="4.42445"></trkpt>
      <trkpt lat="51.34578" lon="4.42475"></trkpt>
      <trkpt lat="51.34588" lon="4.42507"></trkpt>
      <trkpt lat="51.34596" lon="4.42539"></trkpt>
      <trkpt lat="51.34607" lon="4.42568"></trkpt>
      <trkpt lat="51.34619" lon="4.42590"></trkpt>
      <trkpt lat="51.34639" lon="4.42585"></trkpt>
      <trkpt lat="51.34649" lon="4.42562"></trkpt>
      <trkpt lat="51.34649" lon="4.42530"></trkpt>
      <trkpt lat="51.34649" lon="4.42497"></trkpt>
      <trkpt lat="51.34655" lon="4.42495"></trkpt>
      <trkpt lat="51.34659" lon="4.42528"></trkpt>
      <trkpt lat="51.34659" lon="4.42562"></trkpt>
      <trkpt lat="51.34657" lon="4.42594"></trkpt>
      <trkpt lat="51.34654" lon="4.42626"></trkpt>
      <trkpt lat="51.34650" lon="4.42657"></trkpt>
      <trkpt lat="51.34647" lon="4.42689"></trkpt>
      <trkpt lat="51.34643" lon="4.42720"></trkpt>
      <trkpt lat="51.34639" lon="4.42751"></trkpt>
      <trkpt lat="51.34638" lon="4.42786"></trkpt>
      <trkpt lat="51.34641" lon="4.42821"></trkpt>
      <trkpt lat="51.34652" lon="4.42850"></trkpt>
      <trkpt lat="51.34671" lon="4.42867"></trkpt>
      <trkpt lat="51.34690" lon="4.42879"></trkpt>
      <trkpt lat="51.34710" lon="4.42882"></trkpt>
      <trkpt lat="51.34730" lon="4.42881"></trkpt>
      <trkpt lat="51.34750" lon="4.42878"></trkpt>
      <trkpt lat="51.34771" lon="4.42879"></trkpt>
      <trkpt lat="51.34790" lon="4.42889"></trkpt>
      <trkpt lat="51.34806" lon="4.42907"></trkpt>
      <trkpt lat="51.34823" lon="4.42923"></trkpt>
      <trkpt lat="51.34837" lon="4.42933"></trkpt>
      <trkpt lat="51.34846" lon="4.42940"></trkpt>
      <trkpt lat="51.34854" lon="4.42950"></trkpt>
      <trkpt lat="51.34862" lon="4.42963"></trkpt>
      <trkpt lat="51.34870" lon="4.42976"></trkpt>
      <trkpt lat="51.34880" lon="4.42984"></trkpt>
      <trkpt lat="51.34892" lon="4.42987"></trkpt>
      <trkpt lat="51.34908" lon="4.42992"></trkpt>
      <trkpt lat="51.34925" lon="4.42997"></trkpt>
      <trkpt lat="51.34938" lon="4.42972"></trkpt>
      <trkpt lat="51.34952" lon="4.42943"></trkpt>
      <trkpt lat="51.34969" lon="4.42935"></trkpt>
      <trkpt lat="51.34988" lon="4.42951"></trkpt>
      <trkpt lat="51.35006" lon="4.42967"></trkpt>
      <trkpt lat="51.35023" lon="4.42985"></trkpt>
      <trkpt lat="51.35040" lon="4.43003"></trkpt>
      <trkpt lat="51.35058" lon="4.43021"></trkpt>
      <trkpt lat="51.35075" lon="4.43038"></trkpt>
      <trkpt lat="51.35093" lon="4.43054"></trkpt>
      <trkpt lat="51.35110" lon="4.43071"></trkpt>
      <trkpt lat="51.35126" lon="4.43090"></trkpt>
      <trkpt lat="51.35144" lon="4.43107"></trkpt>
      <trkpt lat="51.35161" lon="4.43126"></trkpt>
      <trkpt lat="51.35178" lon="4.43144"></trkpt>
      <trkpt lat="51.35194" lon="4.43162"></trkpt>
      <trkpt lat="51.35212" lon="4.43179"></trkpt>
      <trkpt lat="51.35230" lon="4.43196"></trkpt>
      <trkpt lat="51.35248" lon="4.43213"></trkpt>
      <trkpt lat="51.35265" lon="4.43230"></trkpt>
      <trkpt lat="51.35283" lon="4.43246"></trkpt>
      <trkpt lat="51.35301" lon="4.43263"></trkpt>
      <trkpt lat="51.35321" lon="4.43271"></trkpt>
      <trkpt lat="51.35335" lon="4.43250"></trkpt>
      <trkpt lat="51.35346" lon="4.43225"></trkpt>
      <trkpt lat="51.35358" lon="4.43196"></trkpt>
      <trkpt lat="51.35370" lon="4.43164"></trkpt>
      <trkpt lat="51.35379" lon="4.43132"></trkpt>
      <trkpt lat="51.35375" lon="4.43104"></trkpt>
      <trkpt lat="51.35369" lon="4.43076"></trkpt>
      <trkpt lat="51.35360" lon="4.43048"></trkpt>
      <trkpt lat="51.35345" lon="4.43036"></trkpt>
      <trkpt lat="51.35327" lon="4.43024"></trkpt>
      <trkpt lat="51.35321" lon="4.42995"></trkpt>
      <trkpt lat="51.35325" lon="4.42962"></trkpt>
      <trkpt lat="51.35332" lon="4.42932"></trkpt>
      <trkpt lat="51.35325" lon="4.42903"></trkpt>
      <trkpt lat="51.35327" lon="4.42875"></trkpt>
      <trkpt lat="51.35338" lon="4.42846"></trkpt>
      <trkpt lat="51.35349" lon="4.42818"></trkpt>
      <trkpt lat="51.35360" lon="4.42789"></trkpt>
      <trkpt lat="51.35371" lon="4.42759"></trkpt>
      <trkpt lat="51.35383" lon="4.42732"></trkpt>
      <trkpt lat="51.35394" lon="4.42705"></trkpt>
      <trkpt lat="51.35406" lon="4.42677"></trkpt>
      <trkpt lat="51.35418" lon="4.42649"></trkpt>
      <trkpt lat="51.35429" lon="4.42619"></trkpt>
      <trkpt lat="51.35441" lon="4.42592"></trkpt>
      <trkpt lat="51.35452" lon="4.42565"></trkpt>
      <trkpt lat="51.35464" lon="4.42537"></trkpt>
      <trkpt lat="51.35475" lon="4.42510"></trkpt>
      <trkpt lat="51.35485" lon="4.42481"></trkpt>
      <trkpt lat="51.35476" lon="4.42456"></trkpt>
      <trkpt lat="51.35459" lon="4.42436"></trkpt>
      <trkpt lat="51.35443" lon="4.42417"></trkpt>
      <trkpt lat="51.35426" lon="4.42398"></trkpt>
      <trkpt lat="51.35409" lon="4.42379"></trkpt>
      <trkpt lat="51.35391" lon="4.42363"></trkpt>
      <trkpt lat="51.35373" lon="4.42346"></trkpt>
      <trkpt lat="51.35355" lon="4.42328"></trkpt>
      <trkpt lat="51.35336" lon="4.42309"></trkpt>
      <trkpt lat="51.35317" lon="4.42291"></trkpt>
      <trkpt lat="51.35299" lon="4.42272"></trkpt>
      <trkpt lat="51.35282" lon="4.42251"></trkpt>
      <trkpt lat="51.35264" lon="4.42233"></trkpt>
      <trkpt lat="51.35247" lon="4.42214"></trkpt>
      <trkpt lat="51.35231" lon="4.42212"></trkpt>
      <trkpt lat="51.35214" lon="4.42223"></trkpt>
      <trkpt lat="51.35196" lon="4.42234"></trkpt>
      <trkpt lat="51.35178" lon="4.42247"></trkpt>
      <trkpt lat="51.35160" lon="4.42261"></trkpt>
      <trkpt lat="51.35145" lon="4.42271"></trkpt>
      <trkpt lat="51.35134" lon="4.42278"></trkpt>
      <trkpt lat="51.35121" lon="4.42287"></trkpt>
      <trkpt lat="51.35108" lon="4.42297"></trkpt>
      <trkpt lat="51.35092" lon="4.42306"></trkpt>
      <trkpt lat="51.35080" lon="4.42305"></trkpt>
      <trkpt lat="51.35075" lon="4.42290"></trkpt>
      <trkpt lat="51.35070" lon="4.42271"></trkpt>
      <trkpt lat="51.35065" lon="4.42252"></trkpt>
      <trkpt lat="51.35059" lon="4.42232"></trkpt>
      <trkpt lat="51.35054" lon="4.42212"></trkpt>
      <trkpt lat="51.35046" lon="4.42185"></trkpt>
      <trkpt lat="51.35037" lon="4.42154"></trkpt>
      <trkpt lat="51.35028" lon="4.42123"></trkpt>
      <trkpt lat="51.35019" lon="4.42092"></trkpt>
      <trkpt lat="51.35012" lon="4.42060"></trkpt>
      <trkpt lat="51.35005" lon="4.42029"></trkpt>
      <trkpt lat="51.34998" lon="4.41999"></trkpt>
      <trkpt lat="51.34991" lon="4.41967"></trkpt>
      <trkpt lat="51.34984" lon="4.41935"></trkpt>
      <trkpt lat="51.34975" lon="4.41903"></trkpt>
      <trkpt lat="51.34968" lon="4.41871"></trkpt>
      <trkpt lat="51.34960" lon="4.41844"></trkpt>
      <trkpt lat="51.34952" lon="4.41815"></trkpt>
      <trkpt lat="51.34944" lon="4.41785"></trkpt>
      <trkpt lat="51.34936" lon="4.41756"></trkpt>
      <trkpt lat="51.34921" lon="4.41753"></trkpt>
      <trkpt lat="51.34902" lon="4.41763"></trkpt>
      <trkpt lat="51.34883" lon="4.41771"></trkpt>
      <trkpt lat="51.34866" lon="4.41781"></trkpt>
      <trkpt lat="51.34847" lon="4.41791"></trkpt>
      <trkpt lat="51.34826" lon="4.41800"></trkpt>
      <trkpt lat="51.34806" lon="4.41811"></trkpt>
      <trkpt lat="51.34786" lon="4.41823"></trkpt>
      <trkpt lat="51.34774" lon="4.41839"></trkpt>
      <trkpt lat="51.34778" lon="4.41871"></trkpt>
      <trkpt lat="51.34783" lon="4.41904"></trkpt>
      <trkpt lat="51.34789" lon="4.41937"></trkpt>
      <trkpt lat="51.34797" lon="4.41969"></trkpt>
      <trkpt lat="51.34803" lon="4.42001"></trkpt>
      <trkpt lat="51.34811" lon="4.42033"></trkpt>
      <trkpt lat="51.34817" lon="4.42063"></trkpt>
      <trkpt lat="51.34822" lon="4.42095"></trkpt>
      <trkpt lat="51.34831" lon="4.42126"></trkpt>
      <trkpt lat="51.34837" lon="4.42158"></trkpt>
      <trkpt lat="51.34843" lon="4.42188"></trkpt>
      <trkpt lat="51.34849" lon="4.42219"></trkpt>
      <trkpt lat="51.34846" lon="4.42250"></trkpt>
      <trkpt lat="51.34830" lon="4.42263"></trkpt>
      <trkpt lat="51.34811" lon="4.42271"></trkpt>
      <trkpt lat="51.34799" lon="4.42276"></trkpt>
      <trkpt lat="51.34781" lon="4.42284"></trkpt>
      <trkpt lat="51.34762" lon="4.42291"></trkpt>
      <trkpt lat="51.34749" lon="4.42297"></trkpt>
      <trkpt lat="51.34738" lon="4.42301"></trkpt>
      <trkpt lat="51.34727" lon="4.42308"></trkpt>
      <trkpt lat="51.34718" lon="4.42313"></trkpt>
      <trkpt lat="51.34707" lon="4.42318"></trkpt>
      <trkpt lat="51.34695" lon="4.42329"></trkpt>
      <trkpt lat="51.34683" lon="4.42351"></trkpt>
      <trkpt lat="51.34673" lon="4.42377"></trkpt>
      <trkpt lat="51.34668" lon="4.42410"></trkpt>
      <trkpt lat="51.34664" lon="4.42443"></trkpt>
      <trkpt lat="51.34659" lon="4.42476"></trkpt>
      <trkpt lat="51.34654" lon="4.42497"></trkpt>
      <trkpt lat="51.34656" lon="4.42530"></trkpt>
      <trkpt lat="51.34653" lon="4.42563"></trkpt>
      <trkpt lat="51.34643" lon="4.42587"></trkpt>
      <trkpt lat="51.34623" lon="4.42591"></trkpt>
      <trkpt lat="51.34609" lon="4.42570"></trkpt>
      <trkpt lat="51.34597" lon="4.42541"></trkpt>
      <trkpt lat="51.34589" lon="4.42510"></trkpt>
      <trkpt lat="51.34580" lon="4.42477"></trkpt>
      <trkpt lat="51.34570" lon="4.42446"></trkpt>
      <trkpt lat="51.34561" lon="4.42414"></trkpt>
      <trkpt lat="51.34553" lon="4.42383"></trkpt>
      <trkpt lat="51.34545" lon="4.42352"></trkpt>
      <trkpt lat="51.34537" lon="4.42321"></trkpt>
      <trkpt lat="51.34527" lon="4.42292"></trkpt>
      <trkpt lat="51.34517" lon="4.42262"></trkpt>
      <trkpt lat="51.34509" lon="4.42231"></trkpt>
      <trkpt lat="51.34495" lon="4.42209"></trkpt>
      <trkpt lat="51.34476" lon="4.42222"></trkpt>
      <trkpt lat="51.34459" lon="4.42239"></trkpt>
      <trkpt lat="51.34443" lon="4.42255"></trkpt>
      <trkpt lat="51.34426" lon="4.42274"></trkpt>
      <trkpt lat="51.34407" lon="4.42294"></trkpt>
      <trkpt lat="51.34391" lon="4.42310"></trkpt>
      <trkpt lat="51.34374" lon="4.42327"></trkpt>
      <trkpt lat="51.34357" lon="4.42345"></trkpt>
      <trkpt lat="51.34339" lon="4.42364"></trkpt>
      <trkpt lat="51.34321" lon="4.42384"></trkpt>
      <trkpt lat="51.34304" lon="4.42402"></trkpt>
      <trkpt lat="51.34287" lon="4.42421"></trkpt>
      <trkpt lat="51.34268" lon="4.42440"></trkpt>
      <trkpt lat="51.34249" lon="4.42459"></trkpt>
      <trkpt lat="51.34229" lon="4.42478"></trkpt>
      <trkpt lat="51.34212" lon="4.42495"></trkpt>
      <trkpt lat="51.34194" lon="4.42511"></trkpt>
      <trkpt lat="51.34180" lon="4.42496"></trkpt>
      <trkpt lat="51.34171" lon="4.42464"></trkpt>
      <trkpt lat="51.34163" lon="4.42434"></trkpt>
      <trkpt lat="51.34156" lon="4.42404"></trkpt>
      <trkpt lat="51.34148" lon="4.42373"></trkpt>
      <trkpt lat="51.34138" lon="4.42342"></trkpt>
      <trkpt lat="51.34129" lon="4.42309"></trkpt>
      <trkpt lat="51.34120" lon="4.42275"></trkpt>
      <trkpt lat="51.34111" lon="4.42244"></trkpt>
      <trkpt lat="51.34102" lon="4.42213"></trkpt>
      <trkpt lat="51.34088" lon="4.42189"></trkpt>
      <trkpt lat="51.34069" lon="4.42193"></trkpt>
      <trkpt lat="51.34053" lon="4.42207"></trkpt>
      <trkpt lat="51.34035" lon="4.42221"></trkpt>
      <trkpt lat="51.34015" lon="4.42234"></trkpt>
      <trkpt lat="51.33995" lon="4.42249"></trkpt>
      <trkpt lat="51.33974" lon="4.42265"></trkpt>
      <trkpt lat="51.33955" lon="4.42278"></trkpt>
      <trkpt lat="51.33937" lon="4.42292"></trkpt>
      <trkpt lat="51.33918" lon="4.42307"></trkpt>
      <trkpt lat="51.33898" lon="4.42321"></trkpt>
      <trkpt lat="51.33888" lon="4.42347"></trkpt>
      <trkpt lat="51.33895" lon="4.42378"></trkpt>
      <trkpt lat="51.33902" lon="4.42408"></trkpt>
      <trkpt lat="51.33910" lon="4.42438"></trkpt>
      <trkpt lat="51.33918" lon="4.42468"></trkpt>
      <trkpt lat="51.33924" lon="4.42499"></trkpt>
      <trkpt lat="51.33932" lon="4.42529"></trkpt>
      <trkpt lat="51.33940" lon="4.42559"></trkpt>
      <trkpt lat="51.33947" lon="4.42590"></trkpt>
      <trkpt lat="51.33956" lon="4.42622"></trkpt>
      <trkpt lat="51.33962" lon="4.42654"></trkpt>
      <trkpt lat="51.33970" lon="4.42685"></trkpt>
      <trkpt lat="51.33980" lon="4.42717"></trkpt>
      <trkpt lat="51.33976" lon="4.42746"></trkpt>
      <trkpt lat="51.33957" lon="4.42764"></trkpt>
      <trkpt lat="51.33937" lon="4.42783"></trkpt>
      <trkpt lat="51.33920" lon="4.42800"></trkpt>
      <trkpt lat="51.33903" lon="4.42817"></trkpt>
      <trkpt lat="51.33884" lon="4.42836"></trkpt>
      <trkpt lat="51.33866" lon="4.42856"></trkpt>
      <trkpt lat="51.33849" lon="4.42875"></trkpt>
      <trkpt lat="51.33834" lon="4.42894"></trkpt>
      <trkpt lat="51.33816" lon="4.42911"></trkpt>
      <trkpt lat="51.33798" lon="4.42932"></trkpt>
      <trkpt lat="51.33780" lon="4.42950"></trkpt>
      <trkpt lat="51.33760" lon="4.42969"></trkpt>
      <trkpt lat="51.33741" lon="4.42988"></trkpt>
      <trkpt lat="51.33722" lon="4.43006"></trkpt>
      <trkpt lat="51.33711" lon="4.43035"></trkpt>
      <trkpt lat="51.33717" lon="4.43068"></trkpt>
      <trkpt lat="51.33727" lon="4.43097"></trkpt>
      <trkpt lat="51.33738" lon="4.43126"></trkpt>
      <trkpt lat="51.33748" lon="4.43155"></trkpt>
      <trkpt lat="51.33757" lon="4.43184"></trkpt>
      <trkpt lat="51.33768" lon="4.43213"></trkpt>
      <trkpt lat="51.33777" lon="4.43243"></trkpt>
      <trkpt lat="51.33786" lon="4.43275"></trkpt>
      <trkpt lat="51.33796" lon="4.43304"></trkpt>
      <trkpt lat="51.33804" lon="4.43335"></trkpt>
      <trkpt lat="51.33812" lon="4.43366"></trkpt>
      <trkpt lat="51.33822" lon="4.43394"></trkpt>
      <trkpt lat="51.33831" lon="4.43423"></trkpt>
      <trkpt lat="51.33824" lon="4.43447"></trkpt>
      <trkpt lat="51.33808" lon="4.43466"></trkpt>
      <trkpt lat="51.33792" lon="4.43482"></trkpt>
      <trkpt lat="51.33775" lon="4.43498"></trkpt>
      <trkpt lat="51.33758" lon="4.43516"></trkpt>
      <trkpt lat="51.33754" lon="4.43544"></trkpt>
      <trkpt lat="51.33762" lon="4.43571"></trkpt>
      <trkpt lat="51.33771" lon="4.43598"></trkpt>
      <trkpt lat="51.33779" lon="4.43627"></trkpt>
      <trkpt lat="51.33788" lon="4.43655"></trkpt>
      <trkpt lat="51.33797" lon="4.43685"></trkpt>
      <trkpt lat="51.33805" lon="4.43714"></trkpt>
      <trkpt lat="51.33815" lon="4.43746"></trkpt>
      <trkpt lat="51.33826" lon="4.43776"></trkpt>
      <trkpt lat="51.33835" lon="4.43806"></trkpt>
      <trkpt lat="51.33843" lon="4.43838"></trkpt>
      <trkpt lat="51.33852" lon="4.43869"></trkpt>
      <trkpt lat="51.33868" lon="4.43882"></trkpt>
      <trkpt lat="51.33889" lon="4.43867"></trkpt>
      <trkpt lat="51.33908" lon="4.43848"></trkpt>
      <trkpt lat="51.33928" lon="4.43828"></trkpt>
      <trkpt lat="51.33941" lon="4.43816"></trkpt>
      <trkpt lat="51.33951" lon="4.43809"></trkpt>
      <trkpt lat="51.33963" lon="4.43818"></trkpt>
      <trkpt lat="51.33973" lon="4.43842"></trkpt>
      <trkpt lat="51.33984" lon="4.43873"></trkpt>
      <trkpt lat="51.33993" lon="4.43904"></trkpt>
      <trkpt lat="51.34004" lon="4.43934"></trkpt>
      <trkpt lat="51.34016" lon="4.43965"></trkpt>
      <trkpt lat="51.34027" lon="4.43995"></trkpt>
      <trkpt lat="51.34037" lon="4.44025"></trkpt>
      <trkpt lat="51.34052" lon="4.44038"></trkpt>
      <trkpt lat="51.34069" lon="4.44023"></trkpt>
      <trkpt lat="51.34087" lon="4.44007"></trkpt>
      <trkpt lat="51.34102" lon="4.43989"></trkpt>
      <trkpt lat="51.34120" lon="4.43970"></trkpt>
      <trkpt lat="51.34139" lon="4.43954"></trkpt>
      <trkpt lat="51.34159" lon="4.43936"></trkpt>
      <trkpt lat="51.34179" lon="4.43923"></trkpt>
      <trkpt lat="51.34195" lon="4.43938"></trkpt>
      <trkpt lat="51.34205" lon="4.43968"></trkpt>
      <trkpt lat="51.34216" lon="4.43998"></trkpt>
      <trkpt lat="51.34228" lon="4.44029"></trkpt>
      <trkpt lat="51.34240" lon="4.44060"></trkpt>
      <trkpt lat="51.34250" lon="4.44089"></trkpt>
      <trkpt lat="51.34259" lon="4.44120"></trkpt>
      <trkpt lat="51.34270" lon="4.44151"></trkpt>
      <trkpt lat="51.34282" lon="4.44181"></trkpt>
      <trkpt lat="51.34294" lon="4.44209"></trkpt>
      <trkpt lat="51.34309" lon="4.44212"></trkpt>
      <trkpt lat="51.34322" lon="4.44184"></trkpt>
      <trkpt lat="51.34334" lon="4.44154"></trkpt>
      <trkpt lat="51.34345" lon="4.44126"></trkpt>
      <trkpt lat="51.34357" lon="4.44097"></trkpt>
      <trkpt lat="51.34369" lon="4.44069"></trkpt>
      <trkpt lat="51.34380" lon="4.44038"></trkpt>
      <trkpt lat="51.34393" lon="4.44009"></trkpt>
      <trkpt lat="51.34405" lon="4.43980"></trkpt>
      <trkpt lat="51.34416" lon="4.43951"></trkpt>
      <trkpt lat="51.34412" lon="4.43918"></trkpt>
      <trkpt lat="51.34404" lon="4.43887"></trkpt>
      <trkpt lat="51.34395" lon="4.43855"></trkpt>
      <trkpt lat="51.34386" lon="4.43823"></trkpt>
      <trkpt lat="51.34377" lon="4.43792"></trkpt>
      <trkpt lat="51.34368" lon="4.43761"></trkpt>
      <trkpt lat="51.34359" lon="4.43732"></trkpt>
      <trkpt lat="51.34350" lon="4.43700"></trkpt>
      <trkpt lat="51.34342" lon="4.43669"></trkpt>
      <trkpt lat="51.34334" lon="4.43638"></trkpt>
      <trkpt lat="51.34327" lon="4.43606"></trkpt>
      <trkpt lat="51.34317" lon="4.43576"></trkpt>
      <trkpt lat="51.34307" lon="4.43545"></trkpt>
      <trkpt lat="51.34298" lon="4.43514"></trkpt>
      <trkpt lat="51.34289" lon="4.43482"></trkpt>
      <trkpt lat="51.34279" lon="4.43451"></trkpt>
      <trkpt lat="51.34274" lon="4.43419"></trkpt>
      <trkpt lat="51.34289" lon="4.43401"></trkpt>
      <trkpt lat="51.34308" lon="4.43386"></trkpt>
      <trkpt lat="51.34328" lon="4.43373"></trkpt>
      <trkpt lat="51.34346" lon="4.43367"></trkpt>
      <trkpt lat="51.34358" lon="4.43362"></trkpt>
      <trkpt lat="51.34367" lon="4.43373"></trkpt>
      <trkpt lat="51.34375" lon="4.43400"></trkpt>
      <trkpt lat="51.34383" lon="4.43430"></trkpt>
      <trkpt lat="51.34391" lon="4.43462"></trkpt>
      <trkpt lat="51.34404" lon="4.43485"></trkpt>
      <trkpt lat="51.34424" lon="4.43476"></trkpt>
      <trkpt lat="51.34442" lon="4.43457"></trkpt>
      <trkpt lat="51.34461" lon="4.43437"></trkpt>
      <trkpt lat="51.34481" lon="4.43419"></trkpt>
      <trkpt lat="51.34501" lon="4.43400"></trkpt>
      <trkpt lat="51.34513" lon="4.43375"></trkpt>
      <trkpt lat="51.34507" lon="4.43342"></trkpt>
      <trkpt lat="51.34499" lon="4.43314"></trkpt>
      <trkpt lat="51.34489" lon="4.43287"></trkpt>
      <trkpt lat="51.34479" lon="4.43259"></trkpt>
      <trkpt lat="51.34470" lon="4.43229"></trkpt>
      <trkpt lat="51.34460" lon="4.43200"></trkpt>
      <trkpt lat="51.34451" lon="4.43172"></trkpt>
      <trkpt lat="51.34444" lon="4.43153"></trkpt>
      <trkpt lat="51.34440" lon="4.43138"></trkpt>
      <trkpt lat="51.34435" lon="4.43122"></trkpt>
      <trkpt lat="51.34430" lon="4.43107"></trkpt>
      <trkpt lat="51.34425" lon="4.43092"></trkpt>
      <trkpt lat="51.34419" lon="4.43075"></trkpt>
      <trkpt lat="51.34412" lon="4.43056"></trkpt>
      <trkpt lat="51.34404" lon="4.43034"></trkpt>
      <trkpt lat="51.34394" lon="4.43006"></trkpt>
      <trkpt lat="51.34385" lon="4.42976"></trkpt>
      <trkpt lat="51.34376" lon="4.42946"></trkpt>
      <trkpt lat="51.34366" lon="4.42915"></trkpt>
      <trkpt lat="51.34359" lon="4.42882"></trkpt>
      <trkpt lat="51.34368" lon="4.42852"></trkpt>
      <trkpt lat="51.34386" lon="4.42831"></trkpt>
      <trkpt lat="51.34403" lon="4.42807"></trkpt>
      <trkpt lat="51.34418" lon="4.42779"></trkpt>
      <trkpt lat="51.34434" lon="4.42756"></trkpt>
      <trkpt lat="51.34452" lon="4.42740"></trkpt>
      <trkpt lat="51.34472" lon="4.42725"></trkpt>
      <trkpt lat="51.34492" lon="4.42712"></trkpt>
      <trkpt lat="51.34513" lon="4.42699"></trkpt>
      <trkpt lat="51.34533" lon="4.42685"></trkpt>
      <trkpt lat="51.34554" lon="4.42672"></trkpt>
      <trkpt lat="51.34574" lon="4.42658"></trkpt>
      <trkpt lat="51.34594" lon="4.42641"></trkpt>
      <trkpt lat="51.34603" lon="4.42611"></trkpt>
      <trkpt lat="51.34618" lon="4.42589"></trkpt>
      <trkpt lat="51.34638" lon="4.42584"></trkpt>
      <trkpt lat="51.34647" lon="4.42560"></trkpt>
      <trkpt lat="51.34648" lon="4.42526"></trkpt>
      <trkpt lat="51.34649" lon="4.42494"></trkpt>
      <trkpt lat="51.34656" lon="4.42489"></trkpt>
      <trkpt lat="51.34658" lon="4.42491"></trkpt>
      <trkpt lat="51.34659" lon="4.42518"></trkpt>
      <trkpt lat="51.34658" lon="4.42553"></trkpt>
      <trkpt lat="51.34655" lon="4.42588"></trkpt>
      <trkpt lat="51.34651" lon="4.42621"></trkpt>
      <trkpt lat="51.34646" lon="4.42652"></trkpt>
      <trkpt lat="51.34641" lon="4.42687"></trkpt>
      <trkpt lat="51.34638" lon="4.42722"></trkpt>
      <trkpt lat="51.34633" lon="4.42755"></trkpt>
      <trkpt lat="51.34632" lon="4.42789"></trkpt>
      <trkpt lat="51.34636" lon="4.42825"></trkpt>
      <trkpt lat="51.34647" lon="4.42853"></trkpt>
      <trkpt lat="51.34664" lon="4.42870"></trkpt>
      <trkpt lat="51.34684" lon="4.42882"></trkpt>
      <trkpt lat="51.34705" lon="4.42885"></trkpt>
      <trkpt lat="51.34726" lon="4.42883"></trkpt>
      <trkpt lat="51.34747" lon="4.42881"></trkpt>
      <trkpt lat="51.34766" lon="4.42881"></trkpt>
      <trkpt lat="51.34785" lon="4.42891"></trkpt>
      <trkpt lat="51.34805" lon="4.42908"></trkpt>
      <trkpt lat="51.34825" lon="4.42921"></trkpt>
      <trkpt lat="51.34844" lon="4.42937"></trkpt>
      <trkpt lat="51.34860" lon="4.42959"></trkpt>
      <trkpt lat="51.34876" lon="4.42982"></trkpt>
      <trkpt lat="51.34898" lon="4.42989"></trkpt>
      <trkpt lat="51.34920" lon="4.42998"></trkpt>
      <trkpt lat="51.34936" lon="4.42979"></trkpt>
      <trkpt lat="51.34948" lon="4.42953"></trkpt>
      <trkpt lat="51.34965" lon="4.42937"></trkpt>
      <trkpt lat="51.34985" lon="4.42949"></trkpt>
      <trkpt lat="51.35002" lon="4.42965"></trkpt>
      <trkpt lat="51.35020" lon="4.42982"></trkpt>
      <trkpt lat="51.35037" lon="4.43002"></trkpt>
      <trkpt lat="51.35055" lon="4.43018"></trkpt>
      <trkpt lat="51.35074" lon="4.43035"></trkpt>
      <trkpt lat="51.35092" lon="4.43052"></trkpt>
      <trkpt lat="51.35110" lon="4.43070"></trkpt>
      <trkpt lat="51.35128" lon="4.43088"></trkpt>
      <trkpt lat="51.35145" lon="4.43106"></trkpt>
      <trkpt lat="51.35164" lon="4.43121"></trkpt>
      <trkpt lat="51.35181" lon="4.43139"></trkpt>
      <trkpt lat="51.35199" lon="4.43157"></trkpt>
      <trkpt lat="51.35218" lon="4.43175"></trkpt>
      <trkpt lat="51.35237" lon="4.43192"></trkpt>
      <trkpt lat="51.35257" lon="4.43209"></trkpt>
      <trkpt lat="51.35275" lon="4.43227"></trkpt>
      <trkpt lat="51.35294" lon="4.43246"></trkpt>
      <trkpt lat="51.35311" lon="4.43263"></trkpt>
      <trkpt lat="51.35329" lon="4.43263"></trkpt>
      <trkpt lat="51.35343" lon="4.43240"></trkpt>
      <trkpt lat="51.35356" lon="4.43210"></trkpt>
      <trkpt lat="51.35369" lon="4.43179"></trkpt>
      <trkpt lat="51.35381" lon="4.43149"></trkpt>
      <trkpt lat="51.35383" lon="4.43118"></trkpt>
      <trkpt lat="51.35375" lon="4.43086"></trkpt>
      <trkpt lat="51.35367" lon="4.43056"></trkpt>
      <trkpt lat="51.35353" lon="4.43036"></trkpt>
      <trkpt lat="51.35335" lon="4.43028"></trkpt>
      <trkpt lat="51.35326" lon="4.43002"></trkpt>
      <trkpt lat="51.35328" lon="4.42969"></trkpt>
      <trkpt lat="51.35335" lon="4.42937"></trkpt>
      <trkpt lat="51.35329" lon="4.42907"></trkpt>
      <trkpt lat="51.35327" lon="4.42880"></trkpt>
      <trkpt lat="51.35338" lon="4.42854"></trkpt>
      <trkpt lat="51.35349" lon="4.42826"></trkpt>
      <trkpt lat="51.35360" lon="4.42798"></trkpt>
      <trkpt lat="51.35373" lon="4.42771"></trkpt>
      <trkpt lat="51.35386" lon="4.42742"></trkpt>
      <trkpt lat="51.35399" lon="4.42711"></trkpt>
      <trkpt lat="51.35411" lon="4.42681"></trkpt>
      <trkpt lat="51.35424" lon="4.42651"></trkpt>
      <trkpt lat="51.35435" lon="4.42620"></trkpt>
      <trkpt lat="51.35447" lon="4.42593"></trkpt>
      <trkpt lat="51.35458" lon="4.42565"></trkpt>
      <trkpt lat="51.35469" lon="4.42537"></trkpt>
      <trkpt lat="51.35480" lon="4.42506"></trkpt>
      <trkpt lat="51.35485" lon="4.42474"></trkpt>
      <trkpt lat="51.35470" lon="4.42449"></trkpt>
      <trkpt lat="51.35452" lon="4.42430"></trkpt>
      <trkpt lat="51.35435" lon="4.42411"></trkpt>
      <trkpt lat="51.35417" lon="4.42392"></trkpt>
      <trkpt lat="51.35398" lon="4.42373"></trkpt>
      <trkpt lat="51.35380" lon="4.42355"></trkpt>
      <trkpt lat="51.35362" lon="4.42336"></trkpt>
      <trkpt lat="51.35342" lon="4.42318"></trkpt>
      <trkpt lat="51.35323" lon="4.42299"></trkpt>
      <trkpt lat="51.35305" lon="4.42277"></trkpt>
      <trkpt lat="51.35283" lon="4.42258"></trkpt>
      <trkpt lat="51.35262" lon="4.42236"></trkpt>
      <trkpt lat="51.35245" lon="4.42216"></trkpt>
      <trkpt lat="51.35226" lon="4.42214"></trkpt>
      <trkpt lat="51.35204" lon="4.42226"></trkpt>
      <trkpt lat="51.35185" lon="4.42238"></trkpt>
      <trkpt lat="51.35167" lon="4.42252"></trkpt>
      <trkpt lat="51.35146" lon="4.42268"></trkpt>
      <trkpt lat="51.35125" lon="4.42281"></trkpt>
      <trkpt lat="51.35107" lon="4.42291"></trkpt>
      <trkpt lat="51.35088" lon="4.42304"></trkpt>
      <trkpt lat="51.35070" lon="4.42297"></trkpt>
      <trkpt lat="51.35062" lon="4.42265"></trkpt>
      <trkpt lat="51.35054" lon="4.42232"></trkpt>
      <trkpt lat="51.35046" lon="4.42200"></trkpt>
      <trkpt lat="51.35037" lon="4.42167"></trkpt>
      <trkpt lat="51.35029" lon="4.42134"></trkpt>
      <trkpt lat="51.35020" lon="4.42102"></trkpt>
      <trkpt lat="51.35011" lon="4.42070"></trkpt>
      <trkpt lat="51.35004" lon="4.42038"></trkpt>
      <trkpt lat="51.34997" lon="4.42004"></trkpt>
      <trkpt lat="51.34990" lon="4.41971"></trkpt>
      <trkpt lat="51.34982" lon="4.41939"></trkpt>
      <trkpt lat="51.34975" lon="4.41907"></trkpt>
      <trkpt lat="51.34968" lon="4.41875"></trkpt>
      <trkpt lat="51.34960" lon="4.41844"></trkpt>
      <trkpt lat="51.34955" lon="4.41826"></trkpt>
      <trkpt lat="51.34955" lon="4.41822"></trkpt>
      <trkpt lat="51.34949" lon="4.41796"></trkpt>
      <trkpt lat="51.34941" lon="4.41766"></trkpt>
      <trkpt lat="51.34929" lon="4.41750"></trkpt>
      <trkpt lat="51.34910" lon="4.41758"></trkpt>
      <trkpt lat="51.34888" lon="4.41769"></trkpt>
      <trkpt lat="51.34869" lon="4.41781"></trkpt>
      <trkpt lat="51.34849" lon="4.41790"></trkpt>
      <trkpt lat="51.34829" lon="4.41801"></trkpt>
      <trkpt lat="51.34809" lon="4.41812"></trkpt>
      <trkpt lat="51.34787" lon="4.41823"></trkpt>
      <trkpt lat="51.34765" lon="4.41837"></trkpt>
      <trkpt lat="51.34762" lon="4.41862"></trkpt>
      <trkpt lat="51.34768" lon="4.41890"></trkpt>
      <trkpt lat="51.34776" lon="4.41922"></trkpt>
      <trkpt lat="51.34785" lon="4.41955"></trkpt>
      <trkpt lat="51.34792" lon="4.41988"></trkpt>
      <trkpt lat="51.34801" lon="4.42020"></trkpt>
      <trkpt lat="51.34810" lon="4.42049"></trkpt>
      <trkpt lat="51.34818" lon="4.42080"></trkpt>
      <trkpt lat="51.34828" lon="4.42112"></trkpt>
      <trkpt lat="51.34837" lon="4.42143"></trkpt>
      <trkpt lat="51.34844" lon="4.42172"></trkpt>
      <trkpt lat="51.34850" lon="4.42202"></trkpt>
      <trkpt lat="51.34852" lon="4.42232"></trkpt>
      <trkpt lat="51.34839" lon="4.42256"></trkpt>
      <trkpt lat="51.34816" lon="4.42266"></trkpt>
      <trkpt lat="51.34793" lon="4.42273"></trkpt>
      <trkpt lat="51.34771" lon="4.42282"></trkpt>
      <trkpt lat="51.34749" lon="4.42290"></trkpt>
      <trkpt lat="51.34729" lon="4.42299"></trkpt>
      <trkpt lat="51.34709" lon="4.42311"></trkpt>
      <trkpt lat="51.34690" lon="4.42327"></trkpt>
      <trkpt lat="51.34676" lon="4.42350"></trkpt>
      <trkpt lat="51.34665" lon="4.42379"></trkpt>
      <trkpt lat="51.34662" lon="4.42411"></trkpt>
      <trkpt lat="51.34660" lon="4.42446"></trkpt>
      <trkpt lat="51.34653" lon="4.42478"></trkpt>
      <trkpt lat="51.34648" lon="4.42500"></trkpt>
      <trkpt lat="51.34649" lon="4.42535"></trkpt>
      <trkpt lat="51.34646" lon="4.42569"></trkpt>
      <trkpt lat="51.34633" lon="4.42587"></trkpt>
      <trkpt lat="51.34612" lon="4.42587"></trkpt>
      <trkpt lat="51.34599" lon="4.42561"></trkpt>
      <trkpt lat="51.34588" lon="4.42529"></trkpt>
      <trkpt lat="51.34578" lon="4.42495"></trkpt>
      <trkpt lat="51.34568" lon="4.42462"></trkpt>
      <trkpt lat="51.34560" lon="4.42428"></trkpt>
      <trkpt lat="51.34553" lon="4.42394"></trkpt>
      <trkpt lat="51.34545" lon="4.42361"></trkpt>
      <trkpt lat="51.34536" lon="4.42327"></trkpt>
      <trkpt lat="51.34526" lon="4.42295"></trkpt>
      <trkpt lat="51.34515" lon="4.42264"></trkpt>
      <trkpt lat="51.34508" lon="4.42229"></trkpt>
      <trkpt lat="51.34492" lon="4.42211"></trkpt>
      <trkpt lat="51.34472" lon="4.42226"></trkpt>
      <trkpt lat="51.34453" lon="4.42245"></trkpt>
      <trkpt lat="51.34435" lon="4.42264"></trkpt>
      <trkpt lat="51.34416" lon="4.42282"></trkpt>
      <trkpt lat="51.34398" lon="4.42299"></trkpt>
      <trkpt lat="51.34379" lon="4.42319"></trkpt>
      <trkpt lat="51.34358" lon="4.42340"></trkpt>
      <trkpt lat="51.34337" lon="4.42364"></trkpt>
      <trkpt lat="51.34315" lon="4.42387"></trkpt>
      <trkpt lat="51.34295" lon="4.42408"></trkpt>
      <trkpt lat="51.34274" lon="4.42430"></trkpt>
      <trkpt lat="51.34251" lon="4.42454"></trkpt>
      <trkpt lat="51.34227" lon="4.42478"></trkpt>
      <trkpt lat="51.34205" lon="4.42503"></trkpt>
      <trkpt lat="51.34181" lon="4.42529"></trkpt>
      <trkpt lat="51.34157" lon="4.42553"></trkpt>
      <trkpt lat="51.34143" lon="4.42567"></trkpt>
    </trkseg>
  </trk>
</gpx>