<?xml version="1.0" encoding="UTF-8"?>
<gpx version="1.1" creator="jeffry.running" xmlns="http://www.topografix.com/GPX/1/1">
  <metadata><time>2026-07-31T06:51:46.081Z</time></metadata>
  <trk>
    <trkseg>
      <trkpt lat="51.29259" lon="4.84874"></trkpt>
      <trkpt lat="51.29249" lon="4.84865"></trkpt>
      <trkpt lat="51.29244" lon="4.84860"></trkpt>
      <trkpt lat="51.29241" lon="4.84856"></trkpt>
      <trkpt lat="51.29236" lon="4.84849"></trkpt>
      <trkpt lat="51.29232" lon="4.84844"></trkpt>
      <trkpt lat="51.29228" lon="4.84841"></trkpt>
      <trkpt lat="51.29224" lon="4.84837"></trkpt>
      <trkpt lat="51.29220" lon="4.84832"></trkpt>
      <trkpt lat="51.29217" lon="4.84828"></trkpt>
      <trkpt lat="51.29214" lon="4.84823"></trkpt>
      <trkpt lat="51.29212" lon="4.84818"></trkpt>
      <trkpt lat="51.29209" lon="4.84813"></trkpt>
      <trkpt lat="51.29206" lon="4.84807"></trkpt>
      <trkpt lat="51.29204" lon="4.84802"></trkpt>
      <trkpt lat="51.29201" lon="4.84798"></trkpt>
      <trkpt lat="51.29198" lon="4.84794"></trkpt>
      <trkpt lat="51.29195" lon="4.84789"></trkpt>
      <trkpt lat="51.29192" lon="4.84783"></trkpt>
      <trkpt lat="51.29189" lon="4.84778"></trkpt>
      <trkpt lat="51.29186" lon="4.84773"></trkpt>
      <trkpt lat="51.29183" lon="4.84768"></trkpt>
      <trkpt lat="51.29179" lon="4.84763"></trkpt>
      <trkpt lat="51.29175" lon="4.84759"></trkpt>
      <trkpt lat="51.29172" lon="4.84754"></trkpt>
      <trkpt lat="51.29169" lon="4.84750"></trkpt>
      <trkpt lat="51.29167" lon="4.84746"></trkpt>
      <trkpt lat="51.29164" lon="4.84741"></trkpt>
      <trkpt lat="51.29161" lon="4.84737"></trkpt>
      <trkpt lat="51.29159" lon="4.84733"></trkpt>
      <trkpt lat="51.29156" lon="4.84729"></trkpt>
      <trkpt lat="51.29153" lon="4.84724"></trkpt>
      <trkpt lat="51.29149" lon="4.84719"></trkpt>
      <trkpt lat="51.29146" lon="4.84713"></trkpt>
      <trkpt lat="51.29143" lon="4.84707"></trkpt>
      <trkpt lat="51.29140" lon="4.84702"></trkpt>
      <trkpt lat="51.29137" lon="4.84698"></trkpt>
      <trkpt lat="51.29134" lon="4.84694"></trkpt>
      <trkpt lat="51.29132" lon="4.84690"></trkpt>
      <trkpt lat="51.29129" lon="4.84686"></trkpt>
      <trkpt lat="51.29126" lon="4.84682"></trkpt>
      <trkpt lat="51.29123" lon="4.84678"></trkpt>
      <trkpt lat="51.29120" lon="4.84673"></trkpt>
      <trkpt lat="51.29117" lon="4.84669"></trkpt>
      <trkpt lat="51.29114" lon="4.84664"></trkpt>
      <trkpt lat="51.29112" lon="4.84659"></trkpt>
      <trkpt lat="51.29110" lon="4.84653"></trkpt>
      <trkpt lat="51.29110" lon="4.84647"></trkpt>
      <trkpt lat="51.29113" lon="4.84641"></trkpt>
      <trkpt lat="51.29117" lon="4.84637"></trkpt>
      <trkpt lat="51.29120" lon="4.84633"></trkpt>
      <trkpt lat="51.29123" lon="4.84629"></trkpt>
      <trkpt lat="51.29126" lon="4.84623"></trkpt>
      <trkpt lat="51.29129" lon="4.84618"></trkpt>
      <trkpt lat="51.29132" lon="4.84614"></trkpt>
      <trkpt lat="51.29136" lon="4.84610"></trkpt>
      <trkpt lat="51.29139" lon="4.84608"></trkpt>
      <trkpt lat="51.29142" lon="4.84604"></trkpt>
      <trkpt lat="51.29145" lon="4.84600"></trkpt>
      <trkpt lat="51.29149" lon="4.84596"></trkpt>
      <trkpt lat="51.29152" lon="4.84591"></trkpt>
      <trkpt lat="51.29156" lon="4.84586"></trkpt>
      <trkpt lat="51.29159" lon="4.84582"></trkpt>
      <trkpt lat="51.29162" lon="4.84579"></trkpt>
      <trkpt lat="51.29166" lon="4.84574"></trkpt>
      <trkpt lat="51.29168" lon="4.84569"></trkpt>
      <trkpt lat="51.29171" lon="4.84565"></trkpt>
      <trkpt lat="51.29174" lon="4.84561"></trkpt>
      <trkpt lat="51.29177" lon="4.84557"></trkpt>
      <trkpt lat="51.29181" lon="4.84553"></trkpt>
      <trkpt lat="51.29184" lon="4.84548"></trkpt>
      <trkpt lat="51.29187" lon="4.84543"></trkpt>
      <trkpt lat="51.29190" lon="4.84538"></trkpt>
      <trkpt lat="51.29192" lon="4.84532"></trkpt>
      <trkpt lat="51.29193" lon="4.84527"></trkpt>
      <trkpt lat="51.29192" lon="4.84522"></trkpt>
      <trkpt lat="51.29191" lon="4.84518"></trkpt>
      <trkpt lat="51.29189" lon="4.84514"></trkpt>
      <trkpt lat="51.29186" lon="4.84512"></trkpt>
      <trkpt lat="51.29182" lon="4.84509"></trkpt>
      <trkpt lat="51.29179" lon="4.84506"></trkpt>
      <trkpt lat="51.29175" lon="4.84503"></trkpt>
      <trkpt lat="51.29171" lon="4.84502"></trkpt>
      <trkpt lat="51.29167" lon="4.84500"></trkpt>
      <trkpt lat="51.29164" lon="4.84497"></trkpt>
      <trkpt lat="51.29160" lon="4.84494"></trkpt>
      <trkpt lat="51.29158" lon="4.84489"></trkpt>
      <trkpt lat="51.29156" lon="4.84484"></trkpt>
      <trkpt lat="51.29154" lon="4.84480"></trkpt>
      <trkpt lat="51.29151" lon="4.84475"></trkpt>
      <trkpt lat="51.29149" lon="4.84470"></trkpt>
      <trkpt lat="51.29146" lon="4.84465"></trkpt>
      <trkpt lat="51.29143" lon="4.84460"></trkpt>
      <trkpt lat="51.29141" lon="4.84456"></trkpt>
      <trkpt lat="51.29139" lon="4.84451"></trkpt>
      <trkpt lat="51.29136" lon="4.84446"></trkpt>
      <trkpt lat="51.29133" lon="4.84442"></trkpt>
      <trkpt lat="51.29130" lon="4.84439"></trkpt>
      <trkpt lat="51.29127" lon="4.84435"></trkpt>
      <trkpt lat="51.29124" lon="4.84430"></trkpt>
      <trkpt lat="51.29121" lon="4.84425"></trkpt>
      <trkpt lat="51.29118" lon="4.84421"></trkpt>
      <trkpt lat="51.29114" lon="4.84416"></trkpt>
      <trkpt lat="51.29111" lon="4.84412"></trkpt>
      <trkpt lat="51.29108" lon="4.84408"></trkpt>
      <trkpt lat="51.29104" lon="4.84404"></trkpt>
      <trkpt lat="51.29100" lon="4.84401"></trkpt>
      <trkpt lat="51.29097" lon="4.84397"></trkpt>
      <trkpt lat="51.29095" lon="4.84391"></trkpt>
      <trkpt lat="51.29093" lon="4.84386"></trkpt>
      <trkpt lat="51.29090" lon="4.84380"></trkpt>
      <trkpt lat="51.29087" lon="4.84374"></trkpt>
      <trkpt lat="51.29084" lon="4.84369"></trkpt>
      <trkpt lat="51.29081" lon="4.84365"></trkpt>
      <trkpt lat="51.29077" lon="4.84361"></trkpt>
      <trkpt lat="51.29073" lon="4.84357"></trkpt>
      <trkpt lat="51.29069" lon="4.84353"></trkpt>
      <trkpt lat="51.29066" lon="4.84350"></trkpt>
      <trkpt lat="51.29063" lon="4.84344"></trkpt>
      <trkpt lat="51.29061" lon="4.84338"></trkpt>
      <trkpt lat="51.29058" lon="4.84332"></trkpt>
      <trkpt lat="51.29055" lon="4.84327"></trkpt>
      <trkpt lat="51.29052" lon="4.84323"></trkpt>
      <trkpt lat="51.29050" lon="4.84318"></trkpt>
      <trkpt lat="51.29047" lon="4.84313"></trkpt>
      <trkpt lat="51.29045" lon="4.84308"></trkpt>
      <trkpt lat="51.29043" lon="4.84303"></trkpt>
      <trkpt lat="51.29041" lon="4.84298"></trkpt>
      <trkpt lat="51.29038" lon="4.84294"></trkpt>
      <trkpt lat="51.29035" lon="4.84289"></trkpt>
      <trkpt lat="51.29033" lon="4.84284"></trkpt>
      <trkpt lat="51.29031" lon="4.84278"></trkpt>
      <trkpt lat="51.29029" lon="4.84274"></trkpt>
      <trkpt lat="51.29026" lon="4.84271"></trkpt>
      <trkpt lat="51.29022" lon="4.84269"></trkpt>
      <trkpt lat="51.29018" lon="4.84266"></trkpt>
      <trkpt lat="51.29014" lon="4.84261"></trkpt>
      <trkpt lat="51.29012" lon="4.84257"></trkpt>
      <trkpt lat="51.29010" lon="4.84252"></trkpt>
      <trkpt lat="51.29008" lon="4.84247"></trkpt>
      <trkpt lat="51.29005" lon="4.84243"></trkpt>
      <trkpt lat="51.29002" lon="4.84239"></trkpt>
      <trkpt lat="51.28998" lon="4.84236"></trkpt>
      <trkpt lat="51.28995" lon="4.84233"></trkpt>
      <trkpt lat="51.28991" lon="4.84231"></trkpt>
      <trkpt lat="51.28988" lon="4.84228"></trkpt>
      <trkpt lat="51.28984" lon="4.84226"></trkpt>
      <trkpt lat="51.28980" lon="4.84223"></trkpt>
      <trkpt lat="51.28976" lon="4.84221"></trkpt>
      <trkpt lat="51.28973" lon="4.84218"></trkpt>
      <trkpt lat="51.28969" lon="4.84215"></trkpt>
      <trkpt lat="51.28965" lon="4.84214"></trkpt>
      <trkpt lat="51.28961" lon="4.84213"></trkpt>
      <trkpt lat="51.28957" lon="4.84212"></trkpt>
      <trkpt lat="51.28954" lon="4.84210"></trkpt>
      <trkpt lat="51.28950" lon="4.84207"></trkpt>
      <trkpt lat="51.28946" lon="4.84204"></trkpt>
      <trkpt lat="51.28942" lon="4.84201"></trkpt>
      <trkpt lat="51.28938" lon="4.84199"></trkpt>
      <trkpt lat="51.28934" lon="4.84196"></trkpt>
      <trkpt lat="51.28930" lon="4.84193"></trkpt>
      <trkpt lat="51.28926" lon="4.84191"></trkpt>
      <trkpt lat="51.28923" lon="4.84188"></trkpt>
      <trkpt lat="51.28919" lon="4.84184"></trkpt>
      <trkpt lat="51.28915" lon="4.84180"></trkpt>
      <trkpt lat="51.28912" lon="4.84176"></trkpt>
      <trkpt lat="51.28909" lon="4.84172"></trkpt>
      <trkpt lat="51.28907" lon="4.84169"></trkpt>
      <trkpt lat="51.28906" lon="4.84167"></trkpt>
      <trkpt lat="51.28904" lon="4.84164"></trkpt>
      <trkpt lat="51.28901" lon="4.84162"></trkpt>
      <trkpt lat="51.28897" lon="4.84160"></trkpt>
      <trkpt lat="51.28893" lon="4.84159"></trkpt>
      <trkpt lat="51.28889" lon="4.84157"></trkpt>
      <trkpt lat="51.28886" lon="4.84156"></trkpt>
      <trkpt lat="51.28885" lon="4.84154"></trkpt>
      <trkpt lat="51.28882" lon="4.84154"></trkpt>
      <trkpt lat="51.28878" lon="4.84154"></trkpt>
      <trkpt lat="51.28874" lon="4.84153"></trkpt>
      <trkpt lat="51.28870" lon="4.84151"></trkpt>
      <trkpt lat="51.28866" lon="4.84150"></trkpt>
      <trkpt lat="51.28862" lon="4.84147"></trkpt>
      <trkpt lat="51.28858" lon="4.84144"></trkpt>
      <trkpt lat="51.28854" lon="4.84141"></trkpt>
      <trkpt lat="51.28851" lon="4.84138"></trkpt>
      <trkpt lat="51.28847" lon="4.84134"></trkpt>
      <trkpt lat="51.28844" lon="4.84131"></trkpt>
      <trkpt lat="51.28840" lon="4.84128"></trkpt>
      <trkpt lat="51.28836" lon="4.84124"></trkpt>
      <trkpt lat="51.28833" lon="4.84120"></trkpt>
      <trkpt lat="51.28829" lon="4.84118"></trkpt>
      <trkpt lat="51.28825" lon="4.84115"></trkpt>
      <trkpt lat="51.28821" lon="4.84112"></trkpt>
      <trkpt lat="51.28817" lon="4.84108"></trkpt>
      <trkpt lat="51.28813" lon="4.84106"></trkpt>
      <trkpt lat="51.28809" lon="4.84103"></trkpt>
      <trkpt lat="51.28805" lon="4.84101"></trkpt>
      <trkpt lat="51.28801" lon="4.84099"></trkpt>
      <trkpt lat="51.28797" lon="4.84097"></trkpt>
      <trkpt lat="51.28793" lon="4.84093"></trkpt>
      <trkpt lat="51.28790" lon="4.84091"></trkpt>
      <trkpt lat="51.28786" lon="4.84087"></trkpt>
      <trkpt lat="51.28783" lon="4.84084"></trkpt>
      <trkpt lat="51.28779" lon="4.84081"></trkpt>
      <trkpt lat="51.28777" lon="4.84077"></trkpt>
      <trkpt lat="51.28774" lon="4.84072"></trkpt>
      <trkpt lat="51.28771" lon="4.84067"></trkpt>
      <trkpt lat="51.28768" lon="4.84062"></trkpt>
      <trkpt lat="51.28764" lon="4.84058"></trkpt>
      <trkpt lat="51.28761" lon="4.84054"></trkpt>
      <trkpt lat="51.28757" lon="4.84050"></trkpt>
      <trkpt lat="51.28755" lon="4.84045"></trkpt>
      <trkpt lat="51.28753" lon="4.84040"></trkpt>
      <trkpt lat="51.28751" lon="4.84035"></trkpt>
      <trkpt lat="51.28749" lon="4.84030"></trkpt>
      <trkpt lat="51.28747" lon="4.84025"></trkpt>
      <trkpt lat="51.28744" lon="4.84019"></trkpt>
      <trkpt lat="51.28742" lon="4.84014"></trkpt>
      <trkpt lat="51.28739" lon="4.84009"></trkpt>
      <trkpt lat="51.28737" lon="4.84003"></trkpt>
      <trkpt lat="51.28735" lon="4.83997"></trkpt>
      <trkpt lat="51.28733" lon="4.83992"></trkpt>
      <trkpt lat="51.28731" lon="4.83987"></trkpt>
      <trkpt lat="51.28729" lon="4.83982"></trkpt>
      <trkpt lat="51.28726" lon="4.83976"></trkpt>
      <trkpt lat="51.28724" lon="4.83971"></trkpt>
      <trkpt lat="51.28724" lon="4.83965"></trkpt>
      <trkpt lat="51.28725" lon="4.83959"></trkpt>
      <trkpt lat="51.28728" lon="4.83955"></trkpt>
      <trkpt lat="51.28731" lon="4.83952"></trkpt>
      <trkpt lat="51.28733" lon="4.83948"></trkpt>
      <trkpt lat="51.28737" lon="4.83942"></trkpt>
      <trkpt lat="51.28741" lon="4.83937"></trkpt>
      <trkpt lat="51.28744" lon="4.83932"></trkpt>
      <trkpt lat="51.28747" lon="4.83927"></trkpt>
      <trkpt lat="51.28750" lon="4.83923"></trkpt>
      <trkpt lat="51.28753" lon="4.83920"></trkpt>
      <trkpt lat="51.28757" lon="4.83917"></trkpt>
      <trkpt lat="51.28761" lon="4.83913"></trkpt>
      <trkpt lat="51.28765" lon="4.83908"></trkpt>
      <trkpt lat="51.28768" lon="4.83904"></trkpt>
      <trkpt lat="51.28771" lon="4.83899"></trkpt>
      <trkpt lat="51.28774" lon="4.83894"></trkpt>
      <trkpt lat="51.28777" lon="4.83889"></trkpt>
      <trkpt lat="51.28780" lon="4.83884"></trkpt>
      <trkpt lat="51.28783" lon="4.83879"></trkpt>
      <trkpt lat="51.28786" lon="4.83874"></trkpt>
      <trkpt lat="51.28789" lon="4.83870"></trkpt>
      <trkpt lat="51.28792" lon="4.83866"></trkpt>
      <trkpt lat="51.28795" lon="4.83862"></trkpt>
      <trkpt lat="51.28798" lon="4.83857"></trkpt>
      <trkpt lat="51.28801" lon="4.83852"></trkpt>
      <trkpt lat="51.28803" lon="4.83847"></trkpt>
      <trkpt lat="51.28806" lon="4.83843"></trkpt>
      <trkpt lat="51.28810" lon="4.83839"></trkpt>
      <trkpt lat="51.28811" lon="4.83834"></trkpt>
      <trkpt lat="51.28811" lon="4.83828"></trkpt>
      <trkpt lat="51.28812" lon="4.83821"></trkpt>
      <trkpt lat="51.28812" lon="4.83816"></trkpt>
      <trkpt lat="51.28812" lon="4.83810"></trkpt>
      <trkpt lat="51.28810" lon="4.83805"></trkpt>
      <trkpt lat="51.28806" lon="4.83800"></trkpt>
      <trkpt lat="51.28802" lon="4.83795"></trkpt>
      <trkpt lat="51.28799" lon="4.83791"></trkpt>
      <trkpt lat="51.28795" lon="4.83789"></trkpt>
      <trkpt lat="51.28791" lon="4.83787"></trkpt>
      <trkpt lat="51.28787" lon="4.83785"></trkpt>
      <trkpt lat="51.28783" lon="4.83783"></trkpt>
      <trkpt lat="51.28779" lon="4.83781"></trkpt>
      <trkpt lat="51.28774" lon="4.83779"></trkpt>
      <trkpt lat="51.28770" lon="4.83778"></trkpt>
      <trkpt lat="51.28765" lon="4.83777"></trkpt>
      <trkpt lat="51.28761" lon="4.83776"></trkpt>
      <trkpt lat="51.28757" lon="4.83774"></trkpt>
      <trkpt lat="51.28753" lon="4.83772"></trkpt>
      <trkpt lat="51.28749" lon="4.83769"></trkpt>
      <trkpt lat="51.28745" lon="4.83767"></trkpt>
      <trkpt lat="51.28741" lon="4.83764"></trkpt>
      <trkpt lat="51.28737" lon="4.83762"></trkpt>
      <trkpt lat="51.28734" lon="4.83760"></trkpt>
      <trkpt lat="51.28729" lon="4.83758"></trkpt>
      <trkpt lat="51.28725" lon="4.83756"></trkpt>
      <trkpt lat="51.28721" lon="4.83753"></trkpt>
      <trkpt lat="51.28717" lon="4.83750"></trkpt>
      <trkpt lat="51.28713" lon="4.83747"></trkpt>
      <trkpt lat="51.28709" lon="4.83744"></trkpt>
      <trkpt lat="51.28705" lon="4.83742"></trkpt>
      <trkpt lat="51.28701" lon="4.83738"></trkpt>
      <trkpt lat="51.28697" lon="4.83735"></trkpt>
      <trkpt lat="51.28694" lon="4.83732"></trkpt>
      <trkpt lat="51.28690" lon="4.83729"></trkpt>
      <trkpt lat="51.28686" lon="4.83726"></trkpt>
      <trkpt lat="51.28682" lon="4.83724"></trkpt>
      <trkpt lat="51.28678" lon="4.83722"></trkpt>
      <trkpt lat="51.28674" lon="4.83720"></trkpt>
      <trkpt lat="51.28670" lon="4.83718"></trkpt>
      <trkpt lat="51.28666" lon="4.83716"></trkpt>
      <trkpt lat="51.28662" lon="4.83714"></trkpt>
      <trkpt lat="51.28658" lon="4.83711"></trkpt>
      <trkpt lat="51.28654" lon="4.83709"></trkpt>
      <trkpt lat="51.28650" lon="4.83707"></trkpt>
      <trkpt lat="51.28646" lon="4.83704"></trkpt>
      <trkpt lat="51.28642" lon="4.83702"></trkpt>
      <trkpt lat="51.28638" lon="4.83700"></trkpt>
      <trkpt lat="51.28634" lon="4.83697"></trkpt>
      <trkpt lat="51.28630" lon="4.83696"></trkpt>
      <trkpt lat="51.28626" lon="4.83694"></trkpt>
      <trkpt lat="51.28622" lon="4.83692"></trkpt>
      <trkpt lat="51.28618" lon="4.83689"></trkpt>
      <trkpt lat="51.28614" lon="4.83686"></trkpt>
      <trkpt lat="51.28610" lon="4.83684"></trkpt>
      <trkpt lat="51.28606" lon="4.83682"></trkpt>
      <trkpt lat="51.28602" lon="4.83681"></trkpt>
      <trkpt lat="51.28598" lon="4.83679"></trkpt>
      <trkpt lat="51.28594" lon="4.83678"></trkpt>
      <trkpt lat="51.28590" lon="4.83676"></trkpt>
      <trkpt lat="51.28586" lon="4.83673"></trkpt>
      <trkpt lat="51.28581" lon="4.83671"></trkpt>
      <trkpt lat="51.28577" lon="4.83669"></trkpt>
      <trkpt lat="51.28573" lon="4.83667"></trkpt>
      <trkpt lat="51.28569" lon="4.83665"></trkpt>
      <trkpt lat="51.28565" lon="4.83663"></trkpt>
      <trkpt lat="51.28561" lon="4.83660"></trkpt>
      <trkpt lat="51.28558" lon="4.83657"></trkpt>
      <trkpt lat="51.28554" lon="4.83655"></trkpt>
      <trkpt lat="51.28549" lon="4.83653"></trkpt>
      <trkpt lat="51.28545" lon="4.83651"></trkpt>
      <trkpt lat="51.28542" lon="4.83648"></trkpt>
      <trkpt lat="51.28538" lon="4.83646"></trkpt>
      <trkpt lat="51.28534" lon="4.83643"></trkpt>
      <trkpt lat="51.28530" lon="4.83640"></trkpt>
      <trkpt lat="51.28526" lon="4.83638"></trkpt>
      <trkpt lat="51.28522" lon="4.83635"></trkpt>
      <trkpt lat="51.28518" lon="4.83633"></trkpt>
      <trkpt lat="51.28514" lon="4.83632"></trkpt>
      <trkpt lat="51.28510" lon="4.83631"></trkpt>
      <trkpt lat="51.28506" lon="4.83630"></trkpt>
      <trkpt lat="51.28502" lon="4.83627"></trkpt>
      <trkpt lat="51.28498" lon="4.83625"></trkpt>
      <trkpt lat="51.28494" lon="4.83622"></trkpt>
      <trkpt lat="51.28490" lon="4.83619"></trkpt>
      <trkpt lat="51.28486" lon="4.83616"></trkpt>
      <trkpt lat="51.28483" lon="4.83614"></trkpt>
      <trkpt lat="51.28479" lon="4.83611"></trkpt>
      <trkpt lat="51.28475" lon="4.83609"></trkpt>
      <trkpt lat="51.28471" lon="4.83606"></trkpt>
      <trkpt lat="51.28467" lon="4.83604"></trkpt>
      <trkpt lat="51.28463" lon="4.83602"></trkpt>
      <trkpt lat="51.28459" lon="4.83600"></trkpt>
      <trkpt lat="51.28455" lon="4.83598"></trkpt>
      <trkpt lat="51.28452" lon="4.83596"></trkpt>
      <trkpt lat="51.28448" lon="4.83594"></trkpt>
      <trkpt lat="51.28445" lon="4.83591"></trkpt>
      <trkpt lat="51.28441" lon="4.83588"></trkpt>
      <trkpt lat="51.28437" lon="4.83585"></trkpt>
      <trkpt lat="51.28433" lon="4.83586"></trkpt>
      <trkpt lat="51.28429" lon="4.83585"></trkpt>
      <trkpt lat="51.28425" lon="4.83583"></trkpt>
      <trkpt lat="51.28422" lon="4.83581"></trkpt>
      <trkpt lat="51.28418" lon="4.83578"></trkpt>
      <trkpt lat="51.28414" lon="4.83574"></trkpt>
      <trkpt lat="51.28410" lon="4.83571"></trkpt>
      <trkpt lat="51.28406" lon="4.83568"></trkpt>
      <trkpt lat="51.28402" lon="4.83565"></trkpt>
      <trkpt lat="51.28399" lon="4.83560"></trkpt>
      <trkpt lat="51.28396" lon="4.83556"></trkpt>
      <trkpt lat="51.28393" lon="4.83550"></trkpt>
      <trkpt lat="51.28390" lon="4.83546"></trkpt>
      <trkpt lat="51.28386" lon="4.83541"></trkpt>
      <trkpt lat="51.28383" lon="4.83536"></trkpt>
      <trkpt lat="51.28379" lon="4.83532"></trkpt>
      <trkpt lat="51.28376" lon="4.83528"></trkpt>
      <trkpt lat="51.28372" lon="4.83524"></trkpt>
      <trkpt lat="51.28369" lon="4.83519"></trkpt>
      <trkpt lat="51.28366" lon="4.83515"></trkpt>
      <trkpt lat="51.28363" lon="4.83510"></trkpt>
      <trkpt lat="51.28359" lon="4.83506"></trkpt>
      <trkpt lat="51.28356" lon="4.83502"></trkpt>
      <trkpt lat="51.28352" lon="4.83497"></trkpt>
      <trkpt lat="51.28349" lon="4.83494"></trkpt>
      <trkpt lat="51.28345" lon="4.83490"></trkpt>
      <trkpt lat="51.28341" lon="4.83487"></trkpt>
      <trkpt lat="51.28337" lon="4.83484"></trkpt>
      <trkpt lat="51.28334" lon="4.83482"></trkpt>
      <trkpt lat="51.28331" lon="4.83477"></trkpt>
      <trkpt lat="51.28328" lon="4.83472"></trkpt>
      <trkpt lat="51.28325" lon="4.83467"></trkpt>
      <trkpt lat="51.28321" lon="4.83462"></trkpt>
      <trkpt lat="51.28318" lon="4.83457"></trkpt>
      <trkpt lat="51.28314" lon="4.83453"></trkpt>
      <trkpt lat="51.28312" lon="4.83448"></trkpt>
      <trkpt lat="51.28309" lon="4.83442"></trkpt>
      <trkpt lat="51.28307" lon="4.83437"></trkpt>
      <trkpt lat="51.28306" lon="4.83432"></trkpt>
      <trkpt lat="51.28303" lon="4.83427"></trkpt>
      <trkpt lat="51.28301" lon="4.83421"></trkpt>
      <trkpt lat="51.28298" lon="4.83416"></trkpt>
      <trkpt lat="51.28295" lon="4.83411"></trkpt>
      <trkpt lat="51.28293" lon="4.83406"></trkpt>
      <trkpt lat="51.28291" lon="4.83401"></trkpt>
      <trkpt lat="51.28288" lon="4.83396"></trkpt>
      <trkpt lat="51.28286" lon="4.83391"></trkpt>
      <trkpt lat="51.28284" lon="4.83386"></trkpt>
      <trkpt lat="51.28281" lon="4.83380"></trkpt>
      <trkpt lat="51.28278" lon="4.83375"></trkpt>
      <trkpt lat="51.28276" lon="4.83370"></trkpt>
      <trkpt lat="51.28274" lon="4.83365"></trkpt>
      <trkpt lat="51.28273" lon="4.83360"></trkpt>
      <trkpt lat="51.28271" lon="4.83355"></trkpt>
      <trkpt lat="51.28268" lon="4.83350"></trkpt>
      <trkpt lat="51.28266" lon="4.83345"></trkpt>
      <trkpt lat="51.28264" lon="4.83340"></trkpt>
      <trkpt lat="51.28262" lon="4.83335"></trkpt>
      <trkpt lat="51.28261" lon="4.83328"></trkpt>
      <trkpt lat="51.28259" lon="4.83322"></trkpt>
      <trkpt lat="51.28256" lon="4.83316"></trkpt>
      <trkpt lat="51.28253" lon="4.83311"></trkpt>
      <trkpt lat="51.28251" lon="4.83306"></trkpt>
      <trkpt lat="51.28248" lon="4.83301"></trkpt>
      <trkpt lat="51.28245" lon="4.83295"></trkpt>
      <trkpt lat="51.28242" lon="4.83289"></trkpt>
      <trkpt lat="51.28239" lon="4.83283"></trkpt>
      <trkpt lat="51.28235" lon="4.83280"></trkpt>
      <trkpt lat="51.28233" lon="4.83282"></trkpt>
      <trkpt lat="51.28229" lon="4.83287"></trkpt>
      <trkpt lat="51.28225" lon="4.83292"></trkpt>
      <trkpt lat="51.28222" lon="4.83295"></trkpt>
      <trkpt lat="51.28222" lon="4.83296"></trkpt>
      <trkpt lat="51.28222" lon="4.83297"></trkpt>
      <trkpt lat="51.28222" lon="4.83300"></trkpt>
      <trkpt lat="51.28223" lon="4.83306"></trkpt>
      <trkpt lat="51.28221" lon="4.83312"></trkpt>
      <trkpt lat="51.28218" lon="4.83318"></trkpt>
      <trkpt lat="51.28215" lon="4.83323"></trkpt>
      <trkpt lat="51.28212" lon="4.83327"></trkpt>
      <trkpt lat="51.28209" lon="4.83331"></trkpt>
      <trkpt lat="51.28205" lon="4.83334"></trkpt>
      <trkpt lat="51.28202" lon="4.83337"></trkpt>
      <trkpt lat="51.28198" lon="4.83339"></trkpt>
      <trkpt lat="51.28194" lon="4.83342"></trkpt>
      <trkpt lat="51.28191" lon="4.83345"></trkpt>
      <trkpt lat="51.28187" lon="4.83348"></trkpt>
      <trkpt lat="51.28182" lon="4.83351"></trkpt>
      <trkpt lat="51.28179" lon="4.83354"></trkpt>
      <trkpt lat="51.28176" lon="4.83358"></trkpt>
      <trkpt lat="51.28172" lon="4.83360"></trkpt>
      <trkpt lat="51.28168" lon="4.83363"></trkpt>
      <trkpt lat="51.28164" lon="4.83366"></trkpt>
      <trkpt lat="51.28161" lon="4.83370"></trkpt>
      <trkpt lat="51.28159" lon="4.83373"></trkpt>
      <trkpt lat="51.28156" lon="4.83376"></trkpt>
      <trkpt lat="51.28152" lon="4.83377"></trkpt>
      <trkpt lat="51.28149" lon="4.83380"></trkpt>
      <trkpt lat="51.28145" lon="4.83383"></trkpt>
      <trkpt lat="51.28142" lon="4.83386"></trkpt>
      <trkpt lat="51.28139" lon="4.83389"></trkpt>
      <trkpt lat="51.28135" lon="4.83390"></trkpt>
      <trkpt lat="51.28134" lon="4.83387"></trkpt>
      <trkpt lat="51.28134" lon="4.83383"></trkpt>
      <trkpt lat="51.28134" lon="4.83378"></trkpt>
      <trkpt lat="51.28135" lon="4.83371"></trkpt>
      <trkpt lat="51.28135" lon="4.83365"></trkpt>
      <trkpt lat="51.28136" lon="4.83359"></trkpt>
      <trkpt lat="51.28135" lon="4.83353"></trkpt>
      <trkpt lat="51.28132" lon="4.83349"></trkpt>
      <trkpt lat="51.28129" lon="4.83347"></trkpt>
      <trkpt lat="51.28126" lon="4.83350"></trkpt>
      <trkpt lat="51.28123" lon="4.83353"></trkpt>
      <trkpt lat="51.28119" lon="4.83356"></trkpt>
      <trkpt lat="51.28116" lon="4.83359"></trkpt>
      <trkpt lat="51.28112" lon="4.83363"></trkpt>
      <trkpt lat="51.28108" lon="4.83368"></trkpt>
      <trkpt lat="51.28105" lon="4.83372"></trkpt>
      <trkpt lat="51.28102" lon="4.83376"></trkpt>
      <trkpt lat="51.28098" lon="4.83379"></trkpt>
      <trkpt lat="51.28094" lon="4.83380"></trkpt>
      <trkpt lat="51.28090" lon="4.83381"></trkpt>
      <trkpt lat="51.28086" lon="4.83383"></trkpt>
      <trkpt lat="51.28081" lon="4.83384"></trkpt>
      <trkpt lat="51.28077" lon="4.83385"></trkpt>
      <trkpt lat="51.28073" lon="4.83386"></trkpt>
      <trkpt lat="51.28068" lon="4.83386"></trkpt>
      <trkpt lat="51.28063" lon="4.83387"></trkpt>
      <trkpt lat="51.28059" lon="4.83388"></trkpt>
      <trkpt lat="51.28054" lon="4.83388"></trkpt>
      <trkpt lat="51.28050" lon="4.83388"></trkpt>
      <trkpt lat="51.28046" lon="4.83388"></trkpt>
      <trkpt lat="51.28042" lon="4.83388"></trkpt>
      <trkpt lat="51.28038" lon="4.83391"></trkpt>
      <trkpt lat="51.28034" lon="4.83392"></trkpt>
      <trkpt lat="51.28030" lon="4.83392"></trkpt>
      <trkpt lat="51.28026" lon="4.83392"></trkpt>
      <trkpt lat="51.28022" lon="4.83392"></trkpt>
      <trkpt lat="51.28018" lon="4.83392"></trkpt>
      <trkpt lat="51.28014" lon="4.83394"></trkpt>
      <trkpt lat="51.28010" lon="4.83395"></trkpt>
      <trkpt lat="51.28006" lon="4.83396"></trkpt>
      <trkpt lat="51.28002" lon="4.83397"></trkpt>
      <trkpt lat="51.27997" lon="4.83397"></trkpt>
      <trkpt lat="51.27993" lon="4.83398"></trkpt>
      <trkpt lat="51.27989" lon="4.83398"></trkpt>
      <trkpt lat="51.27985" lon="4.83399"></trkpt>
      <trkpt lat="51.27981" lon="4.83399"></trkpt>
      <trkpt lat="51.27977" lon="4.83400"></trkpt>
      <trkpt lat="51.27973" lon="4.83400"></trkpt>
      <trkpt lat="51.27969" lon="4.83401"></trkpt>
      <trkpt lat="51.27965" lon="4.83401"></trkpt>
      <trkpt lat="51.27960" lon="4.83402"></trkpt>
      <trkpt lat="51.27956" lon="4.83404"></trkpt>
      <trkpt lat="51.27952" lon="4.83405"></trkpt>
      <trkpt lat="51.27947" lon="4.83407"></trkpt>
      <trkpt lat="51.27943" lon="4.83408"></trkpt>
      <trkpt lat="51.27938" lon="4.83409"></trkpt>
      <trkpt lat="51.27935" lon="4.83410"></trkpt>
      <trkpt lat="51.27931" lon="4.83411"></trkpt>
      <trkpt lat="51.27927" lon="4.83412"></trkpt>
      <trkpt lat="51.27923" lon="4.83413"></trkpt>
      <trkpt lat="51.27919" lon="4.83414"></trkpt>
      <trkpt lat="51.27914" lon="4.83416"></trkpt>
      <trkpt lat="51.27910" lon="4.83416"></trkpt>
      <trkpt lat="51.27906" lon="4.83417"></trkpt>
      <trkpt lat="51.27902" lon="4.83418"></trkpt>
      <trkpt lat="51.27897" lon="4.83420"></trkpt>
      <trkpt lat="51.27893" lon="4.83420"></trkpt>
      <trkpt lat="51.27889" lon="4.83421"></trkpt>
      <trkpt lat="51.27885" lon="4.83421"></trkpt>
      <trkpt lat="51.27881" lon="4.83422"></trkpt>
      <trkpt lat="51.27877" lon="4.83422"></trkpt>
      <trkpt lat="51.27873" lon="4.83422"></trkpt>
      <trkpt lat="51.27869" lon="4.83423"></trkpt>
      <trkpt lat="51.27865" lon="4.83422"></trkpt>
      <trkpt lat="51.27860" lon="4.83422"></trkpt>
      <trkpt lat="51.27856" lon="4.83422"></trkpt>
      <trkpt lat="51.27851" lon="4.83422"></trkpt>
      <trkpt lat="51.27847" lon="4.83424"></trkpt>
      <trkpt lat="51.27843" lon="4.83424"></trkpt>
      <trkpt lat="51.27838" lon="4.83425"></trkpt>
      <trkpt lat="51.27834" lon="4.83426"></trkpt>
      <trkpt lat="51.27830" lon="4.83426"></trkpt>
      <trkpt lat="51.27825" lon="4.83426"></trkpt>
      <trkpt lat="51.27821" lon="4.83425"></trkpt>
      <trkpt lat="51.27817" lon="4.83425"></trkpt>
      <trkpt lat="51.27813" lon="4.83426"></trkpt>
      <trkpt lat="51.27809" lon="4.83427"></trkpt>
      <trkpt lat="51.27805" lon="4.83428"></trkpt>
      <trkpt lat="51.27800" lon="4.83430"></trkpt>
      <trkpt lat="51.27796" lon="4.83432"></trkpt>
      <trkpt lat="51.27792" lon="4.83433"></trkpt>
      <trkpt lat="51.27788" lon="4.83433"></trkpt>
      <trkpt lat="51.27783" lon="4.83435"></trkpt>
      <trkpt lat="51.27779" lon="4.83435"></trkpt>
      <trkpt lat="51.27775" lon="4.83434"></trkpt>
      <trkpt lat="51.27772" lon="4.83433"></trkpt>
      <trkpt lat="51.27768" lon="4.83429"></trkpt>
      <trkpt lat="51.27766" lon="4.83423"></trkpt>
      <trkpt lat="51.27765" lon="4.83417"></trkpt>
      <trkpt lat="51.27765" lon="4.83410"></trkpt>
      <trkpt lat="51.27765" lon="4.83403"></trkpt>
      <trkpt lat="51.27764" lon="4.83396"></trkpt>
      <trkpt lat="51.27763" lon="4.83389"></trkpt>
      <trkpt lat="51.27762" lon="4.83383"></trkpt>
      <trkpt lat="51.27761" lon="4.83376"></trkpt>
      <trkpt lat="51.27761" lon="4.83370"></trkpt>
      <trkpt lat="51.27761" lon="4.83363"></trkpt>
      <trkpt lat="51.27760" lon="4.83356"></trkpt>
      <trkpt lat="51.27760" lon="4.83348"></trkpt>
      <trkpt lat="51.27758" lon="4.83343"></trkpt>
      <trkpt lat="51.27755" lon="4.83338"></trkpt>
      <trkpt lat="51.27752" lon="4.83336"></trkpt>
      <trkpt lat="51.27748" lon="4.83337"></trkpt>
      <trkpt lat="51.27744" lon="4.83338"></trkpt>
      <trkpt lat="51.27740" lon="4.83340"></trkpt>
      <trkpt lat="51.27736" lon="4.83342"></trkpt>
      <trkpt lat="51.27732" lon="4.83344"></trkpt>
      <trkpt lat="51.27728" lon="4.83346"></trkpt>
      <trkpt lat="51.27725" lon="4.83347"></trkpt>
      <trkpt lat="51.27720" lon="4.83349"></trkpt>
      <trkpt lat="51.27716" lon="4.83351"></trkpt>
      <trkpt lat="51.27712" lon="4.83352"></trkpt>
      <trkpt lat="51.27708" lon="4.83354"></trkpt>
      <trkpt lat="51.27705" lon="4.83356"></trkpt>
      <trkpt lat="51.27701" lon="4.83358"></trkpt>
      <trkpt lat="51.27697" lon="4.83359"></trkpt>
      <trkpt lat="51.27693" lon="4.83361"></trkpt>
      <trkpt lat="51.27689" lon="4.83362"></trkpt>
      <trkpt lat="51.27685" lon="4.83364"></trkpt>
      <trkpt lat="51.27681" lon="4.83365"></trkpt>
      <trkpt lat="51.27677" lon="4.83367"></trkpt>
      <trkpt lat="51.27674" lon="4.83368"></trkpt>
      <trkpt lat="51.27670" lon="4.83369"></trkpt>
      <trkpt lat="51.27666" lon="4.83370"></trkpt>
      <trkpt lat="51.27662" lon="4.83371"></trkpt>
      <trkpt lat="51.27658" lon="4.83373"></trkpt>
      <trkpt lat="51.27654" lon="4.83375"></trkpt>
      <trkpt lat="51.27649" lon="4.83376"></trkpt>
      <trkpt lat="51.27645" lon="4.83377"></trkpt>
      <trkpt lat="51.27641" lon="4.83379"></trkpt>
      <trkpt lat="51.27637" lon="4.83380"></trkpt>
      <trkpt lat="51.27633" lon="4.83382"></trkpt>
      <trkpt lat="51.27629" lon="4.83384"></trkpt>
      <trkpt lat="51.27625" lon="4.83386"></trkpt>
      <trkpt lat="51.27620" lon="4.83388"></trkpt>
      <trkpt lat="51.27616" lon="4.83389"></trkpt>
      <trkpt lat="51.27612" lon="4.83391"></trkpt>
      <trkpt lat="51.27608" lon="4.83391"></trkpt>
      <trkpt lat="51.27605" lon="4.83392"></trkpt>
      <trkpt lat="51.27601" lon="4.83394"></trkpt>
      <trkpt lat="51.27597" lon="4.83396"></trkpt>
      <trkpt lat="51.27592" lon="4.83398"></trkpt>
      <trkpt lat="51.27589" lon="4.83399"></trkpt>
      <trkpt lat="51.27585" lon="4.83401"></trkpt>
      <trkpt lat="51.27580" lon="4.83403"></trkpt>
      <trkpt lat="51.27576" lon="4.83406"></trkpt>
      <trkpt lat="51.27572" lon="4.83407"></trkpt>
      <trkpt lat="51.27567" lon="4.83408"></trkpt>
      <trkpt lat="51.27563" lon="4.83408"></trkpt>
      <trkpt lat="51.27559" lon="4.83408"></trkpt>
      <trkpt lat="51.27555" lon="4.83408"></trkpt>
      <trkpt lat="51.27551" lon="4.83408"></trkpt>
      <trkpt lat="51.27546" lon="4.83407"></trkpt>
      <trkpt lat="51.27542" lon="4.83407"></trkpt>
      <trkpt lat="51.27537" lon="4.83407"></trkpt>
      <trkpt lat="51.27533" lon="4.83407"></trkpt>
      <trkpt lat="51.27529" lon="4.83408"></trkpt>
      <trkpt lat="51.27525" lon="4.83409"></trkpt>
      <trkpt lat="51.27520" lon="4.83409"></trkpt>
      <trkpt lat="51.27516" lon="4.83409"></trkpt>
      <trkpt lat="51.27512" lon="4.83408"></trkpt>
      <trkpt lat="51.27507" lon="4.83407"></trkpt>
      <trkpt lat="51.27503" lon="4.83406"></trkpt>
      <trkpt lat="51.27499" lon="4.83406"></trkpt>
      <trkpt lat="51.27495" lon="4.83407"></trkpt>
      <trkpt lat="51.27491" lon="4.83407"></trkpt>
      <trkpt lat="51.27487" lon="4.83407"></trkpt>
      <trkpt lat="51.27482" lon="4.83407"></trkpt>
      <trkpt lat="51.27478" lon="4.83407"></trkpt>
      <trkpt lat="51.27474" lon="4.83408"></trkpt>
      <trkpt lat="51.27469" lon="4.83407"></trkpt>
      <trkpt lat="51.27466" lon="4.83406"></trkpt>
      <trkpt lat="51.27461" lon="4.83405"></trkpt>
      <trkpt lat="51.27457" lon="4.83404"></trkpt>
      <trkpt lat="51.27453" lon="4.83402"></trkpt>
      <trkpt lat="51.27450" lon="4.83400"></trkpt>
      <trkpt lat="51.27446" lon="4.83399"></trkpt>
      <trkpt lat="51.27441" lon="4.83397"></trkpt>
      <trkpt lat="51.27437" lon="4.83395"></trkpt>
      <trkpt lat="51.27433" lon="4.83394"></trkpt>
      <trkpt lat="51.27429" lon="4.83391"></trkpt>
      <trkpt lat="51.27425" lon="4.83391"></trkpt>
      <trkpt lat="51.27421" lon="4.83390"></trkpt>
      <trkpt lat="51.27416" lon="4.83388"></trkpt>
      <trkpt lat="51.27413" lon="4.83387"></trkpt>
      <trkpt lat="51.27409" lon="4.83385"></trkpt>
      <trkpt lat="51.27405" lon="4.83384"></trkpt>
      <trkpt lat="51.27402" lon="4.83382"></trkpt>
      <trkpt lat="51.27398" lon="4.83379"></trkpt>
      <trkpt lat="51.27394" lon="4.83376"></trkpt>
      <trkpt lat="51.27391" lon="4.83373"></trkpt>
      <trkpt lat="51.27387" lon="4.83369"></trkpt>
      <trkpt lat="51.27383" lon="4.83365"></trkpt>
      <trkpt lat="51.27380" lon="4.83362"></trkpt>
      <trkpt lat="51.27376" lon="4.83359"></trkpt>
      <trkpt lat="51.27372" lon="4.83355"></trkpt>
      <trkpt lat="51.27368" lon="4.83349"></trkpt>
      <trkpt lat="51.27366" lon="4.83344"></trkpt>
      <trkpt lat="51.27363" lon="4.83339"></trkpt>
      <trkpt lat="51.27360" lon="4.83334"></trkpt>
      <trkpt lat="51.27357" lon="4.83330"></trkpt>
      <trkpt lat="51.27354" lon="4.83325"></trkpt>
      <trkpt lat="51.27352" lon="4.83320"></trkpt>
      <trkpt lat="51.27349" lon="4.83315"></trkpt>
      <trkpt lat="51.27346" lon="4.83309"></trkpt>
      <trkpt lat="51.27342" lon="4.83303"></trkpt>
      <trkpt lat="51.27339" lon="4.83298"></trkpt>
      <trkpt lat="51.27336" lon="4.83294"></trkpt>
      <trkpt lat="51.27333" lon="4.83289"></trkpt>
      <trkpt lat="51.27331" lon="4.83284"></trkpt>
      <trkpt lat="51.27328" lon="4.83279"></trkpt>
      <trkpt lat="51.27325" lon="4.83274"></trkpt>
      <trkpt lat="51.27323" lon="4.83267"></trkpt>
      <trkpt lat="51.27322" lon="4.83260"></trkpt>
      <trkpt lat="51.27322" lon="4.83253"></trkpt>
      <trkpt lat="51.27321" lon="4.83246"></trkpt>
      <trkpt lat="51.27321" lon="4.83240"></trkpt>
      <trkpt lat="51.27321" lon="4.83233"></trkpt>
      <trkpt lat="51.27321" lon="4.83228"></trkpt>
      <trkpt lat="51.27321" lon="4.83221"></trkpt>
      <trkpt lat="51.27322" lon="4.83216"></trkpt>
      <trkpt lat="51.27322" lon="4.83209"></trkpt>
      <trkpt lat="51.27322" lon="4.83202"></trkpt>
      <trkpt lat="51.27322" lon="4.83196"></trkpt>
      <trkpt lat="51.27322" lon="4.83190"></trkpt>
      <trkpt lat="51.27322" lon="4.83183"></trkpt>
      <trkpt lat="51.27322" lon="4.83175"></trkpt>
      <trkpt lat="51.27322" lon="4.83169"></trkpt>
      <trkpt lat="51.27323" lon="4.83162"></trkpt>
      <trkpt lat="51.27323" lon="4.83155"></trkpt>
      <trkpt lat="51.27323" lon="4.83148"></trkpt>
      <trkpt lat="51.27322" lon="4.83141"></trkpt>
      <trkpt lat="51.27322" lon="4.83134"></trkpt>
      <trkpt lat="51.27323" lon="4.83128"></trkpt>
      <trkpt lat="51.27323" lon="4.83121"></trkpt>
      <trkpt lat="51.27323" lon="4.83115"></trkpt>
      <trkpt lat="51.27323" lon="4.83112"></trkpt>
      <trkpt lat="51.27325" lon="4.83108"></trkpt>
      <trkpt lat="51.27326" lon="4.83101"></trkpt>
      <trkpt lat="51.27327" lon="4.83093"></trkpt>
      <trkpt lat="51.27327" lon="4.83085"></trkpt>
      <trkpt lat="51.27328" lon="4.83078"></trkpt>
      <trkpt lat="51.27329" lon="4.83072"></trkpt>
      <trkpt lat="51.27330" lon="4.83066"></trkpt>
      <trkpt lat="51.27332" lon="4.83060"></trkpt>
      <trkpt lat="51.27333" lon="4.83053"></trkpt>
      <trkpt lat="51.27334" lon="4.83046"></trkpt>
      <trkpt lat="51.27334" lon="4.83039"></trkpt>
      <trkpt lat="51.27333" lon="4.83032"></trkpt>
      <trkpt lat="51.27333" lon="4.83026"></trkpt>
      <trkpt lat="51.27332" lon="4.83020"></trkpt>
      <trkpt lat="51.27333" lon="4.83014"></trkpt>
      <trkpt lat="51.27334" lon="4.83007"></trkpt>
      <trkpt lat="51.27335" lon="4.83001"></trkpt>
      <trkpt lat="51.27337" lon="4.82995"></trkpt>
      <trkpt lat="51.27339" lon="4.82990"></trkpt>
      <trkpt lat="51.27342" lon="4.82985"></trkpt>
      <trkpt lat="51.27345" lon="4.82980"></trkpt>
      <trkpt lat="51.27347" lon="4.82975"></trkpt>
      <trkpt lat="51.27350" lon="4.82970"></trkpt>
      <trkpt lat="51.27353" lon="4.82966"></trkpt>
      <trkpt lat="51.27355" lon="4.82961"></trkpt>
      <trkpt lat="51.27357" lon="4.82956"></trkpt>
      <trkpt lat="51.27360" lon="4.82952"></trkpt>
      <trkpt lat="51.27363" lon="4.82949"></trkpt>
      <trkpt lat="51.27366" lon="4.82946"></trkpt>
      <trkpt lat="51.27369" lon="4.82942"></trkpt>
      <trkpt lat="51.27372" lon="4.82938"></trkpt>
      <trkpt lat="51.27374" lon="4.82933"></trkpt>
      <trkpt lat="51.27377" lon="4.82928"></trkpt>
      <trkpt lat="51.27379" lon="4.82922"></trkpt>
      <trkpt lat="51.27381" lon="4.82915"></trkpt>
      <trkpt lat="51.27382" lon="4.82909"></trkpt>
      <trkpt lat="51.27383" lon="4.82903"></trkpt>
      <trkpt lat="51.27385" lon="4.82896"></trkpt>
      <trkpt lat="51.27386" lon="4.82889"></trkpt>
      <trkpt lat="51.27387" lon="4.82882"></trkpt>
      <trkpt lat="51.27388" lon="4.82876"></trkpt>
      <trkpt lat="51.27389" lon="4.82869"></trkpt>
      <trkpt lat="51.27390" lon="4.82862"></trkpt>
      <trkpt lat="51.27392" lon="4.82856"></trkpt>
      <trkpt lat="51.27393" lon="4.82850"></trkpt>
      <trkpt lat="51.27394" lon="4.82843"></trkpt>
      <trkpt lat="51.27396" lon="4.82838"></trkpt>
      <trkpt lat="51.27398" lon="4.82833"></trkpt>
      <trkpt lat="51.27399" lon="4.82830"></trkpt>
      <trkpt lat="51.27401" lon="4.82827"></trkpt>
      <trkpt lat="51.27403" lon="4.82822"></trkpt>
      <trkpt lat="51.27406" lon="4.82816"></trkpt>
      <trkpt lat="51.27409" lon="4.82811"></trkpt>
      <trkpt lat="51.27412" lon="4.82804"></trkpt>
      <trkpt lat="51.27414" lon="4.82797"></trkpt>
      <trkpt lat="51.27416" lon="4.82791"></trkpt>
      <trkpt lat="51.27415" lon="4.82784"></trkpt>
      <trkpt lat="51.27413" lon="4.82778"></trkpt>
      <trkpt lat="51.27411" lon="4.82772"></trkpt>
      <trkpt lat="51.27408" lon="4.82768"></trkpt>
      <trkpt lat="51.27406" lon="4.82763"></trkpt>
      <trkpt lat="51.27404" lon="4.82758"></trkpt>
      <trkpt lat="51.27403" lon="4.82752"></trkpt>
      <trkpt lat="51.27401" lon="4.82746"></trkpt>
      <trkpt lat="51.27400" lon="4.82739"></trkpt>
      <trkpt lat="51.27398" lon="4.82733"></trkpt>
      <trkpt lat="51.27397" lon="4.82727"></trkpt>
      <trkpt lat="51.27395" lon="4.82720"></trkpt>
      <trkpt lat="51.27394" lon="4.82714"></trkpt>
      <trkpt lat="51.27394" lon="4.82707"></trkpt>
      <trkpt lat="51.27396" lon="4.82703"></trkpt>
      <trkpt lat="51.27400" lon="4.82701"></trkpt>
      <trkpt lat="51.27403" lon="4.82700"></trkpt>
      <trkpt lat="51.27408" lon="4.82700"></trkpt>
      <trkpt lat="51.27412" lon="4.82701"></trkpt>
      <trkpt lat="51.27416" lon="4.82704"></trkpt>
      <trkpt lat="51.27419" lon="4.82707"></trkpt>
      <trkpt lat="51.27423" lon="4.82709"></trkpt>
      <trkpt lat="51.27428" lon="4.82712"></trkpt>
      <trkpt lat="51.27432" lon="4.82715"></trkpt>
      <trkpt lat="51.27436" lon="4.82717"></trkpt>
      <trkpt lat="51.27440" lon="4.82720"></trkpt>
      <trkpt lat="51.27444" lon="4.82723"></trkpt>
      <trkpt lat="51.27448" lon="4.82727"></trkpt>
      <trkpt lat="51.27455" lon="4.82732"></trkpt>
      <trkpt lat="51.27462" lon="4.82737"></trkpt>
      <trkpt lat="51.27466" lon="4.82741"></trkpt>
      <trkpt lat="51.27469" lon="4.82744"></trkpt>
      <trkpt lat="51.27472" lon="4.82747"></trkpt>
      <trkpt lat="51.27477" lon="4.82750"></trkpt>
      <trkpt lat="51.27481" lon="4.82753"></trkpt>
      <trkpt lat="51.27486" lon="4.82757"></trkpt>
      <trkpt lat="51.27490" lon="4.82760"></trkpt>
      <trkpt lat="51.27495" lon="4.82764"></trkpt>
      <trkpt lat="51.27499" lon="4.82766"></trkpt>
      <trkpt lat="51.27502" lon="4.82769"></trkpt>
      <trkpt lat="51.27506" lon="4.82772"></trkpt>
      <trkpt lat="51.27511" lon="4.82775"></trkpt>
      <trkpt lat="51.27515" lon="4.82778"></trkpt>
      <trkpt lat="51.27519" lon="4.82782"></trkpt>
      <trkpt lat="51.27522" lon="4.82784"></trkpt>
      <trkpt lat="51.27526" lon="4.82786"></trkpt>
      <trkpt lat="51.27530" lon="4.82789"></trkpt>
      <trkpt lat="51.27534" lon="4.82791"></trkpt>
      <trkpt lat="51.27537" lon="4.82794"></trkpt>
      <trkpt lat="51.27541" lon="4.82797"></trkpt>
      <trkpt lat="51.27545" lon="4.82800"></trkpt>
      <trkpt lat="51.27548" lon="4.82803"></trkpt>
      <trkpt lat="51.27552" lon="4.82806"></trkpt>
      <trkpt lat="51.27555" lon="4.82809"></trkpt>
      <trkpt lat="51.27559" lon="4.82813"></trkpt>
      <trkpt lat="51.27563" lon="4.82816"></trkpt>
      <trkpt lat="51.27568" lon="4.82818"></trkpt>
      <trkpt lat="51.27572" lon="4.82821"></trkpt>
      <trkpt lat="51.27575" lon="4.82823"></trkpt>
      <trkpt lat="51.27578" lon="4.82826"></trkpt>
      <trkpt lat="51.27582" lon="4.82829"></trkpt>
      <trkpt lat="51.27585" lon="4.82832"></trkpt>
      <trkpt lat="51.27589" lon="4.82835"></trkpt>
      <trkpt lat="51.27594" lon="4.82837"></trkpt>
      <trkpt lat="51.27598" lon="4.82839"></trkpt>
      <trkpt lat="51.27602" lon="4.82840"></trkpt>
      <trkpt lat="51.27606" lon="4.82842"></trkpt>
      <trkpt lat="51.27610" lon="4.82845"></trkpt>
      <trkpt lat="51.27614" lon="4.82848"></trkpt>
      <trkpt lat="51.27619" lon="4.82851"></trkpt>
      <trkpt lat="51.27623" lon="4.82853"></trkpt>
      <trkpt lat="51.27627" lon="4.82855"></trkpt>
      <trkpt lat="51.27631" lon="4.82858"></trkpt>
      <trkpt lat="51.27635" lon="4.82861"></trkpt>
      <trkpt lat="51.27638" lon="4.82864"></trkpt>
      <trkpt lat="51.27642" lon="4.82866"></trkpt>
      <trkpt lat="51.27647" lon="4.82868"></trkpt>
      <trkpt lat="51.27651" lon="4.82870"></trkpt>
      <trkpt lat="51.27655" lon="4.82873"></trkpt>
      <trkpt lat="51.27658" lon="4.82876"></trkpt>
      <trkpt lat="51.27662" lon="4.82880"></trkpt>
      <trkpt lat="51.27665" lon="4.82884"></trkpt>
      <trkpt lat="51.27669" lon="4.82887"></trkpt>
      <trkpt lat="51.27673" lon="4.82890"></trkpt>
      <trkpt lat="51.27677" lon="4.82892"></trkpt>
      <trkpt lat="51.27681" lon="4.82894"></trkpt>
      <trkpt lat="51.27685" lon="4.82896"></trkpt>
      <trkpt lat="51.27689" lon="4.82899"></trkpt>
      <trkpt lat="51.27692" lon="4.82901"></trkpt>
      <trkpt lat="51.27696" lon="4.82903"></trkpt>
      <trkpt lat="51.27699" lon="4.82905"></trkpt>
      <trkpt lat="51.27702" lon="4.82907"></trkpt>
      <trkpt lat="51.27706" lon="4.82909"></trkpt>
      <trkpt lat="51.27710" lon="4.82910"></trkpt>
      <trkpt lat="51.27714" lon="4.82912"></trkpt>
      <trkpt lat="51.27718" lon="4.82913"></trkpt>
      <trkpt lat="51.27722" lon="4.82915"></trkpt>
      <trkpt lat="51.27726" lon="4.82918"></trkpt>
      <trkpt lat="51.27730" lon="4.82920"></trkpt>
      <trkpt lat="51.27733" lon="4.82922"></trkpt>
      <trkpt lat="51.27736" lon="4.82924"></trkpt>
      <trkpt lat="51.27740" lon="4.82927"></trkpt>
      <trkpt lat="51.27744" lon="4.82931"></trkpt>
      <trkpt lat="51.27746" lon="4.82937"></trkpt>
      <trkpt lat="51.27747" lon="4.82943"></trkpt>
      <trkpt lat="51.27748" lon="4.82949"></trkpt>
      <trkpt lat="51.27748" lon="4.82956"></trkpt>
      <trkpt lat="51.27747" lon="4.82963"></trkpt>
      <trkpt lat="51.27747" lon="4.82970"></trkpt>
      <trkpt lat="51.27746" lon="4.82977"></trkpt>
      <trkpt lat="51.27746" lon="4.82984"></trkpt>
      <trkpt lat="51.27746" lon="4.82991"></trkpt>
      <trkpt lat="51.27746" lon="4.82997"></trkpt>
      <trkpt lat="51.27746" lon="4.83004"></trkpt>
      <trkpt lat="51.27746" lon="4.83011"></trkpt>
      <trkpt lat="51.27747" lon="4.83017"></trkpt>
      <trkpt lat="51.27748" lon="4.83024"></trkpt>
      <trkpt lat="51.27748" lon="4.83031"></trkpt>
      <trkpt lat="51.27749" lon="4.83038"></trkpt>
      <trkpt lat="51.27749" lon="4.83044"></trkpt>
      <trkpt lat="51.27749" lon="4.83050"></trkpt>
      <trkpt lat="51.27749" lon="4.83056"></trkpt>
      <trkpt lat="51.27749" lon="4.83063"></trkpt>
      <trkpt lat="51.27749" lon="4.83069"></trkpt>
      <trkpt lat="51.27749" lon="4.83076"></trkpt>
      <trkpt lat="51.27749" lon="4.83083"></trkpt>
      <trkpt lat="51.27749" lon="4.83090"></trkpt>
      <trkpt lat="51.27749" lon="4.83097"></trkpt>
      <trkpt lat="51.27750" lon="4.83104"></trkpt>
      <trkpt lat="51.27751" lon="4.83111"></trkpt>
      <trkpt lat="51.27751" lon="4.83117"></trkpt>
      <trkpt lat="51.27751" lon="4.83123"></trkpt>
      <trkpt lat="51.27751" lon="4.83130"></trkpt>
      <trkpt lat="51.27751" lon="4.83137"></trkpt>
      <trkpt lat="51.27752" lon="4.83144"></trkpt>
      <trkpt lat="51.27752" lon="4.83152"></trkpt>
      <trkpt lat="51.27753" lon="4.83159"></trkpt>
      <trkpt lat="51.27753" lon="4.83166"></trkpt>
      <trkpt lat="51.27753" lon="4.83173"></trkpt>
      <trkpt lat="51.27753" lon="4.83180"></trkpt>
      <trkpt lat="51.27753" lon="4.83187"></trkpt>
      <trkpt lat="51.27754" lon="4.83194"></trkpt>
      <trkpt lat="51.27754" lon="4.83201"></trkpt>
      <trkpt lat="51.27755" lon="4.83208"></trkpt>
      <trkpt lat="51.27755" lon="4.83215"></trkpt>
      <trkpt lat="51.27756" lon="4.83223"></trkpt>
      <trkpt lat="51.27757" lon="4.83229"></trkpt>
      <trkpt lat="51.27757" lon="4.83236"></trkpt>
      <trkpt lat="51.27757" lon="4.83244"></trkpt>
      <trkpt lat="51.27757" lon="4.83251"></trkpt>
      <trkpt lat="51.27757" lon="4.83257"></trkpt>
      <trkpt lat="51.27758" lon="4.83264"></trkpt>
      <trkpt lat="51.27758" lon="4.83271"></trkpt>
      <trkpt lat="51.27759" lon="4.83278"></trkpt>
      <trkpt lat="51.27760" lon="4.83285"></trkpt>
      <trkpt lat="51.27760" lon="4.83292"></trkpt>
      <trkpt lat="51.27760" lon="4.83299"></trkpt>
      <trkpt lat="51.27760" lon="4.83306"></trkpt>
      <trkpt lat="51.27760" lon="4.83313"></trkpt>
      <trkpt lat="51.27760" lon="4.83319"></trkpt>
      <trkpt lat="51.27762" lon="4.83325"></trkpt>
      <trkpt lat="51.27765" lon="4.83327"></trkpt>
      <trkpt lat="51.27769" lon="4.83326"></trkpt>
      <trkpt lat="51.27773" lon="4.83324"></trkpt>
      <trkpt lat="51.27777" lon="4.83322"></trkpt>
      <trkpt lat="51.27781" lon="4.83320"></trkpt>
      <trkpt lat="51.27785" lon="4.83318"></trkpt>
      <trkpt lat="51.27789" lon="4.83316"></trkpt>
      <trkpt lat="51.27793" lon="4.83314"></trkpt>
      <trkpt lat="51.27797" lon="4.83312"></trkpt>
      <trkpt lat="51.27801" lon="4.83310"></trkpt>
      <trkpt lat="51.27805" lon="4.83308"></trkpt>
      <trkpt lat="51.27810" lon="4.83306"></trkpt>
      <trkpt lat="51.27814" lon="4.83304"></trkpt>
      <trkpt lat="51.27818" lon="4.83303"></trkpt>
      <trkpt lat="51.27822" lon="4.83301"></trkpt>
      <trkpt lat="51.27827" lon="4.83299"></trkpt>
      <trkpt lat="51.27831" lon="4.83297"></trkpt>
      <trkpt lat="51.27835" lon="4.83295"></trkpt>
      <trkpt lat="51.27840" lon="4.83292"></trkpt>
      <trkpt lat="51.27844" lon="4.83292"></trkpt>
      <trkpt lat="51.27847" lon="4.83292"></trkpt>
      <trkpt lat="51.27852" lon="4.83291"></trkpt>
      <trkpt lat="51.27856" lon="4.83290"></trkpt>
      <trkpt lat="51.27861" lon="4.83289"></trkpt>
      <trkpt lat="51.27865" lon="4.83288"></trkpt>
      <trkpt lat="51.27870" lon="4.83287"></trkpt>
      <trkpt lat="51.27874" lon="4.83286"></trkpt>
      <trkpt lat="51.27878" lon="4.83286"></trkpt>
      <trkpt lat="51.27882" lon="4.83285"></trkpt>
      <trkpt lat="51.27886" lon="4.83285"></trkpt>
      <trkpt lat="51.27890" lon="4.83284"></trkpt>
      <trkpt lat="51.27894" lon="4.83284"></trkpt>
      <trkpt lat="51.27898" lon="4.83284"></trkpt>
      <trkpt lat="51.27902" lon="4.83283"></trkpt>
      <trkpt lat="51.27906" lon="4.83283"></trkpt>
      <trkpt lat="51.27911" lon="4.83282"></trkpt>
      <trkpt lat="51.27915" lon="4.83281"></trkpt>
      <trkpt lat="51.27920" lon="4.83280"></trkpt>
      <trkpt lat="51.27924" lon="4.83280"></trkpt>
      <trkpt lat="51.27928" lon="4.83279"></trkpt>
      <trkpt lat="51.27932" lon="4.83278"></trkpt>
      <trkpt lat="51.27936" lon="4.83278"></trkpt>
      <trkpt lat="51.27941" lon="4.83277"></trkpt>
      <trkpt lat="51.27944" lon="4.83276"></trkpt>
      <trkpt lat="51.27948" lon="4.83276"></trkpt>
      <trkpt lat="51.27952" lon="4.83275"></trkpt>
      <trkpt lat="51.27956" lon="4.83274"></trkpt>
      <trkpt lat="51.27960" lon="4.83272"></trkpt>
      <trkpt lat="51.27964" lon="4.83272"></trkpt>
      <trkpt lat="51.27968" lon="4.83271"></trkpt>
      <trkpt lat="51.27972" lon="4.83270"></trkpt>
      <trkpt lat="51.27976" lon="4.83269"></trkpt>
      <trkpt lat="51.27979" lon="4.83268"></trkpt>
      <trkpt lat="51.27983" lon="4.83268"></trkpt>
      <trkpt lat="51.27984" lon="4.83270"></trkpt>
      <trkpt lat="51.27984" lon="4.83274"></trkpt>
      <trkpt lat="51.27985" lon="4.83280"></trkpt>
      <trkpt lat="51.27986" lon="4.83285"></trkpt>
      <trkpt lat="51.27988" lon="4.83291"></trkpt>
      <trkpt lat="51.27991" lon="4.83296"></trkpt>
      <trkpt lat="51.27993" lon="4.83301"></trkpt>
      <trkpt lat="51.27995" lon="4.83306"></trkpt>
      <trkpt lat="51.27997" lon="4.83312"></trkpt>
      <trkpt lat="51.27999" lon="4.83317"></trkpt>
      <trkpt lat="51.28002" lon="4.83322"></trkpt>
      <trkpt lat="51.28004" lon="4.83328"></trkpt>
      <trkpt lat="51.28006" lon="4.83333"></trkpt>
      <trkpt lat="51.28009" lon="4.83339"></trkpt>
      <trkpt lat="51.28011" lon="4.83344"></trkpt>
      <trkpt lat="51.28014" lon="4.83349"></trkpt>
      <trkpt lat="51.28017" lon="4.83355"></trkpt>
      <trkpt lat="51.28019" lon="4.83361"></trkpt>
      <trkpt lat="51.28022" lon="4.83367"></trkpt>
      <trkpt lat="51.28024" lon="4.83372"></trkpt>
      <trkpt lat="51.28026" lon="4.83377"></trkpt>
      <trkpt lat="51.28028" lon="4.83382"></trkpt>
      <trkpt lat="51.28030" lon="4.83384"></trkpt>
      <trkpt lat="51.28034" lon="4.83386"></trkpt>
      <trkpt lat="51.28038" lon="4.83386"></trkpt>
      <trkpt lat="51.28042" lon="4.83385"></trkpt>
      <trkpt lat="51.28045" lon="4.83385"></trkpt>
      <trkpt lat="51.28048" lon="4.83384"></trkpt>
      <trkpt lat="51.28052" lon="4.83383"></trkpt>
      <trkpt lat="51.28056" lon="4.83381"></trkpt>
      <trkpt lat="51.28060" lon="4.83380"></trkpt>
      <trkpt lat="51.28064" lon="4.83379"></trkpt>
      <trkpt lat="51.28069" lon="4.83379"></trkpt>
      <trkpt lat="51.28072" lon="4.83378"></trkpt>
      <trkpt lat="51.28076" lon="4.83377"></trkpt>
      <trkpt lat="51.28080" lon="4.83377"></trkpt>
      <trkpt lat="51.28085" lon="4.83376"></trkpt>
      <trkpt lat="51.28089" lon="4.83375"></trkpt>
      <trkpt lat="51.28094" lon="4.83375"></trkpt>
      <trkpt lat="51.28098" lon="4.83373"></trkpt>
      <trkpt lat="51.28102" lon="4.83371"></trkpt>
      <trkpt lat="51.28106" lon="4.83368"></trkpt>
      <trkpt lat="51.28110" lon="4.83364"></trkpt>
      <trkpt lat="51.28113" lon="4.83360"></trkpt>
      <trkpt lat="51.28116" lon="4.83357"></trkpt>
      <trkpt lat="51.28120" lon="4.83354"></trkpt>
      <trkpt lat="51.28123" lon="4.83352"></trkpt>
      <trkpt lat="51.28127" lon="4.83349"></trkpt>
      <trkpt lat="51.28131" lon="4.83345"></trkpt>
      <trkpt lat="51.28134" lon="4.83342"></trkpt>
      <trkpt lat="51.28138" lon="4.83338"></trkpt>
      <trkpt lat="51.28142" lon="4.83335"></trkpt>
      <trkpt lat="51.28145" lon="4.83332"></trkpt>
      <trkpt lat="51.28147" lon="4.83328"></trkpt>
      <trkpt lat="51.28151" lon="4.83325"></trkpt>
      <trkpt lat="51.28155" lon="4.83323"></trkpt>
      <trkpt lat="51.28158" lon="4.83319"></trkpt>
      <trkpt lat="51.28161" lon="4.83314"></trkpt>
      <trkpt lat="51.28166" lon="4.83311"></trkpt>
      <trkpt lat="51.28169" lon="4.83312"></trkpt>
      <trkpt lat="51.28173" lon="4.83313"></trkpt>
      <trkpt lat="51.28177" lon="4.83314"></trkpt>
      <trkpt lat="51.28182" lon="4.83313"></trkpt>
      <trkpt lat="51.28186" lon="4.83311"></trkpt>
      <trkpt lat="51.28191" lon="4.83309"></trkpt>
      <trkpt lat="51.28195" lon="4.83307"></trkpt>
      <trkpt lat="51.28199" lon="4.83305"></trkpt>
      <trkpt lat="51.28203" lon="4.83302"></trkpt>
      <trkpt lat="51.28206" lon="4.83299"></trkpt>
      <trkpt lat="51.28211" lon="4.83297"></trkpt>
      <trkpt lat="51.28215" lon="4.83294"></trkpt>
      <trkpt lat="51.28219" lon="4.83292"></trkpt>
      <trkpt lat="51.28223" lon="4.83291"></trkpt>
      <trkpt lat="51.28226" lon="4.83288"></trkpt>
      <trkpt lat="51.28230" lon="4.83285"></trkpt>
      <trkpt lat="51.28233" lon="4.83281"></trkpt>
      <trkpt lat="51.28237" lon="4.83277"></trkpt>
      <trkpt lat="51.28241" lon="4.83276"></trkpt>
      <trkpt lat="51.28245" lon="4.83279"></trkpt>
      <trkpt lat="51.28248" lon="4.83283"></trkpt>
      <trkpt lat="51.28252" lon="4.83288"></trkpt>
      <trkpt lat="51.28255" lon="4.83294"></trkpt>
      <trkpt lat="51.28257" lon="4.83301"></trkpt>
      <trkpt lat="51.28259" lon="4.83307"></trkpt>
      <trkpt lat="51.28262" lon="4.83314"></trkpt>
      <trkpt lat="51.28264" lon="4.83320"></trkpt>
      <trkpt lat="51.28266" lon="4.83324"></trkpt>
      <trkpt lat="51.28269" lon="4.83329"></trkpt>
      <trkpt lat="51.28271" lon="4.83335"></trkpt>
      <trkpt lat="51.28273" lon="4.83341"></trkpt>
      <trkpt lat="51.28275" lon="4.83346"></trkpt>
      <trkpt lat="51.28278" lon="4.83352"></trkpt>
      <trkpt lat="51.28280" lon="4.83357"></trkpt>
      <trkpt lat="51.28282" lon="4.83362"></trkpt>
      <trkpt lat="51.28284" lon="4.83368"></trkpt>
      <trkpt lat="51.28286" lon="4.83373"></trkpt>
      <trkpt lat="51.28288" lon="4.83379"></trkpt>
      <trkpt lat="51.28289" lon="4.83384"></trkpt>
      <trkpt lat="51.28292" lon="4.83389"></trkpt>
      <trkpt lat="51.28294" lon="4.83394"></trkpt>
      <trkpt lat="51.28297" lon="4.83399"></trkpt>
      <trkpt lat="51.28299" lon="4.83404"></trkpt>
      <trkpt lat="51.28302" lon="4.83409"></trkpt>
      <trkpt lat="51.28304" lon="4.83415"></trkpt>
      <trkpt lat="51.28306" lon="4.83420"></trkpt>
      <trkpt lat="51.28308" lon="4.83425"></trkpt>
      <trkpt lat="51.28310" lon="4.83430"></trkpt>
      <trkpt lat="51.28313" lon="4.83435"></trkpt>
      <trkpt lat="51.28315" lon="4.83441"></trkpt>
      <trkpt lat="51.28317" lon="4.83446"></trkpt>
      <trkpt lat="51.28319" lon="4.83450"></trkpt>
      <trkpt lat="51.28322" lon="4.83455"></trkpt>
      <trkpt lat="51.28325" lon="4.83460"></trkpt>
      <trkpt lat="51.28328" lon="4.83465"></trkpt>
      <trkpt lat="51.28331" lon="4.83470"></trkpt>
      <trkpt lat="51.28334" lon="4.83475"></trkpt>
      <trkpt lat="51.28337" lon="4.83478"></trkpt>
      <trkpt lat="51.28340" lon="4.83481"></trkpt>
      <trkpt lat="51.28344" lon="4.83485"></trkpt>
      <trkpt lat="51.28348" lon="4.83488"></trkpt>
      <trkpt lat="51.28351" lon="4.83492"></trkpt>
      <trkpt lat="51.28355" lon="4.83497"></trkpt>
      <trkpt lat="51.28358" lon="4.83501"></trkpt>
      <trkpt lat="51.28362" lon="4.83506"></trkpt>
      <trkpt lat="51.28366" lon="4.83510"></trkpt>
      <trkpt lat="51.28369" lon="4.83515"></trkpt>
      <trkpt lat="51.28373" lon="4.83518"></trkpt>
      <trkpt lat="51.28378" lon="4.83522"></trkpt>
      <trkpt lat="51.28381" lon="4.83526"></trkpt>
      <trkpt lat="51.28384" lon="4.83530"></trkpt>
      <trkpt lat="51.28387" lon="4.83534"></trkpt>
      <trkpt lat="51.28390" lon="4.83538"></trkpt>
      <trkpt lat="51.28393" lon="4.83542"></trkpt>
      <trkpt lat="51.28396" lon="4.83546"></trkpt>
      <trkpt lat="51.28399" lon="4.83550"></trkpt>
      <trkpt lat="51.28402" lon="4.83555"></trkpt>
      <trkpt lat="51.28406" lon="4.83558"></trkpt>
      <trkpt lat="51.28409" lon="4.83563"></trkpt>
      <trkpt lat="51.28413" lon="4.83567"></trkpt>
      <trkpt lat="51.28416" lon="4.83571"></trkpt>
      <trkpt lat="51.28419" lon="4.83574"></trkpt>
      <trkpt lat="51.28423" lon="4.83577"></trkpt>
      <trkpt lat="51.28427" lon="4.83581"></trkpt>
      <trkpt lat="51.28429" lon="4.83584"></trkpt>
      <trkpt lat="51.28432" lon="4.83585"></trkpt>
      <trkpt lat="51.28434" lon="4.83585"></trkpt>
      <trkpt lat="51.28439" lon="4.83584"></trkpt>
      <trkpt lat="51.28444" lon="4.83585"></trkpt>
      <trkpt lat="51.28448" lon="4.83587"></trkpt>
      <trkpt lat="51.28452" lon="4.83590"></trkpt>
      <trkpt lat="51.28456" lon="4.83593"></trkpt>
      <trkpt lat="51.28460" lon="4.83595"></trkpt>
      <trkpt lat="51.28465" lon="4.83597"></trkpt>
      <trkpt lat="51.28468" lon="4.83600"></trkpt>
      <trkpt lat="51.28472" lon="4.83602"></trkpt>
      <trkpt lat="51.28477" lon="4.83604"></trkpt>
      <trkpt lat="51.28480" lon="4.83606"></trkpt>
      <trkpt lat="51.28484" lon="4.83609"></trkpt>
      <trkpt lat="51.28488" lon="4.83611"></trkpt>
      <trkpt lat="51.28492" lon="4.83614"></trkpt>
      <trkpt lat="51.28496" lon="4.83617"></trkpt>
      <trkpt lat="51.28500" lon="4.83619"></trkpt>
      <trkpt lat="51.28504" lon="4.83622"></trkpt>
      <trkpt lat="51.28508" lon="4.83624"></trkpt>
      <trkpt lat="51.28512" lon="4.83626"></trkpt>
      <trkpt lat="51.28517" lon="4.83628"></trkpt>
      <trkpt lat="51.28521" lon="4.83630"></trkpt>
      <trkpt lat="51.28525" lon="4.83633"></trkpt>
      <trkpt lat="51.28529" lon="4.83636"></trkpt>
      <trkpt lat="51.28534" lon="4.83639"></trkpt>
      <trkpt lat="51.28538" lon="4.83642"></trkpt>
      <trkpt lat="51.28542" lon="4.83644"></trkpt>
      <trkpt lat="51.28547" lon="4.83646"></trkpt>
      <trkpt lat="51.28551" lon="4.83648"></trkpt>
      <trkpt lat="51.28555" lon="4.83650"></trkpt>
      <trkpt lat="51.28560" lon="4.83653"></trkpt>
      <trkpt lat="51.28563" lon="4.83655"></trkpt>
      <trkpt lat="51.28568" lon="4.83658"></trkpt>
      <trkpt lat="51.28571" lon="4.83660"></trkpt>
      <trkpt lat="51.28575" lon="4.83662"></trkpt>
      <trkpt lat="51.28579" lon="4.83665"></trkpt>
      <trkpt lat="51.28583" lon="4.83666"></trkpt>
      <trkpt lat="51.28588" lon="4.83668"></trkpt>
      <trkpt lat="51.28591" lon="4.83670"></trkpt>
      <trkpt lat="51.28596" lon="4.83673"></trkpt>
      <trkpt lat="51.28600" lon="4.83675"></trkpt>
      <trkpt lat="51.28604" lon="4.83677"></trkpt>
      <trkpt lat="51.28609" lon="4.83679"></trkpt>
      <trkpt lat="51.28613" lon="4.83681"></trkpt>
      <trkpt lat="51.28617" lon="4.83684"></trkpt>
      <trkpt lat="51.28621" lon="4.83687"></trkpt>
      <trkpt lat="51.28625" lon="4.83690"></trkpt>
      <trkpt lat="51.28629" lon="4.83693"></trkpt>
      <trkpt lat="51.28632" lon="4.83696"></trkpt>
      <trkpt lat="51.28636" lon="4.83699"></trkpt>
      <trkpt lat="51.28640" lon="4.83700"></trkpt>
      <trkpt lat="51.28644" lon="4.83701"></trkpt>
      <trkpt lat="51.28647" lon="4.83703"></trkpt>
      <trkpt lat="51.28652" lon="4.83705"></trkpt>
      <trkpt lat="51.28656" lon="4.83708"></trkpt>
      <trkpt lat="51.28659" lon="4.83711"></trkpt>
      <trkpt lat="51.28663" lon="4.83713"></trkpt>
      <trkpt lat="51.28667" lon="4.83715"></trkpt>
      <trkpt lat="51.28671" lon="4.83718"></trkpt>
      <trkpt lat="51.28674" lon="4.83720"></trkpt>
      <trkpt lat="51.28678" lon="4.83721"></trkpt>
      <trkpt lat="51.28682" lon="4.83723"></trkpt>
      <trkpt lat="51.28686" lon="4.83725"></trkpt>
      <trkpt lat="51.28689" lon="4.83727"></trkpt>
      <trkpt lat="51.28692" lon="4.83729"></trkpt>
      <trkpt lat="51.28694" lon="4.83730"></trkpt>
      <trkpt lat="51.28697" lon="4.83732"></trkpt>
      <trkpt lat="51.28699" lon="4.83735"></trkpt>
      <trkpt lat="51.28702" lon="4.83737"></trkpt>
      <trkpt lat="51.28705" lon="4.83739"></trkpt>
      <trkpt lat="51.28709" lon="4.83741"></trkpt>
      <trkpt lat="51.28712" lon="4.83743"></trkpt>
      <trkpt lat="51.28716" lon="4.83745"></trkpt>
      <trkpt lat="51.28720" lon="4.83747"></trkpt>
      <trkpt lat="51.28723" lon="4.83749"></trkpt>
      <trkpt lat="51.28727" lon="4.83751"></trkpt>
      <trkpt lat="51.28730" lon="4.83753"></trkpt>
      <trkpt lat="51.28734" lon="4.83755"></trkpt>
      <trkpt lat="51.28736" lon="4.83757"></trkpt>
      <trkpt lat="51.28738" lon="4.83758"></trkpt>
      <trkpt lat="51.28740" lon="4.83759"></trkpt>
      <trkpt lat="51.28742" lon="4.83761"></trkpt>
      <trkpt lat="51.28744" lon="4.83762"></trkpt>
      <trkpt lat="51.28746" lon="4.83763"></trkpt>
      <trkpt lat="51.28749" lon="4.83765"></trkpt>
      <trkpt lat="51.28753" lon="4.83767"></trkpt>
      <trkpt lat="51.28757" lon="4.83770"></trkpt>
      <trkpt lat="51.28761" lon="4.83773"></trkpt>
      <trkpt lat="51.28765" lon="4.83774"></trkpt>
      <trkpt lat="51.28769" lon="4.83776"></trkpt>
      <trkpt lat="51.28773" lon="4.83778"></trkpt>
      <trkpt lat="51.28777" lon="4.83781"></trkpt>
      <trkpt lat="51.28781" lon="4.83784"></trkpt>
      <trkpt lat="51.28785" lon="4.83786"></trkpt>
      <trkpt lat="51.28788" lon="4.83788"></trkpt>
      <trkpt lat="51.28792" lon="4.83790"></trkpt>
      <trkpt lat="51.28797" lon="4.83791"></trkpt>
      <trkpt lat="51.28800" lon="4.83793"></trkpt>
      <trkpt lat="51.28804" lon="4.83796"></trkpt>
      <trkpt lat="51.28808" lon="4.83799"></trkpt>
      <trkpt lat="51.28811" lon="4.83803"></trkpt>
      <trkpt lat="51.28813" lon="4.83809"></trkpt>
      <trkpt lat="51.28814" lon="4.83815"></trkpt>
      <trkpt lat="51.28813" lon="4.83822"></trkpt>
      <trkpt lat="51.28812" lon="4.83828"></trkpt>
      <trkpt lat="51.28811" lon="4.83835"></trkpt>
      <trkpt lat="51.28810" lon="4.83841"></trkpt>
      <trkpt lat="51.28807" lon="4.83846"></trkpt>
      <trkpt lat="51.28804" lon="4.83851"></trkpt>
      <trkpt lat="51.28801" lon="4.83855"></trkpt>
      <trkpt lat="51.28797" lon="4.83860"></trkpt>
      <trkpt lat="51.28794" lon="4.83865"></trkpt>
      <trkpt lat="51.28791" lon="4.83869"></trkpt>
      <trkpt lat="51.28788" lon="4.83873"></trkpt>
      <trkpt lat="51.28785" lon="4.83877"></trkpt>
      <trkpt lat="51.28782" lon="4.83881"></trkpt>
      <trkpt lat="51.28778" lon="4.83887"></trkpt>
      <trkpt lat="51.28775" lon="4.83892"></trkpt>
      <trkpt lat="51.28772" lon="4.83897"></trkpt>
      <trkpt lat="51.28770" lon="4.83902"></trkpt>
      <trkpt lat="51.28767" lon="4.83906"></trkpt>
      <trkpt lat="51.28764" lon="4.83911"></trkpt>
      <trkpt lat="51.28761" lon="4.83915"></trkpt>
      <trkpt lat="51.28757" lon="4.83920"></trkpt>
      <trkpt lat="51.28754" lon="4.83923"></trkpt>
      <trkpt lat="51.28750" lon="4.83926"></trkpt>
      <trkpt lat="51.28747" lon="4.83930"></trkpt>
      <trkpt lat="51.28744" lon="4.83935"></trkpt>
      <trkpt lat="51.28741" lon="4.83939"></trkpt>
      <trkpt lat="51.28739" lon="4.83943"></trkpt>
      <trkpt lat="51.28736" lon="4.83948"></trkpt>
      <trkpt lat="51.28733" lon="4.83952"></trkpt>
      <trkpt lat="51.28730" lon="4.83956"></trkpt>
      <trkpt lat="51.28727" lon="4.83961"></trkpt>
      <trkpt lat="51.28725" lon="4.83968"></trkpt>
      <trkpt lat="51.28726" lon="4.83975"></trkpt>
      <trkpt lat="51.28727" lon="4.83980"></trkpt>
      <trkpt lat="51.28730" lon="4.83985"></trkpt>
      <trkpt lat="51.28732" lon="4.83990"></trkpt>
      <trkpt lat="51.28734" lon="4.83995"></trkpt>
      <trkpt lat="51.28736" lon="4.84001"></trkpt>
      <trkpt lat="51.28738" lon="4.84006"></trkpt>
      <trkpt lat="51.28741" lon="4.84011"></trkpt>
      <trkpt lat="51.28743" lon="4.84016"></trkpt>
      <trkpt lat="51.28745" lon="4.84022"></trkpt>
      <trkpt lat="51.28748" lon="4.84027"></trkpt>
      <trkpt lat="51.28750" lon="4.84033"></trkpt>
      <trkpt lat="51.28752" lon="4.84038"></trkpt>
      <trkpt lat="51.28754" lon="4.84043"></trkpt>
      <trkpt lat="51.28758" lon="4.84048"></trkpt>
      <trkpt lat="51.28761" lon="4.84052"></trkpt>
      <trkpt lat="51.28764" lon="4.84056"></trkpt>
      <trkpt lat="51.28767" lon="4.84060"></trkpt>
      <trkpt lat="51.28771" lon="4.84064"></trkpt>
      <trkpt lat="51.28774" lon="4.84069"></trkpt>
      <trkpt lat="51.28777" lon="4.84073"></trkpt>
      <trkpt lat="51.28780" lon="4.84078"></trkpt>
      <trkpt lat="51.28784" lon="4.84082"></trkpt>
      <trkpt lat="51.28786" lon="4.84085"></trkpt>
      <trkpt lat="51.28789" lon="4.84089"></trkpt>
      <trkpt lat="51.28792" lon="4.84093"></trkpt>
      <trkpt lat="51.28795" lon="4.84096"></trkpt>
      <trkpt lat="51.28799" lon="4.84098"></trkpt>
      <trkpt lat="51.28803" lon="4.84100"></trkpt>
      <trkpt lat="51.28807" lon="4.84102"></trkpt>
      <trkpt lat="51.28811" lon="4.84105"></trkpt>
      <trkpt lat="51.28815" lon="4.84108"></trkpt>
      <trkpt lat="51.28819" lon="4.84111"></trkpt>
      <trkpt lat="51.28824" lon="4.84114"></trkpt>
      <trkpt lat="51.28828" lon="4.84117"></trkpt>
      <trkpt lat="51.28832" lon="4.84121"></trkpt>
      <trkpt lat="51.28836" lon="4.84124"></trkpt>
      <trkpt lat="51.28840" lon="4.84128"></trkpt>
      <trkpt lat="51.28844" lon="4.84132"></trkpt>
      <trkpt lat="51.28847" lon="4.84135"></trkpt>
      <trkpt lat="51.28851" lon="4.84138"></trkpt>
      <trkpt lat="51.28855" lon="4.84140"></trkpt>
      <trkpt lat="51.28859" lon="4.84143"></trkpt>
      <trkpt lat="51.28863" lon="4.84146"></trkpt>
      <trkpt lat="51.28867" lon="4.84149"></trkpt>
      <trkpt lat="51.28871" lon="4.84151"></trkpt>
      <trkpt lat="51.28875" lon="4.84152"></trkpt>
      <trkpt lat="51.28879" lon="4.84153"></trkpt>
      <trkpt lat="51.28884" lon="4.84152"></trkpt>
      <trkpt lat="51.28887" lon="4.84151"></trkpt>
      <trkpt lat="51.28890" lon="4.84152"></trkpt>
      <trkpt lat="51.28890" lon="4.84154"></trkpt>
      <trkpt lat="51.28893" lon="4.84156"></trkpt>
      <trkpt lat="51.28897" lon="4.84157"></trkpt>
      <trkpt lat="51.28901" lon="4.84158"></trkpt>
      <trkpt lat="51.28904" lon="4.84160"></trkpt>
      <trkpt lat="51.28907" lon="4.84163"></trkpt>
      <trkpt lat="51.28909" lon="4.84166"></trkpt>
      <trkpt lat="51.28911" lon="4.84170"></trkpt>
      <trkpt lat="51.28915" lon="4.84174"></trkpt>
      <trkpt lat="51.28919" lon="4.84178"></trkpt>
      <trkpt lat="51.28922" lon="4.84180"></trkpt>
      <trkpt lat="51.28927" lon="4.84183"></trkpt>
      <trkpt lat="51.28930" lon="4.84184"></trkpt>
      <trkpt lat="51.28934" lon="4.84186"></trkpt>
      <trkpt lat="51.28938" lon="4.84189"></trkpt>
      <trkpt lat="51.28942" lon="4.84191"></trkpt>
      <trkpt lat="51.28945" lon="4.84194"></trkpt>
      <trkpt lat="51.28949" lon="4.84199"></trkpt>
      <trkpt lat="51.28952" lon="4.84203"></trkpt>
      <trkpt lat="51.28955" lon="4.84208"></trkpt>
      <trkpt lat="51.28958" lon="4.84211"></trkpt>
      <trkpt lat="51.28962" lon="4.84214"></trkpt>
      <trkpt lat="51.28966" lon="4.84216"></trkpt>
      <trkpt lat="51.28969" lon="4.84217"></trkpt>
      <trkpt lat="51.28971" lon="4.84217"></trkpt>
      <trkpt lat="51.28972" lon="4.84216"></trkpt>
      <trkpt lat="51.28975" lon="4.84214"></trkpt>
      <trkpt lat="51.28979" lon="4.84213"></trkpt>
      <trkpt lat="51.28983" lon="4.84213"></trkpt>
      <trkpt lat="51.28987" lon="4.84215"></trkpt>
      <trkpt lat="51.28991" lon="4.84218"></trkpt>
      <trkpt lat="51.28995" lon="4.84221"></trkpt>
      <trkpt lat="51.28999" lon="4.84225"></trkpt>
      <trkpt lat="51.29002" lon="4.84229"></trkpt>
      <trkpt lat="51.29005" lon="4.84233"></trkpt>
      <trkpt lat="51.29008" lon="4.84238"></trkpt>
      <trkpt lat="51.29010" lon="4.84244"></trkpt>
      <trkpt lat="51.29013" lon="4.84250"></trkpt>
      <trkpt lat="51.29015" lon="4.84254"></trkpt>
      <trkpt lat="51.29019" lon="4.84259"></trkpt>
      <trkpt lat="51.29022" lon="4.84263"></trkpt>
      <trkpt lat="51.29025" lon="4.84267"></trkpt>
      <trkpt lat="51.29029" lon="4.84270"></trkpt>
      <trkpt lat="51.29032" lon="4.84274"></trkpt>
      <trkpt lat="51.29034" lon="4.84279"></trkpt>
      <trkpt lat="51.29037" lon="4.84285"></trkpt>
      <trkpt lat="51.29040" lon="4.84291"></trkpt>
      <trkpt lat="51.29043" lon="4.84296"></trkpt>
      <trkpt lat="51.29046" lon="4.84301"></trkpt>
      <trkpt lat="51.29049" lon="4.84306"></trkpt>
      <trkpt lat="51.29052" lon="4.84312"></trkpt>
      <trkpt lat="51.29055" lon="4.84317"></trkpt>
      <trkpt lat="51.29057" lon="4.84322"></trkpt>
      <trkpt lat="51.29060" lon="4.84327"></trkpt>
      <trkpt lat="51.29062" lon="4.84331"></trkpt>
      <trkpt lat="51.29066" lon="4.84335"></trkpt>
      <trkpt lat="51.29069" lon="4.84339"></trkpt>
      <trkpt lat="51.29072" lon="4.84343"></trkpt>
      <trkpt lat="51.29075" lon="4.84347"></trkpt>
      <trkpt lat="51.29079" lon="4.84351"></trkpt>
      <trkpt lat="51.29082" lon="4.84357"></trkpt>
      <trkpt lat="51.29084" lon="4.84363"></trkpt>
      <trkpt lat="51.29086" lon="4.84369"></trkpt>
      <trkpt lat="51.29088" lon="4.84375"></trkpt>
      <trkpt lat="51.29090" lon="4.84381"></trkpt>
      <trkpt lat="51.29093" lon="4.84386"></trkpt>
      <trkpt lat="51.29095" lon="4.84391"></trkpt>
      <trkpt lat="51.29099" lon="4.84394"></trkpt>
      <trkpt lat="51.29103" lon="4.84396"></trkpt>
      <trkpt lat="51.29106" lon="4.84398"></trkpt>
      <trkpt lat="51.29109" lon="4.84401"></trkpt>
      <trkpt lat="51.29113" lon="4.84405"></trkpt>
      <trkpt lat="51.29116" lon="4.84409"></trkpt>
      <trkpt lat="51.29118" lon="4.84412"></trkpt>
      <trkpt lat="51.29120" lon="4.84417"></trkpt>
      <trkpt lat="51.29124" lon="4.84422"></trkpt>
      <trkpt lat="51.29127" lon="4.84426"></trkpt>
      <trkpt lat="51.29130" lon="4.84431"></trkpt>
      <trkpt lat="51.29132" lon="4.84435"></trkpt>
      <trkpt lat="51.29135" lon="4.84440"></trkpt>
      <trkpt lat="51.29138" lon="4.84445"></trkpt>
      <trkpt lat="51.29141" lon="4.84451"></trkpt>
      <trkpt lat="51.29144" lon="4.84456"></trkpt>
      <trkpt lat="51.29147" lon="4.84461"></trkpt>
      <trkpt lat="51.29151" lon="4.84466"></trkpt>
      <trkpt lat="51.29154" lon="4.84470"></trkpt>
      <trkpt lat="51.29157" lon="4.84474"></trkpt>
      <trkpt lat="51.29160" lon="4.84478"></trkpt>
      <trkpt lat="51.29163" lon="4.84484"></trkpt>
      <trkpt lat="51.29166" lon="4.84488"></trkpt>
      <trkpt lat="51.29168" lon="4.84492"></trkpt>
      <trkpt lat="51.29172" lon="4.84495"></trkpt>
      <trkpt lat="51.29176" lon="4.84496"></trkpt>
      <trkpt lat="51.29180" lon="4.84498"></trkpt>
      <trkpt lat="51.29184" lon="4.84501"></trkpt>
      <trkpt lat="51.29188" lon="4.84504"></trkpt>
      <trkpt lat="51.29191" lon="4.84508"></trkpt>
      <trkpt lat="51.29193" lon="4.84515"></trkpt>
      <trkpt lat="51.29194" lon="4.84522"></trkpt>
      <trkpt lat="51.29193" lon="4.84529"></trkpt>
      <trkpt lat="51.29192" lon="4.84536"></trkpt>
      <trkpt lat="51.29191" lon="4.84543"></trkpt>
      <trkpt lat="51.29188" lon="4.84548"></trkpt>
      <trkpt lat="51.29184" lon="4.84552"></trkpt>
      <trkpt lat="51.29180" lon="4.84557"></trkpt>
      <trkpt lat="51.29176" lon="4.84560"></trkpt>
      <trkpt lat="51.29173" lon="4.84564"></trkpt>
      <trkpt lat="51.29169" lon="4.84567"></trkpt>
      <trkpt lat="51.29165" lon="4.84570"></trkpt>
      <trkpt lat="51.29161" lon="4.84574"></trkpt>
      <trkpt lat="51.29158" lon="4.84580"></trkpt>
      <trkpt lat="51.29155" lon="4.84585"></trkpt>
      <trkpt lat="51.29152" lon="4.84590"></trkpt>
      <trkpt lat="51.29148" lon="4.84594"></trkpt>
      <trkpt lat="51.29145" lon="4.84598"></trkpt>
      <trkpt lat="51.29142" lon="4.84601"></trkpt>
      <trkpt lat="51.29139" lon="4.84605"></trkpt>
      <trkpt lat="51.29135" lon="4.84608"></trkpt>
      <trkpt lat="51.29132" lon="4.84613"></trkpt>
      <trkpt lat="51.29129" lon="4.84618"></trkpt>
      <trkpt lat="51.29126" lon="4.84622"></trkpt>
      <trkpt lat="51.29123" lon="4.84626"></trkpt>
      <trkpt lat="51.29120" lon="4.84630"></trkpt>
      <trkpt lat="51.29117" lon="4.84635"></trkpt>
      <trkpt lat="51.29114" lon="4.84639"></trkpt>
      <trkpt lat="51.29112" lon="4.84644"></trkpt>
      <trkpt lat="51.29112" lon="4.84649"></trkpt>
      <trkpt lat="51.29113" lon="4.84654"></trkpt>
      <trkpt lat="51.29114" lon="4.84658"></trkpt>
      <trkpt lat="51.29118" lon="4.84663"></trkpt>
      <trkpt lat="51.29122" lon="4.84667"></trkpt>
      <trkpt lat="51.29125" lon="4.84671"></trkpt>
      <trkpt lat="51.29128" lon="4.84674"></trkpt>
      <trkpt lat="51.29130" lon="4.84679"></trkpt>
      <trkpt lat="51.29133" lon="4.84684"></trkpt>
      <trkpt lat="51.29136" lon="4.84688"></trkpt>
      <trkpt lat="51.29140" lon="4.84693"></trkpt>
      <trkpt lat="51.29143" lon="4.84697"></trkpt>
      <trkpt lat="51.29146" lon="4.84702"></trkpt>
      <trkpt lat="51.29149" lon="4.84706"></trkpt>
      <trkpt lat="51.29151" lon="4.84710"></trkpt>
      <trkpt lat="51.29154" lon="4.84715"></trkpt>
      <trkpt lat="51.29157" lon="4.84720"></trkpt>
      <trkpt lat="51.29160" lon="4.84725"></trkpt>
      <trkpt lat="51.29164" lon="4.84730"></trkpt>
      <trkpt lat="51.29167" lon="4.84736"></trkpt>
      <trkpt lat="51.29170" lon="4.84740"></trkpt>
      <trkpt lat="51.29172" lon="4.84744"></trkpt>
      <trkpt lat="51.29175" lon="4.84749"></trkpt>
      <trkpt lat="51.29178" lon="4.84753"></trkpt>
      <trkpt lat="51.29182" lon="4.84758"></trkpt>
      <trkpt lat="51.29186" lon="4.84763"></trkpt>
      <trkpt lat="51.29189" lon="4.84767"></trkpt>
      <trkpt lat="51.29192" lon="4.84772"></trkpt>
      <trkpt lat="51.29195" lon="4.84777"></trkpt>
      <trkpt lat="51.29197" lon="4.84781"></trkpt>
      <trkpt lat="51.29199" lon="4.84786"></trkpt>
      <trkpt lat="51.29202" lon="4.84790"></trkpt>
      <trkpt lat="51.29204" lon="4.84794"></trkpt>
      <trkpt lat="51.29208" lon="4.84799"></trkpt>
      <trkpt lat="51.29211" lon="4.84804"></trkpt>
      <trkpt lat="51.29213" lon="4.84809"></trkpt>
      <trkpt lat="51.29216" lon="4.84814"></trkpt>
      <trkpt lat="51.29219" lon="4.84818"></trkpt>
      <trkpt lat="51.29223" lon="4.84821"></trkpt>
      <trkpt lat="51.29226" lon="4.84826"></trkpt>
      <trkpt lat="51.29230" lon="4.84830"></trkpt>
      <trkpt lat="51.29233" lon="4.84834"></trkpt>
      <trkpt lat="51.29237" lon="4.84838"></trkpt>
      <trkpt lat="51.29241" lon="4.84843"></trkpt>
      <trkpt lat="51.29244" lon="4.84848"></trkpt>
      <trkpt lat="51.29247" lon="4.84854"></trkpt>
      <trkpt lat="51.29250" lon="4.84858"></trkpt>
      <trkpt lat="51.29253" lon="4.84863"></trkpt>
      <trkpt lat="51.29256" lon="4.84868"></trkpt>
      <trkpt lat="51.29258" lon="4.84872"></trkpt>
      <trkpt lat="51.29260" lon="4.84877"></trkpt>
      <trkpt lat="51.29263" lon="4.84882"></trkpt>
      <trkpt lat="51.29265" lon="4.84887"></trkpt>
      <trkpt lat="51.29267" lon="4.84893"></trkpt>
      <trkpt lat="51.29270" lon="4.84898"></trkpt>
      <trkpt lat="51.29273" lon="4.84901"></trkpt>
      <trkpt lat="51.29278" lon="4.84901"></trkpt>
      <trkpt lat="51.29281" lon="4.84900"></trkpt>
      <trkpt lat="51.29284" lon="4.84897"></trkpt>
      <trkpt lat="51.29288" lon="4.84892"></trkpt>
      <trkpt lat="51.29291" lon="4.84887"></trkpt>
      <trkpt lat="51.29294" lon="4.84883"></trkpt>
      <trkpt lat="51.29298" lon="4.84879"></trkpt>
      <trkpt lat="51.29301" lon="4.84875"></trkpt>
      <trkpt lat="51.29305" lon="4.84871"></trkpt>
      <trkpt lat="51.29308" lon="4.84867"></trkpt>
      <trkpt lat="51.29310" lon="4.84863"></trkpt>
      <trkpt lat="51.29314" lon="4.84860"></trkpt>
      <trkpt lat="51.29317" lon="4.84856"></trkpt>
      <trkpt lat="51.29320" lon="4.84853"></trkpt>
      <trkpt lat="51.29324" lon="4.84849"></trkpt>
      <trkpt lat="51.29328" lon="4.84845"></trkpt>
      <trkpt lat="51.29331" lon="4.84842"></trkpt>
      <trkpt lat="51.29335" lon="4.84839"></trkpt>
      <trkpt lat="51.29338" lon="4.84835"></trkpt>
      <trkpt lat="51.29342" lon="4.84831"></trkpt>
      <trkpt lat="51.29345" lon="4.84827"></trkpt>
      <trkpt lat="51.29348" lon="4.84824"></trkpt>
      <trkpt lat="51.29352" lon="4.84820"></trkpt>
      <trkpt lat="51.29356" lon="4.84817"></trkpt>
      <trkpt lat="51.29359" lon="4.84813"></trkpt>
      <trkpt lat="51.29363" lon="4.84812"></trkpt>
      <trkpt lat="51.29367" lon="4.84812"></trkpt>
      <trkpt lat="51.29370" lon="4.84816"></trkpt>
      <trkpt lat="51.29373" lon="4.84822"></trkpt>
      <trkpt lat="51.29376" lon="4.84828"></trkpt>
      <trkpt lat="51.29378" lon="4.84834"></trkpt>
      <trkpt lat="51.29381" lon="4.84840"></trkpt>
      <trkpt lat="51.29383" lon="4.84845"></trkpt>
      <trkpt lat="51.29386" lon="4.84850"></trkpt>
      <trkpt lat="51.29388" lon="4.84855"></trkpt>
      <trkpt lat="51.29391" lon="4.84860"></trkpt>
      <trkpt lat="51.29394" lon="4.84864"></trkpt>
      <trkpt lat="51.29395" lon="4.84869"></trkpt>
      <trkpt lat="51.29397" lon="4.84874"></trkpt>
      <trkpt lat="51.29398" lon="4.84877"></trkpt>
    </trkseg>
  </trk>
</gpx>