<?xml version="1.0" encoding="UTF-8"?>
<gpx version="1.1" creator="jeffry.running" xmlns="http://www.topografix.com/GPX/1/1">
  <metadata><time>2026-09-20T06:17:20.164Z</time></metadata>
  <trk>
    <trkseg>
      <trkpt lat="51.29472" lon="4.85122"></trkpt>
      <trkpt lat="51.29481" lon="4.85146"></trkpt>
      <trkpt lat="51.29492" lon="4.85179"></trkpt>
      <trkpt lat="51.29504" lon="4.85217"></trkpt>
      <trkpt lat="51.29515" lon="4.85244"></trkpt>
      <trkpt lat="51.29526" lon="4.85271"></trkpt>
      <trkpt lat="51.29536" lon="4.85300"></trkpt>
      <trkpt lat="51.29545" lon="4.85329"></trkpt>
      <trkpt lat="51.29557" lon="4.85358"></trkpt>
      <trkpt lat="51.29566" lon="4.85385"></trkpt>
      <trkpt lat="51.29575" lon="4.85411"></trkpt>
      <trkpt lat="51.29586" lon="4.85438"></trkpt>
      <trkpt lat="51.29596" lon="4.85466"></trkpt>
      <trkpt lat="51.29604" lon="4.85493"></trkpt>
      <trkpt lat="51.29613" lon="4.85519"></trkpt>
      <trkpt lat="51.29623" lon="4.85543"></trkpt>
      <trkpt lat="51.29630" lon="4.85564"></trkpt>
      <trkpt lat="51.29644" lon="4.85576"></trkpt>
      <trkpt lat="51.29663" lon="4.85575"></trkpt>
      <trkpt lat="51.29683" lon="4.85573"></trkpt>
      <trkpt lat="51.29703" lon="4.85572"></trkpt>
      <trkpt lat="51.29722" lon="4.85573"></trkpt>
      <trkpt lat="51.29739" lon="4.85578"></trkpt>
      <trkpt lat="51.29747" lon="4.85604"></trkpt>
      <trkpt lat="51.29755" lon="4.85632"></trkpt>
      <trkpt lat="51.29763" lon="4.85658"></trkpt>
      <trkpt lat="51.29769" lon="4.85684"></trkpt>
      <trkpt lat="51.29777" lon="4.85712"></trkpt>
      <trkpt lat="51.29785" lon="4.85741"></trkpt>
      <trkpt lat="51.29792" lon="4.85770"></trkpt>
      <trkpt lat="51.29801" lon="4.85799"></trkpt>
      <trkpt lat="51.29809" lon="4.85827"></trkpt>
      <trkpt lat="51.29817" lon="4.85858"></trkpt>
      <trkpt lat="51.29826" lon="4.85886"></trkpt>
      <trkpt lat="51.29836" lon="4.85913"></trkpt>
      <trkpt lat="51.29847" lon="4.85941"></trkpt>
      <trkpt lat="51.29856" lon="4.85969"></trkpt>
      <trkpt lat="51.29864" lon="4.85998"></trkpt>
      <trkpt lat="51.29872" lon="4.86023"></trkpt>
      <trkpt lat="51.29879" lon="4.86048"></trkpt>
      <trkpt lat="51.29888" lon="4.86076"></trkpt>
      <trkpt lat="51.29897" lon="4.86106"></trkpt>
      <trkpt lat="51.29905" lon="4.86136"></trkpt>
      <trkpt lat="51.29913" lon="4.86165"></trkpt>
      <trkpt lat="51.29920" lon="4.86192"></trkpt>
      <trkpt lat="51.29929" lon="4.86219"></trkpt>
      <trkpt lat="51.29939" lon="4.86248"></trkpt>
      <trkpt lat="51.29950" lon="4.86275"></trkpt>
      <trkpt lat="51.29960" lon="4.86304"></trkpt>
      <trkpt lat="51.29968" lon="4.86331"></trkpt>
      <trkpt lat="51.29977" lon="4.86356"></trkpt>
      <trkpt lat="51.29986" lon="4.86385"></trkpt>
      <trkpt lat="51.29995" lon="4.86413"></trkpt>
      <trkpt lat="51.30004" lon="4.86441"></trkpt>
      <trkpt lat="51.30014" lon="4.86468"></trkpt>
      <trkpt lat="51.30024" lon="4.86494"></trkpt>
      <trkpt lat="51.30034" lon="4.86520"></trkpt>
      <trkpt lat="51.30042" lon="4.86547"></trkpt>
      <trkpt lat="51.30050" lon="4.86573"></trkpt>
      <trkpt lat="51.30059" lon="4.86601"></trkpt>
      <trkpt lat="51.30067" lon="4.86628"></trkpt>
      <trkpt lat="51.30077" lon="4.86658"></trkpt>
      <trkpt lat="51.30087" lon="4.86688"></trkpt>
      <trkpt lat="51.30095" lon="4.86716"></trkpt>
      <trkpt lat="51.30103" lon="4.86745"></trkpt>
      <trkpt lat="51.30111" lon="4.86774"></trkpt>
      <trkpt lat="51.30120" lon="4.86802"></trkpt>
      <trkpt lat="51.30129" lon="4.86831"></trkpt>
      <trkpt lat="51.30137" lon="4.86861"></trkpt>
      <trkpt lat="51.30145" lon="4.86890"></trkpt>
      <trkpt lat="51.30143" lon="4.86915"></trkpt>
      <trkpt lat="51.30128" lon="4.86929"></trkpt>
      <trkpt lat="51.30111" lon="4.86940"></trkpt>
      <trkpt lat="51.30099" lon="4.86949"></trkpt>
      <trkpt lat="51.30091" lon="4.86955"></trkpt>
      <trkpt lat="51.30082" lon="4.86963"></trkpt>
      <trkpt lat="51.30072" lon="4.86971"></trkpt>
      <trkpt lat="51.30063" lon="4.86980"></trkpt>
      <trkpt lat="51.30052" lon="4.86989"></trkpt>
      <trkpt lat="51.30041" lon="4.86992"></trkpt>
      <trkpt lat="51.30037" lon="4.86992"></trkpt>
      <trkpt lat="51.30037" lon="4.86993"></trkpt>
      <trkpt lat="51.30036" lon="4.86993"></trkpt>
      <trkpt lat="51.30036" lon="4.86994"></trkpt>
      <trkpt lat="51.30035" lon="4.86994"></trkpt>
      <trkpt lat="51.30035" lon="4.86995"></trkpt>
      <trkpt lat="51.30029" lon="4.87003"></trkpt>
      <trkpt lat="51.30026" lon="4.87007"></trkpt>
      <trkpt lat="51.30025" lon="4.87007"></trkpt>
      <trkpt lat="51.30020" lon="4.87010"></trkpt>
      <trkpt lat="51.30005" lon="4.87022"></trkpt>
      <trkpt lat="51.29988" lon="4.87037"></trkpt>
      <trkpt lat="51.29971" lon="4.87055"></trkpt>
      <trkpt lat="51.29952" lon="4.87073"></trkpt>
      <trkpt lat="51.29933" lon="4.87089"></trkpt>
      <trkpt lat="51.29913" lon="4.87103"></trkpt>
      <trkpt lat="51.29894" lon="4.87116"></trkpt>
      <trkpt lat="51.29874" lon="4.87128"></trkpt>
      <trkpt lat="51.29852" lon="4.87129"></trkpt>
      <trkpt lat="51.29830" lon="4.87130"></trkpt>
      <trkpt lat="51.29808" lon="4.87129"></trkpt>
      <trkpt lat="51.29786" lon="4.87127"></trkpt>
      <trkpt lat="51.29765" lon="4.87124"></trkpt>
      <trkpt lat="51.29744" lon="4.87122"></trkpt>
      <trkpt lat="51.29723" lon="4.87121"></trkpt>
      <trkpt lat="51.29704" lon="4.87118"></trkpt>
      <trkpt lat="51.29685" lon="4.87115"></trkpt>
      <trkpt lat="51.29665" lon="4.87111"></trkpt>
      <trkpt lat="51.29645" lon="4.87110"></trkpt>
      <trkpt lat="51.29625" lon="4.87109"></trkpt>
      <trkpt lat="51.29605" lon="4.87106"></trkpt>
      <trkpt lat="51.29585" lon="4.87102"></trkpt>
      <trkpt lat="51.29566" lon="4.87098"></trkpt>
      <trkpt lat="51.29545" lon="4.87096"></trkpt>
      <trkpt lat="51.29525" lon="4.87093"></trkpt>
      <trkpt lat="51.29504" lon="4.87091"></trkpt>
      <trkpt lat="51.29485" lon="4.87089"></trkpt>
      <trkpt lat="51.29466" lon="4.87086"></trkpt>
      <trkpt lat="51.29450" lon="4.87086"></trkpt>
      <trkpt lat="51.29444" lon="4.87085"></trkpt>
      <trkpt lat="51.29425" lon="4.87079"></trkpt>
      <trkpt lat="51.29405" lon="4.87076"></trkpt>
      <trkpt lat="51.29384" lon="4.87076"></trkpt>
      <trkpt lat="51.29363" lon="4.87074"></trkpt>
      <trkpt lat="51.29344" lon="4.87075"></trkpt>
      <trkpt lat="51.29339" lon="4.87099"></trkpt>
      <trkpt lat="51.29342" lon="4.87136"></trkpt>
      <trkpt lat="51.29343" lon="4.87171"></trkpt>
      <trkpt lat="51.29345" lon="4.87204"></trkpt>
      <trkpt lat="51.29348" lon="4.87233"></trkpt>
      <trkpt lat="51.29351" lon="4.87264"></trkpt>
      <trkpt lat="51.29353" lon="4.87279"></trkpt>
      <trkpt lat="51.29354" lon="4.87279"></trkpt>
      <trkpt lat="51.29354" lon="4.87279"></trkpt>
      <trkpt lat="51.29355" lon="4.87279"></trkpt>
      <trkpt lat="51.29355" lon="4.87279"></trkpt>
      <trkpt lat="51.29356" lon="4.87279"></trkpt>
      <trkpt lat="51.29361" lon="4.87276"></trkpt>
      <trkpt lat="51.29379" lon="4.87260"></trkpt>
      <trkpt lat="51.29399" lon="4.87246"></trkpt>
      <trkpt lat="51.29419" lon="4.87229"></trkpt>
      <trkpt lat="51.29431" lon="4.87237"></trkpt>
      <trkpt lat="51.29426" lon="4.87268"></trkpt>
      <trkpt lat="51.29420" lon="4.87302"></trkpt>
      <trkpt lat="51.29414" lon="4.87336"></trkpt>
      <trkpt lat="51.29407" lon="4.87361"></trkpt>
      <trkpt lat="51.29391" lon="4.87375"></trkpt>
      <trkpt lat="51.29376" lon="4.87397"></trkpt>
      <trkpt lat="51.29362" lon="4.87422"></trkpt>
      <trkpt lat="51.29351" lon="4.87454"></trkpt>
      <trkpt lat="51.29353" lon="4.87484"></trkpt>
      <trkpt lat="51.29357" lon="4.87488"></trkpt>
      <trkpt lat="51.29357" lon="4.87488"></trkpt>
      <trkpt lat="51.29357" lon="4.87488"></trkpt>
      <trkpt lat="51.29357" lon="4.87487"></trkpt>
      <trkpt lat="51.29356" lon="4.87487"></trkpt>
      <trkpt lat="51.29356" lon="4.87487"></trkpt>
      <trkpt lat="51.29356" lon="4.87486"></trkpt>
      <trkpt lat="51.29355" lon="4.87484"></trkpt>
      <trkpt lat="51.29355" lon="4.87484"></trkpt>
      <trkpt lat="51.29355" lon="4.87485"></trkpt>
      <trkpt lat="51.29355" lon="4.87485"></trkpt>
      <trkpt lat="51.29355" lon="4.87485"></trkpt>
      <trkpt lat="51.29355" lon="4.87486"></trkpt>
      <trkpt lat="51.29355" lon="4.87486"></trkpt>
      <trkpt lat="51.29361" lon="4.87493"></trkpt>
      <trkpt lat="51.29380" lon="4.87511"></trkpt>
      <trkpt lat="51.29398" lon="4.87527"></trkpt>
      <trkpt lat="51.29416" lon="4.87545"></trkpt>
      <trkpt lat="51.29435" lon="4.87564"></trkpt>
      <trkpt lat="51.29454" lon="4.87582"></trkpt>
      <trkpt lat="51.29471" lon="4.87598"></trkpt>
      <trkpt lat="51.29489" lon="4.87615"></trkpt>
      <trkpt lat="51.29508" lon="4.87634"></trkpt>
      <trkpt lat="51.29525" lon="4.87653"></trkpt>
      <trkpt lat="51.29543" lon="4.87672"></trkpt>
      <trkpt lat="51.29562" lon="4.87691"></trkpt>
      <trkpt lat="51.29583" lon="4.87704"></trkpt>
      <trkpt lat="51.29605" lon="4.87706"></trkpt>
      <trkpt lat="51.29625" lon="4.87702"></trkpt>
      <trkpt lat="51.29638" lon="4.87698"></trkpt>
      <trkpt lat="51.29648" lon="4.87695"></trkpt>
      <trkpt lat="51.29657" lon="4.87693"></trkpt>
      <trkpt lat="51.29661" lon="4.87691"></trkpt>
      <trkpt lat="51.29662" lon="4.87691"></trkpt>
      <trkpt lat="51.29666" lon="4.87691"></trkpt>
      <trkpt lat="51.29679" lon="4.87688"></trkpt>
      <trkpt lat="51.29690" lon="4.87687"></trkpt>
      <trkpt lat="51.29702" lon="4.87688"></trkpt>
      <trkpt lat="51.29714" lon="4.87689"></trkpt>
      <trkpt lat="51.29726" lon="4.87688"></trkpt>
      <trkpt lat="51.29738" lon="4.87689"></trkpt>
      <trkpt lat="51.29751" lon="4.87690"></trkpt>
      <trkpt lat="51.29765" lon="4.87691"></trkpt>
      <trkpt lat="51.29776" lon="4.87692"></trkpt>
      <trkpt lat="51.29790" lon="4.87693"></trkpt>
      <trkpt lat="51.29800" lon="4.87693"></trkpt>
      <trkpt lat="51.29813" lon="4.87694"></trkpt>
      <trkpt lat="51.29829" lon="4.87702"></trkpt>
      <trkpt lat="51.29833" lon="4.87733"></trkpt>
      <trkpt lat="51.29835" lon="4.87767"></trkpt>
      <trkpt lat="51.29841" lon="4.87800"></trkpt>
      <trkpt lat="51.29848" lon="4.87832"></trkpt>
      <trkpt lat="51.29855" lon="4.87866"></trkpt>
      <trkpt lat="51.29856" lon="4.87900"></trkpt>
      <trkpt lat="51.29856" lon="4.87935"></trkpt>
      <trkpt lat="51.29856" lon="4.87970"></trkpt>
      <trkpt lat="51.29855" lon="4.88005"></trkpt>
      <trkpt lat="51.29853" lon="4.88040"></trkpt>
      <trkpt lat="51.29850" lon="4.88075"></trkpt>
      <trkpt lat="51.29848" lon="4.88110"></trkpt>
      <trkpt lat="51.29845" lon="4.88145"></trkpt>
      <trkpt lat="51.29843" lon="4.88181"></trkpt>
      <trkpt lat="51.29840" lon="4.88216"></trkpt>
      <trkpt lat="51.29837" lon="4.88251"></trkpt>
      <trkpt lat="51.29828" lon="4.88283"></trkpt>
      <trkpt lat="51.29821" lon="4.88315"></trkpt>
      <trkpt lat="51.29818" lon="4.88348"></trkpt>
      <trkpt lat="51.29818" lon="4.88382"></trkpt>
      <trkpt lat="51.29824" lon="4.88416"></trkpt>
      <trkpt lat="51.29829" lon="4.88449"></trkpt>
      <trkpt lat="51.29833" lon="4.88484"></trkpt>
      <trkpt lat="51.29834" lon="4.88517"></trkpt>
      <trkpt lat="51.29835" lon="4.88551"></trkpt>
      <trkpt lat="51.29835" lon="4.88585"></trkpt>
      <trkpt lat="51.29835" lon="4.88619"></trkpt>
      <trkpt lat="51.29836" lon="4.88654"></trkpt>
      <trkpt lat="51.29836" lon="4.88688"></trkpt>
      <trkpt lat="51.29835" lon="4.88721"></trkpt>
      <trkpt lat="51.29834" lon="4.88754"></trkpt>
      <trkpt lat="51.29832" lon="4.88787"></trkpt>
      <trkpt lat="51.29827" lon="4.88818"></trkpt>
      <trkpt lat="51.29808" lon="4.88830"></trkpt>
      <trkpt lat="51.29786" lon="4.88836"></trkpt>
      <trkpt lat="51.29766" lon="4.88843"></trkpt>
      <trkpt lat="51.29745" lon="4.88850"></trkpt>
      <trkpt lat="51.29725" lon="4.88857"></trkpt>
      <trkpt lat="51.29704" lon="4.88865"></trkpt>
      <trkpt lat="51.29692" lon="4.88869"></trkpt>
      <trkpt lat="51.29678" lon="4.88874"></trkpt>
      <trkpt lat="51.29664" lon="4.88879"></trkpt>
      <trkpt lat="51.29649" lon="4.88884"></trkpt>
      <trkpt lat="51.29635" lon="4.88890"></trkpt>
      <trkpt lat="51.29619" lon="4.88895"></trkpt>
      <trkpt lat="51.29605" lon="4.88899"></trkpt>
      <trkpt lat="51.29587" lon="4.88906"></trkpt>
      <trkpt lat="51.29566" lon="4.88913"></trkpt>
      <trkpt lat="51.29545" lon="4.88918"></trkpt>
      <trkpt lat="51.29522" lon="4.88918"></trkpt>
      <trkpt lat="51.29505" lon="4.88900"></trkpt>
      <trkpt lat="51.29498" lon="4.88865"></trkpt>
      <trkpt lat="51.29494" lon="4.88830"></trkpt>
      <trkpt lat="51.29479" lon="4.88813"></trkpt>
      <trkpt lat="51.29458" lon="4.88800"></trkpt>
      <trkpt lat="51.29439" lon="4.88779"></trkpt>
      <trkpt lat="51.29421" lon="4.88757"></trkpt>
      <trkpt lat="51.29403" lon="4.88738"></trkpt>
      <trkpt lat="51.29394" lon="4.88735"></trkpt>
      <trkpt lat="51.29393" lon="4.88735"></trkpt>
      <trkpt lat="51.29393" lon="4.88735"></trkpt>
      <trkpt lat="51.29393" lon="4.88734"></trkpt>
      <trkpt lat="51.29392" lon="4.88734"></trkpt>
      <trkpt lat="51.29392" lon="4.88733"></trkpt>
      <trkpt lat="51.29392" lon="4.88733"></trkpt>
      <trkpt lat="51.29390" lon="4.88730"></trkpt>
      <trkpt lat="51.29380" lon="4.88723"></trkpt>
      <trkpt lat="51.29368" lon="4.88722"></trkpt>
      <trkpt lat="51.29346" lon="4.88723"></trkpt>
      <trkpt lat="51.29325" lon="4.88723"></trkpt>
      <trkpt lat="51.29302" lon="4.88725"></trkpt>
      <trkpt lat="51.29279" lon="4.88725"></trkpt>
      <trkpt lat="51.29258" lon="4.88727"></trkpt>
      <trkpt lat="51.29237" lon="4.88726"></trkpt>
      <trkpt lat="51.29231" lon="4.88697"></trkpt>
      <trkpt lat="51.29231" lon="4.88661"></trkpt>
      <trkpt lat="51.29223" lon="4.88629"></trkpt>
      <trkpt lat="51.29211" lon="4.88599"></trkpt>
      <trkpt lat="51.29204" lon="4.88564"></trkpt>
      <trkpt lat="51.29204" lon="4.88527"></trkpt>
      <trkpt lat="51.29207" lon="4.88488"></trkpt>
      <trkpt lat="51.29210" lon="4.88449"></trkpt>
      <trkpt lat="51.29214" lon="4.88413"></trkpt>
      <trkpt lat="51.29217" lon="4.88377"></trkpt>
      <trkpt lat="51.29219" lon="4.88340"></trkpt>
      <trkpt lat="51.29221" lon="4.88304"></trkpt>
      <trkpt lat="51.29224" lon="4.88268"></trkpt>
      <trkpt lat="51.29226" lon="4.88232"></trkpt>
      <trkpt lat="51.29229" lon="4.88198"></trkpt>
      <trkpt lat="51.29230" lon="4.88167"></trkpt>
      <trkpt lat="51.29231" lon="4.88133"></trkpt>
      <trkpt lat="51.29230" lon="4.88097"></trkpt>
      <trkpt lat="51.29235" lon="4.88064"></trkpt>
      <trkpt lat="51.29247" lon="4.88038"></trkpt>
      <trkpt lat="51.29262" lon="4.88014"></trkpt>
      <trkpt lat="51.29279" lon="4.87988"></trkpt>
      <trkpt lat="51.29292" lon="4.87957"></trkpt>
      <trkpt lat="51.29301" lon="4.87921"></trkpt>
      <trkpt lat="51.29303" lon="4.87887"></trkpt>
      <trkpt lat="51.29300" lon="4.87854"></trkpt>
      <trkpt lat="51.29288" lon="4.87827"></trkpt>
      <trkpt lat="51.29271" lon="4.87814"></trkpt>
      <trkpt lat="51.29249" lon="4.87813"></trkpt>
      <trkpt lat="51.29227" lon="4.87809"></trkpt>
      <trkpt lat="51.29205" lon="4.87808"></trkpt>
      <trkpt lat="51.29182" lon="4.87806"></trkpt>
      <trkpt lat="51.29161" lon="4.87802"></trkpt>
      <trkpt lat="51.29138" lon="4.87802"></trkpt>
      <trkpt lat="51.29117" lon="4.87797"></trkpt>
      <trkpt lat="51.29096" lon="4.87796"></trkpt>
      <trkpt lat="51.29074" lon="4.87793"></trkpt>
      <trkpt lat="51.29052" lon="4.87788"></trkpt>
      <trkpt lat="51.29028" lon="4.87787"></trkpt>
      <trkpt lat="51.29013" lon="4.87772"></trkpt>
      <trkpt lat="51.29013" lon="4.87737"></trkpt>
      <trkpt lat="51.29014" lon="4.87703"></trkpt>
      <trkpt lat="51.29014" lon="4.87671"></trkpt>
      <trkpt lat="51.29013" lon="4.87636"></trkpt>
      <trkpt lat="51.29014" lon="4.87599"></trkpt>
      <trkpt lat="51.29015" lon="4.87564"></trkpt>
      <trkpt lat="51.29016" lon="4.87544"></trkpt>
      <trkpt lat="51.29016" lon="4.87543"></trkpt>
      <trkpt lat="51.29015" lon="4.87533"></trkpt>
      <trkpt lat="51.29015" lon="4.87500"></trkpt>
      <trkpt lat="51.29016" lon="4.87465"></trkpt>
      <trkpt lat="51.29016" lon="4.87430"></trkpt>
      <trkpt lat="51.29017" lon="4.87395"></trkpt>
      <trkpt lat="51.29018" lon="4.87359"></trkpt>
      <trkpt lat="51.29019" lon="4.87323"></trkpt>
      <trkpt lat="51.29018" lon="4.87291"></trkpt>
      <trkpt lat="51.29019" lon="4.87257"></trkpt>
      <trkpt lat="51.29019" lon="4.87220"></trkpt>
      <trkpt lat="51.29019" lon="4.87184"></trkpt>
      <trkpt lat="51.29020" lon="4.87149"></trkpt>
      <trkpt lat="51.29021" lon="4.87114"></trkpt>
      <trkpt lat="51.29021" lon="4.87079"></trkpt>
      <trkpt lat="51.29022" lon="4.87045"></trkpt>
      <trkpt lat="51.29022" lon="4.87011"></trkpt>
      <trkpt lat="51.29021" lon="4.86976"></trkpt>
      <trkpt lat="51.29022" lon="4.86941"></trkpt>
      <trkpt lat="51.29023" lon="4.86906"></trkpt>
      <trkpt lat="51.29023" lon="4.86868"></trkpt>
      <trkpt lat="51.29023" lon="4.86835"></trkpt>
      <trkpt lat="51.29018" lon="4.86803"></trkpt>
      <trkpt lat="51.29000" lon="4.86793"></trkpt>
      <trkpt lat="51.28979" lon="4.86787"></trkpt>
      <trkpt lat="51.28958" lon="4.86782"></trkpt>
      <trkpt lat="51.28936" lon="4.86777"></trkpt>
      <trkpt lat="51.28914" lon="4.86772"></trkpt>
      <trkpt lat="51.28893" lon="4.86764"></trkpt>
      <trkpt lat="51.28871" lon="4.86758"></trkpt>
      <trkpt lat="51.28850" lon="4.86753"></trkpt>
      <trkpt lat="51.28829" lon="4.86752"></trkpt>
      <trkpt lat="51.28809" lon="4.86773"></trkpt>
      <trkpt lat="51.28791" lon="4.86788"></trkpt>
      <trkpt lat="51.28772" lon="4.86798"></trkpt>
      <trkpt lat="51.28753" lon="4.86804"></trkpt>
      <trkpt lat="51.28735" lon="4.86819"></trkpt>
      <trkpt lat="51.28712" lon="4.86828"></trkpt>
      <trkpt lat="51.28689" lon="4.86835"></trkpt>
      <trkpt lat="51.28668" lon="4.86841"></trkpt>
      <trkpt lat="51.28662" lon="4.86844"></trkpt>
      <trkpt lat="51.28661" lon="4.86844"></trkpt>
      <trkpt lat="51.28657" lon="4.86844"></trkpt>
      <trkpt lat="51.28646" lon="4.86846"></trkpt>
      <trkpt lat="51.28635" lon="4.86847"></trkpt>
      <trkpt lat="51.28623" lon="4.86850"></trkpt>
      <trkpt lat="51.28616" lon="4.86854"></trkpt>
      <trkpt lat="51.28605" lon="4.86857"></trkpt>
      <trkpt lat="51.28592" lon="4.86862"></trkpt>
      <trkpt lat="51.28575" lon="4.86867"></trkpt>
      <trkpt lat="51.28554" lon="4.86873"></trkpt>
      <trkpt lat="51.28534" lon="4.86880"></trkpt>
      <trkpt lat="51.28517" lon="4.86899"></trkpt>
      <trkpt lat="51.28498" lon="4.86914"></trkpt>
      <trkpt lat="51.28479" lon="4.86921"></trkpt>
      <trkpt lat="51.28458" lon="4.86915"></trkpt>
      <trkpt lat="51.28438" lon="4.86895"></trkpt>
      <trkpt lat="51.28417" lon="4.86885"></trkpt>
      <trkpt lat="51.28397" lon="4.86894"></trkpt>
      <trkpt lat="51.28377" lon="4.86908"></trkpt>
      <trkpt lat="51.28357" lon="4.86895"></trkpt>
      <trkpt lat="51.28343" lon="4.86865"></trkpt>
      <trkpt lat="51.28333" lon="4.86836"></trkpt>
      <trkpt lat="51.28341" lon="4.86808"></trkpt>
      <trkpt lat="51.28354" lon="4.86779"></trkpt>
      <trkpt lat="51.28368" lon="4.86752"></trkpt>
      <trkpt lat="51.28380" lon="4.86722"></trkpt>
      <trkpt lat="51.28395" lon="4.86693"></trkpt>
      <trkpt lat="51.28408" lon="4.86667"></trkpt>
      <trkpt lat="51.28421" lon="4.86640"></trkpt>
      <trkpt lat="51.28433" lon="4.86616"></trkpt>
      <trkpt lat="51.28446" lon="4.86588"></trkpt>
      <trkpt lat="51.28454" lon="4.86560"></trkpt>
      <trkpt lat="51.28444" lon="4.86530"></trkpt>
      <trkpt lat="51.28431" lon="4.86498"></trkpt>
      <trkpt lat="51.28418" lon="4.86468"></trkpt>
      <trkpt lat="51.28407" lon="4.86439"></trkpt>
      <trkpt lat="51.28411" lon="4.86414"></trkpt>
      <trkpt lat="51.28433" lon="4.86418"></trkpt>
      <trkpt lat="51.28445" lon="4.86418"></trkpt>
      <trkpt lat="51.28450" lon="4.86417"></trkpt>
      <trkpt lat="51.28460" lon="4.86416"></trkpt>
      <trkpt lat="51.28465" lon="4.86416"></trkpt>
      <trkpt lat="51.28477" lon="4.86412"></trkpt>
      <trkpt lat="51.28495" lon="4.86401"></trkpt>
      <trkpt lat="51.28513" lon="4.86381"></trkpt>
      <trkpt lat="51.28525" lon="4.86352"></trkpt>
      <trkpt lat="51.28530" lon="4.86318"></trkpt>
      <trkpt lat="51.28536" lon="4.86284"></trkpt>
      <trkpt lat="51.28541" lon="4.86248"></trkpt>
      <trkpt lat="51.28544" lon="4.86228"></trkpt>
      <trkpt lat="51.28547" lon="4.86205"></trkpt>
      <trkpt lat="51.28554" lon="4.86168"></trkpt>
      <trkpt lat="51.28559" lon="4.86134"></trkpt>
      <trkpt lat="51.28562" lon="4.86102"></trkpt>
      <trkpt lat="51.28546" lon="4.86086"></trkpt>
      <trkpt lat="51.28524" lon="4.86075"></trkpt>
      <trkpt lat="51.28504" lon="4.86058"></trkpt>
      <trkpt lat="51.28489" lon="4.86030"></trkpt>
      <trkpt lat="51.28476" lon="4.86000"></trkpt>
      <trkpt lat="51.28464" lon="4.85970"></trkpt>
      <trkpt lat="51.28450" lon="4.85941"></trkpt>
      <trkpt lat="51.28436" lon="4.85912"></trkpt>
      <trkpt lat="51.28422" lon="4.85883"></trkpt>
      <trkpt lat="51.28409" lon="4.85856"></trkpt>
      <trkpt lat="51.28396" lon="4.85827"></trkpt>
      <trkpt lat="51.28383" lon="4.85797"></trkpt>
      <trkpt lat="51.28369" lon="4.85771"></trkpt>
      <trkpt lat="51.28351" lon="4.85761"></trkpt>
      <trkpt lat="51.28358" lon="4.85736"></trkpt>
      <trkpt lat="51.28377" lon="4.85713"></trkpt>
      <trkpt lat="51.28388" lon="4.85682"></trkpt>
      <trkpt lat="51.28402" lon="4.85656"></trkpt>
      <trkpt lat="51.28420" lon="4.85658"></trkpt>
      <trkpt lat="51.28436" lon="4.85657"></trkpt>
      <trkpt lat="51.28451" lon="4.85648"></trkpt>
      <trkpt lat="51.28466" lon="4.85638"></trkpt>
      <trkpt lat="51.28480" lon="4.85627"></trkpt>
      <trkpt lat="51.28494" lon="4.85616"></trkpt>
      <trkpt lat="51.28508" lon="4.85606"></trkpt>
      <trkpt lat="51.28521" lon="4.85596"></trkpt>
      <trkpt lat="51.28535" lon="4.85587"></trkpt>
      <trkpt lat="51.28548" lon="4.85579"></trkpt>
      <trkpt lat="51.28566" lon="4.85568"></trkpt>
      <trkpt lat="51.28588" lon="4.85557"></trkpt>
      <trkpt lat="51.28610" lon="4.85547"></trkpt>
      <trkpt lat="51.28633" lon="4.85537"></trkpt>
      <trkpt lat="51.28656" lon="4.85530"></trkpt>
      <trkpt lat="51.28679" lon="4.85523"></trkpt>
      <trkpt lat="51.28702" lon="4.85518"></trkpt>
      <trkpt lat="51.28724" lon="4.85515"></trkpt>
      <trkpt lat="51.28747" lon="4.85512"></trkpt>
      <trkpt lat="51.28771" lon="4.85507"></trkpt>
      <trkpt lat="51.28793" lon="4.85495"></trkpt>
      <trkpt lat="51.28813" lon="4.85484"></trkpt>
      <trkpt lat="51.28834" lon="4.85495"></trkpt>
      <trkpt lat="51.28851" lon="4.85512"></trkpt>
      <trkpt lat="51.28869" lon="4.85533"></trkpt>
      <trkpt lat="51.28889" lon="4.85550"></trkpt>
      <trkpt lat="51.28909" lon="4.85562"></trkpt>
      <trkpt lat="51.28923" lon="4.85537"></trkpt>
      <trkpt lat="51.28941" lon="4.85517"></trkpt>
      <trkpt lat="51.28963" lon="4.85501"></trkpt>
      <trkpt lat="51.28985" lon="4.85485"></trkpt>
      <trkpt lat="51.29007" lon="4.85470"></trkpt>
      <trkpt lat="51.29029" lon="4.85445"></trkpt>
      <trkpt lat="51.29046" lon="4.85419"></trkpt>
      <trkpt lat="51.29066" lon="4.85401"></trkpt>
      <trkpt lat="51.29089" lon="4.85384"></trkpt>
      <trkpt lat="51.29111" lon="4.85366"></trkpt>
      <trkpt lat="51.29133" lon="4.85346"></trkpt>
      <trkpt lat="51.29157" lon="4.85333"></trkpt>
      <trkpt lat="51.29182" lon="4.85319"></trkpt>
      <trkpt lat="51.29206" lon="4.85305"></trkpt>
      <trkpt lat="51.29228" lon="4.85292"></trkpt>
      <trkpt lat="51.29248" lon="4.85278"></trkpt>
      <trkpt lat="51.29264" lon="4.85263"></trkpt>
      <trkpt lat="51.29283" lon="4.85248"></trkpt>
      <trkpt lat="51.29303" lon="4.85230"></trkpt>
      <trkpt lat="51.29322" lon="4.85213"></trkpt>
      <trkpt lat="51.29339" lon="4.85197"></trkpt>
      <trkpt lat="51.29358" lon="4.85179"></trkpt>
      <trkpt lat="51.29375" lon="4.85163"></trkpt>
      <trkpt lat="51.29393" lon="4.85147"></trkpt>
      <trkpt lat="51.29411" lon="4.85132"></trkpt>
      <trkpt lat="51.29429" lon="4.85114"></trkpt>
      <trkpt lat="51.29448" lon="4.85097"></trkpt>
      <trkpt lat="51.29468" lon="4.85078"></trkpt>
      <trkpt lat="51.29488" lon="4.85063"></trkpt>
      <trkpt lat="51.29503" lon="4.85042"></trkpt>
      <trkpt lat="51.29499" lon="4.85013"></trkpt>
      <trkpt lat="51.29486" lon="4.84988"></trkpt>
      <trkpt lat="51.29473" lon="4.84967"></trkpt>
      <trkpt lat="51.29459" lon="4.84935"></trkpt>
      <trkpt lat="51.29445" lon="4.84902"></trkpt>
      <trkpt lat="51.29434" lon="4.84882"></trkpt>
      <trkpt lat="51.29433" lon="4.84882"></trkpt>
      <trkpt lat="51.29433" lon="4.84882"></trkpt>
      <trkpt lat="51.29432" lon="4.84882"></trkpt>
      <trkpt lat="51.29432" lon="4.84882"></trkpt>
      <trkpt lat="51.29432" lon="4.84883"></trkpt>
      <trkpt lat="51.29432" lon="4.84883"></trkpt>
      <trkpt lat="51.29431" lon="4.84883"></trkpt>
      <trkpt lat="51.29431" lon="4.84884"></trkpt>
      <trkpt lat="51.29431" lon="4.84884"></trkpt>
      <trkpt lat="51.29431" lon="4.84885"></trkpt>
      <trkpt lat="51.29430" lon="4.84885"></trkpt>
      <trkpt lat="51.29430" lon="4.84885"></trkpt>
      <trkpt lat="51.29430" lon="4.84886"></trkpt>
      <trkpt lat="51.29430" lon="4.84886"></trkpt>
      <trkpt lat="51.29420" lon="4.84901"></trkpt>
      <trkpt lat="51.29418" lon="4.84904"></trkpt>
      <trkpt lat="51.29418" lon="4.84904"></trkpt>
      <trkpt lat="51.29418" lon="4.84904"></trkpt>
      <trkpt lat="51.29418" lon="4.84904"></trkpt>
      <trkpt lat="51.29418" lon="4.84904"></trkpt>
      <trkpt lat="51.29418" lon="4.84904"></trkpt>
      <trkpt lat="51.29418" lon="4.84904"></trkpt>
      <trkpt lat="51.29418" lon="4.84905"></trkpt>
      <trkpt lat="51.29418" lon="4.84905"></trkpt>
      <trkpt lat="51.29418" lon="4.84905"></trkpt>
      <trkpt lat="51.29417" lon="4.84905"></trkpt>
      <trkpt lat="51.29417" lon="4.84905"></trkpt>
      <trkpt lat="51.29417" lon="4.84905"></trkpt>
      <trkpt lat="51.29417" lon="4.84905"></trkpt>
      <trkpt lat="51.29417" lon="4.84905"></trkpt>
      <trkpt lat="51.29417" lon="4.84905"></trkpt>
      <trkpt lat="51.29417" lon="4.84905"></trkpt>
      <trkpt lat="51.29417" lon="4.84906"></trkpt>
      <trkpt lat="51.29417" lon="4.84906"></trkpt>
      <trkpt lat="51.29417" lon="4.84906"></trkpt>
      <trkpt lat="51.29417" lon="4.84906"></trkpt>
      <trkpt lat="51.29408" lon="4.84897"></trkpt>
      <trkpt lat="51.29392" lon="4.84874"></trkpt>
      <trkpt lat="51.29379" lon="4.84845"></trkpt>
      <trkpt lat="51.29366" lon="4.84820"></trkpt>
      <trkpt lat="51.29347" lon="4.84832"></trkpt>
      <trkpt lat="51.29330" lon="4.84850"></trkpt>
      <trkpt lat="51.29314" lon="4.84867"></trkpt>
      <trkpt lat="51.29298" lon="4.84887"></trkpt>
      <trkpt lat="51.29283" lon="4.84899"></trkpt>
      <trkpt lat="51.29268" lon="4.84886"></trkpt>
      <trkpt lat="51.29252" lon="4.84861"></trkpt>
      <trkpt lat="51.29236" lon="4.84836"></trkpt>
      <trkpt lat="51.29219" lon="4.84812"></trkpt>
      <trkpt lat="51.29203" lon="4.84785"></trkpt>
      <trkpt lat="51.29187" lon="4.84760"></trkpt>
      <trkpt lat="51.29168" lon="4.84736"></trkpt>
      <trkpt lat="51.29152" lon="4.84712"></trkpt>
      <trkpt lat="51.29135" lon="4.84689"></trkpt>
      <trkpt lat="51.29119" lon="4.84662"></trkpt>
      <trkpt lat="51.29114" lon="4.84634"></trkpt>
      <trkpt lat="51.29129" lon="4.84612"></trkpt>
      <trkpt lat="51.29146" lon="4.84592"></trkpt>
      <trkpt lat="51.29164" lon="4.84568"></trkpt>
      <trkpt lat="51.29182" lon="4.84544"></trkpt>
      <trkpt lat="51.29194" lon="4.84519"></trkpt>
      <trkpt lat="51.29183" lon="4.84498"></trkpt>
      <trkpt lat="51.29164" lon="4.84480"></trkpt>
      <trkpt lat="51.29149" lon="4.84454"></trkpt>
      <trkpt lat="51.29134" lon="4.84427"></trkpt>
      <trkpt lat="51.29118" lon="4.84405"></trkpt>
      <trkpt lat="51.29101" lon="4.84381"></trkpt>
      <trkpt lat="51.29086" lon="4.84353"></trkpt>
      <trkpt lat="51.29067" lon="4.84334"></trkpt>
      <trkpt lat="51.29052" lon="4.84310"></trkpt>
      <trkpt lat="51.29038" lon="4.84283"></trkpt>
      <trkpt lat="51.29022" lon="4.84260"></trkpt>
      <trkpt lat="51.29009" lon="4.84237"></trkpt>
      <trkpt lat="51.28996" lon="4.84216"></trkpt>
      <trkpt lat="51.28975" lon="4.84208"></trkpt>
      <trkpt lat="51.28953" lon="4.84204"></trkpt>
      <trkpt lat="51.28933" lon="4.84191"></trkpt>
      <trkpt lat="51.28914" lon="4.84175"></trkpt>
      <trkpt lat="51.28901" lon="4.84164"></trkpt>
      <trkpt lat="51.28884" lon="4.84157"></trkpt>
      <trkpt lat="51.28865" lon="4.84153"></trkpt>
      <trkpt lat="51.28847" lon="4.84135"></trkpt>
      <trkpt lat="51.28827" lon="4.84117"></trkpt>
      <trkpt lat="51.28808" lon="4.84105"></trkpt>
      <trkpt lat="51.28789" lon="4.84090"></trkpt>
      <trkpt lat="51.28774" lon="4.84066"></trkpt>
      <trkpt lat="51.28757" lon="4.84039"></trkpt>
      <trkpt lat="51.28745" lon="4.84010"></trkpt>
      <trkpt lat="51.28732" lon="4.83979"></trkpt>
      <trkpt lat="51.28735" lon="4.83951"></trkpt>
      <trkpt lat="51.28753" lon="4.83926"></trkpt>
      <trkpt lat="51.28771" lon="4.83902"></trkpt>
      <trkpt lat="51.28788" lon="4.83876"></trkpt>
      <trkpt lat="51.28805" lon="4.83854"></trkpt>
      <trkpt lat="51.28815" lon="4.83824"></trkpt>
      <trkpt lat="51.28806" lon="4.83798"></trkpt>
      <trkpt lat="51.28785" lon="4.83783"></trkpt>
      <trkpt lat="51.28775" lon="4.83774"></trkpt>
      <trkpt lat="51.28774" lon="4.83774"></trkpt>
      <trkpt lat="51.28772" lon="4.83773"></trkpt>
      <trkpt lat="51.28753" lon="4.83763"></trkpt>
      <trkpt lat="51.28731" lon="4.83750"></trkpt>
      <trkpt lat="51.28710" lon="4.83736"></trkpt>
      <trkpt lat="51.28688" lon="4.83722"></trkpt>
      <trkpt lat="51.28664" lon="4.83710"></trkpt>
      <trkpt lat="51.28643" lon="4.83699"></trkpt>
      <trkpt lat="51.28619" lon="4.83687"></trkpt>
      <trkpt lat="51.28597" lon="4.83676"></trkpt>
      <trkpt lat="51.28577" lon="4.83665"></trkpt>
      <trkpt lat="51.28556" lon="4.83652"></trkpt>
      <trkpt lat="51.28534" lon="4.83641"></trkpt>
      <trkpt lat="51.28512" lon="4.83630"></trkpt>
      <trkpt lat="51.28492" lon="4.83616"></trkpt>
      <trkpt lat="51.28472" lon="4.83603"></trkpt>
      <trkpt lat="51.28451" lon="4.83588"></trkpt>
      <trkpt lat="51.28428" lon="4.83578"></trkpt>
      <trkpt lat="51.28407" lon="4.83558"></trkpt>
      <trkpt lat="51.28389" lon="4.83534"></trkpt>
      <trkpt lat="51.28370" lon="4.83511"></trkpt>
      <trkpt lat="51.28351" lon="4.83491"></trkpt>
      <trkpt lat="51.28331" lon="4.83473"></trkpt>
      <trkpt lat="51.28311" lon="4.83450"></trkpt>
      <trkpt lat="51.28298" lon="4.83422"></trkpt>
      <trkpt lat="51.28292" lon="4.83415"></trkpt>
      <trkpt lat="51.28285" lon="4.83394"></trkpt>
      <trkpt lat="51.28273" lon="4.83363"></trkpt>
      <trkpt lat="51.28262" lon="4.83333"></trkpt>
      <trkpt lat="51.28250" lon="4.83302"></trkpt>
      <trkpt lat="51.28236" lon="4.83287"></trkpt>
      <trkpt lat="51.28219" lon="4.83296"></trkpt>
      <trkpt lat="51.28200" lon="4.83308"></trkpt>
      <trkpt lat="51.28182" lon="4.83314"></trkpt>
      <trkpt lat="51.28166" lon="4.83321"></trkpt>
      <trkpt lat="51.28152" lon="4.83334"></trkpt>
      <trkpt lat="51.28133" lon="4.83352"></trkpt>
      <trkpt lat="51.28112" lon="4.83373"></trkpt>
      <trkpt lat="51.28102" lon="4.83404"></trkpt>
      <trkpt lat="51.28092" lon="4.83437"></trkpt>
      <trkpt lat="51.28084" lon="4.83469"></trkpt>
      <trkpt lat="51.28070" lon="4.83498"></trkpt>
      <trkpt lat="51.28053" lon="4.83519"></trkpt>
      <trkpt lat="51.28032" lon="4.83530"></trkpt>
      <trkpt lat="51.28010" lon="4.83547"></trkpt>
      <trkpt lat="51.27989" lon="4.83560"></trkpt>
      <trkpt lat="51.27970" lon="4.83569"></trkpt>
      <trkpt lat="51.27950" lon="4.83576"></trkpt>
      <trkpt lat="51.27930" lon="4.83562"></trkpt>
      <trkpt lat="51.27913" lon="4.83535"></trkpt>
      <trkpt lat="51.27893" lon="4.83528"></trkpt>
      <trkpt lat="51.27873" lon="4.83526"></trkpt>
      <trkpt lat="51.27853" lon="4.83510"></trkpt>
      <trkpt lat="51.27845" lon="4.83478"></trkpt>
      <trkpt lat="51.27840" lon="4.83442"></trkpt>
      <trkpt lat="51.27828" lon="4.83420"></trkpt>
      <trkpt lat="51.27805" lon="4.83422"></trkpt>
      <trkpt lat="51.27782" lon="4.83428"></trkpt>
      <trkpt lat="51.27767" lon="4.83405"></trkpt>
      <trkpt lat="51.27762" lon="4.83370"></trkpt>
      <trkpt lat="51.27753" lon="4.83339"></trkpt>
      <trkpt lat="51.27734" lon="4.83342"></trkpt>
      <trkpt lat="51.27714" lon="4.83353"></trkpt>
      <trkpt lat="51.27692" lon="4.83363"></trkpt>
      <trkpt lat="51.27671" lon="4.83370"></trkpt>
      <trkpt lat="51.27649" lon="4.83378"></trkpt>
      <trkpt lat="51.27627" lon="4.83386"></trkpt>
      <trkpt lat="51.27606" lon="4.83394"></trkpt>
      <trkpt lat="51.27583" lon="4.83402"></trkpt>
      <trkpt lat="51.27558" lon="4.83407"></trkpt>
      <trkpt lat="51.27535" lon="4.83408"></trkpt>
      <trkpt lat="51.27513" lon="4.83406"></trkpt>
      <trkpt lat="51.27490" lon="4.83405"></trkpt>
      <trkpt lat="51.27466" lon="4.83403"></trkpt>
      <trkpt lat="51.27446" lon="4.83395"></trkpt>
      <trkpt lat="51.27425" lon="4.83385"></trkpt>
      <trkpt lat="51.27402" lon="4.83370"></trkpt>
      <trkpt lat="51.27382" lon="4.83350"></trkpt>
      <trkpt lat="51.27371" lon="4.83338"></trkpt>
      <trkpt lat="51.27363" lon="4.83326"></trkpt>
      <trkpt lat="51.27351" lon="4.83307"></trkpt>
      <trkpt lat="51.27336" lon="4.83281"></trkpt>
      <trkpt lat="51.27327" lon="4.83251"></trkpt>
      <trkpt lat="51.27327" lon="4.83214"></trkpt>
      <trkpt lat="51.27326" lon="4.83176"></trkpt>
      <trkpt lat="51.27326" lon="4.83140"></trkpt>
      <trkpt lat="51.27328" lon="4.83106"></trkpt>
      <trkpt lat="51.27333" lon="4.83072"></trkpt>
      <trkpt lat="51.27337" lon="4.83036"></trkpt>
      <trkpt lat="51.27338" lon="4.83002"></trkpt>
      <trkpt lat="51.27351" lon="4.82975"></trkpt>
      <trkpt lat="51.27366" lon="4.82951"></trkpt>
      <trkpt lat="51.27381" lon="4.82924"></trkpt>
      <trkpt lat="51.27390" lon="4.82889"></trkpt>
      <trkpt lat="51.27398" lon="4.82853"></trkpt>
      <trkpt lat="51.27405" lon="4.82830"></trkpt>
      <trkpt lat="51.27416" lon="4.82803"></trkpt>
      <trkpt lat="51.27411" lon="4.82768"></trkpt>
      <trkpt lat="51.27401" lon="4.82737"></trkpt>
      <trkpt lat="51.27391" lon="4.82709"></trkpt>
      <trkpt lat="51.27382" lon="4.82684"></trkpt>
      <trkpt lat="51.27376" lon="4.82649"></trkpt>
      <trkpt lat="51.27368" lon="4.82615"></trkpt>
      <trkpt lat="51.27360" lon="4.82581"></trkpt>
      <trkpt lat="51.27354" lon="4.82547"></trkpt>
      <trkpt lat="51.27351" lon="4.82510"></trkpt>
      <trkpt lat="51.27348" lon="4.82472"></trkpt>
      <trkpt lat="51.27343" lon="4.82435"></trkpt>
      <trkpt lat="51.27342" lon="4.82397"></trkpt>
      <trkpt lat="51.27339" lon="4.82358"></trkpt>
      <trkpt lat="51.27336" lon="4.82322"></trkpt>
      <trkpt lat="51.27333" lon="4.82286"></trkpt>
      <trkpt lat="51.27329" lon="4.82251"></trkpt>
      <trkpt lat="51.27325" lon="4.82215"></trkpt>
      <trkpt lat="51.27323" lon="4.82180"></trkpt>
      <trkpt lat="51.27320" lon="4.82144"></trkpt>
      <trkpt lat="51.27318" lon="4.82111"></trkpt>
      <trkpt lat="51.27315" lon="4.82074"></trkpt>
      <trkpt lat="51.27312" lon="4.82033"></trkpt>
      <trkpt lat="51.27311" lon="4.81996"></trkpt>
      <trkpt lat="51.27307" lon="4.81959"></trkpt>
      <trkpt lat="51.27304" lon="4.81924"></trkpt>
      <trkpt lat="51.27302" lon="4.81889"></trkpt>
      <trkpt lat="51.27298" lon="4.81854"></trkpt>
      <trkpt lat="51.27296" lon="4.81819"></trkpt>
      <trkpt lat="51.27298" lon="4.81783"></trkpt>
      <trkpt lat="51.27299" lon="4.81746"></trkpt>
      <trkpt lat="51.27300" lon="4.81711"></trkpt>
      <trkpt lat="51.27297" lon="4.81672"></trkpt>
      <trkpt lat="51.27293" lon="4.81632"></trkpt>
      <trkpt lat="51.27289" lon="4.81595"></trkpt>
      <trkpt lat="51.27286" lon="4.81561"></trkpt>
      <trkpt lat="51.27282" lon="4.81523"></trkpt>
      <trkpt lat="51.27278" lon="4.81487"></trkpt>
      <trkpt lat="51.27284" lon="4.81467"></trkpt>
      <trkpt lat="51.27296" lon="4.81462"></trkpt>
      <trkpt lat="51.27310" lon="4.81455"></trkpt>
      <trkpt lat="51.27321" lon="4.81449"></trkpt>
      <trkpt lat="51.27334" lon="4.81445"></trkpt>
      <trkpt lat="51.27349" lon="4.81438"></trkpt>
      <trkpt lat="51.27361" lon="4.81431"></trkpt>
      <trkpt lat="51.27371" lon="4.81423"></trkpt>
      <trkpt lat="51.27381" lon="4.81416"></trkpt>
      <trkpt lat="51.27398" lon="4.81408"></trkpt>
      <trkpt lat="51.27421" lon="4.81399"></trkpt>
      <trkpt lat="51.27444" lon="4.81389"></trkpt>
      <trkpt lat="51.27466" lon="4.81375"></trkpt>
      <trkpt lat="51.27487" lon="4.81358"></trkpt>
      <trkpt lat="51.27507" lon="4.81342"></trkpt>
      <trkpt lat="51.27529" lon="4.81325"></trkpt>
      <trkpt lat="51.27549" lon="4.81309"></trkpt>
      <trkpt lat="51.27570" lon="4.81290"></trkpt>
      <trkpt lat="51.27590" lon="4.81270"></trkpt>
      <trkpt lat="51.27610" lon="4.81250"></trkpt>
      <trkpt lat="51.27630" lon="4.81235"></trkpt>
      <trkpt lat="51.27650" lon="4.81220"></trkpt>
      <trkpt lat="51.27667" lon="4.81201"></trkpt>
      <trkpt lat="51.27678" lon="4.81181"></trkpt>
      <trkpt lat="51.27698" lon="4.81194"></trkpt>
      <trkpt lat="51.27716" lon="4.81215"></trkpt>
      <trkpt lat="51.27734" lon="4.81235"></trkpt>
      <trkpt lat="51.27754" lon="4.81255"></trkpt>
      <trkpt lat="51.27774" lon="4.81273"></trkpt>
      <trkpt lat="51.27793" lon="4.81291"></trkpt>
      <trkpt lat="51.27813" lon="4.81296"></trkpt>
      <trkpt lat="51.27831" lon="4.81273"></trkpt>
      <trkpt lat="51.27848" lon="4.81246"></trkpt>
      <trkpt lat="51.27864" lon="4.81223"></trkpt>
      <trkpt lat="51.27880" lon="4.81200"></trkpt>
      <trkpt lat="51.27897" lon="4.81177"></trkpt>
      <trkpt lat="51.27911" lon="4.81155"></trkpt>
      <trkpt lat="51.27927" lon="4.81130"></trkpt>
      <trkpt lat="51.27946" lon="4.81109"></trkpt>
      <trkpt lat="51.27964" lon="4.81086"></trkpt>
      <trkpt lat="51.27982" lon="4.81062"></trkpt>
      <trkpt lat="51.28000" lon="4.81035"></trkpt>
      <trkpt lat="51.28018" lon="4.81010"></trkpt>
      <trkpt lat="51.28037" lon="4.80984"></trkpt>
      <trkpt lat="51.28054" lon="4.80959"></trkpt>
      <trkpt lat="51.28070" lon="4.80937"></trkpt>
      <trkpt lat="51.28086" lon="4.80915"></trkpt>
      <trkpt lat="51.28105" lon="4.80889"></trkpt>
      <trkpt lat="51.28123" lon="4.80866"></trkpt>
      <trkpt lat="51.28145" lon="4.80870"></trkpt>
      <trkpt lat="51.28160" lon="4.80896"></trkpt>
      <trkpt lat="51.28177" lon="4.80921"></trkpt>
      <trkpt lat="51.28192" lon="4.80945"></trkpt>
      <trkpt lat="51.28206" lon="4.80970"></trkpt>
      <trkpt lat="51.28223" lon="4.80995"></trkpt>
      <trkpt lat="51.28241" lon="4.81019"></trkpt>
      <trkpt lat="51.28257" lon="4.81045"></trkpt>
      <trkpt lat="51.28254" lon="4.81070"></trkpt>
      <trkpt lat="51.28238" lon="4.81092"></trkpt>
      <trkpt lat="51.28243" lon="4.81126"></trkpt>
      <trkpt lat="51.28251" lon="4.81160"></trkpt>
      <trkpt lat="51.28262" lon="4.81193"></trkpt>
      <trkpt lat="51.28274" lon="4.81227"></trkpt>
      <trkpt lat="51.28283" lon="4.81261"></trkpt>
      <trkpt lat="51.28292" lon="4.81293"></trkpt>
      <trkpt lat="51.28303" lon="4.81326"></trkpt>
      <trkpt lat="51.28314" lon="4.81360"></trkpt>
      <trkpt lat="51.28323" lon="4.81393"></trkpt>
      <trkpt lat="51.28332" lon="4.81428"></trkpt>
      <trkpt lat="51.28343" lon="4.81463"></trkpt>
      <trkpt lat="51.28362" lon="4.81486"></trkpt>
      <trkpt lat="51.28384" lon="4.81499"></trkpt>
      <trkpt lat="51.28407" lon="4.81511"></trkpt>
      <trkpt lat="51.28429" lon="4.81523"></trkpt>
      <trkpt lat="51.28450" lon="4.81536"></trkpt>
      <trkpt lat="51.28471" lon="4.81549"></trkpt>
      <trkpt lat="51.28494" lon="4.81561"></trkpt>
      <trkpt lat="51.28516" lon="4.81574"></trkpt>
      <trkpt lat="51.28536" lon="4.81586"></trkpt>
      <trkpt lat="51.28556" lon="4.81602"></trkpt>
      <trkpt lat="51.28576" lon="4.81617"></trkpt>
      <trkpt lat="51.28597" lon="4.81633"></trkpt>
      <trkpt lat="51.28601" lon="4.81664"></trkpt>
      <trkpt lat="51.28593" lon="4.81698"></trkpt>
      <trkpt lat="51.28586" lon="4.81732"></trkpt>
      <trkpt lat="51.28579" lon="4.81767"></trkpt>
      <trkpt lat="51.28572" lon="4.81802"></trkpt>
      <trkpt lat="51.28565" lon="4.81835"></trkpt>
      <trkpt lat="51.28559" lon="4.81869"></trkpt>
      <trkpt lat="51.28552" lon="4.81905"></trkpt>
      <trkpt lat="51.28545" lon="4.81939"></trkpt>
      <trkpt lat="51.28537" lon="4.81975"></trkpt>
      <trkpt lat="51.28531" lon="4.82012"></trkpt>
      <trkpt lat="51.28524" lon="4.82049"></trkpt>
      <trkpt lat="51.28525" lon="4.82073"></trkpt>
      <trkpt lat="51.28547" lon="4.82078"></trkpt>
      <trkpt lat="51.28568" lon="4.82082"></trkpt>
      <trkpt lat="51.28589" lon="4.82089"></trkpt>
      <trkpt lat="51.28611" lon="4.82092"></trkpt>
      <trkpt lat="51.28634" lon="4.82096"></trkpt>
      <trkpt lat="51.28654" lon="4.82103"></trkpt>
      <trkpt lat="51.28676" lon="4.82112"></trkpt>
      <trkpt lat="51.28690" lon="4.82139"></trkpt>
      <trkpt lat="51.28696" lon="4.82173"></trkpt>
      <trkpt lat="51.28700" lon="4.82205"></trkpt>
      <trkpt lat="51.28719" lon="4.82224"></trkpt>
      <trkpt lat="51.28738" lon="4.82245"></trkpt>
      <trkpt lat="51.28759" lon="4.82268"></trkpt>
      <trkpt lat="51.28779" lon="4.82290"></trkpt>
      <trkpt lat="51.28800" lon="4.82313"></trkpt>
      <trkpt lat="51.28809" lon="4.82324"></trkpt>
      <trkpt lat="51.28809" lon="4.82325"></trkpt>
      <trkpt lat="51.28810" lon="4.82327"></trkpt>
      <trkpt lat="51.28825" lon="4.82343"></trkpt>
      <trkpt lat="51.28844" lon="4.82367"></trkpt>
      <trkpt lat="51.28862" lon="4.82390"></trkpt>
      <trkpt lat="51.28882" lon="4.82407"></trkpt>
      <trkpt lat="51.28895" lon="4.82383"></trkpt>
      <trkpt lat="51.28905" lon="4.82348"></trkpt>
      <trkpt lat="51.28918" lon="4.82314"></trkpt>
      <trkpt lat="51.28930" lon="4.82280"></trkpt>
      <trkpt lat="51.28942" lon="4.82246"></trkpt>
      <trkpt lat="51.28956" lon="4.82217"></trkpt>
      <trkpt lat="51.28975" lon="4.82220"></trkpt>
      <trkpt lat="51.28996" lon="4.82236"></trkpt>
      <trkpt lat="51.29018" lon="4.82249"></trkpt>
      <trkpt lat="51.29040" lon="4.82260"></trkpt>
      <trkpt lat="51.29063" lon="4.82269"></trkpt>
      <trkpt lat="51.29087" lon="4.82280"></trkpt>
      <trkpt lat="51.29110" lon="4.82289"></trkpt>
      <trkpt lat="51.29132" lon="4.82296"></trkpt>
      <trkpt lat="51.29153" lon="4.82297"></trkpt>
      <trkpt lat="51.29175" lon="4.82290"></trkpt>
      <trkpt lat="51.29197" lon="4.82284"></trkpt>
      <trkpt lat="51.29220" lon="4.82281"></trkpt>
      <trkpt lat="51.29243" lon="4.82275"></trkpt>
      <trkpt lat="51.29266" lon="4.82268"></trkpt>
      <trkpt lat="51.29289" lon="4.82262"></trkpt>
      <trkpt lat="51.29311" lon="4.82256"></trkpt>
      <trkpt lat="51.29334" lon="4.82247"></trkpt>
      <trkpt lat="51.29356" lon="4.82240"></trkpt>
      <trkpt lat="51.29379" lon="4.82231"></trkpt>
      <trkpt lat="51.29401" lon="4.82229"></trkpt>
      <trkpt lat="51.29412" lon="4.82257"></trkpt>
      <trkpt lat="51.29415" lon="4.82295"></trkpt>
      <trkpt lat="51.29419" lon="4.82333"></trkpt>
      <trkpt lat="51.29423" lon="4.82370"></trkpt>
      <trkpt lat="51.29426" lon="4.82407"></trkpt>
      <trkpt lat="51.29430" lon="4.82444"></trkpt>
      <trkpt lat="51.29434" lon="4.82481"></trkpt>
      <trkpt lat="51.29438" lon="4.82518"></trkpt>
      <trkpt lat="51.29443" lon="4.82554"></trkpt>
      <trkpt lat="51.29455" lon="4.82567"></trkpt>
      <trkpt lat="51.29475" lon="4.82560"></trkpt>
      <trkpt lat="51.29498" lon="4.82554"></trkpt>
      <trkpt lat="51.29522" lon="4.82549"></trkpt>
      <trkpt lat="51.29546" lon="4.82543"></trkpt>
      <trkpt lat="51.29568" lon="4.82534"></trkpt>
      <trkpt lat="51.29591" lon="4.82525"></trkpt>
      <trkpt lat="51.29614" lon="4.82514"></trkpt>
      <trkpt lat="51.29637" lon="4.82504"></trkpt>
      <trkpt lat="51.29658" lon="4.82487"></trkpt>
      <trkpt lat="51.29681" lon="4.82476"></trkpt>
      <trkpt lat="51.29703" lon="4.82466"></trkpt>
      <trkpt lat="51.29723" lon="4.82459"></trkpt>
      <trkpt lat="51.29742" lon="4.82457"></trkpt>
      <trkpt lat="51.29766" lon="4.82458"></trkpt>
      <trkpt lat="51.29788" lon="4.82449"></trkpt>
      <trkpt lat="51.29811" lon="4.82439"></trkpt>
      <trkpt lat="51.29834" lon="4.82433"></trkpt>
      <trkpt lat="51.29845" lon="4.82452"></trkpt>
      <trkpt lat="51.29849" lon="4.82473"></trkpt>
      <trkpt lat="51.29853" lon="4.82493"></trkpt>
      <trkpt lat="51.29855" lon="4.82512"></trkpt>
      <trkpt lat="51.29856" lon="4.82528"></trkpt>
      <trkpt lat="51.29857" lon="4.82547"></trkpt>
      <trkpt lat="51.29863" lon="4.82561"></trkpt>
      <trkpt lat="51.29874" lon="4.82560"></trkpt>
      <trkpt lat="51.29884" lon="4.82558"></trkpt>
      <trkpt lat="51.29895" lon="4.82555"></trkpt>
      <trkpt lat="51.29907" lon="4.82551"></trkpt>
      <trkpt lat="51.29918" lon="4.82547"></trkpt>
      <trkpt lat="51.29929" lon="4.82543"></trkpt>
      <trkpt lat="51.29940" lon="4.82540"></trkpt>
      <trkpt lat="51.29951" lon="4.82537"></trkpt>
      <trkpt lat="51.29961" lon="4.82536"></trkpt>
      <trkpt lat="51.29972" lon="4.82534"></trkpt>
      <trkpt lat="51.29983" lon="4.82531"></trkpt>
      <trkpt lat="51.29993" lon="4.82527"></trkpt>
      <trkpt lat="51.30004" lon="4.82525"></trkpt>
      <trkpt lat="51.30014" lon="4.82522"></trkpt>
      <trkpt lat="51.30028" lon="4.82518"></trkpt>
      <trkpt lat="51.30049" lon="4.82514"></trkpt>
      <trkpt lat="51.30073" lon="4.82509"></trkpt>
      <trkpt lat="51.30095" lon="4.82503"></trkpt>
      <trkpt lat="51.30117" lon="4.82495"></trkpt>
      <trkpt lat="51.30139" lon="4.82487"></trkpt>
      <trkpt lat="51.30161" lon="4.82481"></trkpt>
      <trkpt lat="51.30184" lon="4.82477"></trkpt>
      <trkpt lat="51.30206" lon="4.82472"></trkpt>
      <trkpt lat="51.30229" lon="4.82466"></trkpt>
      <trkpt lat="51.30252" lon="4.82460"></trkpt>
      <trkpt lat="51.30274" lon="4.82466"></trkpt>
      <trkpt lat="51.30291" lon="4.82491"></trkpt>
      <trkpt lat="51.30307" lon="4.82517"></trkpt>
      <trkpt lat="51.30325" lon="4.82544"></trkpt>
      <trkpt lat="51.30343" lon="4.82571"></trkpt>
      <trkpt lat="51.30359" lon="4.82600"></trkpt>
      <trkpt lat="51.30374" lon="4.82627"></trkpt>
      <trkpt lat="51.30390" lon="4.82653"></trkpt>
      <trkpt lat="51.30405" lon="4.82680"></trkpt>
      <trkpt lat="51.30406" lon="4.82691"></trkpt>
      <trkpt lat="51.30396" lon="4.82704"></trkpt>
      <trkpt lat="51.30373" lon="4.82715"></trkpt>
      <trkpt lat="51.30350" lon="4.82703"></trkpt>
      <trkpt lat="51.30332" lon="4.82675"></trkpt>
      <trkpt lat="51.30317" lon="4.82644"></trkpt>
      <trkpt lat="51.30296" lon="4.82629"></trkpt>
      <trkpt lat="51.30274" lon="4.82624"></trkpt>
      <trkpt lat="51.30251" lon="4.82625"></trkpt>
      <trkpt lat="51.30229" lon="4.82633"></trkpt>
      <trkpt lat="51.30206" lon="4.82642"></trkpt>
      <trkpt lat="51.30184" lon="4.82648"></trkpt>
      <trkpt lat="51.30169" lon="4.82673"></trkpt>
      <trkpt lat="51.30154" lon="4.82702"></trkpt>
      <trkpt lat="51.30137" lon="4.82724"></trkpt>
      <trkpt lat="51.30118" lon="4.82748"></trkpt>
      <trkpt lat="51.30098" lon="4.82770"></trkpt>
      <trkpt lat="51.30076" lon="4.82781"></trkpt>
      <trkpt lat="51.30053" lon="4.82783"></trkpt>
      <trkpt lat="51.30031" lon="4.82785"></trkpt>
      <trkpt lat="51.30007" lon="4.82783"></trkpt>
      <trkpt lat="51.29983" lon="4.82774"></trkpt>
      <trkpt lat="51.29959" lon="4.82768"></trkpt>
      <trkpt lat="51.29936" lon="4.82774"></trkpt>
      <trkpt lat="51.29912" lon="4.82778"></trkpt>
      <trkpt lat="51.29892" lon="4.82793"></trkpt>
      <trkpt lat="51.29877" lon="4.82822"></trkpt>
      <trkpt lat="51.29857" lon="4.82834"></trkpt>
      <trkpt lat="51.29839" lon="4.82849"></trkpt>
      <trkpt lat="51.29825" lon="4.82865"></trkpt>
      <trkpt lat="51.29815" lon="4.82869"></trkpt>
      <trkpt lat="51.29802" lon="4.82871"></trkpt>
      <trkpt lat="51.29791" lon="4.82872"></trkpt>
      <trkpt lat="51.29780" lon="4.82871"></trkpt>
      <trkpt lat="51.29760" lon="4.82870"></trkpt>
      <trkpt lat="51.29735" lon="4.82874"></trkpt>
      <trkpt lat="51.29710" lon="4.82879"></trkpt>
      <trkpt lat="51.29690" lon="4.82880"></trkpt>
      <trkpt lat="51.29685" lon="4.82878"></trkpt>
      <trkpt lat="51.29683" lon="4.82878"></trkpt>
      <trkpt lat="51.29680" lon="4.82881"></trkpt>
      <trkpt lat="51.29677" lon="4.82882"></trkpt>
      <trkpt lat="51.29676" lon="4.82883"></trkpt>
      <trkpt lat="51.29676" lon="4.82883"></trkpt>
      <trkpt lat="51.29676" lon="4.82883"></trkpt>
      <trkpt lat="51.29676" lon="4.82884"></trkpt>
      <trkpt lat="51.29675" lon="4.82884"></trkpt>
      <trkpt lat="51.29675" lon="4.82885"></trkpt>
      <trkpt lat="51.29680" lon="4.82915"></trkpt>
      <trkpt lat="51.29685" lon="4.82951"></trkpt>
      <trkpt lat="51.29689" lon="4.82987"></trkpt>
      <trkpt lat="51.29693" lon="4.83025"></trkpt>
      <trkpt lat="51.29693" lon="4.83062"></trkpt>
      <trkpt lat="51.29695" lon="4.83099"></trkpt>
      <trkpt lat="51.29686" lon="4.83130"></trkpt>
      <trkpt lat="51.29667" lon="4.83150"></trkpt>
      <trkpt lat="51.29646" lon="4.83169"></trkpt>
      <trkpt lat="51.29625" lon="4.83191"></trkpt>
      <trkpt lat="51.29604" lon="4.83212"></trkpt>
      <trkpt lat="51.29584" lon="4.83232"></trkpt>
      <trkpt lat="51.29575" lon="4.83264"></trkpt>
      <trkpt lat="51.29580" lon="4.83302"></trkpt>
      <trkpt lat="51.29583" lon="4.83339"></trkpt>
      <trkpt lat="51.29584" lon="4.83374"></trkpt>
      <trkpt lat="51.29586" lon="4.83405"></trkpt>
      <trkpt lat="51.29587" lon="4.83443"></trkpt>
      <trkpt lat="51.29589" lon="4.83482"></trkpt>
      <trkpt lat="51.29591" lon="4.83519"></trkpt>
      <trkpt lat="51.29593" lon="4.83558"></trkpt>
      <trkpt lat="51.29596" lon="4.83597"></trkpt>
      <trkpt lat="51.29600" lon="4.83633"></trkpt>
      <trkpt lat="51.29606" lon="4.83672"></trkpt>
      <trkpt lat="51.29603" lon="4.83707"></trkpt>
      <trkpt lat="51.29582" lon="4.83717"></trkpt>
      <trkpt lat="51.29561" lon="4.83722"></trkpt>
      <trkpt lat="51.29538" lon="4.83726"></trkpt>
      <trkpt lat="51.29516" lon="4.83730"></trkpt>
      <trkpt lat="51.29495" lon="4.83732"></trkpt>
      <trkpt lat="51.29474" lon="4.83733"></trkpt>
      <trkpt lat="51.29453" lon="4.83734"></trkpt>
      <trkpt lat="51.29431" lon="4.83736"></trkpt>
      <trkpt lat="51.29409" lon="4.83736"></trkpt>
      <trkpt lat="51.29385" lon="4.83740"></trkpt>
      <trkpt lat="51.29362" lon="4.83743"></trkpt>
      <trkpt lat="51.29339" lon="4.83747"></trkpt>
      <trkpt lat="51.29314" lon="4.83750"></trkpt>
      <trkpt lat="51.29291" lon="4.83753"></trkpt>
      <trkpt lat="51.29267" lon="4.83756"></trkpt>
      <trkpt lat="51.29245" lon="4.83763"></trkpt>
      <trkpt lat="51.29225" lon="4.83783"></trkpt>
      <trkpt lat="51.29204" lon="4.83806"></trkpt>
      <trkpt lat="51.29184" lon="4.83829"></trkpt>
      <trkpt lat="51.29164" lon="4.83852"></trkpt>
      <trkpt lat="51.29146" lon="4.83872"></trkpt>
      <trkpt lat="51.29128" lon="4.83896"></trkpt>
      <trkpt lat="51.29109" lon="4.83918"></trkpt>
      <trkpt lat="51.29099" lon="4.83946"></trkpt>
      <trkpt lat="51.29112" lon="4.83977"></trkpt>
      <trkpt lat="51.29129" lon="4.84008"></trkpt>
      <trkpt lat="51.29145" lon="4.84039"></trkpt>
      <trkpt lat="51.29156" lon="4.84066"></trkpt>
      <trkpt lat="51.29162" lon="4.84082"></trkpt>
      <trkpt lat="51.29167" lon="4.84098"></trkpt>
      <trkpt lat="51.29172" lon="4.84106"></trkpt>
      <trkpt lat="51.29173" lon="4.84108"></trkpt>
      <trkpt lat="51.29181" lon="4.84127"></trkpt>
      <trkpt lat="51.29196" lon="4.84160"></trkpt>
      <trkpt lat="51.29211" lon="4.84193"></trkpt>
      <trkpt lat="51.29226" lon="4.84223"></trkpt>
      <trkpt lat="51.29240" lon="4.84256"></trkpt>
      <trkpt lat="51.29255" lon="4.84288"></trkpt>
      <trkpt lat="51.29266" lon="4.84319"></trkpt>
      <trkpt lat="51.29262" lon="4.84347"></trkpt>
      <trkpt lat="51.29246" lon="4.84367"></trkpt>
      <trkpt lat="51.29227" lon="4.84390"></trkpt>
      <trkpt lat="51.29206" lon="4.84411"></trkpt>
      <trkpt lat="51.29191" lon="4.84436"></trkpt>
      <trkpt lat="51.29201" lon="4.84467"></trkpt>
      <trkpt lat="51.29217" lon="4.84497"></trkpt>
      <trkpt lat="51.29232" lon="4.84527"></trkpt>
      <trkpt lat="51.29246" lon="4.84557"></trkpt>
      <trkpt lat="51.29263" lon="4.84586"></trkpt>
      <trkpt lat="51.29279" lon="4.84617"></trkpt>
      <trkpt lat="51.29293" lon="4.84649"></trkpt>
      <trkpt lat="51.29308" lon="4.84680"></trkpt>
      <trkpt lat="51.29324" lon="4.84710"></trkpt>
      <trkpt lat="51.29339" lon="4.84740"></trkpt>
      <trkpt lat="51.29354" lon="4.84773"></trkpt>
      <trkpt lat="51.29370" lon="4.84805"></trkpt>
      <trkpt lat="51.29384" lon="4.84837"></trkpt>
      <trkpt lat="51.29397" lon="4.84865"></trkpt>
      <trkpt lat="51.29409" lon="4.84892"></trkpt>
      <trkpt lat="51.29416" lon="4.84906"></trkpt>
      <trkpt lat="51.29417" lon="4.84907"></trkpt>
      <trkpt lat="51.29418" lon="4.84907"></trkpt>
      <trkpt lat="51.29420" lon="4.84905"></trkpt>
      <trkpt lat="51.29420" lon="4.84905"></trkpt>
      <trkpt lat="51.29420" lon="4.84905"></trkpt>
      <trkpt lat="51.29420" lon="4.84905"></trkpt>
      <trkpt lat="51.29420" lon="4.84905"></trkpt>
      <trkpt lat="51.29420" lon="4.84905"></trkpt>
      <trkpt lat="51.29420" lon="4.84905"></trkpt>
      <trkpt lat="51.29420" lon="4.84905"></trkpt>
      <trkpt lat="51.29420" lon="4.84905"></trkpt>
      <trkpt lat="51.29420" lon="4.84905"></trkpt>
      <trkpt lat="51.29420" lon="4.84905"></trkpt>
      <trkpt lat="51.29420" lon="4.84905"></trkpt>
      <trkpt lat="51.29420" lon="4.84905"></trkpt>
      <trkpt lat="51.29420" lon="4.84905"></trkpt>
      <trkpt lat="51.29420" lon="4.84905"></trkpt>
      <trkpt lat="51.29420" lon="4.84905"></trkpt>
      <trkpt lat="51.29420" lon="4.84906"></trkpt>
      <trkpt lat="51.29420" lon="4.84906"></trkpt>
      <trkpt lat="51.29420" lon="4.84906"></trkpt>
      <trkpt lat="51.29420" lon="4.84906"></trkpt>
      <trkpt lat="51.29420" lon="4.84906"></trkpt>
      <trkpt lat="51.29420" lon="4.84906"></trkpt>
      <trkpt lat="51.29420" lon="4.84906"></trkpt>
      <trkpt lat="51.29420" lon="4.84906"></trkpt>
      <trkpt lat="51.29420" lon="4.84906"></trkpt>
      <trkpt lat="51.29420" lon="4.84906"></trkpt>
      <trkpt lat="51.29420" lon="4.84906"></trkpt>
      <trkpt lat="51.29420" lon="4.84906"></trkpt>
      <trkpt lat="51.29420" lon="4.84906"></trkpt>
      <trkpt lat="51.29420" lon="4.84906"></trkpt>
      <trkpt lat="51.29420" lon="4.84906"></trkpt>
      <trkpt lat="51.29420" lon="4.84906"></trkpt>
      <trkpt lat="51.29420" lon="4.84906"></trkpt>
      <trkpt lat="51.29420" lon="4.84906"></trkpt>
      <trkpt lat="51.29420" lon="4.84906"></trkpt>
      <trkpt lat="51.29420" lon="4.84907"></trkpt>
      <trkpt lat="51.29420" lon="4.84907"></trkpt>
      <trkpt lat="51.29420" lon="4.84907"></trkpt>
      <trkpt lat="51.29420" lon="4.84907"></trkpt>
      <trkpt lat="51.29420" lon="4.84907"></trkpt>
      <trkpt lat="51.29420" lon="4.84907"></trkpt>
      <trkpt lat="51.29420" lon="4.84907"></trkpt>
      <trkpt lat="51.29420" lon="4.84907"></trkpt>
      <trkpt lat="51.29420" lon="4.84907"></trkpt>
      <trkpt lat="51.29420" lon="4.84907"></trkpt>
      <trkpt lat="51.29420" lon="4.84907"></trkpt>
      <trkpt lat="51.29420" lon="4.84907"></trkpt>
      <trkpt lat="51.29420" lon="4.84907"></trkpt>
      <trkpt lat="51.29420" lon="4.84907"></trkpt>
      <trkpt lat="51.29420" lon="4.84907"></trkpt>
      <trkpt lat="51.29420" lon="4.84907"></trkpt>
      <trkpt lat="51.29420" lon="4.84907"></trkpt>
      <trkpt lat="51.29420" lon="4.84907"></trkpt>
      <trkpt lat="51.29420" lon="4.84908"></trkpt>
      <trkpt lat="51.29420" lon="4.84908"></trkpt>
      <trkpt lat="51.29420" lon="4.84908"></trkpt>
      <trkpt lat="51.29420" lon="4.84908"></trkpt>
      <trkpt lat="51.29420" lon="4.84908"></trkpt>
      <trkpt lat="51.29420" lon="4.84908"></trkpt>
      <trkpt lat="51.29420" lon="4.84908"></trkpt>
      <trkpt lat="51.29420" lon="4.84908"></trkpt>
      <trkpt lat="51.29420" lon="4.84908"></trkpt>
      <trkpt lat="51.29420" lon="4.84908"></trkpt>
      <trkpt lat="51.29420" lon="4.84908"></trkpt>
      <trkpt lat="51.29420" lon="4.84908"></trkpt>
      <trkpt lat="51.29420" lon="4.84908"></trkpt>
      <trkpt lat="51.29420" lon="4.84908"></trkpt>
      <trkpt lat="51.29420" lon="4.84908"></trkpt>
      <trkpt lat="51.29420" lon="4.84908"></trkpt>
      <trkpt lat="51.29420" lon="4.84908"></trkpt>
      <trkpt lat="51.29420" lon="4.84908"></trkpt>
      <trkpt lat="51.29420" lon="4.84908"></trkpt>
      <trkpt lat="51.29420" lon="4.84909"></trkpt>
      <trkpt lat="51.29420" lon="4.84909"></trkpt>
      <trkpt lat="51.29420" lon="4.84909"></trkpt>
      <trkpt lat="51.29420" lon="4.84909"></trkpt>
      <trkpt lat="51.29419" lon="4.84908"></trkpt>
      <trkpt lat="51.29419" lon="4.84908"></trkpt>
      <trkpt lat="51.29418" lon="4.84907"></trkpt>
      <trkpt lat="51.29417" lon="4.84907"></trkpt>
      <trkpt lat="51.29416" lon="4.84905"></trkpt>
      <trkpt lat="51.29401" lon="4.84884"></trkpt>
      <trkpt lat="51.29386" lon="4.84856"></trkpt>
      <trkpt lat="51.29373" lon="4.84827"></trkpt>
      <trkpt lat="51.29357" lon="4.84823"></trkpt>
      <trkpt lat="51.29339" lon="4.84841"></trkpt>
      <trkpt lat="51.29323" lon="4.84862"></trkpt>
      <trkpt lat="51.29304" lon="4.84882"></trkpt>
      <trkpt lat="51.29284" lon="4.84893"></trkpt>
      <trkpt lat="51.29269" lon="4.84888"></trkpt>
      <trkpt lat="51.29268" lon="4.84887"></trkpt>
      <trkpt lat="51.29266" lon="4.84886"></trkpt>
      <trkpt lat="51.29250" lon="4.84863"></trkpt>
      <trkpt lat="51.29230" lon="4.84834"></trkpt>
      <trkpt lat="51.29210" lon="4.84808"></trkpt>
      <trkpt lat="51.29193" lon="4.84783"></trkpt>
      <trkpt lat="51.29175" lon="4.84754"></trkpt>
      <trkpt lat="51.29157" lon="4.84727"></trkpt>
      <trkpt lat="51.29139" lon="4.84702"></trkpt>
      <trkpt lat="51.29121" lon="4.84675"></trkpt>
      <trkpt lat="51.29107" lon="4.84646"></trkpt>
      <trkpt lat="51.29119" lon="4.84620"></trkpt>
      <trkpt lat="51.29136" lon="4.84596"></trkpt>
      <trkpt lat="51.29155" lon="4.84574"></trkpt>
      <trkpt lat="51.29174" lon="4.84554"></trkpt>
      <trkpt lat="51.29193" lon="4.84536"></trkpt>
      <trkpt lat="51.29210" lon="4.84513"></trkpt>
      <trkpt lat="51.29206" lon="4.84484"></trkpt>
      <trkpt lat="51.29194" lon="4.84458"></trkpt>
      <trkpt lat="51.29180" lon="4.84428"></trkpt>
      <trkpt lat="51.29165" lon="4.84400"></trkpt>
      <trkpt lat="51.29150" lon="4.84370"></trkpt>
      <trkpt lat="51.29136" lon="4.84339"></trkpt>
      <trkpt lat="51.29122" lon="4.84310"></trkpt>
      <trkpt lat="51.29107" lon="4.84280"></trkpt>
      <trkpt lat="51.29091" lon="4.84251"></trkpt>
      <trkpt lat="51.29078" lon="4.84224"></trkpt>
      <trkpt lat="51.29064" lon="4.84195"></trkpt>
      <trkpt lat="51.29049" lon="4.84166"></trkpt>
      <trkpt lat="51.29034" lon="4.84136"></trkpt>
      <trkpt lat="51.29020" lon="4.84106"></trkpt>
      <trkpt lat="51.29007" lon="4.84078"></trkpt>
      <trkpt lat="51.28992" lon="4.84059"></trkpt>
      <trkpt lat="51.28974" lon="4.84075"></trkpt>
      <trkpt lat="51.28955" lon="4.84095"></trkpt>
      <trkpt lat="51.28936" lon="4.84115"></trkpt>
      <trkpt lat="51.28918" lon="4.84138"></trkpt>
      <trkpt lat="51.28899" lon="4.84155"></trkpt>
      <trkpt lat="51.28889" lon="4.84155"></trkpt>
      <trkpt lat="51.28888" lon="4.84155"></trkpt>
      <trkpt lat="51.28887" lon="4.84155"></trkpt>
      <trkpt lat="51.28884" lon="4.84156"></trkpt>
      <trkpt lat="51.28869" lon="4.84153"></trkpt>
      <trkpt lat="51.28849" lon="4.84135"></trkpt>
      <trkpt lat="51.28829" lon="4.84118"></trkpt>
      <trkpt lat="51.28808" lon="4.84105"></trkpt>
      <trkpt lat="51.28788" lon="4.84089"></trkpt>
      <trkpt lat="51.28770" lon="4.84066"></trkpt>
      <trkpt lat="51.28754" lon="4.84038"></trkpt>
      <trkpt lat="51.28741" lon="4.84007"></trkpt>
      <trkpt lat="51.28727" lon="4.83977"></trkpt>
      <trkpt lat="51.28736" lon="4.83949"></trkpt>
      <trkpt lat="51.28753" lon="4.83925"></trkpt>
      <trkpt lat="51.28771" lon="4.83901"></trkpt>
      <trkpt lat="51.28788" lon="4.83876"></trkpt>
      <trkpt lat="51.28805" lon="4.83849"></trkpt>
      <trkpt lat="51.28810" lon="4.83816"></trkpt>
      <trkpt lat="51.28796" lon="4.83794"></trkpt>
      <trkpt lat="51.28775" lon="4.83783"></trkpt>
      <trkpt lat="51.28755" lon="4.83771"></trkpt>
      <trkpt lat="51.28733" lon="4.83757"></trkpt>
      <trkpt lat="51.28710" lon="4.83744"></trkpt>
      <trkpt lat="51.28688" lon="4.83731"></trkpt>
      <trkpt lat="51.28666" lon="4.83718"></trkpt>
      <trkpt lat="51.28644" lon="4.83705"></trkpt>
      <trkpt lat="51.28621" lon="4.83693"></trkpt>
      <trkpt lat="51.28598" lon="4.83680"></trkpt>
      <trkpt lat="51.28576" lon="4.83668"></trkpt>
      <trkpt lat="51.28553" lon="4.83655"></trkpt>
      <trkpt lat="51.28530" lon="4.83642"></trkpt>
      <trkpt lat="51.28506" lon="4.83630"></trkpt>
      <trkpt lat="51.28485" lon="4.83615"></trkpt>
      <trkpt lat="51.28461" lon="4.83601"></trkpt>
      <trkpt lat="51.28439" lon="4.83589"></trkpt>
      <trkpt lat="51.28420" lon="4.83580"></trkpt>
      <trkpt lat="51.28401" lon="4.83561"></trkpt>
      <trkpt lat="51.28382" lon="4.83537"></trkpt>
      <trkpt lat="51.28364" lon="4.83518"></trkpt>
      <trkpt lat="51.28347" lon="4.83497"></trkpt>
      <trkpt lat="51.28327" lon="4.83476"></trkpt>
      <trkpt lat="51.28310" lon="4.83446"></trkpt>
      <trkpt lat="51.28295" lon="4.83417"></trkpt>
      <trkpt lat="51.28281" lon="4.83388"></trkpt>
      <trkpt lat="51.28269" lon="4.83359"></trkpt>
      <trkpt lat="51.28257" lon="4.83329"></trkpt>
      <trkpt lat="51.28244" lon="4.83297"></trkpt>
      <trkpt lat="51.28229" lon="4.83294"></trkpt>
      <trkpt lat="51.28210" lon="4.83305"></trkpt>
      <trkpt lat="51.28189" lon="4.83318"></trkpt>
      <trkpt lat="51.28166" lon="4.83321"></trkpt>
      <trkpt lat="51.28153" lon="4.83332"></trkpt>
      <trkpt lat="51.28135" lon="4.83349"></trkpt>
      <trkpt lat="51.28116" lon="4.83368"></trkpt>
      <trkpt lat="51.28095" lon="4.83382"></trkpt>
      <trkpt lat="51.28071" lon="4.83386"></trkpt>
      <trkpt lat="51.28049" lon="4.83387"></trkpt>
      <trkpt lat="51.28025" lon="4.83391"></trkpt>
      <trkpt lat="51.28001" lon="4.83396"></trkpt>
      <trkpt lat="51.27977" lon="4.83401"></trkpt>
      <trkpt lat="51.27953" lon="4.83406"></trkpt>
      <trkpt lat="51.27929" lon="4.83413"></trkpt>
      <trkpt lat="51.27906" lon="4.83418"></trkpt>
      <trkpt lat="51.27882" lon="4.83421"></trkpt>
      <trkpt lat="51.27860" lon="4.83423"></trkpt>
      <trkpt lat="51.27837" lon="4.83424"></trkpt>
      <trkpt lat="51.27814" lon="4.83424"></trkpt>
      <trkpt lat="51.27792" lon="4.83430"></trkpt>
      <trkpt lat="51.27773" lon="4.83417"></trkpt>
      <trkpt lat="51.27768" lon="4.83381"></trkpt>
      <trkpt lat="51.27759" lon="4.83346"></trkpt>
      <trkpt lat="51.27738" lon="4.83344"></trkpt>
      <trkpt lat="51.27716" lon="4.83353"></trkpt>
      <trkpt lat="51.27694" lon="4.83361"></trkpt>
      <trkpt lat="51.27672" lon="4.83369"></trkpt>
      <trkpt lat="51.27649" lon="4.83377"></trkpt>
      <trkpt lat="51.27627" lon="4.83386"></trkpt>
      <trkpt lat="51.27604" lon="4.83396"></trkpt>
      <trkpt lat="51.27582" lon="4.83405"></trkpt>
      <trkpt lat="51.27557" lon="4.83409"></trkpt>
      <trkpt lat="51.27532" lon="4.83411"></trkpt>
      <trkpt lat="51.27508" lon="4.83410"></trkpt>
      <trkpt lat="51.27485" lon="4.83409"></trkpt>
      <trkpt lat="51.27462" lon="4.83406"></trkpt>
      <trkpt lat="51.27439" lon="4.83396"></trkpt>
      <trkpt lat="51.27419" lon="4.83387"></trkpt>
      <trkpt lat="51.27399" lon="4.83375"></trkpt>
      <trkpt lat="51.27385" lon="4.83365"></trkpt>
      <trkpt lat="51.27374" lon="4.83353"></trkpt>
      <trkpt lat="51.27364" lon="4.83338"></trkpt>
      <trkpt lat="51.27355" lon="4.83323"></trkpt>
      <trkpt lat="51.27345" lon="4.83308"></trkpt>
      <trkpt lat="51.27335" lon="4.83295"></trkpt>
      <trkpt lat="51.27326" lon="4.83279"></trkpt>
      <trkpt lat="51.27322" lon="4.83260"></trkpt>
      <trkpt lat="51.27323" lon="4.83230"></trkpt>
      <trkpt lat="51.27326" lon="4.83195"></trkpt>
      <trkpt lat="51.27327" lon="4.83159"></trkpt>
      <trkpt lat="51.27328" lon="4.83124"></trkpt>
      <trkpt lat="51.27330" lon="4.83102"></trkpt>
      <trkpt lat="51.27334" lon="4.83068"></trkpt>
      <trkpt lat="51.27336" lon="4.83032"></trkpt>
      <trkpt lat="51.27340" lon="4.82998"></trkpt>
      <trkpt lat="51.27354" lon="4.82969"></trkpt>
      <trkpt lat="51.27369" lon="4.82945"></trkpt>
      <trkpt lat="51.27382" lon="4.82917"></trkpt>
      <trkpt lat="51.27390" lon="4.82882"></trkpt>
      <trkpt lat="51.27396" lon="4.82849"></trkpt>
      <trkpt lat="51.27405" lon="4.82828"></trkpt>
      <trkpt lat="51.27414" lon="4.82795"></trkpt>
      <trkpt lat="51.27405" lon="4.82763"></trkpt>
      <trkpt lat="51.27397" lon="4.82731"></trkpt>
      <trkpt lat="51.27393" lon="4.82714"></trkpt>
      <trkpt lat="51.27388" lon="4.82693"></trkpt>
      <trkpt lat="51.27379" lon="4.82658"></trkpt>
      <trkpt lat="51.27372" lon="4.82622"></trkpt>
      <trkpt lat="51.27364" lon="4.82586"></trkpt>
      <trkpt lat="51.27357" lon="4.82549"></trkpt>
      <trkpt lat="51.27353" lon="4.82512"></trkpt>
      <trkpt lat="51.27350" lon="4.82472"></trkpt>
      <trkpt lat="51.27346" lon="4.82435"></trkpt>
      <trkpt lat="51.27343" lon="4.82400"></trkpt>
      <trkpt lat="51.27341" lon="4.82369"></trkpt>
      <trkpt lat="51.27343" lon="4.82368"></trkpt>
      <trkpt lat="51.27347" lon="4.82399"></trkpt>
      <trkpt lat="51.27348" lon="4.82420"></trkpt>
      <trkpt lat="51.27349" lon="4.82423"></trkpt>
      <trkpt lat="51.27350" lon="4.82427"></trkpt>
      <trkpt lat="51.27351" lon="4.82447"></trkpt>
      <trkpt lat="51.27351" lon="4.82459"></trkpt>
      <trkpt lat="51.27354" lon="4.82476"></trkpt>
      <trkpt lat="51.27354" lon="4.82485"></trkpt>
      <trkpt lat="51.27353" lon="4.82495"></trkpt>
      <trkpt lat="51.27354" lon="4.82512"></trkpt>
      <trkpt lat="51.27363" lon="4.82517"></trkpt>
      <trkpt lat="51.27374" lon="4.82510"></trkpt>
      <trkpt lat="51.27387" lon="4.82499"></trkpt>
      <trkpt lat="51.27400" lon="4.82491"></trkpt>
      <trkpt lat="51.27411" lon="4.82481"></trkpt>
      <trkpt lat="51.27422" lon="4.82471"></trkpt>
      <trkpt lat="51.27433" lon="4.82460"></trkpt>
      <trkpt lat="51.27444" lon="4.82452"></trkpt>
      <trkpt lat="51.27453" lon="4.82441"></trkpt>
      <trkpt lat="51.27469" lon="4.82427"></trkpt>
      <trkpt lat="51.27488" lon="4.82412"></trkpt>
      <trkpt lat="51.27507" lon="4.82396"></trkpt>
      <trkpt lat="51.27527" lon="4.82382"></trkpt>
      <trkpt lat="51.27546" lon="4.82364"></trkpt>
      <trkpt lat="51.27566" lon="4.82347"></trkpt>
      <trkpt lat="51.27586" lon="4.82331"></trkpt>
      <trkpt lat="51.27606" lon="4.82311"></trkpt>
      <trkpt lat="51.27624" lon="4.82291"></trkpt>
      <trkpt lat="51.27642" lon="4.82271"></trkpt>
      <trkpt lat="51.27658" lon="4.82254"></trkpt>
      <trkpt lat="51.27665" lon="4.82247"></trkpt>
      <trkpt lat="51.27669" lon="4.82243"></trkpt>
      <trkpt lat="51.27686" lon="4.82223"></trkpt>
      <trkpt lat="51.27704" lon="4.82203"></trkpt>
      <trkpt lat="51.27722" lon="4.82183"></trkpt>
      <trkpt lat="51.27740" lon="4.82174"></trkpt>
      <trkpt lat="51.27755" lon="4.82204"></trkpt>
      <trkpt lat="51.27765" lon="4.82228"></trkpt>
      <trkpt lat="51.27774" lon="4.82244"></trkpt>
      <trkpt lat="51.27779" lon="4.82260"></trkpt>
      <trkpt lat="51.27785" lon="4.82280"></trkpt>
      <trkpt lat="51.27791" lon="4.82298"></trkpt>
      <trkpt lat="51.27797" lon="4.82314"></trkpt>
      <trkpt lat="51.27803" lon="4.82331"></trkpt>
      <trkpt lat="51.27809" lon="4.82348"></trkpt>
      <trkpt lat="51.27816" lon="4.82365"></trkpt>
      <trkpt lat="51.27817" lon="4.82367"></trkpt>
      <trkpt lat="51.27820" lon="4.82374"></trkpt>
      <trkpt lat="51.27829" lon="4.82397"></trkpt>
      <trkpt lat="51.27831" lon="4.82401"></trkpt>
      <trkpt lat="51.27841" lon="4.82418"></trkpt>
      <trkpt lat="51.27857" lon="4.82446"></trkpt>
      <trkpt lat="51.27874" lon="4.82473"></trkpt>
      <trkpt lat="51.27890" lon="4.82497"></trkpt>
      <trkpt lat="51.27907" lon="4.82520"></trkpt>
      <trkpt lat="51.27926" lon="4.82540"></trkpt>
      <trkpt lat="51.27943" lon="4.82563"></trkpt>
      <trkpt lat="51.27951" lon="4.82579"></trkpt>
      <trkpt lat="51.27951" lon="4.82581"></trkpt>
      <trkpt lat="51.27957" lon="4.82592"></trkpt>
      <trkpt lat="51.27971" lon="4.82621"></trkpt>
      <trkpt lat="51.27979" lon="4.82657"></trkpt>
      <trkpt lat="51.27988" lon="4.82690"></trkpt>
      <trkpt lat="51.28000" lon="4.82722"></trkpt>
      <trkpt lat="51.28005" lon="4.82757"></trkpt>
      <trkpt lat="51.28007" lon="4.82794"></trkpt>
      <trkpt lat="51.28006" lon="4.82830"></trkpt>
      <trkpt lat="51.28009" lon="4.82865"></trkpt>
      <trkpt lat="51.28013" lon="4.82904"></trkpt>
      <trkpt lat="51.28015" lon="4.82943"></trkpt>
      <trkpt lat="51.28015" lon="4.82982"></trkpt>
      <trkpt lat="51.28016" lon="4.83019"></trkpt>
      <trkpt lat="51.28022" lon="4.83058"></trkpt>
      <trkpt lat="51.28027" lon="4.83095"></trkpt>
      <trkpt lat="51.28034" lon="4.83130"></trkpt>
      <trkpt lat="51.28041" lon="4.83164"></trkpt>
      <trkpt lat="51.28049" lon="4.83201"></trkpt>
      <trkpt lat="51.28062" lon="4.83231"></trkpt>
      <trkpt lat="51.28054" lon="4.83253"></trkpt>
      <trkpt lat="51.28035" lon="4.83256"></trkpt>
      <trkpt lat="51.28019" lon="4.83263"></trkpt>
      <trkpt lat="51.27996" lon="4.83269"></trkpt>
      <trkpt lat="51.27974" lon="4.83273"></trkpt>
      <trkpt lat="51.27951" lon="4.83278"></trkpt>
      <trkpt lat="51.27929" lon="4.83283"></trkpt>
      <trkpt lat="51.27906" lon="4.83286"></trkpt>
      <trkpt lat="51.27883" lon="4.83286"></trkpt>
      <trkpt lat="51.27861" lon="4.83291"></trkpt>
      <trkpt lat="51.27838" lon="4.83300"></trkpt>
      <trkpt lat="51.27814" lon="4.83312"></trkpt>
      <trkpt lat="51.27790" lon="4.83323"></trkpt>
      <trkpt lat="51.27768" lon="4.83337"></trkpt>
      <trkpt lat="51.27764" lon="4.83371"></trkpt>
      <trkpt lat="51.27767" lon="4.83410"></trkpt>
      <trkpt lat="51.27779" lon="4.83431"></trkpt>
      <trkpt lat="51.27803" lon="4.83425"></trkpt>
      <trkpt lat="51.27826" lon="4.83421"></trkpt>
      <trkpt lat="51.27850" lon="4.83421"></trkpt>
      <trkpt lat="51.27873" lon="4.83417"></trkpt>
      <trkpt lat="51.27897" lon="4.83411"></trkpt>
      <trkpt lat="51.27923" lon="4.83408"></trkpt>
      <trkpt lat="51.27949" lon="4.83404"></trkpt>
      <trkpt lat="51.27974" lon="4.83401"></trkpt>
      <trkpt lat="51.27999" lon="4.83397"></trkpt>
      <trkpt lat="51.28022" lon="4.83394"></trkpt>
      <trkpt lat="51.28044" lon="4.83390"></trkpt>
      <trkpt lat="51.28065" lon="4.83385"></trkpt>
      <trkpt lat="51.28087" lon="4.83381"></trkpt>
      <trkpt lat="51.28108" lon="4.83368"></trkpt>
      <trkpt lat="51.28127" lon="4.83349"></trkpt>
      <trkpt lat="51.28147" lon="4.83332"></trkpt>
      <trkpt lat="51.28160" lon="4.83320"></trkpt>
      <trkpt lat="51.28180" lon="4.83315"></trkpt>
      <trkpt lat="51.28200" lon="4.83303"></trkpt>
      <trkpt lat="51.28220" lon="4.83290"></trkpt>
      <trkpt lat="51.28242" lon="4.83289"></trkpt>
      <trkpt lat="51.28258" lon="4.83318"></trkpt>
      <trkpt lat="51.28268" lon="4.83347"></trkpt>
      <trkpt lat="51.28280" lon="4.83374"></trkpt>
      <trkpt lat="51.28296" lon="4.83404"></trkpt>
      <trkpt lat="51.28310" lon="4.83435"></trkpt>
      <trkpt lat="51.28326" lon="4.83467"></trkpt>
      <trkpt lat="51.28330" lon="4.83503"></trkpt>
      <trkpt lat="51.28322" lon="4.83538"></trkpt>
      <trkpt lat="51.28313" lon="4.83571"></trkpt>
      <trkpt lat="51.28306" lon="4.83603"></trkpt>
      <trkpt lat="51.28296" lon="4.83636"></trkpt>
      <trkpt lat="51.28286" lon="4.83672"></trkpt>
      <trkpt lat="51.28276" lon="4.83706"></trkpt>
      <trkpt lat="51.28257" lon="4.83726"></trkpt>
      <trkpt lat="51.28235" lon="4.83733"></trkpt>
      <trkpt lat="51.28212" lon="4.83740"></trkpt>
      <trkpt lat="51.28191" lon="4.83754"></trkpt>
      <trkpt lat="51.28175" lon="4.83781"></trkpt>
      <trkpt lat="51.28161" lon="4.83810"></trkpt>
      <trkpt lat="51.28149" lon="4.83839"></trkpt>
      <trkpt lat="51.28135" lon="4.83869"></trkpt>
      <trkpt lat="51.28122" lon="4.83900"></trkpt>
      <trkpt lat="51.28108" lon="4.83930"></trkpt>
      <trkpt lat="51.28095" lon="4.83959"></trkpt>
      <trkpt lat="51.28077" lon="4.83983"></trkpt>
      <trkpt lat="51.28059" lon="4.84012"></trkpt>
      <trkpt lat="51.28047" lon="4.84045"></trkpt>
      <trkpt lat="51.28035" lon="4.84080"></trkpt>
      <trkpt lat="51.28036" lon="4.84119"></trkpt>
      <trkpt lat="51.28051" lon="4.84150"></trkpt>
      <trkpt lat="51.28066" lon="4.84180"></trkpt>
      <trkpt lat="51.28080" lon="4.84213"></trkpt>
      <trkpt lat="51.28096" lon="4.84243"></trkpt>
      <trkpt lat="51.28112" lon="4.84278"></trkpt>
      <trkpt lat="51.28118" lon="4.84317"></trkpt>
      <trkpt lat="51.28136" lon="4.84334"></trkpt>
      <trkpt lat="51.28157" lon="4.84354"></trkpt>
      <trkpt lat="51.28169" lon="4.84391"></trkpt>
      <trkpt lat="51.28176" lon="4.84430"></trkpt>
      <trkpt lat="51.28185" lon="4.84468"></trkpt>
      <trkpt lat="51.28193" lon="4.84507"></trkpt>
      <trkpt lat="51.28204" lon="4.84545"></trkpt>
      <trkpt lat="51.28221" lon="4.84576"></trkpt>
      <trkpt lat="51.28238" lon="4.84603"></trkpt>
      <trkpt lat="51.28257" lon="4.84628"></trkpt>
      <trkpt lat="51.28277" lon="4.84654"></trkpt>
      <trkpt lat="51.28296" lon="4.84680"></trkpt>
      <trkpt lat="51.28315" lon="4.84704"></trkpt>
      <trkpt lat="51.28315" lon="4.84734"></trkpt>
      <trkpt lat="51.28314" lon="4.84756"></trkpt>
      <trkpt lat="51.28331" lon="4.84782"></trkpt>
      <trkpt lat="51.28348" lon="4.84806"></trkpt>
      <trkpt lat="51.28362" lon="4.84829"></trkpt>
      <trkpt lat="51.28376" lon="4.84858"></trkpt>
      <trkpt lat="51.28392" lon="4.84882"></trkpt>
      <trkpt lat="51.28409" lon="4.84906"></trkpt>
      <trkpt lat="51.28426" lon="4.84930"></trkpt>
      <trkpt lat="51.28442" lon="4.84952"></trkpt>
      <trkpt lat="51.28457" lon="4.84974"></trkpt>
      <trkpt lat="51.28473" lon="4.84998"></trkpt>
      <trkpt lat="51.28489" lon="4.85021"></trkpt>
      <trkpt lat="51.28506" lon="4.85045"></trkpt>
      <trkpt lat="51.28510" lon="4.85078"></trkpt>
      <trkpt lat="51.28520" lon="4.85108"></trkpt>
      <trkpt lat="51.28536" lon="4.85131"></trkpt>
      <trkpt lat="51.28552" lon="4.85153"></trkpt>
      <trkpt lat="51.28574" lon="4.85163"></trkpt>
      <trkpt lat="51.28592" lon="4.85174"></trkpt>
      <trkpt lat="51.28608" lon="4.85192"></trkpt>
      <trkpt lat="51.28626" lon="4.85213"></trkpt>
      <trkpt lat="51.28645" lon="4.85237"></trkpt>
      <trkpt lat="51.28665" lon="4.85260"></trkpt>
      <trkpt lat="51.28679" lon="4.85271"></trkpt>
      <trkpt lat="51.28694" lon="4.85249"></trkpt>
      <trkpt lat="51.28711" lon="4.85234"></trkpt>
      <trkpt lat="51.28728" lon="4.85258"></trkpt>
      <trkpt lat="51.28747" lon="4.85284"></trkpt>
      <trkpt lat="51.28766" lon="4.85310"></trkpt>
      <trkpt lat="51.28785" lon="4.85336"></trkpt>
      <trkpt lat="51.28804" lon="4.85343"></trkpt>
      <trkpt lat="51.28819" lon="4.85315"></trkpt>
      <trkpt lat="51.28835" lon="4.85283"></trkpt>
      <trkpt lat="51.28851" lon="4.85253"></trkpt>
      <trkpt lat="51.28866" lon="4.85220"></trkpt>
      <trkpt lat="51.28881" lon="4.85189"></trkpt>
      <trkpt lat="51.28898" lon="4.85160"></trkpt>
      <trkpt lat="51.28917" lon="4.85135"></trkpt>
      <trkpt lat="51.28941" lon="4.85131"></trkpt>
      <trkpt lat="51.28965" lon="4.85131"></trkpt>
      <trkpt lat="51.28991" lon="4.85130"></trkpt>
      <trkpt lat="51.29016" lon="4.85129"></trkpt>
      <trkpt lat="51.29040" lon="4.85131"></trkpt>
      <trkpt lat="51.29065" lon="4.85130"></trkpt>
      <trkpt lat="51.29085" lon="4.85122"></trkpt>
      <trkpt lat="51.29103" lon="4.85123"></trkpt>
      <trkpt lat="51.29125" lon="4.85126"></trkpt>
      <trkpt lat="51.29149" lon="4.85127"></trkpt>
      <trkpt lat="51.29175" lon="4.85125"></trkpt>
      <trkpt lat="51.29201" lon="4.85124"></trkpt>
      <trkpt lat="51.29226" lon="4.85125"></trkpt>
      <trkpt lat="51.29251" lon="4.85125"></trkpt>
      <trkpt lat="51.29277" lon="4.85124"></trkpt>
      <trkpt lat="51.29302" lon="4.85123"></trkpt>
      <trkpt lat="51.29328" lon="4.85123"></trkpt>
      <trkpt lat="51.29353" lon="4.85123"></trkpt>
      <trkpt lat="51.29378" lon="4.85122"></trkpt>
      <trkpt lat="51.29402" lon="4.85130"></trkpt>
      <trkpt lat="51.29398" lon="4.85153"></trkpt>
      <trkpt lat="51.29374" lon="4.85175"></trkpt>
      <trkpt lat="51.29350" lon="4.85196"></trkpt>
      <trkpt lat="51.29325" lon="4.85218"></trkpt>
      <trkpt lat="51.29304" lon="4.85242"></trkpt>
      <trkpt lat="51.29305" lon="4.85278"></trkpt>
      <trkpt lat="51.29314" lon="4.85317"></trkpt>
      <trkpt lat="51.29322" lon="4.85355"></trkpt>
      <trkpt lat="51.29330" lon="4.85395"></trkpt>
      <trkpt lat="51.29348" lon="4.85417"></trkpt>
      <trkpt lat="51.29373" lon="4.85419"></trkpt>
      <trkpt lat="51.29399" lon="4.85421"></trkpt>
      <trkpt lat="51.29426" lon="4.85424"></trkpt>
      <trkpt lat="51.29452" lon="4.85425"></trkpt>
      <trkpt lat="51.29479" lon="4.85427"></trkpt>
      <trkpt lat="51.29505" lon="4.85429"></trkpt>
      <trkpt lat="51.29532" lon="4.85431"></trkpt>
      <trkpt lat="51.29560" lon="4.85429"></trkpt>
      <trkpt lat="51.29581" lon="4.85428"></trkpt>
      <trkpt lat="51.29575" lon="4.85399"></trkpt>
      <trkpt lat="51.29563" lon="4.85365"></trkpt>
      <trkpt lat="51.29555" lon="4.85345"></trkpt>
      <trkpt lat="51.29548" lon="4.85326"></trkpt>
      <trkpt lat="51.29541" lon="4.85307"></trkpt>
      <trkpt lat="51.29534" lon="4.85286"></trkpt>
      <trkpt lat="51.29525" lon="4.85264"></trkpt>
      <trkpt lat="51.29517" lon="4.85245"></trkpt>
      <trkpt lat="51.29509" lon="4.85225"></trkpt>
      <trkpt lat="51.29502" lon="4.85205"></trkpt>
      <trkpt lat="51.29497" lon="4.85185"></trkpt>
      <trkpt lat="51.29490" lon="4.85165"></trkpt>
      <trkpt lat="51.29484" lon="4.85143"></trkpt>
      <trkpt lat="51.29476" lon="4.85122"></trkpt>
      <trkpt lat="51.29470" lon="4.85098"></trkpt>
      <trkpt lat="51.29465" lon="4.85075"></trkpt>
      <trkpt lat="51.29460" lon="4.85055"></trkpt>
      <trkpt lat="51.29453" lon="4.85034"></trkpt>
      <trkpt lat="51.29446" lon="4.85015"></trkpt>
      <trkpt lat="51.29439" lon="4.84994"></trkpt>
      <trkpt lat="51.29435" lon="4.84983"></trkpt>
    </trkseg>
  </trk>
</gpx>