<?xml version="1.0" encoding="UTF-8"?>
<gpx version="1.1" creator="jeffry.running" xmlns="http://www.topografix.com/GPX/1/1">
  <metadata><time>2026-09-02T11:41:27.204Z</time></metadata>
  <trk>
    <trkseg>
      <trkpt lat="51.25275" lon="4.50471"></trkpt>
      <trkpt lat="51.25269" lon="4.50465"></trkpt>
      <trkpt lat="51.25266" lon="4.50455"></trkpt>
      <trkpt lat="51.25267" lon="4.50446"></trkpt>
      <trkpt lat="51.25263" lon="4.50436"></trkpt>
      <trkpt lat="51.25260" lon="4.50427"></trkpt>
      <trkpt lat="51.25258" lon="4.50417"></trkpt>
      <trkpt lat="51.25258" lon="4.50408"></trkpt>
      <trkpt lat="51.25258" lon="4.50398"></trkpt>
      <trkpt lat="51.25257" lon="4.50388"></trkpt>
      <trkpt lat="51.25255" lon="4.50378"></trkpt>
      <trkpt lat="51.25253" lon="4.50368"></trkpt>
      <trkpt lat="51.25252" lon="4.50357"></trkpt>
      <trkpt lat="51.25251" lon="4.50347"></trkpt>
      <trkpt lat="51.25250" lon="4.50337"></trkpt>
      <trkpt lat="51.25247" lon="4.50327"></trkpt>
      <trkpt lat="51.25241" lon="4.50321"></trkpt>
      <trkpt lat="51.25235" lon="4.50316"></trkpt>
      <trkpt lat="51.25228" lon="4.50311"></trkpt>
      <trkpt lat="51.25221" lon="4.50308"></trkpt>
      <trkpt lat="51.25215" lon="4.50305"></trkpt>
      <trkpt lat="51.25209" lon="4.50303"></trkpt>
      <trkpt lat="51.25203" lon="4.50300"></trkpt>
      <trkpt lat="51.25197" lon="4.50298"></trkpt>
      <trkpt lat="51.25191" lon="4.50296"></trkpt>
      <trkpt lat="51.25185" lon="4.50293"></trkpt>
      <trkpt lat="51.25180" lon="4.50291"></trkpt>
      <trkpt lat="51.25174" lon="4.50288"></trkpt>
      <trkpt lat="51.25169" lon="4.50286"></trkpt>
      <trkpt lat="51.25164" lon="4.50284"></trkpt>
      <trkpt lat="51.25158" lon="4.50282"></trkpt>
      <trkpt lat="51.25152" lon="4.50280"></trkpt>
      <trkpt lat="51.25147" lon="4.50278"></trkpt>
      <trkpt lat="51.25142" lon="4.50276"></trkpt>
      <trkpt lat="51.25137" lon="4.50274"></trkpt>
      <trkpt lat="51.25131" lon="4.50272"></trkpt>
      <trkpt lat="51.25126" lon="4.50269"></trkpt>
      <trkpt lat="51.25121" lon="4.50267"></trkpt>
      <trkpt lat="51.25115" lon="4.50264"></trkpt>
      <trkpt lat="51.25110" lon="4.50261"></trkpt>
      <trkpt lat="51.25104" lon="4.50260"></trkpt>
      <trkpt lat="51.25098" lon="4.50258"></trkpt>
      <trkpt lat="51.25093" lon="4.50255"></trkpt>
      <trkpt lat="51.25087" lon="4.50252"></trkpt>
      <trkpt lat="51.25082" lon="4.50250"></trkpt>
      <trkpt lat="51.25076" lon="4.50248"></trkpt>
      <trkpt lat="51.25071" lon="4.50246"></trkpt>
      <trkpt lat="51.25066" lon="4.50242"></trkpt>
      <trkpt lat="51.25063" lon="4.50235"></trkpt>
      <trkpt lat="51.25060" lon="4.50227"></trkpt>
      <trkpt lat="51.25057" lon="4.50219"></trkpt>
      <trkpt lat="51.25053" lon="4.50212"></trkpt>
      <trkpt lat="51.25048" lon="4.50207"></trkpt>
      <trkpt lat="51.25042" lon="4.50203"></trkpt>
      <trkpt lat="51.25036" lon="4.50199"></trkpt>
      <trkpt lat="51.25030" lon="4.50195"></trkpt>
      <trkpt lat="51.25024" lon="4.50190"></trkpt>
      <trkpt lat="51.25019" lon="4.50186"></trkpt>
      <trkpt lat="51.25013" lon="4.50182"></trkpt>
      <trkpt lat="51.25007" lon="4.50179"></trkpt>
      <trkpt lat="51.25002" lon="4.50176"></trkpt>
      <trkpt lat="51.24996" lon="4.50173"></trkpt>
      <trkpt lat="51.24990" lon="4.50169"></trkpt>
      <trkpt lat="51.24986" lon="4.50163"></trkpt>
      <trkpt lat="51.24985" lon="4.50155"></trkpt>
      <trkpt lat="51.24980" lon="4.50152"></trkpt>
      <trkpt lat="51.24973" lon="4.50152"></trkpt>
      <trkpt lat="51.24967" lon="4.50152"></trkpt>
      <trkpt lat="51.24961" lon="4.50152"></trkpt>
      <trkpt lat="51.24956" lon="4.50153"></trkpt>
      <trkpt lat="51.24950" lon="4.50154"></trkpt>
      <trkpt lat="51.24944" lon="4.50154"></trkpt>
      <trkpt lat="51.24937" lon="4.50154"></trkpt>
      <trkpt lat="51.24932" lon="4.50153"></trkpt>
      <trkpt lat="51.24930" lon="4.50146"></trkpt>
      <trkpt lat="51.24931" lon="4.50137"></trkpt>
      <trkpt lat="51.24931" lon="4.50127"></trkpt>
      <trkpt lat="51.24931" lon="4.50117"></trkpt>
      <trkpt lat="51.24932" lon="4.50107"></trkpt>
      <trkpt lat="51.24932" lon="4.50097"></trkpt>
      <trkpt lat="51.24933" lon="4.50087"></trkpt>
      <trkpt lat="51.24933" lon="4.50078"></trkpt>
      <trkpt lat="51.24933" lon="4.50069"></trkpt>
      <trkpt lat="51.24930" lon="4.50062"></trkpt>
      <trkpt lat="51.24925" lon="4.50054"></trkpt>
      <trkpt lat="51.24922" lon="4.50045"></trkpt>
      <trkpt lat="51.24922" lon="4.50035"></trkpt>
      <trkpt lat="51.24922" lon="4.50025"></trkpt>
      <trkpt lat="51.24921" lon="4.50015"></trkpt>
      <trkpt lat="51.24922" lon="4.50006"></trkpt>
      <trkpt lat="51.24923" lon="4.49996"></trkpt>
      <trkpt lat="51.24923" lon="4.49986"></trkpt>
      <trkpt lat="51.24923" lon="4.49976"></trkpt>
      <trkpt lat="51.24923" lon="4.49966"></trkpt>
      <trkpt lat="51.24924" lon="4.49956"></trkpt>
      <trkpt lat="51.24925" lon="4.49947"></trkpt>
      <trkpt lat="51.24925" lon="4.49937"></trkpt>
      <trkpt lat="51.24925" lon="4.49927"></trkpt>
      <trkpt lat="51.24925" lon="4.49918"></trkpt>
      <trkpt lat="51.24924" lon="4.49909"></trkpt>
      <trkpt lat="51.24924" lon="4.49900"></trkpt>
      <trkpt lat="51.24923" lon="4.49889"></trkpt>
      <trkpt lat="51.24924" lon="4.49878"></trkpt>
      <trkpt lat="51.24923" lon="4.49868"></trkpt>
      <trkpt lat="51.24924" lon="4.49859"></trkpt>
      <trkpt lat="51.24925" lon="4.49850"></trkpt>
      <trkpt lat="51.24925" lon="4.49841"></trkpt>
      <trkpt lat="51.24927" lon="4.49831"></trkpt>
      <trkpt lat="51.24928" lon="4.49821"></trkpt>
      <trkpt lat="51.24927" lon="4.49810"></trkpt>
      <trkpt lat="51.24926" lon="4.49800"></trkpt>
      <trkpt lat="51.24924" lon="4.49791"></trkpt>
      <trkpt lat="51.24920" lon="4.49782"></trkpt>
      <trkpt lat="51.24914" lon="4.49776"></trkpt>
      <trkpt lat="51.24907" lon="4.49774"></trkpt>
      <trkpt lat="51.24900" lon="4.49774"></trkpt>
      <trkpt lat="51.24893" lon="4.49774"></trkpt>
      <trkpt lat="51.24886" lon="4.49774"></trkpt>
      <trkpt lat="51.24880" lon="4.49773"></trkpt>
      <trkpt lat="51.24873" lon="4.49773"></trkpt>
      <trkpt lat="51.24867" lon="4.49773"></trkpt>
      <trkpt lat="51.24860" lon="4.49772"></trkpt>
      <trkpt lat="51.24853" lon="4.49771"></trkpt>
      <trkpt lat="51.24847" lon="4.49770"></trkpt>
      <trkpt lat="51.24840" lon="4.49768"></trkpt>
      <trkpt lat="51.24833" lon="4.49766"></trkpt>
      <trkpt lat="51.24827" lon="4.49764"></trkpt>
      <trkpt lat="51.24820" lon="4.49762"></trkpt>
      <trkpt lat="51.24814" lon="4.49760"></trkpt>
      <trkpt lat="51.24807" lon="4.49758"></trkpt>
      <trkpt lat="51.24800" lon="4.49757"></trkpt>
      <trkpt lat="51.24794" lon="4.49756"></trkpt>
      <trkpt lat="51.24787" lon="4.49755"></trkpt>
      <trkpt lat="51.24781" lon="4.49754"></trkpt>
      <trkpt lat="51.24774" lon="4.49753"></trkpt>
      <trkpt lat="51.24768" lon="4.49752"></trkpt>
      <trkpt lat="51.24761" lon="4.49751"></trkpt>
      <trkpt lat="51.24754" lon="4.49751"></trkpt>
      <trkpt lat="51.24747" lon="4.49751"></trkpt>
      <trkpt lat="51.24740" lon="4.49750"></trkpt>
      <trkpt lat="51.24734" lon="4.49750"></trkpt>
      <trkpt lat="51.24727" lon="4.49749"></trkpt>
      <trkpt lat="51.24721" lon="4.49749"></trkpt>
      <trkpt lat="51.24714" lon="4.49748"></trkpt>
      <trkpt lat="51.24708" lon="4.49747"></trkpt>
      <trkpt lat="51.24701" lon="4.49747"></trkpt>
      <trkpt lat="51.24695" lon="4.49747"></trkpt>
      <trkpt lat="51.24688" lon="4.49746"></trkpt>
      <trkpt lat="51.24682" lon="4.49746"></trkpt>
      <trkpt lat="51.24675" lon="4.49745"></trkpt>
      <trkpt lat="51.24668" lon="4.49745"></trkpt>
      <trkpt lat="51.24662" lon="4.49744"></trkpt>
      <trkpt lat="51.24655" lon="4.49744"></trkpt>
      <trkpt lat="51.24648" lon="4.49742"></trkpt>
      <trkpt lat="51.24642" lon="4.49742"></trkpt>
      <trkpt lat="51.24635" lon="4.49741"></trkpt>
      <trkpt lat="51.24629" lon="4.49741"></trkpt>
      <trkpt lat="51.24622" lon="4.49741"></trkpt>
      <trkpt lat="51.24616" lon="4.49741"></trkpt>
      <trkpt lat="51.24610" lon="4.49740"></trkpt>
      <trkpt lat="51.24603" lon="4.49740"></trkpt>
      <trkpt lat="51.24596" lon="4.49739"></trkpt>
      <trkpt lat="51.24590" lon="4.49739"></trkpt>
      <trkpt lat="51.24583" lon="4.49737"></trkpt>
      <trkpt lat="51.24576" lon="4.49737"></trkpt>
      <trkpt lat="51.24569" lon="4.49737"></trkpt>
      <trkpt lat="51.24562" lon="4.49736"></trkpt>
      <trkpt lat="51.24556" lon="4.49735"></trkpt>
      <trkpt lat="51.24549" lon="4.49735"></trkpt>
      <trkpt lat="51.24542" lon="4.49734"></trkpt>
      <trkpt lat="51.24536" lon="4.49734"></trkpt>
      <trkpt lat="51.24529" lon="4.49732"></trkpt>
      <trkpt lat="51.24523" lon="4.49732"></trkpt>
      <trkpt lat="51.24516" lon="4.49734"></trkpt>
      <trkpt lat="51.24510" lon="4.49737"></trkpt>
      <trkpt lat="51.24504" lon="4.49739"></trkpt>
      <trkpt lat="51.24500" lon="4.49736"></trkpt>
      <trkpt lat="51.24494" lon="4.49732"></trkpt>
      <trkpt lat="51.24487" lon="4.49730"></trkpt>
      <trkpt lat="51.24481" lon="4.49725"></trkpt>
      <trkpt lat="51.24475" lon="4.49721"></trkpt>
      <trkpt lat="51.24469" lon="4.49715"></trkpt>
      <trkpt lat="51.24464" lon="4.49709"></trkpt>
      <trkpt lat="51.24459" lon="4.49703"></trkpt>
      <trkpt lat="51.24454" lon="4.49697"></trkpt>
      <trkpt lat="51.24449" lon="4.49691"></trkpt>
      <trkpt lat="51.24444" lon="4.49683"></trkpt>
      <trkpt lat="51.24439" lon="4.49676"></trkpt>
      <trkpt lat="51.24434" lon="4.49669"></trkpt>
      <trkpt lat="51.24429" lon="4.49661"></trkpt>
      <trkpt lat="51.24426" lon="4.49653"></trkpt>
      <trkpt lat="51.24422" lon="4.49644"></trkpt>
      <trkpt lat="51.24419" lon="4.49636"></trkpt>
      <trkpt lat="51.24416" lon="4.49627"></trkpt>
      <trkpt lat="51.24413" lon="4.49618"></trkpt>
      <trkpt lat="51.24408" lon="4.49609"></trkpt>
      <trkpt lat="51.24404" lon="4.49600"></trkpt>
      <trkpt lat="51.24401" lon="4.49590"></trkpt>
      <trkpt lat="51.24397" lon="4.49581"></trkpt>
      <trkpt lat="51.24395" lon="4.49571"></trkpt>
      <trkpt lat="51.24393" lon="4.49561"></trkpt>
      <trkpt lat="51.24390" lon="4.49552"></trkpt>
      <trkpt lat="51.24389" lon="4.49543"></trkpt>
      <trkpt lat="51.24390" lon="4.49533"></trkpt>
      <trkpt lat="51.24395" lon="4.49524"></trkpt>
      <trkpt lat="51.24400" lon="4.49517"></trkpt>
      <trkpt lat="51.24406" lon="4.49511"></trkpt>
      <trkpt lat="51.24411" lon="4.49505"></trkpt>
      <trkpt lat="51.24416" lon="4.49499"></trkpt>
      <trkpt lat="51.24421" lon="4.49493"></trkpt>
      <trkpt lat="51.24426" lon="4.49485"></trkpt>
      <trkpt lat="51.24429" lon="4.49476"></trkpt>
      <trkpt lat="51.24432" lon="4.49467"></trkpt>
      <trkpt lat="51.24435" lon="4.49459"></trkpt>
      <trkpt lat="51.24438" lon="4.49450"></trkpt>
      <trkpt lat="51.24440" lon="4.49441"></trkpt>
      <trkpt lat="51.24442" lon="4.49432"></trkpt>
      <trkpt lat="51.24444" lon="4.49423"></trkpt>
      <trkpt lat="51.24446" lon="4.49413"></trkpt>
      <trkpt lat="51.24447" lon="4.49403"></trkpt>
      <trkpt lat="51.24448" lon="4.49394"></trkpt>
      <trkpt lat="51.24450" lon="4.49384"></trkpt>
      <trkpt lat="51.24451" lon="4.49374"></trkpt>
      <trkpt lat="51.24452" lon="4.49364"></trkpt>
      <trkpt lat="51.24453" lon="4.49354"></trkpt>
      <trkpt lat="51.24455" lon="4.49344"></trkpt>
      <trkpt lat="51.24457" lon="4.49334"></trkpt>
      <trkpt lat="51.24459" lon="4.49324"></trkpt>
      <trkpt lat="51.24460" lon="4.49314"></trkpt>
      <trkpt lat="51.24461" lon="4.49304"></trkpt>
      <trkpt lat="51.24462" lon="4.49293"></trkpt>
      <trkpt lat="51.24463" lon="4.49282"></trkpt>
      <trkpt lat="51.24464" lon="4.49272"></trkpt>
      <trkpt lat="51.24464" lon="4.49262"></trkpt>
      <trkpt lat="51.24464" lon="4.49251"></trkpt>
      <trkpt lat="51.24463" lon="4.49240"></trkpt>
      <trkpt lat="51.24461" lon="4.49230"></trkpt>
      <trkpt lat="51.24460" lon="4.49220"></trkpt>
      <trkpt lat="51.24460" lon="4.49210"></trkpt>
      <trkpt lat="51.24462" lon="4.49200"></trkpt>
      <trkpt lat="51.24463" lon="4.49190"></trkpt>
      <trkpt lat="51.24465" lon="4.49180"></trkpt>
      <trkpt lat="51.24467" lon="4.49170"></trkpt>
      <trkpt lat="51.24469" lon="4.49160"></trkpt>
      <trkpt lat="51.24471" lon="4.49150"></trkpt>
      <trkpt lat="51.24474" lon="4.49140"></trkpt>
      <trkpt lat="51.24478" lon="4.49132"></trkpt>
      <trkpt lat="51.24482" lon="4.49123"></trkpt>
      <trkpt lat="51.24484" lon="4.49114"></trkpt>
      <trkpt lat="51.24487" lon="4.49104"></trkpt>
      <trkpt lat="51.24490" lon="4.49095"></trkpt>
      <trkpt lat="51.24493" lon="4.49085"></trkpt>
      <trkpt lat="51.24495" lon="4.49075"></trkpt>
      <trkpt lat="51.24498" lon="4.49065"></trkpt>
      <trkpt lat="51.24499" lon="4.49055"></trkpt>
      <trkpt lat="51.24500" lon="4.49044"></trkpt>
      <trkpt lat="51.24500" lon="4.49034"></trkpt>
      <trkpt lat="51.24499" lon="4.49023"></trkpt>
      <trkpt lat="51.24497" lon="4.49013"></trkpt>
      <trkpt lat="51.24494" lon="4.49003"></trkpt>
      <trkpt lat="51.24491" lon="4.48993"></trkpt>
      <trkpt lat="51.24488" lon="4.48984"></trkpt>
      <trkpt lat="51.24484" lon="4.48975"></trkpt>
      <trkpt lat="51.24478" lon="4.48970"></trkpt>
      <trkpt lat="51.24472" lon="4.48969"></trkpt>
      <trkpt lat="51.24466" lon="4.48969"></trkpt>
      <trkpt lat="51.24460" lon="4.48970"></trkpt>
      <trkpt lat="51.24453" lon="4.48972"></trkpt>
      <trkpt lat="51.24447" lon="4.48974"></trkpt>
      <trkpt lat="51.24440" lon="4.48977"></trkpt>
      <trkpt lat="51.24433" lon="4.48980"></trkpt>
      <trkpt lat="51.24425" lon="4.48981"></trkpt>
      <trkpt lat="51.24419" lon="4.48982"></trkpt>
      <trkpt lat="51.24413" lon="4.48983"></trkpt>
      <trkpt lat="51.24406" lon="4.48984"></trkpt>
      <trkpt lat="51.24400" lon="4.48986"></trkpt>
      <trkpt lat="51.24394" lon="4.48987"></trkpt>
      <trkpt lat="51.24387" lon="4.48985"></trkpt>
      <trkpt lat="51.24382" lon="4.48981"></trkpt>
      <trkpt lat="51.24377" lon="4.48975"></trkpt>
      <trkpt lat="51.24372" lon="4.48968"></trkpt>
      <trkpt lat="51.24368" lon="4.48960"></trkpt>
      <trkpt lat="51.24366" lon="4.48950"></trkpt>
      <trkpt lat="51.24365" lon="4.48939"></trkpt>
      <trkpt lat="51.24364" lon="4.48929"></trkpt>
      <trkpt lat="51.24361" lon="4.48919"></trkpt>
      <trkpt lat="51.24358" lon="4.48910"></trkpt>
      <trkpt lat="51.24353" lon="4.48900"></trkpt>
      <trkpt lat="51.24349" lon="4.48893"></trkpt>
      <trkpt lat="51.24344" lon="4.48885"></trkpt>
      <trkpt lat="51.24340" lon="4.48878"></trkpt>
      <trkpt lat="51.24334" lon="4.48872"></trkpt>
      <trkpt lat="51.24330" lon="4.48865"></trkpt>
      <trkpt lat="51.24328" lon="4.48854"></trkpt>
      <trkpt lat="51.24330" lon="4.48844"></trkpt>
      <trkpt lat="51.24332" lon="4.48835"></trkpt>
      <trkpt lat="51.24335" lon="4.48826"></trkpt>
      <trkpt lat="51.24338" lon="4.48817"></trkpt>
      <trkpt lat="51.24341" lon="4.48808"></trkpt>
      <trkpt lat="51.24344" lon="4.48798"></trkpt>
      <trkpt lat="51.24346" lon="4.48788"></trkpt>
      <trkpt lat="51.24348" lon="4.48778"></trkpt>
      <trkpt lat="51.24351" lon="4.48769"></trkpt>
      <trkpt lat="51.24353" lon="4.48759"></trkpt>
      <trkpt lat="51.24355" lon="4.48750"></trkpt>
      <trkpt lat="51.24357" lon="4.48740"></trkpt>
      <trkpt lat="51.24359" lon="4.48730"></trkpt>
      <trkpt lat="51.24362" lon="4.48720"></trkpt>
      <trkpt lat="51.24364" lon="4.48711"></trkpt>
      <trkpt lat="51.24367" lon="4.48701"></trkpt>
      <trkpt lat="51.24369" lon="4.48691"></trkpt>
      <trkpt lat="51.24372" lon="4.48681"></trkpt>
      <trkpt lat="51.24374" lon="4.48671"></trkpt>
      <trkpt lat="51.24376" lon="4.48661"></trkpt>
      <trkpt lat="51.24379" lon="4.48651"></trkpt>
      <trkpt lat="51.24382" lon="4.48642"></trkpt>
      <trkpt lat="51.24386" lon="4.48633"></trkpt>
      <trkpt lat="51.24391" lon="4.48624"></trkpt>
      <trkpt lat="51.24395" lon="4.48616"></trkpt>
      <trkpt lat="51.24399" lon="4.48608"></trkpt>
      <trkpt lat="51.24403" lon="4.48600"></trkpt>
      <trkpt lat="51.24408" lon="4.48592"></trkpt>
      <trkpt lat="51.24409" lon="4.48583"></trkpt>
      <trkpt lat="51.24406" lon="4.48575"></trkpt>
      <trkpt lat="51.24399" lon="4.48568"></trkpt>
      <trkpt lat="51.24393" lon="4.48563"></trkpt>
      <trkpt lat="51.24386" lon="4.48562"></trkpt>
      <trkpt lat="51.24379" lon="4.48563"></trkpt>
      <trkpt lat="51.24373" lon="4.48564"></trkpt>
      <trkpt lat="51.24366" lon="4.48565"></trkpt>
      <trkpt lat="51.24359" lon="4.48567"></trkpt>
      <trkpt lat="51.24353" lon="4.48568"></trkpt>
      <trkpt lat="51.24346" lon="4.48571"></trkpt>
      <trkpt lat="51.24339" lon="4.48573"></trkpt>
      <trkpt lat="51.24333" lon="4.48574"></trkpt>
      <trkpt lat="51.24328" lon="4.48575"></trkpt>
      <trkpt lat="51.24324" lon="4.48576"></trkpt>
      <trkpt lat="51.24320" lon="4.48577"></trkpt>
      <trkpt lat="51.24315" lon="4.48578"></trkpt>
      <trkpt lat="51.24311" lon="4.48579"></trkpt>
      <trkpt lat="51.24307" lon="4.48580"></trkpt>
      <trkpt lat="51.24303" lon="4.48581"></trkpt>
      <trkpt lat="51.24298" lon="4.48582"></trkpt>
      <trkpt lat="51.24294" lon="4.48582"></trkpt>
      <trkpt lat="51.24290" lon="4.48582"></trkpt>
      <trkpt lat="51.24286" lon="4.48583"></trkpt>
      <trkpt lat="51.24281" lon="4.48585"></trkpt>
      <trkpt lat="51.24277" lon="4.48585"></trkpt>
      <trkpt lat="51.24273" lon="4.48586"></trkpt>
      <trkpt lat="51.24268" lon="4.48587"></trkpt>
      <trkpt lat="51.24264" lon="4.48589"></trkpt>
      <trkpt lat="51.24260" lon="4.48590"></trkpt>
      <trkpt lat="51.24255" lon="4.48592"></trkpt>
      <trkpt lat="51.24251" lon="4.48593"></trkpt>
      <trkpt lat="51.24247" lon="4.48594"></trkpt>
      <trkpt lat="51.24243" lon="4.48595"></trkpt>
      <trkpt lat="51.24239" lon="4.48595"></trkpt>
      <trkpt lat="51.24235" lon="4.48596"></trkpt>
      <trkpt lat="51.24231" lon="4.48597"></trkpt>
      <trkpt lat="51.24228" lon="4.48598"></trkpt>
      <trkpt lat="51.24224" lon="4.48599"></trkpt>
      <trkpt lat="51.24220" lon="4.48600"></trkpt>
      <trkpt lat="51.24216" lon="4.48600"></trkpt>
      <trkpt lat="51.24212" lon="4.48601"></trkpt>
      <trkpt lat="51.24208" lon="4.48602"></trkpt>
      <trkpt lat="51.24204" lon="4.48602"></trkpt>
      <trkpt lat="51.24200" lon="4.48603"></trkpt>
      <trkpt lat="51.24196" lon="4.48604"></trkpt>
      <trkpt lat="51.24193" lon="4.48605"></trkpt>
      <trkpt lat="51.24189" lon="4.48606"></trkpt>
      <trkpt lat="51.24185" lon="4.48607"></trkpt>
      <trkpt lat="51.24181" lon="4.48607"></trkpt>
      <trkpt lat="51.24177" lon="4.48608"></trkpt>
      <trkpt lat="51.24174" lon="4.48609"></trkpt>
      <trkpt lat="51.24170" lon="4.48609"></trkpt>
      <trkpt lat="51.24167" lon="4.48610"></trkpt>
      <trkpt lat="51.24163" lon="4.48611"></trkpt>
      <trkpt lat="51.24159" lon="4.48612"></trkpt>
      <trkpt lat="51.24155" lon="4.48613"></trkpt>
      <trkpt lat="51.24151" lon="4.48615"></trkpt>
      <trkpt lat="51.24148" lon="4.48616"></trkpt>
      <trkpt lat="51.24144" lon="4.48617"></trkpt>
      <trkpt lat="51.24140" lon="4.48618"></trkpt>
      <trkpt lat="51.24136" lon="4.48619"></trkpt>
      <trkpt lat="51.24132" lon="4.48620"></trkpt>
      <trkpt lat="51.24128" lon="4.48620"></trkpt>
      <trkpt lat="51.24124" lon="4.48621"></trkpt>
      <trkpt lat="51.24121" lon="4.48621"></trkpt>
      <trkpt lat="51.24117" lon="4.48623"></trkpt>
      <trkpt lat="51.24113" lon="4.48624"></trkpt>
      <trkpt lat="51.24109" lon="4.48625"></trkpt>
      <trkpt lat="51.24106" lon="4.48626"></trkpt>
      <trkpt lat="51.24102" lon="4.48627"></trkpt>
      <trkpt lat="51.24099" lon="4.48628"></trkpt>
      <trkpt lat="51.24095" lon="4.48629"></trkpt>
      <trkpt lat="51.24091" lon="4.48629"></trkpt>
      <trkpt lat="51.24088" lon="4.48630"></trkpt>
      <trkpt lat="51.24084" lon="4.48631"></trkpt>
      <trkpt lat="51.24080" lon="4.48632"></trkpt>
      <trkpt lat="51.24076" lon="4.48632"></trkpt>
      <trkpt lat="51.24072" lon="4.48633"></trkpt>
      <trkpt lat="51.24068" lon="4.48634"></trkpt>
      <trkpt lat="51.24063" lon="4.48635"></trkpt>
      <trkpt lat="51.24057" lon="4.48636"></trkpt>
      <trkpt lat="51.24050" lon="4.48638"></trkpt>
      <trkpt lat="51.24043" lon="4.48639"></trkpt>
      <trkpt lat="51.24036" lon="4.48640"></trkpt>
      <trkpt lat="51.24030" lon="4.48641"></trkpt>
      <trkpt lat="51.24023" lon="4.48643"></trkpt>
      <trkpt lat="51.24016" lon="4.48644"></trkpt>
      <trkpt lat="51.24010" lon="4.48645"></trkpt>
      <trkpt lat="51.24004" lon="4.48646"></trkpt>
      <trkpt lat="51.23997" lon="4.48648"></trkpt>
      <trkpt lat="51.23991" lon="4.48650"></trkpt>
      <trkpt lat="51.23984" lon="4.48652"></trkpt>
      <trkpt lat="51.23977" lon="4.48654"></trkpt>
      <trkpt lat="51.23970" lon="4.48655"></trkpt>
      <trkpt lat="51.23964" lon="4.48657"></trkpt>
      <trkpt lat="51.23957" lon="4.48659"></trkpt>
      <trkpt lat="51.23950" lon="4.48661"></trkpt>
      <trkpt lat="51.23943" lon="4.48662"></trkpt>
      <trkpt lat="51.23937" lon="4.48664"></trkpt>
      <trkpt lat="51.23930" lon="4.48665"></trkpt>
      <trkpt lat="51.23923" lon="4.48667"></trkpt>
      <trkpt lat="51.23916" lon="4.48669"></trkpt>
      <trkpt lat="51.23909" lon="4.48671"></trkpt>
      <trkpt lat="51.23903" lon="4.48672"></trkpt>
      <trkpt lat="51.23897" lon="4.48674"></trkpt>
      <trkpt lat="51.23891" lon="4.48676"></trkpt>
      <trkpt lat="51.23884" lon="4.48678"></trkpt>
      <trkpt lat="51.23878" lon="4.48681"></trkpt>
      <trkpt lat="51.23872" lon="4.48684"></trkpt>
      <trkpt lat="51.23865" lon="4.48687"></trkpt>
      <trkpt lat="51.23859" lon="4.48690"></trkpt>
      <trkpt lat="51.23852" lon="4.48692"></trkpt>
      <trkpt lat="51.23846" lon="4.48695"></trkpt>
      <trkpt lat="51.23839" lon="4.48697"></trkpt>
      <trkpt lat="51.23833" lon="4.48699"></trkpt>
      <trkpt lat="51.23827" lon="4.48702"></trkpt>
      <trkpt lat="51.23820" lon="4.48704"></trkpt>
      <trkpt lat="51.23813" lon="4.48707"></trkpt>
      <trkpt lat="51.23807" lon="4.48709"></trkpt>
      <trkpt lat="51.23800" lon="4.48711"></trkpt>
      <trkpt lat="51.23794" lon="4.48714"></trkpt>
      <trkpt lat="51.23787" lon="4.48716"></trkpt>
      <trkpt lat="51.23780" lon="4.48719"></trkpt>
      <trkpt lat="51.23774" lon="4.48721"></trkpt>
      <trkpt lat="51.23768" lon="4.48723"></trkpt>
      <trkpt lat="51.23762" lon="4.48725"></trkpt>
      <trkpt lat="51.23756" lon="4.48728"></trkpt>
      <trkpt lat="51.23751" lon="4.48731"></trkpt>
      <trkpt lat="51.23745" lon="4.48734"></trkpt>
      <trkpt lat="51.23739" lon="4.48738"></trkpt>
      <trkpt lat="51.23733" lon="4.48741"></trkpt>
      <trkpt lat="51.23726" lon="4.48744"></trkpt>
      <trkpt lat="51.23720" lon="4.48747"></trkpt>
      <trkpt lat="51.23714" lon="4.48749"></trkpt>
      <trkpt lat="51.23708" lon="4.48751"></trkpt>
      <trkpt lat="51.23702" lon="4.48754"></trkpt>
      <trkpt lat="51.23696" lon="4.48757"></trkpt>
      <trkpt lat="51.23690" lon="4.48760"></trkpt>
      <trkpt lat="51.23684" lon="4.48763"></trkpt>
      <trkpt lat="51.23679" lon="4.48765"></trkpt>
      <trkpt lat="51.23673" lon="4.48769"></trkpt>
      <trkpt lat="51.23667" lon="4.48774"></trkpt>
      <trkpt lat="51.23661" lon="4.48779"></trkpt>
      <trkpt lat="51.23656" lon="4.48785"></trkpt>
      <trkpt lat="51.23652" lon="4.48792"></trkpt>
      <trkpt lat="51.23649" lon="4.48797"></trkpt>
      <trkpt lat="51.23646" lon="4.48801"></trkpt>
      <trkpt lat="51.23642" lon="4.48801"></trkpt>
      <trkpt lat="51.23639" lon="4.48800"></trkpt>
      <trkpt lat="51.23637" lon="4.48799"></trkpt>
      <trkpt lat="51.23637" lon="4.48800"></trkpt>
      <trkpt lat="51.23637" lon="4.48800"></trkpt>
      <trkpt lat="51.23637" lon="4.48800"></trkpt>
      <trkpt lat="51.23637" lon="4.48800"></trkpt>
      <trkpt lat="51.23637" lon="4.48800"></trkpt>
      <trkpt lat="51.23637" lon="4.48801"></trkpt>
      <trkpt lat="51.23637" lon="4.48801"></trkpt>
      <trkpt lat="51.23637" lon="4.48801"></trkpt>
      <trkpt lat="51.23637" lon="4.48801"></trkpt>
      <trkpt lat="51.23636" lon="4.48801"></trkpt>
      <trkpt lat="51.23636" lon="4.48802"></trkpt>
      <trkpt lat="51.23636" lon="4.48802"></trkpt>
      <trkpt lat="51.23636" lon="4.48802"></trkpt>
      <trkpt lat="51.23635" lon="4.48802"></trkpt>
      <trkpt lat="51.23630" lon="4.48804"></trkpt>
      <trkpt lat="51.23621" lon="4.48804"></trkpt>
      <trkpt lat="51.23612" lon="4.48805"></trkpt>
      <trkpt lat="51.23604" lon="4.48806"></trkpt>
      <trkpt lat="51.23597" lon="4.48808"></trkpt>
      <trkpt lat="51.23590" lon="4.48809"></trkpt>
      <trkpt lat="51.23584" lon="4.48811"></trkpt>
      <trkpt lat="51.23577" lon="4.48813"></trkpt>
      <trkpt lat="51.23570" lon="4.48814"></trkpt>
      <trkpt lat="51.23564" lon="4.48816"></trkpt>
      <trkpt lat="51.23557" lon="4.48818"></trkpt>
      <trkpt lat="51.23550" lon="4.48820"></trkpt>
      <trkpt lat="51.23544" lon="4.48822"></trkpt>
      <trkpt lat="51.23537" lon="4.48824"></trkpt>
      <trkpt lat="51.23531" lon="4.48824"></trkpt>
      <trkpt lat="51.23525" lon="4.48822"></trkpt>
      <trkpt lat="51.23521" lon="4.48828"></trkpt>
      <trkpt lat="51.23521" lon="4.48839"></trkpt>
      <trkpt lat="51.23521" lon="4.48849"></trkpt>
      <trkpt lat="51.23520" lon="4.48859"></trkpt>
      <trkpt lat="51.23517" lon="4.48867"></trkpt>
      <trkpt lat="51.23511" lon="4.48871"></trkpt>
      <trkpt lat="51.23504" lon="4.48872"></trkpt>
      <trkpt lat="51.23498" lon="4.48874"></trkpt>
      <trkpt lat="51.23492" lon="4.48878"></trkpt>
      <trkpt lat="51.23487" lon="4.48883"></trkpt>
      <trkpt lat="51.23482" lon="4.48887"></trkpt>
      <trkpt lat="51.23476" lon="4.48893"></trkpt>
      <trkpt lat="51.23471" lon="4.48898"></trkpt>
      <trkpt lat="51.23466" lon="4.48903"></trkpt>
      <trkpt lat="51.23461" lon="4.48909"></trkpt>
      <trkpt lat="51.23455" lon="4.48915"></trkpt>
      <trkpt lat="51.23450" lon="4.48920"></trkpt>
      <trkpt lat="51.23444" lon="4.48925"></trkpt>
      <trkpt lat="51.23438" lon="4.48930"></trkpt>
      <trkpt lat="51.23432" lon="4.48934"></trkpt>
      <trkpt lat="51.23426" lon="4.48939"></trkpt>
      <trkpt lat="51.23420" lon="4.48945"></trkpt>
      <trkpt lat="51.23415" lon="4.48952"></trkpt>
      <trkpt lat="51.23409" lon="4.48957"></trkpt>
      <trkpt lat="51.23403" lon="4.48962"></trkpt>
      <trkpt lat="51.23397" lon="4.48967"></trkpt>
      <trkpt lat="51.23391" lon="4.48973"></trkpt>
      <trkpt lat="51.23386" lon="4.48979"></trkpt>
      <trkpt lat="51.23380" lon="4.48984"></trkpt>
      <trkpt lat="51.23375" lon="4.48989"></trkpt>
      <trkpt lat="51.23369" lon="4.48995"></trkpt>
      <trkpt lat="51.23364" lon="4.49000"></trkpt>
      <trkpt lat="51.23359" lon="4.49005"></trkpt>
      <trkpt lat="51.23354" lon="4.49009"></trkpt>
      <trkpt lat="51.23348" lon="4.49015"></trkpt>
      <trkpt lat="51.23342" lon="4.49022"></trkpt>
      <trkpt lat="51.23336" lon="4.49029"></trkpt>
      <trkpt lat="51.23330" lon="4.49036"></trkpt>
      <trkpt lat="51.23325" lon="4.49042"></trkpt>
      <trkpt lat="51.23319" lon="4.49047"></trkpt>
      <trkpt lat="51.23314" lon="4.49053"></trkpt>
      <trkpt lat="51.23309" lon="4.49059"></trkpt>
      <trkpt lat="51.23304" lon="4.49066"></trkpt>
      <trkpt lat="51.23300" lon="4.49070"></trkpt>
      <trkpt lat="51.23295" lon="4.49073"></trkpt>
      <trkpt lat="51.23289" lon="4.49078"></trkpt>
      <trkpt lat="51.23284" lon="4.49084"></trkpt>
      <trkpt lat="51.23279" lon="4.49090"></trkpt>
      <trkpt lat="51.23273" lon="4.49096"></trkpt>
      <trkpt lat="51.23267" lon="4.49101"></trkpt>
      <trkpt lat="51.23261" lon="4.49107"></trkpt>
      <trkpt lat="51.23255" lon="4.49112"></trkpt>
      <trkpt lat="51.23249" lon="4.49116"></trkpt>
      <trkpt lat="51.23243" lon="4.49118"></trkpt>
      <trkpt lat="51.23237" lon="4.49120"></trkpt>
      <trkpt lat="51.23234" lon="4.49122"></trkpt>
      <trkpt lat="51.23234" lon="4.49122"></trkpt>
      <trkpt lat="51.23234" lon="4.49122"></trkpt>
      <trkpt lat="51.23234" lon="4.49122"></trkpt>
      <trkpt lat="51.23233" lon="4.49122"></trkpt>
      <trkpt lat="51.23233" lon="4.49122"></trkpt>
      <trkpt lat="51.23233" lon="4.49122"></trkpt>
      <trkpt lat="51.23233" lon="4.49122"></trkpt>
      <trkpt lat="51.23233" lon="4.49122"></trkpt>
      <trkpt lat="51.23233" lon="4.49122"></trkpt>
      <trkpt lat="51.23233" lon="4.49122"></trkpt>
      <trkpt lat="51.23233" lon="4.49122"></trkpt>
      <trkpt lat="51.23232" lon="4.49122"></trkpt>
      <trkpt lat="51.23232" lon="4.49122"></trkpt>
      <trkpt lat="51.23226" lon="4.49120"></trkpt>
      <trkpt lat="51.23220" lon="4.49117"></trkpt>
      <trkpt lat="51.23214" lon="4.49116"></trkpt>
      <trkpt lat="51.23210" lon="4.49118"></trkpt>
      <trkpt lat="51.23207" lon="4.49120"></trkpt>
      <trkpt lat="51.23205" lon="4.49119"></trkpt>
      <trkpt lat="51.23202" lon="4.49119"></trkpt>
      <trkpt lat="51.23198" lon="4.49118"></trkpt>
      <trkpt lat="51.23192" lon="4.49118"></trkpt>
      <trkpt lat="51.23188" lon="4.49116"></trkpt>
      <trkpt lat="51.23182" lon="4.49114"></trkpt>
      <trkpt lat="51.23174" lon="4.49114"></trkpt>
      <trkpt lat="51.23168" lon="4.49114"></trkpt>
      <trkpt lat="51.23160" lon="4.49112"></trkpt>
      <trkpt lat="51.23154" lon="4.49110"></trkpt>
      <trkpt lat="51.23148" lon="4.49107"></trkpt>
      <trkpt lat="51.23142" lon="4.49107"></trkpt>
      <trkpt lat="51.23134" lon="4.49106"></trkpt>
      <trkpt lat="51.23126" lon="4.49107"></trkpt>
      <trkpt lat="51.23119" lon="4.49106"></trkpt>
      <trkpt lat="51.23113" lon="4.49108"></trkpt>
      <trkpt lat="51.23106" lon="4.49108"></trkpt>
      <trkpt lat="51.23100" lon="4.49109"></trkpt>
      <trkpt lat="51.23095" lon="4.49115"></trkpt>
      <trkpt lat="51.23089" lon="4.49123"></trkpt>
      <trkpt lat="51.23085" lon="4.49131"></trkpt>
      <trkpt lat="51.23081" lon="4.49140"></trkpt>
      <trkpt lat="51.23077" lon="4.49149"></trkpt>
      <trkpt lat="51.23075" lon="4.49160"></trkpt>
      <trkpt lat="51.23074" lon="4.49168"></trkpt>
      <trkpt lat="51.23072" lon="4.49174"></trkpt>
      <trkpt lat="51.23069" lon="4.49180"></trkpt>
      <trkpt lat="51.23063" lon="4.49184"></trkpt>
      <trkpt lat="51.23056" lon="4.49184"></trkpt>
      <trkpt lat="51.23048" lon="4.49182"></trkpt>
      <trkpt lat="51.23041" lon="4.49181"></trkpt>
      <trkpt lat="51.23033" lon="4.49180"></trkpt>
      <trkpt lat="51.23026" lon="4.49179"></trkpt>
      <trkpt lat="51.23019" lon="4.49179"></trkpt>
      <trkpt lat="51.23012" lon="4.49181"></trkpt>
      <trkpt lat="51.23006" lon="4.49183"></trkpt>
      <trkpt lat="51.23000" lon="4.49187"></trkpt>
      <trkpt lat="51.22994" lon="4.49189"></trkpt>
      <trkpt lat="51.22989" lon="4.49190"></trkpt>
      <trkpt lat="51.22987" lon="4.49192"></trkpt>
      <trkpt lat="51.22985" lon="4.49195"></trkpt>
      <trkpt lat="51.22982" lon="4.49199"></trkpt>
      <trkpt lat="51.22978" lon="4.49202"></trkpt>
      <trkpt lat="51.22974" lon="4.49206"></trkpt>
      <trkpt lat="51.22971" lon="4.49211"></trkpt>
      <trkpt lat="51.22967" lon="4.49218"></trkpt>
      <trkpt lat="51.22963" lon="4.49226"></trkpt>
      <trkpt lat="51.22958" lon="4.49234"></trkpt>
      <trkpt lat="51.22953" lon="4.49241"></trkpt>
      <trkpt lat="51.22948" lon="4.49249"></trkpt>
      <trkpt lat="51.22944" lon="4.49256"></trkpt>
      <trkpt lat="51.22939" lon="4.49262"></trkpt>
      <trkpt lat="51.22933" lon="4.49267"></trkpt>
      <trkpt lat="51.22926" lon="4.49269"></trkpt>
      <trkpt lat="51.22919" lon="4.49270"></trkpt>
      <trkpt lat="51.22912" lon="4.49271"></trkpt>
      <trkpt lat="51.22904" lon="4.49270"></trkpt>
      <trkpt lat="51.22898" lon="4.49271"></trkpt>
      <trkpt lat="51.22891" lon="4.49273"></trkpt>
      <trkpt lat="51.22885" lon="4.49276"></trkpt>
      <trkpt lat="51.22879" lon="4.49278"></trkpt>
      <trkpt lat="51.22873" lon="4.49279"></trkpt>
      <trkpt lat="51.22868" lon="4.49280"></trkpt>
      <trkpt lat="51.22862" lon="4.49281"></trkpt>
      <trkpt lat="51.22856" lon="4.49282"></trkpt>
      <trkpt lat="51.22850" lon="4.49283"></trkpt>
      <trkpt lat="51.22844" lon="4.49284"></trkpt>
      <trkpt lat="51.22838" lon="4.49286"></trkpt>
      <trkpt lat="51.22833" lon="4.49287"></trkpt>
      <trkpt lat="51.22826" lon="4.49288"></trkpt>
      <trkpt lat="51.22820" lon="4.49290"></trkpt>
      <trkpt lat="51.22813" lon="4.49291"></trkpt>
      <trkpt lat="51.22807" lon="4.49293"></trkpt>
      <trkpt lat="51.22800" lon="4.49297"></trkpt>
      <trkpt lat="51.22794" lon="4.49299"></trkpt>
      <trkpt lat="51.22788" lon="4.49300"></trkpt>
      <trkpt lat="51.22782" lon="4.49300"></trkpt>
      <trkpt lat="51.22775" lon="4.49302"></trkpt>
      <trkpt lat="51.22768" lon="4.49304"></trkpt>
      <trkpt lat="51.22762" lon="4.49306"></trkpt>
      <trkpt lat="51.22755" lon="4.49308"></trkpt>
      <trkpt lat="51.22749" lon="4.49309"></trkpt>
      <trkpt lat="51.22741" lon="4.49310"></trkpt>
      <trkpt lat="51.22734" lon="4.49309"></trkpt>
      <trkpt lat="51.22728" lon="4.49308"></trkpt>
      <trkpt lat="51.22724" lon="4.49301"></trkpt>
      <trkpt lat="51.22722" lon="4.49290"></trkpt>
      <trkpt lat="51.22721" lon="4.49280"></trkpt>
      <trkpt lat="51.22719" lon="4.49269"></trkpt>
      <trkpt lat="51.22716" lon="4.49259"></trkpt>
      <trkpt lat="51.22714" lon="4.49249"></trkpt>
      <trkpt lat="51.22713" lon="4.49239"></trkpt>
      <trkpt lat="51.22713" lon="4.49228"></trkpt>
      <trkpt lat="51.22713" lon="4.49218"></trkpt>
      <trkpt lat="51.22711" lon="4.49207"></trkpt>
      <trkpt lat="51.22709" lon="4.49197"></trkpt>
      <trkpt lat="51.22708" lon="4.49186"></trkpt>
      <trkpt lat="51.22707" lon="4.49175"></trkpt>
      <trkpt lat="51.22706" lon="4.49164"></trkpt>
      <trkpt lat="51.22705" lon="4.49154"></trkpt>
      <trkpt lat="51.22704" lon="4.49143"></trkpt>
      <trkpt lat="51.22703" lon="4.49132"></trkpt>
      <trkpt lat="51.22702" lon="4.49121"></trkpt>
      <trkpt lat="51.22701" lon="4.49111"></trkpt>
      <trkpt lat="51.22700" lon="4.49101"></trkpt>
      <trkpt lat="51.22699" lon="4.49091"></trkpt>
      <trkpt lat="51.22698" lon="4.49080"></trkpt>
      <trkpt lat="51.22697" lon="4.49070"></trkpt>
      <trkpt lat="51.22695" lon="4.49058"></trkpt>
      <trkpt lat="51.22695" lon="4.49048"></trkpt>
      <trkpt lat="51.22694" lon="4.49037"></trkpt>
      <trkpt lat="51.22693" lon="4.49026"></trkpt>
      <trkpt lat="51.22692" lon="4.49015"></trkpt>
      <trkpt lat="51.22691" lon="4.49005"></trkpt>
      <trkpt lat="51.22689" lon="4.48994"></trkpt>
      <trkpt lat="51.22688" lon="4.48984"></trkpt>
      <trkpt lat="51.22685" lon="4.48976"></trkpt>
      <trkpt lat="51.22680" lon="4.48974"></trkpt>
      <trkpt lat="51.22674" lon="4.48976"></trkpt>
      <trkpt lat="51.22668" lon="4.48978"></trkpt>
      <trkpt lat="51.22665" lon="4.48980"></trkpt>
      <trkpt lat="51.22661" lon="4.48982"></trkpt>
      <trkpt lat="51.22657" lon="4.48984"></trkpt>
      <trkpt lat="51.22654" lon="4.48985"></trkpt>
      <trkpt lat="51.22651" lon="4.48986"></trkpt>
      <trkpt lat="51.22647" lon="4.48988"></trkpt>
      <trkpt lat="51.22644" lon="4.48989"></trkpt>
      <trkpt lat="51.22640" lon="4.48991"></trkpt>
      <trkpt lat="51.22636" lon="4.48993"></trkpt>
      <trkpt lat="51.22633" lon="4.48994"></trkpt>
      <trkpt lat="51.22629" lon="4.48995"></trkpt>
      <trkpt lat="51.22626" lon="4.48996"></trkpt>
      <trkpt lat="51.22622" lon="4.48998"></trkpt>
      <trkpt lat="51.22619" lon="4.49000"></trkpt>
      <trkpt lat="51.22615" lon="4.49001"></trkpt>
      <trkpt lat="51.22612" lon="4.49003"></trkpt>
      <trkpt lat="51.22608" lon="4.49005"></trkpt>
      <trkpt lat="51.22605" lon="4.49007"></trkpt>
      <trkpt lat="51.22601" lon="4.49008"></trkpt>
      <trkpt lat="51.22597" lon="4.49010"></trkpt>
      <trkpt lat="51.22593" lon="4.49012"></trkpt>
      <trkpt lat="51.22590" lon="4.49014"></trkpt>
      <trkpt lat="51.22586" lon="4.49015"></trkpt>
      <trkpt lat="51.22583" lon="4.49016"></trkpt>
      <trkpt lat="51.22579" lon="4.49018"></trkpt>
      <trkpt lat="51.22576" lon="4.49019"></trkpt>
      <trkpt lat="51.22572" lon="4.49021"></trkpt>
      <trkpt lat="51.22569" lon="4.49023"></trkpt>
      <trkpt lat="51.22565" lon="4.49025"></trkpt>
      <trkpt lat="51.22562" lon="4.49027"></trkpt>
      <trkpt lat="51.22559" lon="4.49029"></trkpt>
      <trkpt lat="51.22555" lon="4.49031"></trkpt>
      <trkpt lat="51.22552" lon="4.49032"></trkpt>
      <trkpt lat="51.22548" lon="4.49034"></trkpt>
      <trkpt lat="51.22544" lon="4.49035"></trkpt>
      <trkpt lat="51.22541" lon="4.49036"></trkpt>
      <trkpt lat="51.22537" lon="4.49038"></trkpt>
      <trkpt lat="51.22534" lon="4.49039"></trkpt>
      <trkpt lat="51.22530" lon="4.49041"></trkpt>
      <trkpt lat="51.22527" lon="4.49043"></trkpt>
      <trkpt lat="51.22523" lon="4.49044"></trkpt>
      <trkpt lat="51.22519" lon="4.49045"></trkpt>
      <trkpt lat="51.22515" lon="4.49047"></trkpt>
      <trkpt lat="51.22512" lon="4.49049"></trkpt>
      <trkpt lat="51.22508" lon="4.49050"></trkpt>
      <trkpt lat="51.22504" lon="4.49052"></trkpt>
      <trkpt lat="51.22501" lon="4.49054"></trkpt>
      <trkpt lat="51.22500" lon="4.49054"></trkpt>
      <trkpt lat="51.22494" lon="4.49057"></trkpt>
      <trkpt lat="51.22491" lon="4.49059"></trkpt>
      <trkpt lat="51.22488" lon="4.49061"></trkpt>
      <trkpt lat="51.22484" lon="4.49063"></trkpt>
      <trkpt lat="51.22480" lon="4.49064"></trkpt>
      <trkpt lat="51.22477" lon="4.49065"></trkpt>
      <trkpt lat="51.22474" lon="4.49066"></trkpt>
      <trkpt lat="51.22470" lon="4.49068"></trkpt>
      <trkpt lat="51.22467" lon="4.49070"></trkpt>
      <trkpt lat="51.22464" lon="4.49071"></trkpt>
      <trkpt lat="51.22461" lon="4.49072"></trkpt>
      <trkpt lat="51.22457" lon="4.49073"></trkpt>
      <trkpt lat="51.22453" lon="4.49074"></trkpt>
      <trkpt lat="51.22450" lon="4.49076"></trkpt>
      <trkpt lat="51.22446" lon="4.49078"></trkpt>
      <trkpt lat="51.22442" lon="4.49079"></trkpt>
      <trkpt lat="51.22438" lon="4.49080"></trkpt>
      <trkpt lat="51.22435" lon="4.49082"></trkpt>
      <trkpt lat="51.22431" lon="4.49084"></trkpt>
      <trkpt lat="51.22427" lon="4.49086"></trkpt>
      <trkpt lat="51.22424" lon="4.49087"></trkpt>
      <trkpt lat="51.22420" lon="4.49089"></trkpt>
      <trkpt lat="51.22417" lon="4.49091"></trkpt>
      <trkpt lat="51.22413" lon="4.49093"></trkpt>
      <trkpt lat="51.22409" lon="4.49095"></trkpt>
      <trkpt lat="51.22406" lon="4.49096"></trkpt>
      <trkpt lat="51.22402" lon="4.49098"></trkpt>
      <trkpt lat="51.22399" lon="4.49099"></trkpt>
      <trkpt lat="51.22395" lon="4.49101"></trkpt>
      <trkpt lat="51.22391" lon="4.49103"></trkpt>
      <trkpt lat="51.22388" lon="4.49104"></trkpt>
      <trkpt lat="51.22384" lon="4.49105"></trkpt>
      <trkpt lat="51.22381" lon="4.49106"></trkpt>
      <trkpt lat="51.22377" lon="4.49108"></trkpt>
      <trkpt lat="51.22374" lon="4.49110"></trkpt>
      <trkpt lat="51.22370" lon="4.49111"></trkpt>
      <trkpt lat="51.22367" lon="4.49112"></trkpt>
      <trkpt lat="51.22363" lon="4.49114"></trkpt>
      <trkpt lat="51.22360" lon="4.49114"></trkpt>
      <trkpt lat="51.22357" lon="4.49116"></trkpt>
      <trkpt lat="51.22353" lon="4.49117"></trkpt>
      <trkpt lat="51.22350" lon="4.49119"></trkpt>
      <trkpt lat="51.22346" lon="4.49121"></trkpt>
      <trkpt lat="51.22343" lon="4.49122"></trkpt>
      <trkpt lat="51.22340" lon="4.49123"></trkpt>
      <trkpt lat="51.22336" lon="4.49125"></trkpt>
      <trkpt lat="51.22332" lon="4.49127"></trkpt>
      <trkpt lat="51.22328" lon="4.49129"></trkpt>
      <trkpt lat="51.22324" lon="4.49132"></trkpt>
      <trkpt lat="51.22320" lon="4.49134"></trkpt>
      <trkpt lat="51.22316" lon="4.49136"></trkpt>
      <trkpt lat="51.22312" lon="4.49138"></trkpt>
      <trkpt lat="51.22308" lon="4.49140"></trkpt>
      <trkpt lat="51.22304" lon="4.49142"></trkpt>
      <trkpt lat="51.22301" lon="4.49144"></trkpt>
      <trkpt lat="51.22297" lon="4.49145"></trkpt>
      <trkpt lat="51.22294" lon="4.49147"></trkpt>
      <trkpt lat="51.22290" lon="4.49148"></trkpt>
      <trkpt lat="51.22286" lon="4.49150"></trkpt>
      <trkpt lat="51.22282" lon="4.49151"></trkpt>
      <trkpt lat="51.22279" lon="4.49152"></trkpt>
      <trkpt lat="51.22275" lon="4.49154"></trkpt>
      <trkpt lat="51.22271" lon="4.49154"></trkpt>
      <trkpt lat="51.22267" lon="4.49156"></trkpt>
      <trkpt lat="51.22263" lon="4.49157"></trkpt>
      <trkpt lat="51.22259" lon="4.49159"></trkpt>
      <trkpt lat="51.22255" lon="4.49160"></trkpt>
      <trkpt lat="51.22252" lon="4.49162"></trkpt>
      <trkpt lat="51.22248" lon="4.49164"></trkpt>
      <trkpt lat="51.22244" lon="4.49166"></trkpt>
      <trkpt lat="51.22240" lon="4.49167"></trkpt>
      <trkpt lat="51.22236" lon="4.49168"></trkpt>
      <trkpt lat="51.22232" lon="4.49169"></trkpt>
      <trkpt lat="51.22229" lon="4.49170"></trkpt>
      <trkpt lat="51.22225" lon="4.49171"></trkpt>
      <trkpt lat="51.22221" lon="4.49172"></trkpt>
      <trkpt lat="51.22217" lon="4.49174"></trkpt>
      <trkpt lat="51.22212" lon="4.49176"></trkpt>
      <trkpt lat="51.22208" lon="4.49179"></trkpt>
      <trkpt lat="51.22203" lon="4.49181"></trkpt>
      <trkpt lat="51.22200" lon="4.49183"></trkpt>
      <trkpt lat="51.22197" lon="4.49187"></trkpt>
      <trkpt lat="51.22193" lon="4.49190"></trkpt>
      <trkpt lat="51.22193" lon="4.49197"></trkpt>
      <trkpt lat="51.22193" lon="4.49206"></trkpt>
      <trkpt lat="51.22189" lon="4.49212"></trkpt>
      <trkpt lat="51.22183" lon="4.49216"></trkpt>
      <trkpt lat="51.22177" lon="4.49219"></trkpt>
      <trkpt lat="51.22171" lon="4.49221"></trkpt>
      <trkpt lat="51.22165" lon="4.49218"></trkpt>
      <trkpt lat="51.22161" lon="4.49210"></trkpt>
      <trkpt lat="51.22157" lon="4.49202"></trkpt>
      <trkpt lat="51.22152" lon="4.49198"></trkpt>
      <trkpt lat="51.22146" lon="4.49195"></trkpt>
      <trkpt lat="51.22139" lon="4.49192"></trkpt>
      <trkpt lat="51.22133" lon="4.49190"></trkpt>
      <trkpt lat="51.22126" lon="4.49187"></trkpt>
      <trkpt lat="51.22120" lon="4.49185"></trkpt>
      <trkpt lat="51.22113" lon="4.49183"></trkpt>
      <trkpt lat="51.22107" lon="4.49181"></trkpt>
      <trkpt lat="51.22101" lon="4.49180"></trkpt>
      <trkpt lat="51.22094" lon="4.49178"></trkpt>
      <trkpt lat="51.22087" lon="4.49176"></trkpt>
      <trkpt lat="51.22081" lon="4.49174"></trkpt>
      <trkpt lat="51.22074" lon="4.49172"></trkpt>
      <trkpt lat="51.22068" lon="4.49171"></trkpt>
      <trkpt lat="51.22061" lon="4.49169"></trkpt>
      <trkpt lat="51.22055" lon="4.49167"></trkpt>
      <trkpt lat="51.22048" lon="4.49166"></trkpt>
      <trkpt lat="51.22042" lon="4.49164"></trkpt>
      <trkpt lat="51.22036" lon="4.49162"></trkpt>
      <trkpt lat="51.22030" lon="4.49162"></trkpt>
      <trkpt lat="51.22024" lon="4.49165"></trkpt>
      <trkpt lat="51.22018" lon="4.49170"></trkpt>
      <trkpt lat="51.22012" lon="4.49175"></trkpt>
      <trkpt lat="51.22006" lon="4.49180"></trkpt>
      <trkpt lat="51.22000" lon="4.49184"></trkpt>
      <trkpt lat="51.21994" lon="4.49189"></trkpt>
      <trkpt lat="51.21988" lon="4.49192"></trkpt>
      <trkpt lat="51.21981" lon="4.49193"></trkpt>
      <trkpt lat="51.21974" lon="4.49193"></trkpt>
      <trkpt lat="51.21968" lon="4.49194"></trkpt>
      <trkpt lat="51.21962" lon="4.49195"></trkpt>
      <trkpt lat="51.21957" lon="4.49195"></trkpt>
      <trkpt lat="51.21952" lon="4.49195"></trkpt>
      <trkpt lat="51.21948" lon="4.49196"></trkpt>
      <trkpt lat="51.21944" lon="4.49196"></trkpt>
      <trkpt lat="51.21940" lon="4.49196"></trkpt>
      <trkpt lat="51.21936" lon="4.49197"></trkpt>
      <trkpt lat="51.21932" lon="4.49195"></trkpt>
      <trkpt lat="51.21930" lon="4.49190"></trkpt>
      <trkpt lat="51.21928" lon="4.49184"></trkpt>
      <trkpt lat="51.21927" lon="4.49178"></trkpt>
      <trkpt lat="51.21926" lon="4.49172"></trkpt>
      <trkpt lat="51.21925" lon="4.49165"></trkpt>
      <trkpt lat="51.21924" lon="4.49159"></trkpt>
      <trkpt lat="51.21923" lon="4.49153"></trkpt>
      <trkpt lat="51.21922" lon="4.49147"></trkpt>
      <trkpt lat="51.21920" lon="4.49141"></trkpt>
      <trkpt lat="51.21918" lon="4.49135"></trkpt>
      <trkpt lat="51.21916" lon="4.49130"></trkpt>
      <trkpt lat="51.21914" lon="4.49125"></trkpt>
      <trkpt lat="51.21911" lon="4.49121"></trkpt>
      <trkpt lat="51.21908" lon="4.49118"></trkpt>
      <trkpt lat="51.21905" lon="4.49113"></trkpt>
      <trkpt lat="51.21904" lon="4.49109"></trkpt>
      <trkpt lat="51.21904" lon="4.49109"></trkpt>
      <trkpt lat="51.21904" lon="4.49109"></trkpt>
      <trkpt lat="51.21904" lon="4.49109"></trkpt>
      <trkpt lat="51.21904" lon="4.49109"></trkpt>
      <trkpt lat="51.21904" lon="4.49109"></trkpt>
      <trkpt lat="51.21904" lon="4.49109"></trkpt>
      <trkpt lat="51.21904" lon="4.49108"></trkpt>
      <trkpt lat="51.21904" lon="4.49108"></trkpt>
      <trkpt lat="51.21904" lon="4.49108"></trkpt>
      <trkpt lat="51.21904" lon="4.49108"></trkpt>
      <trkpt lat="51.21904" lon="4.49108"></trkpt>
      <trkpt lat="51.21904" lon="4.49108"></trkpt>
      <trkpt lat="51.21904" lon="4.49108"></trkpt>
      <trkpt lat="51.21904" lon="4.49108"></trkpt>
      <trkpt lat="51.21904" lon="4.49108"></trkpt>
      <trkpt lat="51.21904" lon="4.49108"></trkpt>
      <trkpt lat="51.21904" lon="4.49108"></trkpt>
      <trkpt lat="51.21904" lon="4.49107"></trkpt>
      <trkpt lat="51.21904" lon="4.49107"></trkpt>
      <trkpt lat="51.21904" lon="4.49107"></trkpt>
      <trkpt lat="51.21904" lon="4.49107"></trkpt>
      <trkpt lat="51.21904" lon="4.49107"></trkpt>
      <trkpt lat="51.21904" lon="4.49107"></trkpt>
      <trkpt lat="51.21904" lon="4.49107"></trkpt>
      <trkpt lat="51.21904" lon="4.49107"></trkpt>
      <trkpt lat="51.21904" lon="4.49107"></trkpt>
      <trkpt lat="51.21904" lon="4.49107"></trkpt>
      <trkpt lat="51.21904" lon="4.49106"></trkpt>
      <trkpt lat="51.21904" lon="4.49106"></trkpt>
      <trkpt lat="51.21904" lon="4.49106"></trkpt>
      <trkpt lat="51.21904" lon="4.49106"></trkpt>
      <trkpt lat="51.21904" lon="4.49106"></trkpt>
      <trkpt lat="51.21904" lon="4.49106"></trkpt>
      <trkpt lat="51.21904" lon="4.49106"></trkpt>
      <trkpt lat="51.21903" lon="4.49105"></trkpt>
      <trkpt lat="51.21900" lon="4.49103"></trkpt>
      <trkpt lat="51.21897" lon="4.49100"></trkpt>
      <trkpt lat="51.21895" lon="4.49097"></trkpt>
      <trkpt lat="51.21895" lon="4.49095"></trkpt>
      <trkpt lat="51.21894" lon="4.49094"></trkpt>
      <trkpt lat="51.21892" lon="4.49094"></trkpt>
      <trkpt lat="51.21891" lon="4.49094"></trkpt>
      <trkpt lat="51.21891" lon="4.49094"></trkpt>
      <trkpt lat="51.21891" lon="4.49094"></trkpt>
      <trkpt lat="51.21891" lon="4.49093"></trkpt>
      <trkpt lat="51.21891" lon="4.49093"></trkpt>
      <trkpt lat="51.21891" lon="4.49093"></trkpt>
      <trkpt lat="51.21891" lon="4.49093"></trkpt>
      <trkpt lat="51.21891" lon="4.49093"></trkpt>
      <trkpt lat="51.21891" lon="4.49093"></trkpt>
      <trkpt lat="51.21891" lon="4.49092"></trkpt>
      <trkpt lat="51.21891" lon="4.49092"></trkpt>
      <trkpt lat="51.21891" lon="4.49092"></trkpt>
      <trkpt lat="51.21891" lon="4.49092"></trkpt>
      <trkpt lat="51.21891" lon="4.49092"></trkpt>
      <trkpt lat="51.21891" lon="4.49091"></trkpt>
      <trkpt lat="51.21891" lon="4.49091"></trkpt>
      <trkpt lat="51.21891" lon="4.49091"></trkpt>
      <trkpt lat="51.21891" lon="4.49091"></trkpt>
      <trkpt lat="51.21890" lon="4.49088"></trkpt>
      <trkpt lat="51.21887" lon="4.49076"></trkpt>
      <trkpt lat="51.21885" lon="4.49066"></trkpt>
      <trkpt lat="51.21883" lon="4.49057"></trkpt>
      <trkpt lat="51.21880" lon="4.49047"></trkpt>
      <trkpt lat="51.21877" lon="4.49038"></trkpt>
      <trkpt lat="51.21875" lon="4.49027"></trkpt>
      <trkpt lat="51.21874" lon="4.49017"></trkpt>
      <trkpt lat="51.21873" lon="4.49007"></trkpt>
      <trkpt lat="51.21873" lon="4.48996"></trkpt>
      <trkpt lat="51.21872" lon="4.48986"></trkpt>
      <trkpt lat="51.21871" lon="4.48976"></trkpt>
      <trkpt lat="51.21870" lon="4.48965"></trkpt>
      <trkpt lat="51.21869" lon="4.48955"></trkpt>
      <trkpt lat="51.21868" lon="4.48944"></trkpt>
      <trkpt lat="51.21868" lon="4.48934"></trkpt>
      <trkpt lat="51.21868" lon="4.48923"></trkpt>
      <trkpt lat="51.21868" lon="4.48913"></trkpt>
      <trkpt lat="51.21867" lon="4.48903"></trkpt>
      <trkpt lat="51.21867" lon="4.48892"></trkpt>
      <trkpt lat="51.21867" lon="4.48882"></trkpt>
      <trkpt lat="51.21867" lon="4.48872"></trkpt>
      <trkpt lat="51.21866" lon="4.48861"></trkpt>
      <trkpt lat="51.21866" lon="4.48851"></trkpt>
      <trkpt lat="51.21866" lon="4.48841"></trkpt>
      <trkpt lat="51.21866" lon="4.48831"></trkpt>
      <trkpt lat="51.21865" lon="4.48821"></trkpt>
      <trkpt lat="51.21865" lon="4.48811"></trkpt>
      <trkpt lat="51.21865" lon="4.48800"></trkpt>
      <trkpt lat="51.21865" lon="4.48790"></trkpt>
      <trkpt lat="51.21864" lon="4.48780"></trkpt>
      <trkpt lat="51.21864" lon="4.48770"></trkpt>
      <trkpt lat="51.21862" lon="4.48760"></trkpt>
      <trkpt lat="51.21861" lon="4.48749"></trkpt>
      <trkpt lat="51.21860" lon="4.48739"></trkpt>
      <trkpt lat="51.21858" lon="4.48728"></trkpt>
      <trkpt lat="51.21857" lon="4.48718"></trkpt>
      <trkpt lat="51.21857" lon="4.48708"></trkpt>
      <trkpt lat="51.21856" lon="4.48697"></trkpt>
      <trkpt lat="51.21854" lon="4.48687"></trkpt>
      <trkpt lat="51.21853" lon="4.48676"></trkpt>
      <trkpt lat="51.21853" lon="4.48665"></trkpt>
      <trkpt lat="51.21854" lon="4.48655"></trkpt>
      <trkpt lat="51.21856" lon="4.48645"></trkpt>
      <trkpt lat="51.21857" lon="4.48635"></trkpt>
      <trkpt lat="51.21859" lon="4.48625"></trkpt>
      <trkpt lat="51.21860" lon="4.48614"></trkpt>
      <trkpt lat="51.21861" lon="4.48603"></trkpt>
      <trkpt lat="51.21862" lon="4.48593"></trkpt>
      <trkpt lat="51.21863" lon="4.48583"></trkpt>
      <trkpt lat="51.21865" lon="4.48573"></trkpt>
      <trkpt lat="51.21866" lon="4.48562"></trkpt>
      <trkpt lat="51.21868" lon="4.48552"></trkpt>
      <trkpt lat="51.21869" lon="4.48542"></trkpt>
      <trkpt lat="51.21869" lon="4.48532"></trkpt>
      <trkpt lat="51.21866" lon="4.48522"></trkpt>
      <trkpt lat="51.21862" lon="4.48514"></trkpt>
      <trkpt lat="51.21857" lon="4.48505"></trkpt>
      <trkpt lat="51.21852" lon="4.48498"></trkpt>
      <trkpt lat="51.21846" lon="4.48495"></trkpt>
      <trkpt lat="51.21839" lon="4.48493"></trkpt>
      <trkpt lat="51.21833" lon="4.48493"></trkpt>
      <trkpt lat="51.21826" lon="4.48492"></trkpt>
      <trkpt lat="51.21819" lon="4.48491"></trkpt>
      <trkpt lat="51.21813" lon="4.48490"></trkpt>
      <trkpt lat="51.21806" lon="4.48489"></trkpt>
      <trkpt lat="51.21799" lon="4.48488"></trkpt>
      <trkpt lat="51.21792" lon="4.48487"></trkpt>
      <trkpt lat="51.21785" lon="4.48486"></trkpt>
      <trkpt lat="51.21778" lon="4.48486"></trkpt>
      <trkpt lat="51.21772" lon="4.48484"></trkpt>
      <trkpt lat="51.21767" lon="4.48477"></trkpt>
      <trkpt lat="51.21767" lon="4.48466"></trkpt>
      <trkpt lat="51.21767" lon="4.48455"></trkpt>
      <trkpt lat="51.21766" lon="4.48445"></trkpt>
      <trkpt lat="51.21764" lon="4.48435"></trkpt>
      <trkpt lat="51.21760" lon="4.48426"></trkpt>
      <trkpt lat="51.21753" lon="4.48422"></trkpt>
      <trkpt lat="51.21746" lon="4.48417"></trkpt>
      <trkpt lat="51.21740" lon="4.48412"></trkpt>
      <trkpt lat="51.21734" lon="4.48406"></trkpt>
      <trkpt lat="51.21729" lon="4.48401"></trkpt>
      <trkpt lat="51.21723" lon="4.48395"></trkpt>
      <trkpt lat="51.21717" lon="4.48389"></trkpt>
      <trkpt lat="51.21711" lon="4.48384"></trkpt>
      <trkpt lat="51.21705" lon="4.48378"></trkpt>
      <trkpt lat="51.21700" lon="4.48372"></trkpt>
      <trkpt lat="51.21695" lon="4.48366"></trkpt>
      <trkpt lat="51.21692" lon="4.48356"></trkpt>
      <trkpt lat="51.21691" lon="4.48346"></trkpt>
      <trkpt lat="51.21692" lon="4.48335"></trkpt>
      <trkpt lat="51.21692" lon="4.48324"></trkpt>
      <trkpt lat="51.21693" lon="4.48313"></trkpt>
      <trkpt lat="51.21695" lon="4.48303"></trkpt>
      <trkpt lat="51.21696" lon="4.48292"></trkpt>
      <trkpt lat="51.21697" lon="4.48281"></trkpt>
      <trkpt lat="51.21697" lon="4.48270"></trkpt>
      <trkpt lat="51.21698" lon="4.48258"></trkpt>
      <trkpt lat="51.21698" lon="4.48247"></trkpt>
      <trkpt lat="51.21699" lon="4.48237"></trkpt>
      <trkpt lat="51.21699" lon="4.48230"></trkpt>
      <trkpt lat="51.21700" lon="4.48224"></trkpt>
      <trkpt lat="51.21703" lon="4.48221"></trkpt>
      <trkpt lat="51.21707" lon="4.48218"></trkpt>
      <trkpt lat="51.21707" lon="4.48210"></trkpt>
      <trkpt lat="51.21705" lon="4.48200"></trkpt>
      <trkpt lat="51.21704" lon="4.48188"></trkpt>
      <trkpt lat="51.21703" lon="4.48177"></trkpt>
      <trkpt lat="51.21703" lon="4.48166"></trkpt>
      <trkpt lat="51.21702" lon="4.48155"></trkpt>
      <trkpt lat="51.21703" lon="4.48146"></trkpt>
      <trkpt lat="51.21704" lon="4.48143"></trkpt>
      <trkpt lat="51.21704" lon="4.48142"></trkpt>
      <trkpt lat="51.21704" lon="4.48142"></trkpt>
      <trkpt lat="51.21704" lon="4.48141"></trkpt>
      <trkpt lat="51.21704" lon="4.48138"></trkpt>
      <trkpt lat="51.21704" lon="4.48127"></trkpt>
      <trkpt lat="51.21705" lon="4.48118"></trkpt>
      <trkpt lat="51.21706" lon="4.48118"></trkpt>
      <trkpt lat="51.21707" lon="4.48118"></trkpt>
      <trkpt lat="51.21706" lon="4.48118"></trkpt>
      <trkpt lat="51.21706" lon="4.48118"></trkpt>
      <trkpt lat="51.21706" lon="4.48117"></trkpt>
      <trkpt lat="51.21706" lon="4.48117"></trkpt>
      <trkpt lat="51.21706" lon="4.48116"></trkpt>
      <trkpt lat="51.21706" lon="4.48116"></trkpt>
      <trkpt lat="51.21705" lon="4.48116"></trkpt>
      <trkpt lat="51.21705" lon="4.48112"></trkpt>
      <trkpt lat="51.21705" lon="4.48101"></trkpt>
      <trkpt lat="51.21705" lon="4.48089"></trkpt>
      <trkpt lat="51.21705" lon="4.48079"></trkpt>
      <trkpt lat="51.21705" lon="4.48069"></trkpt>
      <trkpt lat="51.21706" lon="4.48059"></trkpt>
      <trkpt lat="51.21707" lon="4.48049"></trkpt>
      <trkpt lat="51.21707" lon="4.48039"></trkpt>
      <trkpt lat="51.21708" lon="4.48029"></trkpt>
      <trkpt lat="51.21708" lon="4.48019"></trkpt>
      <trkpt lat="51.21709" lon="4.48009"></trkpt>
      <trkpt lat="51.21709" lon="4.47999"></trkpt>
      <trkpt lat="51.21711" lon="4.47989"></trkpt>
      <trkpt lat="51.21711" lon="4.47979"></trkpt>
      <trkpt lat="51.21710" lon="4.47969"></trkpt>
      <trkpt lat="51.21706" lon="4.47959"></trkpt>
      <trkpt lat="51.21703" lon="4.47950"></trkpt>
      <trkpt lat="51.21702" lon="4.47939"></trkpt>
      <trkpt lat="51.21703" lon="4.47929"></trkpt>
      <trkpt lat="51.21703" lon="4.47919"></trkpt>
      <trkpt lat="51.21703" lon="4.47908"></trkpt>
      <trkpt lat="51.21704" lon="4.47897"></trkpt>
      <trkpt lat="51.21705" lon="4.47886"></trkpt>
      <trkpt lat="51.21706" lon="4.47875"></trkpt>
      <trkpt lat="51.21707" lon="4.47864"></trkpt>
      <trkpt lat="51.21707" lon="4.47853"></trkpt>
      <trkpt lat="51.21707" lon="4.47842"></trkpt>
      <trkpt lat="51.21707" lon="4.47831"></trkpt>
      <trkpt lat="51.21707" lon="4.47821"></trkpt>
      <trkpt lat="51.21707" lon="4.47809"></trkpt>
      <trkpt lat="51.21707" lon="4.47799"></trkpt>
      <trkpt lat="51.21707" lon="4.47789"></trkpt>
      <trkpt lat="51.21708" lon="4.47779"></trkpt>
      <trkpt lat="51.21710" lon="4.47769"></trkpt>
      <trkpt lat="51.21711" lon="4.47759"></trkpt>
      <trkpt lat="51.21712" lon="4.47748"></trkpt>
      <trkpt lat="51.21715" lon="4.47739"></trkpt>
      <trkpt lat="51.21718" lon="4.47730"></trkpt>
      <trkpt lat="51.21722" lon="4.47721"></trkpt>
      <trkpt lat="51.21723" lon="4.47710"></trkpt>
      <trkpt lat="51.21724" lon="4.47698"></trkpt>
      <trkpt lat="51.21724" lon="4.47688"></trkpt>
      <trkpt lat="51.21724" lon="4.47678"></trkpt>
      <trkpt lat="51.21724" lon="4.47668"></trkpt>
      <trkpt lat="51.21725" lon="4.47658"></trkpt>
      <trkpt lat="51.21725" lon="4.47648"></trkpt>
      <trkpt lat="51.21725" lon="4.47637"></trkpt>
      <trkpt lat="51.21725" lon="4.47627"></trkpt>
      <trkpt lat="51.21726" lon="4.47617"></trkpt>
      <trkpt lat="51.21728" lon="4.47607"></trkpt>
      <trkpt lat="51.21729" lon="4.47596"></trkpt>
      <trkpt lat="51.21730" lon="4.47586"></trkpt>
      <trkpt lat="51.21731" lon="4.47576"></trkpt>
      <trkpt lat="51.21732" lon="4.47565"></trkpt>
      <trkpt lat="51.21732" lon="4.47555"></trkpt>
      <trkpt lat="51.21733" lon="4.47545"></trkpt>
      <trkpt lat="51.21734" lon="4.47535"></trkpt>
      <trkpt lat="51.21734" lon="4.47524"></trkpt>
      <trkpt lat="51.21734" lon="4.47513"></trkpt>
      <trkpt lat="51.21734" lon="4.47503"></trkpt>
      <trkpt lat="51.21735" lon="4.47493"></trkpt>
      <trkpt lat="51.21735" lon="4.47483"></trkpt>
      <trkpt lat="51.21735" lon="4.47472"></trkpt>
      <trkpt lat="51.21736" lon="4.47461"></trkpt>
      <trkpt lat="51.21737" lon="4.47450"></trkpt>
      <trkpt lat="51.21736" lon="4.47438"></trkpt>
      <trkpt lat="51.21736" lon="4.47427"></trkpt>
      <trkpt lat="51.21737" lon="4.47416"></trkpt>
      <trkpt lat="51.21736" lon="4.47405"></trkpt>
      <trkpt lat="51.21737" lon="4.47394"></trkpt>
      <trkpt lat="51.21737" lon="4.47383"></trkpt>
      <trkpt lat="51.21737" lon="4.47373"></trkpt>
      <trkpt lat="51.21737" lon="4.47362"></trkpt>
      <trkpt lat="51.21738" lon="4.47351"></trkpt>
      <trkpt lat="51.21738" lon="4.47341"></trkpt>
      <trkpt lat="51.21738" lon="4.47331"></trkpt>
      <trkpt lat="51.21739" lon="4.47320"></trkpt>
      <trkpt lat="51.21739" lon="4.47310"></trkpt>
      <trkpt lat="51.21739" lon="4.47299"></trkpt>
      <trkpt lat="51.21739" lon="4.47288"></trkpt>
      <trkpt lat="51.21739" lon="4.47278"></trkpt>
      <trkpt lat="51.21739" lon="4.47267"></trkpt>
      <trkpt lat="51.21740" lon="4.47257"></trkpt>
      <trkpt lat="51.21740" lon="4.47247"></trkpt>
      <trkpt lat="51.21741" lon="4.47236"></trkpt>
      <trkpt lat="51.21742" lon="4.47226"></trkpt>
      <trkpt lat="51.21742" lon="4.47215"></trkpt>
      <trkpt lat="51.21742" lon="4.47205"></trkpt>
      <trkpt lat="51.21743" lon="4.47195"></trkpt>
      <trkpt lat="51.21744" lon="4.47184"></trkpt>
      <trkpt lat="51.21744" lon="4.47174"></trkpt>
      <trkpt lat="51.21745" lon="4.47164"></trkpt>
      <trkpt lat="51.21745" lon="4.47154"></trkpt>
      <trkpt lat="51.21745" lon="4.47143"></trkpt>
      <trkpt lat="51.21745" lon="4.47133"></trkpt>
      <trkpt lat="51.21745" lon="4.47122"></trkpt>
      <trkpt lat="51.21746" lon="4.47112"></trkpt>
      <trkpt lat="51.21746" lon="4.47101"></trkpt>
      <trkpt lat="51.21747" lon="4.47090"></trkpt>
      <trkpt lat="51.21747" lon="4.47079"></trkpt>
      <trkpt lat="51.21747" lon="4.47068"></trkpt>
      <trkpt lat="51.21747" lon="4.47058"></trkpt>
      <trkpt lat="51.21748" lon="4.47048"></trkpt>
      <trkpt lat="51.21748" lon="4.47037"></trkpt>
      <trkpt lat="51.21748" lon="4.47026"></trkpt>
      <trkpt lat="51.21749" lon="4.47016"></trkpt>
      <trkpt lat="51.21750" lon="4.47005"></trkpt>
      <trkpt lat="51.21750" lon="4.46995"></trkpt>
      <trkpt lat="51.21751" lon="4.46986"></trkpt>
      <trkpt lat="51.21751" lon="4.46975"></trkpt>
      <trkpt lat="51.21752" lon="4.46965"></trkpt>
      <trkpt lat="51.21752" lon="4.46955"></trkpt>
      <trkpt lat="51.21752" lon="4.46944"></trkpt>
      <trkpt lat="51.21753" lon="4.46933"></trkpt>
      <trkpt lat="51.21753" lon="4.46923"></trkpt>
      <trkpt lat="51.21754" lon="4.46913"></trkpt>
      <trkpt lat="51.21753" lon="4.46902"></trkpt>
      <trkpt lat="51.21752" lon="4.46892"></trkpt>
      <trkpt lat="51.21752" lon="4.46882"></trkpt>
      <trkpt lat="51.21752" lon="4.46871"></trkpt>
      <trkpt lat="51.21752" lon="4.46861"></trkpt>
      <trkpt lat="51.21753" lon="4.46850"></trkpt>
      <trkpt lat="51.21753" lon="4.46839"></trkpt>
      <trkpt lat="51.21752" lon="4.46829"></trkpt>
      <trkpt lat="51.21752" lon="4.46818"></trkpt>
      <trkpt lat="51.21752" lon="4.46808"></trkpt>
      <trkpt lat="51.21750" lon="4.46798"></trkpt>
      <trkpt lat="51.21749" lon="4.46788"></trkpt>
      <trkpt lat="51.21748" lon="4.46779"></trkpt>
      <trkpt lat="51.21745" lon="4.46769"></trkpt>
      <trkpt lat="51.21743" lon="4.46760"></trkpt>
      <trkpt lat="51.21741" lon="4.46750"></trkpt>
      <trkpt lat="51.21738" lon="4.46740"></trkpt>
      <trkpt lat="51.21734" lon="4.46730"></trkpt>
      <trkpt lat="51.21730" lon="4.46720"></trkpt>
      <trkpt lat="51.21728" lon="4.46709"></trkpt>
      <trkpt lat="51.21726" lon="4.46699"></trkpt>
      <trkpt lat="51.21725" lon="4.46689"></trkpt>
      <trkpt lat="51.21724" lon="4.46678"></trkpt>
      <trkpt lat="51.21722" lon="4.46667"></trkpt>
      <trkpt lat="51.21720" lon="4.46657"></trkpt>
      <trkpt lat="51.21719" lon="4.46646"></trkpt>
      <trkpt lat="51.21717" lon="4.46636"></trkpt>
      <trkpt lat="51.21716" lon="4.46627"></trkpt>
      <trkpt lat="51.21713" lon="4.46617"></trkpt>
      <trkpt lat="51.21710" lon="4.46606"></trkpt>
      <trkpt lat="51.21708" lon="4.46596"></trkpt>
      <trkpt lat="51.21705" lon="4.46585"></trkpt>
      <trkpt lat="51.21701" lon="4.46575"></trkpt>
      <trkpt lat="51.21698" lon="4.46566"></trkpt>
      <trkpt lat="51.21696" lon="4.46556"></trkpt>
      <trkpt lat="51.21692" lon="4.46545"></trkpt>
      <trkpt lat="51.21689" lon="4.46536"></trkpt>
      <trkpt lat="51.21688" lon="4.46525"></trkpt>
      <trkpt lat="51.21690" lon="4.46515"></trkpt>
      <trkpt lat="51.21695" lon="4.46507"></trkpt>
      <trkpt lat="51.21700" lon="4.46498"></trkpt>
      <trkpt lat="51.21704" lon="4.46489"></trkpt>
      <trkpt lat="51.21705" lon="4.46478"></trkpt>
      <trkpt lat="51.21704" lon="4.46468"></trkpt>
      <trkpt lat="51.21701" lon="4.46457"></trkpt>
      <trkpt lat="51.21699" lon="4.46448"></trkpt>
      <trkpt lat="51.21696" lon="4.46439"></trkpt>
      <trkpt lat="51.21692" lon="4.46431"></trkpt>
      <trkpt lat="51.21687" lon="4.46423"></trkpt>
      <trkpt lat="51.21682" lon="4.46415"></trkpt>
      <trkpt lat="51.21676" lon="4.46409"></trkpt>
      <trkpt lat="51.21670" lon="4.46404"></trkpt>
      <trkpt lat="51.21663" lon="4.46399"></trkpt>
      <trkpt lat="51.21657" lon="4.46397"></trkpt>
      <trkpt lat="51.21650" lon="4.46397"></trkpt>
      <trkpt lat="51.21643" lon="4.46400"></trkpt>
      <trkpt lat="51.21635" lon="4.46401"></trkpt>
      <trkpt lat="51.21629" lon="4.46403"></trkpt>
      <trkpt lat="51.21621" lon="4.46403"></trkpt>
      <trkpt lat="51.21613" lon="4.46403"></trkpt>
      <trkpt lat="51.21607" lon="4.46401"></trkpt>
      <trkpt lat="51.21601" lon="4.46396"></trkpt>
      <trkpt lat="51.21597" lon="4.46387"></trkpt>
      <trkpt lat="51.21595" lon="4.46377"></trkpt>
      <trkpt lat="51.21593" lon="4.46367"></trkpt>
      <trkpt lat="51.21592" lon="4.46356"></trkpt>
      <trkpt lat="51.21592" lon="4.46345"></trkpt>
      <trkpt lat="51.21592" lon="4.46334"></trkpt>
      <trkpt lat="51.21590" lon="4.46325"></trkpt>
      <trkpt lat="51.21584" lon="4.46320"></trkpt>
      <trkpt lat="51.21578" lon="4.46316"></trkpt>
      <trkpt lat="51.21572" lon="4.46311"></trkpt>
      <trkpt lat="51.21568" lon="4.46304"></trkpt>
      <trkpt lat="51.21563" lon="4.46296"></trkpt>
      <trkpt lat="51.21559" lon="4.46288"></trkpt>
      <trkpt lat="51.21556" lon="4.46279"></trkpt>
      <trkpt lat="51.21552" lon="4.46270"></trkpt>
      <trkpt lat="51.21549" lon="4.46261"></trkpt>
      <trkpt lat="51.21547" lon="4.46250"></trkpt>
      <trkpt lat="51.21546" lon="4.46240"></trkpt>
      <trkpt lat="51.21542" lon="4.46231"></trkpt>
      <trkpt lat="51.21538" lon="4.46223"></trkpt>
      <trkpt lat="51.21534" lon="4.46214"></trkpt>
      <trkpt lat="51.21530" lon="4.46205"></trkpt>
      <trkpt lat="51.21527" lon="4.46196"></trkpt>
      <trkpt lat="51.21523" lon="4.46187"></trkpt>
      <trkpt lat="51.21519" lon="4.46178"></trkpt>
      <trkpt lat="51.21515" lon="4.46170"></trkpt>
      <trkpt lat="51.21511" lon="4.46162"></trkpt>
      <trkpt lat="51.21506" lon="4.46154"></trkpt>
      <trkpt lat="51.21502" lon="4.46147"></trkpt>
      <trkpt lat="51.21498" lon="4.46138"></trkpt>
      <trkpt lat="51.21495" lon="4.46128"></trkpt>
      <trkpt lat="51.21492" lon="4.46119"></trkpt>
      <trkpt lat="51.21488" lon="4.46110"></trkpt>
      <trkpt lat="51.21484" lon="4.46101"></trkpt>
      <trkpt lat="51.21481" lon="4.46092"></trkpt>
      <trkpt lat="51.21477" lon="4.46083"></trkpt>
      <trkpt lat="51.21473" lon="4.46075"></trkpt>
      <trkpt lat="51.21469" lon="4.46066"></trkpt>
      <trkpt lat="51.21465" lon="4.46057"></trkpt>
      <trkpt lat="51.21461" lon="4.46049"></trkpt>
      <trkpt lat="51.21457" lon="4.46040"></trkpt>
      <trkpt lat="51.21454" lon="4.46033"></trkpt>
      <trkpt lat="51.21452" lon="4.46028"></trkpt>
      <trkpt lat="51.21450" lon="4.46023"></trkpt>
      <trkpt lat="51.21447" lon="4.46018"></trkpt>
      <trkpt lat="51.21446" lon="4.46013"></trkpt>
      <trkpt lat="51.21444" lon="4.46007"></trkpt>
      <trkpt lat="51.21442" lon="4.45999"></trkpt>
      <trkpt lat="51.21439" lon="4.45990"></trkpt>
      <trkpt lat="51.21436" lon="4.45980"></trkpt>
      <trkpt lat="51.21433" lon="4.45970"></trkpt>
      <trkpt lat="51.21431" lon="4.45960"></trkpt>
      <trkpt lat="51.21429" lon="4.45950"></trkpt>
      <trkpt lat="51.21426" lon="4.45943"></trkpt>
      <trkpt lat="51.21419" lon="4.45945"></trkpt>
      <trkpt lat="51.21412" lon="4.45948"></trkpt>
      <trkpt lat="51.21405" lon="4.45951"></trkpt>
      <trkpt lat="51.21398" lon="4.45954"></trkpt>
      <trkpt lat="51.21390" lon="4.45957"></trkpt>
      <trkpt lat="51.21383" lon="4.45961"></trkpt>
      <trkpt lat="51.21376" lon="4.45964"></trkpt>
      <trkpt lat="51.21372" lon="4.45958"></trkpt>
      <trkpt lat="51.21373" lon="4.45936"></trkpt>
      <trkpt lat="51.21374" lon="4.45911"></trkpt>
      <trkpt lat="51.21379" lon="4.45881"></trkpt>
      <trkpt lat="51.21378" lon="4.45863"></trkpt>
      <trkpt lat="51.21376" lon="4.45849"></trkpt>
      <trkpt lat="51.21375" lon="4.45837"></trkpt>
      <trkpt lat="51.21373" lon="4.45825"></trkpt>
      <trkpt lat="51.21370" lon="4.45814"></trkpt>
      <trkpt lat="51.21367" lon="4.45802"></trkpt>
      <trkpt lat="51.21364" lon="4.45793"></trkpt>
      <trkpt lat="51.21360" lon="4.45783"></trkpt>
      <trkpt lat="51.21356" lon="4.45773"></trkpt>
      <trkpt lat="51.21352" lon="4.45764"></trkpt>
      <trkpt lat="51.21348" lon="4.45756"></trkpt>
      <trkpt lat="51.21343" lon="4.45746"></trkpt>
      <trkpt lat="51.21340" lon="4.45737"></trkpt>
      <trkpt lat="51.21335" lon="4.45728"></trkpt>
      <trkpt lat="51.21329" lon="4.45720"></trkpt>
      <trkpt lat="51.21323" lon="4.45713"></trkpt>
      <trkpt lat="51.21316" lon="4.45707"></trkpt>
      <trkpt lat="51.21310" lon="4.45701"></trkpt>
      <trkpt lat="51.21304" lon="4.45696"></trkpt>
      <trkpt lat="51.21298" lon="4.45690"></trkpt>
      <trkpt lat="51.21292" lon="4.45685"></trkpt>
      <trkpt lat="51.21286" lon="4.45681"></trkpt>
      <trkpt lat="51.21280" lon="4.45677"></trkpt>
      <trkpt lat="51.21275" lon="4.45672"></trkpt>
      <trkpt lat="51.21269" lon="4.45667"></trkpt>
      <trkpt lat="51.21263" lon="4.45662"></trkpt>
      <trkpt lat="51.21257" lon="4.45655"></trkpt>
      <trkpt lat="51.21250" lon="4.45650"></trkpt>
      <trkpt lat="51.21245" lon="4.45644"></trkpt>
      <trkpt lat="51.21239" lon="4.45639"></trkpt>
      <trkpt lat="51.21233" lon="4.45634"></trkpt>
      <trkpt lat="51.21227" lon="4.45628"></trkpt>
      <trkpt lat="51.21220" lon="4.45624"></trkpt>
      <trkpt lat="51.21214" lon="4.45619"></trkpt>
      <trkpt lat="51.21209" lon="4.45614"></trkpt>
      <trkpt lat="51.21202" lon="4.45608"></trkpt>
      <trkpt lat="51.21196" lon="4.45603"></trkpt>
      <trkpt lat="51.21190" lon="4.45598"></trkpt>
      <trkpt lat="51.21184" lon="4.45593"></trkpt>
      <trkpt lat="51.21177" lon="4.45588"></trkpt>
      <trkpt lat="51.21172" lon="4.45581"></trkpt>
      <trkpt lat="51.21167" lon="4.45573"></trkpt>
      <trkpt lat="51.21162" lon="4.45564"></trkpt>
      <trkpt lat="51.21158" lon="4.45555"></trkpt>
      <trkpt lat="51.21155" lon="4.45545"></trkpt>
      <trkpt lat="51.21152" lon="4.45535"></trkpt>
      <trkpt lat="51.21148" lon="4.45525"></trkpt>
      <trkpt lat="51.21145" lon="4.45515"></trkpt>
      <trkpt lat="51.21143" lon="4.45505"></trkpt>
      <trkpt lat="51.21140" lon="4.45495"></trkpt>
      <trkpt lat="51.21138" lon="4.45486"></trkpt>
      <trkpt lat="51.21135" lon="4.45476"></trkpt>
      <trkpt lat="51.21132" lon="4.45466"></trkpt>
      <trkpt lat="51.21128" lon="4.45456"></trkpt>
      <trkpt lat="51.21125" lon="4.45446"></trkpt>
      <trkpt lat="51.21122" lon="4.45437"></trkpt>
      <trkpt lat="51.21120" lon="4.45427"></trkpt>
      <trkpt lat="51.21117" lon="4.45417"></trkpt>
      <trkpt lat="51.21114" lon="4.45408"></trkpt>
      <trkpt lat="51.21111" lon="4.45399"></trkpt>
      <trkpt lat="51.21109" lon="4.45390"></trkpt>
      <trkpt lat="51.21107" lon="4.45380"></trkpt>
      <trkpt lat="51.21105" lon="4.45370"></trkpt>
      <trkpt lat="51.21101" lon="4.45360"></trkpt>
      <trkpt lat="51.21097" lon="4.45350"></trkpt>
      <trkpt lat="51.21095" lon="4.45340"></trkpt>
      <trkpt lat="51.21092" lon="4.45330"></trkpt>
      <trkpt lat="51.21089" lon="4.45319"></trkpt>
      <trkpt lat="51.21086" lon="4.45309"></trkpt>
      <trkpt lat="51.21082" lon="4.45301"></trkpt>
      <trkpt lat="51.21077" lon="4.45293"></trkpt>
      <trkpt lat="51.21074" lon="4.45287"></trkpt>
      <trkpt lat="51.21072" lon="4.45285"></trkpt>
      <trkpt lat="51.21070" lon="4.45285"></trkpt>
      <trkpt lat="51.21067" lon="4.45284"></trkpt>
      <trkpt lat="51.21066" lon="4.45284"></trkpt>
      <trkpt lat="51.21066" lon="4.45284"></trkpt>
      <trkpt lat="51.21066" lon="4.45284"></trkpt>
      <trkpt lat="51.21066" lon="4.45284"></trkpt>
      <trkpt lat="51.21065" lon="4.45284"></trkpt>
      <trkpt lat="51.21065" lon="4.45284"></trkpt>
      <trkpt lat="51.21065" lon="4.45284"></trkpt>
      <trkpt lat="51.21065" lon="4.45284"></trkpt>
      <trkpt lat="51.21064" lon="4.45283"></trkpt>
      <trkpt lat="51.21056" lon="4.45278"></trkpt>
      <trkpt lat="51.21049" lon="4.45272"></trkpt>
      <trkpt lat="51.21045" lon="4.45266"></trkpt>
      <trkpt lat="51.21041" lon="4.45258"></trkpt>
      <trkpt lat="51.21037" lon="4.45249"></trkpt>
      <trkpt lat="51.21031" lon="4.45242"></trkpt>
      <trkpt lat="51.21026" lon="4.45233"></trkpt>
      <trkpt lat="51.21022" lon="4.45223"></trkpt>
      <trkpt lat="51.21016" lon="4.45216"></trkpt>
      <trkpt lat="51.21011" lon="4.45209"></trkpt>
      <trkpt lat="51.21005" lon="4.45201"></trkpt>
      <trkpt lat="51.21000" lon="4.45194"></trkpt>
      <trkpt lat="51.20996" lon="4.45186"></trkpt>
      <trkpt lat="51.20992" lon="4.45178"></trkpt>
      <trkpt lat="51.20988" lon="4.45170"></trkpt>
      <trkpt lat="51.20983" lon="4.45161"></trkpt>
      <trkpt lat="51.20979" lon="4.45152"></trkpt>
      <trkpt lat="51.20975" lon="4.45142"></trkpt>
      <trkpt lat="51.20972" lon="4.45131"></trkpt>
      <trkpt lat="51.20967" lon="4.45120"></trkpt>
      <trkpt lat="51.20962" lon="4.45110"></trkpt>
      <trkpt lat="51.20959" lon="4.45100"></trkpt>
      <trkpt lat="51.20955" lon="4.45090"></trkpt>
      <trkpt lat="51.20950" lon="4.45080"></trkpt>
      <trkpt lat="51.20947" lon="4.45071"></trkpt>
      <trkpt lat="51.20943" lon="4.45062"></trkpt>
      <trkpt lat="51.20941" lon="4.45056"></trkpt>
    </trkseg>
  </trk>
</gpx>