<?xml version="1.0" encoding="UTF-8"?>
<gpx version="1.1" creator="jeffry.running" xmlns="http://www.topografix.com/GPX/1/1">
  <metadata><time>2026-08-13T06:29:12.349Z</time></metadata>
  <trk>
    <trkseg>
      <trkpt lat="51.29479" lon="4.85121"></trkpt>
      <trkpt lat="51.29480" lon="4.85124"></trkpt>
      <trkpt lat="51.29485" lon="4.85132"></trkpt>
      <trkpt lat="51.29488" lon="4.85139"></trkpt>
      <trkpt lat="51.29490" lon="4.85148"></trkpt>
      <trkpt lat="51.29493" lon="4.85156"></trkpt>
      <trkpt lat="51.29495" lon="4.85165"></trkpt>
      <trkpt lat="51.29498" lon="4.85175"></trkpt>
      <trkpt lat="51.29501" lon="4.85184"></trkpt>
      <trkpt lat="51.29505" lon="4.85194"></trkpt>
      <trkpt lat="51.29506" lon="4.85206"></trkpt>
      <trkpt lat="51.29509" lon="4.85214"></trkpt>
      <trkpt lat="51.29514" lon="4.85221"></trkpt>
      <trkpt lat="51.29518" lon="4.85228"></trkpt>
      <trkpt lat="51.29521" lon="4.85235"></trkpt>
      <trkpt lat="51.29524" lon="4.85245"></trkpt>
      <trkpt lat="51.29527" lon="4.85253"></trkpt>
      <trkpt lat="51.29530" lon="4.85263"></trkpt>
      <trkpt lat="51.29532" lon="4.85273"></trkpt>
      <trkpt lat="51.29535" lon="4.85283"></trkpt>
      <trkpt lat="51.29540" lon="4.85291"></trkpt>
      <trkpt lat="51.29543" lon="4.85300"></trkpt>
      <trkpt lat="51.29546" lon="4.85309"></trkpt>
      <trkpt lat="51.29550" lon="4.85318"></trkpt>
      <trkpt lat="51.29552" lon="4.85327"></trkpt>
      <trkpt lat="51.29556" lon="4.85335"></trkpt>
      <trkpt lat="51.29560" lon="4.85343"></trkpt>
      <trkpt lat="51.29562" lon="4.85352"></trkpt>
      <trkpt lat="51.29564" lon="4.85359"></trkpt>
      <trkpt lat="51.29566" lon="4.85367"></trkpt>
      <trkpt lat="51.29569" lon="4.85377"></trkpt>
      <trkpt lat="51.29572" lon="4.85386"></trkpt>
      <trkpt lat="51.29574" lon="4.85394"></trkpt>
      <trkpt lat="51.29577" lon="4.85402"></trkpt>
      <trkpt lat="51.29580" lon="4.85411"></trkpt>
      <trkpt lat="51.29583" lon="4.85419"></trkpt>
      <trkpt lat="51.29586" lon="4.85428"></trkpt>
      <trkpt lat="51.29590" lon="4.85436"></trkpt>
      <trkpt lat="51.29594" lon="4.85445"></trkpt>
      <trkpt lat="51.29597" lon="4.85454"></trkpt>
      <trkpt lat="51.29599" lon="4.85463"></trkpt>
      <trkpt lat="51.29601" lon="4.85472"></trkpt>
      <trkpt lat="51.29603" lon="4.85481"></trkpt>
      <trkpt lat="51.29606" lon="4.85490"></trkpt>
      <trkpt lat="51.29609" lon="4.85498"></trkpt>
      <trkpt lat="51.29613" lon="4.85507"></trkpt>
      <trkpt lat="51.29616" lon="4.85516"></trkpt>
      <trkpt lat="51.29619" lon="4.85524"></trkpt>
      <trkpt lat="51.29621" lon="4.85534"></trkpt>
      <trkpt lat="51.29625" lon="4.85542"></trkpt>
      <trkpt lat="51.29628" lon="4.85547"></trkpt>
      <trkpt lat="51.29634" lon="4.85547"></trkpt>
      <trkpt lat="51.29640" lon="4.85547"></trkpt>
      <trkpt lat="51.29646" lon="4.85547"></trkpt>
      <trkpt lat="51.29653" lon="4.85548"></trkpt>
      <trkpt lat="51.29658" lon="4.85549"></trkpt>
      <trkpt lat="51.29665" lon="4.85549"></trkpt>
      <trkpt lat="51.29671" lon="4.85549"></trkpt>
      <trkpt lat="51.29677" lon="4.85550"></trkpt>
      <trkpt lat="51.29684" lon="4.85550"></trkpt>
      <trkpt lat="51.29690" lon="4.85550"></trkpt>
      <trkpt lat="51.29696" lon="4.85550"></trkpt>
      <trkpt lat="51.29703" lon="4.85550"></trkpt>
      <trkpt lat="51.29709" lon="4.85550"></trkpt>
      <trkpt lat="51.29715" lon="4.85550"></trkpt>
      <trkpt lat="51.29721" lon="4.85551"></trkpt>
      <trkpt lat="51.29728" lon="4.85551"></trkpt>
      <trkpt lat="51.29734" lon="4.85551"></trkpt>
      <trkpt lat="51.29740" lon="4.85552"></trkpt>
      <trkpt lat="51.29745" lon="4.85552"></trkpt>
      <trkpt lat="51.29748" lon="4.85553"></trkpt>
      <trkpt lat="51.29748" lon="4.85557"></trkpt>
      <trkpt lat="51.29748" lon="4.85566"></trkpt>
      <trkpt lat="51.29748" lon="4.85578"></trkpt>
      <trkpt lat="51.29751" lon="4.85589"></trkpt>
      <trkpt lat="51.29753" lon="4.85599"></trkpt>
      <trkpt lat="51.29756" lon="4.85608"></trkpt>
      <trkpt lat="51.29759" lon="4.85616"></trkpt>
      <trkpt lat="51.29762" lon="4.85624"></trkpt>
      <trkpt lat="51.29764" lon="4.85633"></trkpt>
      <trkpt lat="51.29766" lon="4.85642"></trkpt>
      <trkpt lat="51.29767" lon="4.85652"></trkpt>
      <trkpt lat="51.29769" lon="4.85660"></trkpt>
      <trkpt lat="51.29771" lon="4.85668"></trkpt>
      <trkpt lat="51.29773" lon="4.85676"></trkpt>
      <trkpt lat="51.29776" lon="4.85685"></trkpt>
      <trkpt lat="51.29779" lon="4.85694"></trkpt>
      <trkpt lat="51.29782" lon="4.85702"></trkpt>
      <trkpt lat="51.29785" lon="4.85711"></trkpt>
      <trkpt lat="51.29790" lon="4.85719"></trkpt>
      <trkpt lat="51.29792" lon="4.85728"></trkpt>
      <trkpt lat="51.29795" lon="4.85737"></trkpt>
      <trkpt lat="51.29797" lon="4.85747"></trkpt>
      <trkpt lat="51.29799" lon="4.85755"></trkpt>
      <trkpt lat="51.29802" lon="4.85765"></trkpt>
      <trkpt lat="51.29805" lon="4.85774"></trkpt>
      <trkpt lat="51.29807" lon="4.85783"></trkpt>
      <trkpt lat="51.29809" lon="4.85792"></trkpt>
      <trkpt lat="51.29811" lon="4.85800"></trkpt>
      <trkpt lat="51.29814" lon="4.85808"></trkpt>
      <trkpt lat="51.29817" lon="4.85817"></trkpt>
      <trkpt lat="51.29819" lon="4.85826"></trkpt>
      <trkpt lat="51.29822" lon="4.85836"></trkpt>
      <trkpt lat="51.29824" lon="4.85845"></trkpt>
      <trkpt lat="51.29826" lon="4.85854"></trkpt>
      <trkpt lat="51.29828" lon="4.85862"></trkpt>
      <trkpt lat="51.29828" lon="4.85869"></trkpt>
      <trkpt lat="51.29830" lon="4.85877"></trkpt>
      <trkpt lat="51.29832" lon="4.85886"></trkpt>
      <trkpt lat="51.29834" lon="4.85897"></trkpt>
      <trkpt lat="51.29837" lon="4.85905"></trkpt>
      <trkpt lat="51.29839" lon="4.85911"></trkpt>
      <trkpt lat="51.29840" lon="4.85917"></trkpt>
      <trkpt lat="51.29843" lon="4.85927"></trkpt>
      <trkpt lat="51.29847" lon="4.85937"></trkpt>
      <trkpt lat="51.29851" lon="4.85947"></trkpt>
      <trkpt lat="51.29853" lon="4.85955"></trkpt>
      <trkpt lat="51.29855" lon="4.85963"></trkpt>
      <trkpt lat="51.29858" lon="4.85972"></trkpt>
      <trkpt lat="51.29861" lon="4.85982"></trkpt>
      <trkpt lat="51.29865" lon="4.85991"></trkpt>
      <trkpt lat="51.29867" lon="4.85999"></trkpt>
      <trkpt lat="51.29869" lon="4.86009"></trkpt>
      <trkpt lat="51.29872" lon="4.86018"></trkpt>
      <trkpt lat="51.29876" lon="4.86027"></trkpt>
      <trkpt lat="51.29879" lon="4.86037"></trkpt>
      <trkpt lat="51.29881" lon="4.86046"></trkpt>
      <trkpt lat="51.29883" lon="4.86053"></trkpt>
      <trkpt lat="51.29884" lon="4.86058"></trkpt>
      <trkpt lat="51.29885" lon="4.86063"></trkpt>
      <trkpt lat="51.29885" lon="4.86067"></trkpt>
      <trkpt lat="51.29887" lon="4.86070"></trkpt>
      <trkpt lat="51.29888" lon="4.86074"></trkpt>
      <trkpt lat="51.29889" lon="4.86079"></trkpt>
      <trkpt lat="51.29890" lon="4.86082"></trkpt>
      <trkpt lat="51.29892" lon="4.86085"></trkpt>
      <trkpt lat="51.29893" lon="4.86089"></trkpt>
      <trkpt lat="51.29894" lon="4.86093"></trkpt>
      <trkpt lat="51.29895" lon="4.86097"></trkpt>
      <trkpt lat="51.29896" lon="4.86100"></trkpt>
      <trkpt lat="51.29897" lon="4.86104"></trkpt>
      <trkpt lat="51.29899" lon="4.86109"></trkpt>
      <trkpt lat="51.29900" lon="4.86114"></trkpt>
      <trkpt lat="51.29902" lon="4.86119"></trkpt>
      <trkpt lat="51.29903" lon="4.86124"></trkpt>
      <trkpt lat="51.29905" lon="4.86129"></trkpt>
      <trkpt lat="51.29907" lon="4.86134"></trkpt>
      <trkpt lat="51.29909" lon="4.86139"></trkpt>
      <trkpt lat="51.29910" lon="4.86145"></trkpt>
      <trkpt lat="51.29913" lon="4.86154"></trkpt>
      <trkpt lat="51.29916" lon="4.86163"></trkpt>
      <trkpt lat="51.29919" lon="4.86171"></trkpt>
      <trkpt lat="51.29923" lon="4.86180"></trkpt>
      <trkpt lat="51.29927" lon="4.86188"></trkpt>
      <trkpt lat="51.29930" lon="4.86198"></trkpt>
      <trkpt lat="51.29934" lon="4.86206"></trkpt>
      <trkpt lat="51.29937" lon="4.86216"></trkpt>
      <trkpt lat="51.29939" lon="4.86226"></trkpt>
      <trkpt lat="51.29942" lon="4.86235"></trkpt>
      <trkpt lat="51.29944" lon="4.86245"></trkpt>
      <trkpt lat="51.29947" lon="4.86253"></trkpt>
      <trkpt lat="51.29950" lon="4.86264"></trkpt>
      <trkpt lat="51.29953" lon="4.86274"></trkpt>
      <trkpt lat="51.29957" lon="4.86283"></trkpt>
      <trkpt lat="51.29960" lon="4.86292"></trkpt>
      <trkpt lat="51.29963" lon="4.86301"></trkpt>
      <trkpt lat="51.29966" lon="4.86309"></trkpt>
      <trkpt lat="51.29969" lon="4.86317"></trkpt>
      <trkpt lat="51.29972" lon="4.86327"></trkpt>
      <trkpt lat="51.29975" lon="4.86336"></trkpt>
      <trkpt lat="51.29978" lon="4.86345"></trkpt>
      <trkpt lat="51.29980" lon="4.86354"></trkpt>
      <trkpt lat="51.29983" lon="4.86362"></trkpt>
      <trkpt lat="51.29986" lon="4.86370"></trkpt>
      <trkpt lat="51.29988" lon="4.86379"></trkpt>
      <trkpt lat="51.29990" lon="4.86388"></trkpt>
      <trkpt lat="51.29993" lon="4.86398"></trkpt>
      <trkpt lat="51.29996" lon="4.86406"></trkpt>
      <trkpt lat="51.29999" lon="4.86413"></trkpt>
      <trkpt lat="51.30002" lon="4.86421"></trkpt>
      <trkpt lat="51.30005" lon="4.86430"></trkpt>
      <trkpt lat="51.30008" lon="4.86438"></trkpt>
      <trkpt lat="51.30011" lon="4.86446"></trkpt>
      <trkpt lat="51.30014" lon="4.86455"></trkpt>
      <trkpt lat="51.30017" lon="4.86464"></trkpt>
      <trkpt lat="51.30021" lon="4.86473"></trkpt>
      <trkpt lat="51.30024" lon="4.86482"></trkpt>
      <trkpt lat="51.30027" lon="4.86492"></trkpt>
      <trkpt lat="51.30030" lon="4.86501"></trkpt>
      <trkpt lat="51.30032" lon="4.86509"></trkpt>
      <trkpt lat="51.30035" lon="4.86516"></trkpt>
      <trkpt lat="51.30039" lon="4.86523"></trkpt>
      <trkpt lat="51.30043" lon="4.86532"></trkpt>
      <trkpt lat="51.30046" lon="4.86540"></trkpt>
      <trkpt lat="51.30049" lon="4.86549"></trkpt>
      <trkpt lat="51.30053" lon="4.86558"></trkpt>
      <trkpt lat="51.30056" lon="4.86567"></trkpt>
      <trkpt lat="51.30059" lon="4.86575"></trkpt>
      <trkpt lat="51.30063" lon="4.86584"></trkpt>
      <trkpt lat="51.30065" lon="4.86593"></trkpt>
      <trkpt lat="51.30068" lon="4.86601"></trkpt>
      <trkpt lat="51.30070" lon="4.86610"></trkpt>
      <trkpt lat="51.30073" lon="4.86619"></trkpt>
      <trkpt lat="51.30076" lon="4.86628"></trkpt>
      <trkpt lat="51.30079" lon="4.86637"></trkpt>
      <trkpt lat="51.30081" lon="4.86646"></trkpt>
      <trkpt lat="51.30084" lon="4.86655"></trkpt>
      <trkpt lat="51.30087" lon="4.86665"></trkpt>
      <trkpt lat="51.30089" lon="4.86673"></trkpt>
      <trkpt lat="51.30091" lon="4.86682"></trkpt>
      <trkpt lat="51.30095" lon="4.86690"></trkpt>
      <trkpt lat="51.30097" lon="4.86698"></trkpt>
      <trkpt lat="51.30100" lon="4.86707"></trkpt>
      <trkpt lat="51.30102" lon="4.86715"></trkpt>
      <trkpt lat="51.30106" lon="4.86723"></trkpt>
      <trkpt lat="51.30110" lon="4.86731"></trkpt>
      <trkpt lat="51.30113" lon="4.86739"></trkpt>
      <trkpt lat="51.30116" lon="4.86748"></trkpt>
      <trkpt lat="51.30117" lon="4.86756"></trkpt>
      <trkpt lat="51.30120" lon="4.86765"></trkpt>
      <trkpt lat="51.30123" lon="4.86774"></trkpt>
      <trkpt lat="51.30126" lon="4.86783"></trkpt>
      <trkpt lat="51.30129" lon="4.86792"></trkpt>
      <trkpt lat="51.30132" lon="4.86802"></trkpt>
      <trkpt lat="51.30136" lon="4.86811"></trkpt>
      <trkpt lat="51.30140" lon="4.86820"></trkpt>
      <trkpt lat="51.30143" lon="4.86829"></trkpt>
      <trkpt lat="51.30146" lon="4.86837"></trkpt>
      <trkpt lat="51.30148" lon="4.86846"></trkpt>
      <trkpt lat="51.30150" lon="4.86854"></trkpt>
      <trkpt lat="51.30153" lon="4.86864"></trkpt>
      <trkpt lat="51.30157" lon="4.86873"></trkpt>
      <trkpt lat="51.30159" lon="4.86882"></trkpt>
      <trkpt lat="51.30158" lon="4.86893"></trkpt>
      <trkpt lat="51.30155" lon="4.86903"></trkpt>
      <trkpt lat="51.30150" lon="4.86912"></trkpt>
      <trkpt lat="51.30144" lon="4.86918"></trkpt>
      <trkpt lat="51.30138" lon="4.86923"></trkpt>
      <trkpt lat="51.30132" lon="4.86928"></trkpt>
      <trkpt lat="51.30127" lon="4.86933"></trkpt>
      <trkpt lat="51.30121" lon="4.86938"></trkpt>
      <trkpt lat="51.30116" lon="4.86943"></trkpt>
      <trkpt lat="51.30111" lon="4.86948"></trkpt>
      <trkpt lat="51.30106" lon="4.86952"></trkpt>
      <trkpt lat="51.30101" lon="4.86956"></trkpt>
      <trkpt lat="51.30095" lon="4.86960"></trkpt>
      <trkpt lat="51.30090" lon="4.86965"></trkpt>
      <trkpt lat="51.30085" lon="4.86971"></trkpt>
      <trkpt lat="51.30079" lon="4.86976"></trkpt>
      <trkpt lat="51.30074" lon="4.86979"></trkpt>
      <trkpt lat="51.30068" lon="4.86983"></trkpt>
      <trkpt lat="51.30063" lon="4.86987"></trkpt>
      <trkpt lat="51.30058" lon="4.86992"></trkpt>
      <trkpt lat="51.30053" lon="4.86997"></trkpt>
      <trkpt lat="51.30048" lon="4.87001"></trkpt>
      <trkpt lat="51.30042" lon="4.87005"></trkpt>
      <trkpt lat="51.30036" lon="4.87010"></trkpt>
      <trkpt lat="51.30031" lon="4.87017"></trkpt>
      <trkpt lat="51.30026" lon="4.87020"></trkpt>
      <trkpt lat="51.30020" lon="4.87024"></trkpt>
      <trkpt lat="51.30014" lon="4.87027"></trkpt>
      <trkpt lat="51.30009" lon="4.87030"></trkpt>
      <trkpt lat="51.30004" lon="4.87034"></trkpt>
      <trkpt lat="51.30000" lon="4.87039"></trkpt>
      <trkpt lat="51.29995" lon="4.87043"></trkpt>
      <trkpt lat="51.29990" lon="4.87048"></trkpt>
      <trkpt lat="51.29986" lon="4.87051"></trkpt>
      <trkpt lat="51.29981" lon="4.87054"></trkpt>
      <trkpt lat="51.29977" lon="4.87058"></trkpt>
      <trkpt lat="51.29972" lon="4.87063"></trkpt>
      <trkpt lat="51.29968" lon="4.87067"></trkpt>
      <trkpt lat="51.29963" lon="4.87071"></trkpt>
      <trkpt lat="51.29958" lon="4.87075"></trkpt>
      <trkpt lat="51.29953" lon="4.87079"></trkpt>
      <trkpt lat="51.29947" lon="4.87083"></trkpt>
      <trkpt lat="51.29942" lon="4.87089"></trkpt>
      <trkpt lat="51.29937" lon="4.87095"></trkpt>
      <trkpt lat="51.29931" lon="4.87099"></trkpt>
      <trkpt lat="51.29925" lon="4.87104"></trkpt>
      <trkpt lat="51.29920" lon="4.87108"></trkpt>
      <trkpt lat="51.29914" lon="4.87110"></trkpt>
      <trkpt lat="51.29908" lon="4.87115"></trkpt>
      <trkpt lat="51.29903" lon="4.87121"></trkpt>
      <trkpt lat="51.29898" lon="4.87125"></trkpt>
      <trkpt lat="51.29892" lon="4.87129"></trkpt>
      <trkpt lat="51.29886" lon="4.87133"></trkpt>
      <trkpt lat="51.29881" lon="4.87139"></trkpt>
      <trkpt lat="51.29877" lon="4.87141"></trkpt>
      <trkpt lat="51.29877" lon="4.87144"></trkpt>
      <trkpt lat="51.29877" lon="4.87147"></trkpt>
      <trkpt lat="51.29876" lon="4.87149"></trkpt>
      <trkpt lat="51.29872" lon="4.87149"></trkpt>
      <trkpt lat="51.29865" lon="4.87147"></trkpt>
      <trkpt lat="51.29858" lon="4.87147"></trkpt>
      <trkpt lat="51.29851" lon="4.87146"></trkpt>
      <trkpt lat="51.29845" lon="4.87145"></trkpt>
      <trkpt lat="51.29839" lon="4.87144"></trkpt>
      <trkpt lat="51.29833" lon="4.87143"></trkpt>
      <trkpt lat="51.29827" lon="4.87142"></trkpt>
      <trkpt lat="51.29820" lon="4.87141"></trkpt>
      <trkpt lat="51.29814" lon="4.87141"></trkpt>
      <trkpt lat="51.29808" lon="4.87140"></trkpt>
      <trkpt lat="51.29801" lon="4.87138"></trkpt>
      <trkpt lat="51.29795" lon="4.87137"></trkpt>
      <trkpt lat="51.29789" lon="4.87136"></trkpt>
      <trkpt lat="51.29783" lon="4.87135"></trkpt>
      <trkpt lat="51.29777" lon="4.87134"></trkpt>
      <trkpt lat="51.29771" lon="4.87134"></trkpt>
      <trkpt lat="51.29764" lon="4.87133"></trkpt>
      <trkpt lat="51.29758" lon="4.87133"></trkpt>
      <trkpt lat="51.29751" lon="4.87133"></trkpt>
      <trkpt lat="51.29745" lon="4.87132"></trkpt>
      <trkpt lat="51.29738" lon="4.87130"></trkpt>
      <trkpt lat="51.29732" lon="4.87130"></trkpt>
      <trkpt lat="51.29726" lon="4.87132"></trkpt>
      <trkpt lat="51.29719" lon="4.87133"></trkpt>
      <trkpt lat="51.29713" lon="4.87132"></trkpt>
      <trkpt lat="51.29707" lon="4.87132"></trkpt>
      <trkpt lat="51.29700" lon="4.87131"></trkpt>
      <trkpt lat="51.29695" lon="4.87130"></trkpt>
      <trkpt lat="51.29689" lon="4.87129"></trkpt>
      <trkpt lat="51.29684" lon="4.87129"></trkpt>
      <trkpt lat="51.29678" lon="4.87129"></trkpt>
      <trkpt lat="51.29672" lon="4.87128"></trkpt>
      <trkpt lat="51.29665" lon="4.87127"></trkpt>
      <trkpt lat="51.29659" lon="4.87125"></trkpt>
      <trkpt lat="51.29653" lon="4.87124"></trkpt>
      <trkpt lat="51.29648" lon="4.87124"></trkpt>
      <trkpt lat="51.29641" lon="4.87122"></trkpt>
      <trkpt lat="51.29635" lon="4.87121"></trkpt>
      <trkpt lat="51.29628" lon="4.87121"></trkpt>
      <trkpt lat="51.29622" lon="4.87119"></trkpt>
      <trkpt lat="51.29616" lon="4.87118"></trkpt>
      <trkpt lat="51.29609" lon="4.87117"></trkpt>
      <trkpt lat="51.29603" lon="4.87117"></trkpt>
      <trkpt lat="51.29598" lon="4.87117"></trkpt>
      <trkpt lat="51.29593" lon="4.87116"></trkpt>
      <trkpt lat="51.29587" lon="4.87117"></trkpt>
      <trkpt lat="51.29580" lon="4.87117"></trkpt>
      <trkpt lat="51.29574" lon="4.87117"></trkpt>
      <trkpt lat="51.29568" lon="4.87115"></trkpt>
      <trkpt lat="51.29564" lon="4.87114"></trkpt>
      <trkpt lat="51.29563" lon="4.87115"></trkpt>
      <trkpt lat="51.29562" lon="4.87115"></trkpt>
      <trkpt lat="51.29562" lon="4.87115"></trkpt>
      <trkpt lat="51.29561" lon="4.87114"></trkpt>
      <trkpt lat="51.29560" lon="4.87113"></trkpt>
      <trkpt lat="51.29553" lon="4.87111"></trkpt>
      <trkpt lat="51.29546" lon="4.87110"></trkpt>
      <trkpt lat="51.29540" lon="4.87109"></trkpt>
      <trkpt lat="51.29534" lon="4.87108"></trkpt>
      <trkpt lat="51.29528" lon="4.87107"></trkpt>
      <trkpt lat="51.29521" lon="4.87106"></trkpt>
      <trkpt lat="51.29515" lon="4.87106"></trkpt>
      <trkpt lat="51.29509" lon="4.87107"></trkpt>
      <trkpt lat="51.29504" lon="4.87106"></trkpt>
      <trkpt lat="51.29498" lon="4.87104"></trkpt>
      <trkpt lat="51.29492" lon="4.87103"></trkpt>
      <trkpt lat="51.29486" lon="4.87104"></trkpt>
      <trkpt lat="51.29480" lon="4.87103"></trkpt>
      <trkpt lat="51.29475" lon="4.87102"></trkpt>
      <trkpt lat="51.29469" lon="4.87102"></trkpt>
      <trkpt lat="51.29463" lon="4.87099"></trkpt>
      <trkpt lat="51.29456" lon="4.87098"></trkpt>
      <trkpt lat="51.29450" lon="4.87097"></trkpt>
      <trkpt lat="51.29443" lon="4.87096"></trkpt>
      <trkpt lat="51.29437" lon="4.87096"></trkpt>
      <trkpt lat="51.29431" lon="4.87098"></trkpt>
      <trkpt lat="51.29424" lon="4.87098"></trkpt>
      <trkpt lat="51.29418" lon="4.87097"></trkpt>
      <trkpt lat="51.29412" lon="4.87097"></trkpt>
      <trkpt lat="51.29406" lon="4.87096"></trkpt>
      <trkpt lat="51.29400" lon="4.87096"></trkpt>
      <trkpt lat="51.29394" lon="4.87094"></trkpt>
      <trkpt lat="51.29388" lon="4.87094"></trkpt>
      <trkpt lat="51.29382" lon="4.87092"></trkpt>
      <trkpt lat="51.29375" lon="4.87090"></trkpt>
      <trkpt lat="51.29369" lon="4.87087"></trkpt>
      <trkpt lat="51.29364" lon="4.87088"></trkpt>
      <trkpt lat="51.29358" lon="4.87087"></trkpt>
      <trkpt lat="51.29352" lon="4.87085"></trkpt>
      <trkpt lat="51.29345" lon="4.87087"></trkpt>
      <trkpt lat="51.29339" lon="4.87086"></trkpt>
      <trkpt lat="51.29335" lon="4.87090"></trkpt>
      <trkpt lat="51.29332" lon="4.87097"></trkpt>
      <trkpt lat="51.29333" lon="4.87107"></trkpt>
      <trkpt lat="51.29335" lon="4.87117"></trkpt>
      <trkpt lat="51.29336" lon="4.87125"></trkpt>
      <trkpt lat="51.29337" lon="4.87132"></trkpt>
      <trkpt lat="51.29339" lon="4.87141"></trkpt>
      <trkpt lat="51.29341" lon="4.87150"></trkpt>
      <trkpt lat="51.29342" lon="4.87159"></trkpt>
      <trkpt lat="51.29344" lon="4.87169"></trkpt>
      <trkpt lat="51.29345" lon="4.87178"></trkpt>
      <trkpt lat="51.29346" lon="4.87188"></trkpt>
      <trkpt lat="51.29346" lon="4.87198"></trkpt>
      <trkpt lat="51.29347" lon="4.87207"></trkpt>
      <trkpt lat="51.29348" lon="4.87216"></trkpt>
      <trkpt lat="51.29349" lon="4.87225"></trkpt>
      <trkpt lat="51.29349" lon="4.87234"></trkpt>
      <trkpt lat="51.29349" lon="4.87244"></trkpt>
      <trkpt lat="51.29352" lon="4.87253"></trkpt>
      <trkpt lat="51.29354" lon="4.87263"></trkpt>
      <trkpt lat="51.29355" lon="4.87272"></trkpt>
      <trkpt lat="51.29358" lon="4.87279"></trkpt>
      <trkpt lat="51.29362" lon="4.87279"></trkpt>
      <trkpt lat="51.29366" lon="4.87276"></trkpt>
      <trkpt lat="51.29371" lon="4.87272"></trkpt>
      <trkpt lat="51.29375" lon="4.87266"></trkpt>
      <trkpt lat="51.29382" lon="4.87260"></trkpt>
      <trkpt lat="51.29387" lon="4.87256"></trkpt>
      <trkpt lat="51.29392" lon="4.87252"></trkpt>
      <trkpt lat="51.29397" lon="4.87248"></trkpt>
      <trkpt lat="51.29402" lon="4.87244"></trkpt>
      <trkpt lat="51.29407" lon="4.87240"></trkpt>
      <trkpt lat="51.29413" lon="4.87236"></trkpt>
      <trkpt lat="51.29419" lon="4.87232"></trkpt>
      <trkpt lat="51.29424" lon="4.87227"></trkpt>
      <trkpt lat="51.29428" lon="4.87225"></trkpt>
      <trkpt lat="51.29432" lon="4.87229"></trkpt>
      <trkpt lat="51.29434" lon="4.87240"></trkpt>
      <trkpt lat="51.29432" lon="4.87250"></trkpt>
      <trkpt lat="51.29429" lon="4.87259"></trkpt>
      <trkpt lat="51.29427" lon="4.87270"></trkpt>
      <trkpt lat="51.29425" lon="4.87280"></trkpt>
      <trkpt lat="51.29424" lon="4.87290"></trkpt>
      <trkpt lat="51.29422" lon="4.87300"></trkpt>
      <trkpt lat="51.29420" lon="4.87309"></trkpt>
      <trkpt lat="51.29419" lon="4.87319"></trkpt>
      <trkpt lat="51.29418" lon="4.87329"></trkpt>
      <trkpt lat="51.29418" lon="4.87339"></trkpt>
      <trkpt lat="51.29418" lon="4.87348"></trkpt>
      <trkpt lat="51.29419" lon="4.87357"></trkpt>
      <trkpt lat="51.29416" lon="4.87364"></trkpt>
      <trkpt lat="51.29410" lon="4.87367"></trkpt>
      <trkpt lat="51.29404" lon="4.87370"></trkpt>
      <trkpt lat="51.29399" lon="4.87373"></trkpt>
      <trkpt lat="51.29395" lon="4.87379"></trkpt>
      <trkpt lat="51.29390" lon="4.87386"></trkpt>
      <trkpt lat="51.29385" lon="4.87393"></trkpt>
      <trkpt lat="51.29380" lon="4.87400"></trkpt>
      <trkpt lat="51.29375" lon="4.87407"></trkpt>
      <trkpt lat="51.29370" lon="4.87414"></trkpt>
      <trkpt lat="51.29365" lon="4.87422"></trkpt>
      <trkpt lat="51.29361" lon="4.87430"></trkpt>
      <trkpt lat="51.29356" lon="4.87438"></trkpt>
      <trkpt lat="51.29353" lon="4.87447"></trkpt>
      <trkpt lat="51.29351" lon="4.87456"></trkpt>
      <trkpt lat="51.29350" lon="4.87465"></trkpt>
      <trkpt lat="51.29351" lon="4.87473"></trkpt>
      <trkpt lat="51.29354" lon="4.87481"></trkpt>
      <trkpt lat="51.29358" lon="4.87488"></trkpt>
      <trkpt lat="51.29363" lon="4.87493"></trkpt>
      <trkpt lat="51.29367" lon="4.87498"></trkpt>
      <trkpt lat="51.29373" lon="4.87502"></trkpt>
      <trkpt lat="51.29378" lon="4.87508"></trkpt>
      <trkpt lat="51.29383" lon="4.87513"></trkpt>
      <trkpt lat="51.29389" lon="4.87518"></trkpt>
      <trkpt lat="51.29395" lon="4.87524"></trkpt>
      <trkpt lat="51.29400" lon="4.87528"></trkpt>
      <trkpt lat="51.29405" lon="4.87533"></trkpt>
      <trkpt lat="51.29410" lon="4.87538"></trkpt>
      <trkpt lat="51.29415" lon="4.87543"></trkpt>
      <trkpt lat="51.29421" lon="4.87548"></trkpt>
      <trkpt lat="51.29426" lon="4.87554"></trkpt>
      <trkpt lat="51.29431" lon="4.87558"></trkpt>
      <trkpt lat="51.29436" lon="4.87564"></trkpt>
      <trkpt lat="51.29441" lon="4.87569"></trkpt>
      <trkpt lat="51.29446" lon="4.87573"></trkpt>
      <trkpt lat="51.29451" lon="4.87578"></trkpt>
      <trkpt lat="51.29457" lon="4.87583"></trkpt>
      <trkpt lat="51.29462" lon="4.87587"></trkpt>
      <trkpt lat="51.29467" lon="4.87592"></trkpt>
      <trkpt lat="51.29472" lon="4.87597"></trkpt>
      <trkpt lat="51.29477" lon="4.87602"></trkpt>
      <trkpt lat="51.29482" lon="4.87607"></trkpt>
      <trkpt lat="51.29487" lon="4.87612"></trkpt>
      <trkpt lat="51.29493" lon="4.87618"></trkpt>
      <trkpt lat="51.29498" lon="4.87623"></trkpt>
      <trkpt lat="51.29503" lon="4.87629"></trkpt>
      <trkpt lat="51.29508" lon="4.87633"></trkpt>
      <trkpt lat="51.29512" lon="4.87638"></trkpt>
      <trkpt lat="51.29517" lon="4.87644"></trkpt>
      <trkpt lat="51.29522" lon="4.87649"></trkpt>
      <trkpt lat="51.29527" lon="4.87654"></trkpt>
      <trkpt lat="51.29533" lon="4.87659"></trkpt>
      <trkpt lat="51.29538" lon="4.87665"></trkpt>
      <trkpt lat="51.29543" lon="4.87670"></trkpt>
      <trkpt lat="51.29550" lon="4.87675"></trkpt>
      <trkpt lat="51.29556" lon="4.87681"></trkpt>
      <trkpt lat="51.29562" lon="4.87686"></trkpt>
      <trkpt lat="51.29568" lon="4.87691"></trkpt>
      <trkpt lat="51.29574" lon="4.87696"></trkpt>
      <trkpt lat="51.29580" lon="4.87700"></trkpt>
      <trkpt lat="51.29586" lon="4.87702"></trkpt>
      <trkpt lat="51.29592" lon="4.87703"></trkpt>
      <trkpt lat="51.29598" lon="4.87703"></trkpt>
      <trkpt lat="51.29604" lon="4.87703"></trkpt>
      <trkpt lat="51.29611" lon="4.87702"></trkpt>
      <trkpt lat="51.29617" lon="4.87701"></trkpt>
      <trkpt lat="51.29623" lon="4.87699"></trkpt>
      <trkpt lat="51.29629" lon="4.87698"></trkpt>
      <trkpt lat="51.29636" lon="4.87697"></trkpt>
      <trkpt lat="51.29642" lon="4.87695"></trkpt>
      <trkpt lat="51.29648" lon="4.87694"></trkpt>
      <trkpt lat="51.29655" lon="4.87691"></trkpt>
      <trkpt lat="51.29661" lon="4.87689"></trkpt>
      <trkpt lat="51.29668" lon="4.87688"></trkpt>
      <trkpt lat="51.29674" lon="4.87687"></trkpt>
      <trkpt lat="51.29681" lon="4.87686"></trkpt>
      <trkpt lat="51.29686" lon="4.87685"></trkpt>
      <trkpt lat="51.29692" lon="4.87684"></trkpt>
      <trkpt lat="51.29699" lon="4.87684"></trkpt>
      <trkpt lat="51.29705" lon="4.87684"></trkpt>
      <trkpt lat="51.29711" lon="4.87684"></trkpt>
      <trkpt lat="51.29718" lon="4.87684"></trkpt>
      <trkpt lat="51.29725" lon="4.87685"></trkpt>
      <trkpt lat="51.29731" lon="4.87685"></trkpt>
      <trkpt lat="51.29737" lon="4.87686"></trkpt>
      <trkpt lat="51.29744" lon="4.87686"></trkpt>
      <trkpt lat="51.29751" lon="4.87686"></trkpt>
      <trkpt lat="51.29757" lon="4.87687"></trkpt>
      <trkpt lat="51.29763" lon="4.87688"></trkpt>
      <trkpt lat="51.29769" lon="4.87689"></trkpt>
      <trkpt lat="51.29775" lon="4.87690"></trkpt>
      <trkpt lat="51.29782" lon="4.87691"></trkpt>
      <trkpt lat="51.29788" lon="4.87691"></trkpt>
      <trkpt lat="51.29794" lon="4.87692"></trkpt>
      <trkpt lat="51.29801" lon="4.87693"></trkpt>
      <trkpt lat="51.29808" lon="4.87694"></trkpt>
      <trkpt lat="51.29814" lon="4.87695"></trkpt>
      <trkpt lat="51.29820" lon="4.87696"></trkpt>
      <trkpt lat="51.29827" lon="4.87698"></trkpt>
      <trkpt lat="51.29832" lon="4.87704"></trkpt>
      <trkpt lat="51.29835" lon="4.87714"></trkpt>
      <trkpt lat="51.29836" lon="4.87724"></trkpt>
      <trkpt lat="51.29836" lon="4.87734"></trkpt>
      <trkpt lat="51.29837" lon="4.87745"></trkpt>
      <trkpt lat="51.29837" lon="4.87755"></trkpt>
      <trkpt lat="51.29838" lon="4.87765"></trkpt>
      <trkpt lat="51.29840" lon="4.87774"></trkpt>
      <trkpt lat="51.29842" lon="4.87784"></trkpt>
      <trkpt lat="51.29845" lon="4.87794"></trkpt>
      <trkpt lat="51.29847" lon="4.87804"></trkpt>
      <trkpt lat="51.29849" lon="4.87814"></trkpt>
      <trkpt lat="51.29852" lon="4.87823"></trkpt>
      <trkpt lat="51.29854" lon="4.87832"></trkpt>
      <trkpt lat="51.29856" lon="4.87842"></trkpt>
      <trkpt lat="51.29858" lon="4.87851"></trkpt>
      <trkpt lat="51.29861" lon="4.87860"></trkpt>
      <trkpt lat="51.29863" lon="4.87870"></trkpt>
      <trkpt lat="51.29863" lon="4.87880"></trkpt>
      <trkpt lat="51.29863" lon="4.87890"></trkpt>
      <trkpt lat="51.29862" lon="4.87900"></trkpt>
      <trkpt lat="51.29862" lon="4.87910"></trkpt>
      <trkpt lat="51.29862" lon="4.87920"></trkpt>
      <trkpt lat="51.29862" lon="4.87930"></trkpt>
      <trkpt lat="51.29862" lon="4.87939"></trkpt>
      <trkpt lat="51.29862" lon="4.87949"></trkpt>
      <trkpt lat="51.29862" lon="4.87958"></trkpt>
      <trkpt lat="51.29862" lon="4.87968"></trkpt>
      <trkpt lat="51.29862" lon="4.87978"></trkpt>
      <trkpt lat="51.29861" lon="4.87988"></trkpt>
      <trkpt lat="51.29861" lon="4.87997"></trkpt>
      <trkpt lat="51.29860" lon="4.88007"></trkpt>
      <trkpt lat="51.29860" lon="4.88017"></trkpt>
      <trkpt lat="51.29859" lon="4.88026"></trkpt>
      <trkpt lat="51.29858" lon="4.88036"></trkpt>
      <trkpt lat="51.29857" lon="4.88045"></trkpt>
      <trkpt lat="51.29856" lon="4.88054"></trkpt>
      <trkpt lat="51.29856" lon="4.88059"></trkpt>
      <trkpt lat="51.29856" lon="4.88066"></trkpt>
      <trkpt lat="51.29855" lon="4.88074"></trkpt>
      <trkpt lat="51.29855" lon="4.88083"></trkpt>
      <trkpt lat="51.29854" lon="4.88093"></trkpt>
      <trkpt lat="51.29853" lon="4.88103"></trkpt>
      <trkpt lat="51.29852" lon="4.88113"></trkpt>
      <trkpt lat="51.29851" lon="4.88122"></trkpt>
      <trkpt lat="51.29850" lon="4.88132"></trkpt>
      <trkpt lat="51.29849" lon="4.88142"></trkpt>
      <trkpt lat="51.29848" lon="4.88151"></trkpt>
      <trkpt lat="51.29847" lon="4.88161"></trkpt>
      <trkpt lat="51.29846" lon="4.88171"></trkpt>
      <trkpt lat="51.29845" lon="4.88181"></trkpt>
      <trkpt lat="51.29845" lon="4.88191"></trkpt>
      <trkpt lat="51.29844" lon="4.88201"></trkpt>
      <trkpt lat="51.29843" lon="4.88211"></trkpt>
      <trkpt lat="51.29842" lon="4.88220"></trkpt>
      <trkpt lat="51.29841" lon="4.88230"></trkpt>
      <trkpt lat="51.29840" lon="4.88240"></trkpt>
      <trkpt lat="51.29839" lon="4.88249"></trkpt>
      <trkpt lat="51.29837" lon="4.88258"></trkpt>
      <trkpt lat="51.29834" lon="4.88267"></trkpt>
      <trkpt lat="51.29831" lon="4.88276"></trkpt>
      <trkpt lat="51.29828" lon="4.88285"></trkpt>
      <trkpt lat="51.29825" lon="4.88294"></trkpt>
      <trkpt lat="51.29824" lon="4.88303"></trkpt>
      <trkpt lat="51.29823" lon="4.88313"></trkpt>
      <trkpt lat="51.29821" lon="4.88322"></trkpt>
      <trkpt lat="51.29820" lon="4.88331"></trkpt>
      <trkpt lat="51.29819" lon="4.88341"></trkpt>
      <trkpt lat="51.29818" lon="4.88351"></trkpt>
      <trkpt lat="51.29818" lon="4.88361"></trkpt>
      <trkpt lat="51.29818" lon="4.88370"></trkpt>
      <trkpt lat="51.29819" lon="4.88380"></trkpt>
      <trkpt lat="51.29822" lon="4.88389"></trkpt>
      <trkpt lat="51.29823" lon="4.88398"></trkpt>
      <trkpt lat="51.29825" lon="4.88408"></trkpt>
      <trkpt lat="51.29827" lon="4.88418"></trkpt>
      <trkpt lat="51.29829" lon="4.88427"></trkpt>
      <trkpt lat="51.29831" lon="4.88437"></trkpt>
      <trkpt lat="51.29832" lon="4.88447"></trkpt>
      <trkpt lat="51.29833" lon="4.88456"></trkpt>
      <trkpt lat="51.29835" lon="4.88466"></trkpt>
      <trkpt lat="51.29835" lon="4.88475"></trkpt>
      <trkpt lat="51.29836" lon="4.88485"></trkpt>
      <trkpt lat="51.29836" lon="4.88495"></trkpt>
      <trkpt lat="51.29836" lon="4.88505"></trkpt>
      <trkpt lat="51.29837" lon="4.88515"></trkpt>
      <trkpt lat="51.29837" lon="4.88525"></trkpt>
      <trkpt lat="51.29837" lon="4.88535"></trkpt>
      <trkpt lat="51.29837" lon="4.88545"></trkpt>
      <trkpt lat="51.29837" lon="4.88555"></trkpt>
      <trkpt lat="51.29837" lon="4.88565"></trkpt>
      <trkpt lat="51.29837" lon="4.88575"></trkpt>
      <trkpt lat="51.29837" lon="4.88585"></trkpt>
      <trkpt lat="51.29837" lon="4.88594"></trkpt>
      <trkpt lat="51.29837" lon="4.88604"></trkpt>
      <trkpt lat="51.29837" lon="4.88614"></trkpt>
      <trkpt lat="51.29837" lon="4.88624"></trkpt>
      <trkpt lat="51.29837" lon="4.88634"></trkpt>
      <trkpt lat="51.29837" lon="4.88644"></trkpt>
      <trkpt lat="51.29837" lon="4.88654"></trkpt>
      <trkpt lat="51.29837" lon="4.88664"></trkpt>
      <trkpt lat="51.29837" lon="4.88674"></trkpt>
      <trkpt lat="51.29836" lon="4.88684"></trkpt>
      <trkpt lat="51.29836" lon="4.88693"></trkpt>
      <trkpt lat="51.29836" lon="4.88703"></trkpt>
      <trkpt lat="51.29836" lon="4.88713"></trkpt>
      <trkpt lat="51.29836" lon="4.88723"></trkpt>
      <trkpt lat="51.29835" lon="4.88733"></trkpt>
      <trkpt lat="51.29835" lon="4.88743"></trkpt>
      <trkpt lat="51.29835" lon="4.88753"></trkpt>
      <trkpt lat="51.29834" lon="4.88764"></trkpt>
      <trkpt lat="51.29833" lon="4.88773"></trkpt>
      <trkpt lat="51.29833" lon="4.88783"></trkpt>
      <trkpt lat="51.29831" lon="4.88793"></trkpt>
      <trkpt lat="51.29829" lon="4.88802"></trkpt>
      <trkpt lat="51.29827" lon="4.88812"></trkpt>
      <trkpt lat="51.29823" lon="4.88818"></trkpt>
      <trkpt lat="51.29817" lon="4.88822"></trkpt>
      <trkpt lat="51.29810" lon="4.88826"></trkpt>
      <trkpt lat="51.29804" lon="4.88828"></trkpt>
      <trkpt lat="51.29798" lon="4.88830"></trkpt>
      <trkpt lat="51.29792" lon="4.88832"></trkpt>
      <trkpt lat="51.29786" lon="4.88834"></trkpt>
      <trkpt lat="51.29780" lon="4.88836"></trkpt>
      <trkpt lat="51.29774" lon="4.88839"></trkpt>
      <trkpt lat="51.29768" lon="4.88841"></trkpt>
      <trkpt lat="51.29763" lon="4.88843"></trkpt>
      <trkpt lat="51.29757" lon="4.88845"></trkpt>
      <trkpt lat="51.29751" lon="4.88847"></trkpt>
      <trkpt lat="51.29744" lon="4.88849"></trkpt>
      <trkpt lat="51.29738" lon="4.88851"></trkpt>
      <trkpt lat="51.29732" lon="4.88854"></trkpt>
      <trkpt lat="51.29726" lon="4.88856"></trkpt>
      <trkpt lat="51.29720" lon="4.88858"></trkpt>
      <trkpt lat="51.29715" lon="4.88859"></trkpt>
      <trkpt lat="51.29709" lon="4.88861"></trkpt>
      <trkpt lat="51.29703" lon="4.88863"></trkpt>
      <trkpt lat="51.29697" lon="4.88866"></trkpt>
      <trkpt lat="51.29691" lon="4.88868"></trkpt>
      <trkpt lat="51.29685" lon="4.88869"></trkpt>
      <trkpt lat="51.29679" lon="4.88872"></trkpt>
      <trkpt lat="51.29672" lon="4.88874"></trkpt>
      <trkpt lat="51.29666" lon="4.88877"></trkpt>
      <trkpt lat="51.29660" lon="4.88879"></trkpt>
      <trkpt lat="51.29654" lon="4.88881"></trkpt>
      <trkpt lat="51.29648" lon="4.88882"></trkpt>
      <trkpt lat="51.29642" lon="4.88885"></trkpt>
      <trkpt lat="51.29636" lon="4.88886"></trkpt>
      <trkpt lat="51.29631" lon="4.88888"></trkpt>
      <trkpt lat="51.29627" lon="4.88890"></trkpt>
      <trkpt lat="51.29623" lon="4.88891"></trkpt>
      <trkpt lat="51.29619" lon="4.88893"></trkpt>
      <trkpt lat="51.29615" lon="4.88894"></trkpt>
      <trkpt lat="51.29611" lon="4.88896"></trkpt>
      <trkpt lat="51.29607" lon="4.88898"></trkpt>
      <trkpt lat="51.29603" lon="4.88899"></trkpt>
      <trkpt lat="51.29599" lon="4.88901"></trkpt>
      <trkpt lat="51.29595" lon="4.88903"></trkpt>
      <trkpt lat="51.29591" lon="4.88904"></trkpt>
      <trkpt lat="51.29587" lon="4.88906"></trkpt>
      <trkpt lat="51.29583" lon="4.88907"></trkpt>
      <trkpt lat="51.29579" lon="4.88908"></trkpt>
      <trkpt lat="51.29574" lon="4.88910"></trkpt>
      <trkpt lat="51.29569" lon="4.88912"></trkpt>
      <trkpt lat="51.29563" lon="4.88914"></trkpt>
      <trkpt lat="51.29557" lon="4.88916"></trkpt>
      <trkpt lat="51.29551" lon="4.88917"></trkpt>
      <trkpt lat="51.29544" lon="4.88920"></trkpt>
      <trkpt lat="51.29538" lon="4.88921"></trkpt>
      <trkpt lat="51.29532" lon="4.88919"></trkpt>
      <trkpt lat="51.29526" lon="4.88919"></trkpt>
      <trkpt lat="51.29519" lon="4.88918"></trkpt>
      <trkpt lat="51.29513" lon="4.88915"></trkpt>
      <trkpt lat="51.29507" lon="4.88910"></trkpt>
      <trkpt lat="51.29504" lon="4.88902"></trkpt>
      <trkpt lat="51.29500" lon="4.88894"></trkpt>
      <trkpt lat="51.29498" lon="4.88884"></trkpt>
      <trkpt lat="51.29496" lon="4.88874"></trkpt>
      <trkpt lat="51.29495" lon="4.88863"></trkpt>
      <trkpt lat="51.29495" lon="4.88853"></trkpt>
      <trkpt lat="51.29495" lon="4.88843"></trkpt>
      <trkpt lat="51.29494" lon="4.88833"></trkpt>
      <trkpt lat="51.29491" lon="4.88826"></trkpt>
      <trkpt lat="51.29486" lon="4.88821"></trkpt>
      <trkpt lat="51.29480" lon="4.88820"></trkpt>
      <trkpt lat="51.29474" lon="4.88819"></trkpt>
      <trkpt lat="51.29468" lon="4.88817"></trkpt>
      <trkpt lat="51.29463" lon="4.88816"></trkpt>
      <trkpt lat="51.29463" lon="4.88815"></trkpt>
      <trkpt lat="51.29463" lon="4.88815"></trkpt>
      <trkpt lat="51.29462" lon="4.88815"></trkpt>
      <trkpt lat="51.29462" lon="4.88814"></trkpt>
      <trkpt lat="51.29462" lon="4.88814"></trkpt>
      <trkpt lat="51.29462" lon="4.88814"></trkpt>
      <trkpt lat="51.29461" lon="4.88813"></trkpt>
      <trkpt lat="51.29459" lon="4.88809"></trkpt>
      <trkpt lat="51.29452" lon="4.88801"></trkpt>
      <trkpt lat="51.29446" lon="4.88792"></trkpt>
      <trkpt lat="51.29441" lon="4.88785"></trkpt>
      <trkpt lat="51.29436" lon="4.88779"></trkpt>
      <trkpt lat="51.29431" lon="4.88774"></trkpt>
      <trkpt lat="51.29427" lon="4.88767"></trkpt>
      <trkpt lat="51.29422" lon="4.88762"></trkpt>
      <trkpt lat="51.29417" lon="4.88756"></trkpt>
      <trkpt lat="51.29412" lon="4.88749"></trkpt>
      <trkpt lat="51.29406" lon="4.88744"></trkpt>
      <trkpt lat="51.29400" lon="4.88740"></trkpt>
      <trkpt lat="51.29395" lon="4.88735"></trkpt>
      <trkpt lat="51.29390" lon="4.88730"></trkpt>
      <trkpt lat="51.29384" lon="4.88727"></trkpt>
      <trkpt lat="51.29378" lon="4.88726"></trkpt>
      <trkpt lat="51.29372" lon="4.88727"></trkpt>
      <trkpt lat="51.29366" lon="4.88727"></trkpt>
      <trkpt lat="51.29361" lon="4.88727"></trkpt>
      <trkpt lat="51.29355" lon="4.88728"></trkpt>
      <trkpt lat="51.29349" lon="4.88728"></trkpt>
      <trkpt lat="51.29343" lon="4.88728"></trkpt>
      <trkpt lat="51.29337" lon="4.88729"></trkpt>
      <trkpt lat="51.29331" lon="4.88730"></trkpt>
      <trkpt lat="51.29325" lon="4.88731"></trkpt>
      <trkpt lat="51.29319" lon="4.88730"></trkpt>
      <trkpt lat="51.29313" lon="4.88730"></trkpt>
      <trkpt lat="51.29307" lon="4.88729"></trkpt>
      <trkpt lat="51.29301" lon="4.88730"></trkpt>
      <trkpt lat="51.29294" lon="4.88730"></trkpt>
      <trkpt lat="51.29288" lon="4.88730"></trkpt>
      <trkpt lat="51.29283" lon="4.88730"></trkpt>
      <trkpt lat="51.29276" lon="4.88730"></trkpt>
      <trkpt lat="51.29270" lon="4.88730"></trkpt>
      <trkpt lat="51.29264" lon="4.88731"></trkpt>
      <trkpt lat="51.29257" lon="4.88732"></trkpt>
      <trkpt lat="51.29251" lon="4.88733"></trkpt>
      <trkpt lat="51.29245" lon="4.88733"></trkpt>
      <trkpt lat="51.29239" lon="4.88733"></trkpt>
      <trkpt lat="51.29233" lon="4.88731"></trkpt>
      <trkpt lat="51.29230" lon="4.88723"></trkpt>
      <trkpt lat="51.29229" lon="4.88713"></trkpt>
      <trkpt lat="51.29229" lon="4.88703"></trkpt>
      <trkpt lat="51.29229" lon="4.88692"></trkpt>
      <trkpt lat="51.29229" lon="4.88683"></trkpt>
      <trkpt lat="51.29229" lon="4.88673"></trkpt>
      <trkpt lat="51.29229" lon="4.88664"></trkpt>
      <trkpt lat="51.29228" lon="4.88654"></trkpt>
      <trkpt lat="51.29226" lon="4.88644"></trkpt>
      <trkpt lat="51.29224" lon="4.88635"></trkpt>
      <trkpt lat="51.29220" lon="4.88628"></trkpt>
      <trkpt lat="51.29216" lon="4.88619"></trkpt>
      <trkpt lat="51.29213" lon="4.88611"></trkpt>
      <trkpt lat="51.29210" lon="4.88603"></trkpt>
      <trkpt lat="51.29207" lon="4.88594"></trkpt>
      <trkpt lat="51.29204" lon="4.88585"></trkpt>
      <trkpt lat="51.29202" lon="4.88575"></trkpt>
      <trkpt lat="51.29202" lon="4.88565"></trkpt>
      <trkpt lat="51.29202" lon="4.88556"></trkpt>
      <trkpt lat="51.29202" lon="4.88546"></trkpt>
      <trkpt lat="51.29203" lon="4.88535"></trkpt>
      <trkpt lat="51.29204" lon="4.88525"></trkpt>
      <trkpt lat="51.29205" lon="4.88515"></trkpt>
      <trkpt lat="51.29206" lon="4.88505"></trkpt>
      <trkpt lat="51.29207" lon="4.88495"></trkpt>
      <trkpt lat="51.29208" lon="4.88485"></trkpt>
      <trkpt lat="51.29209" lon="4.88475"></trkpt>
      <trkpt lat="51.29210" lon="4.88465"></trkpt>
      <trkpt lat="51.29211" lon="4.88455"></trkpt>
      <trkpt lat="51.29211" lon="4.88444"></trkpt>
      <trkpt lat="51.29212" lon="4.88435"></trkpt>
      <trkpt lat="51.29213" lon="4.88424"></trkpt>
      <trkpt lat="51.29213" lon="4.88414"></trkpt>
      <trkpt lat="51.29214" lon="4.88404"></trkpt>
      <trkpt lat="51.29215" lon="4.88394"></trkpt>
      <trkpt lat="51.29215" lon="4.88384"></trkpt>
      <trkpt lat="51.29216" lon="4.88374"></trkpt>
      <trkpt lat="51.29217" lon="4.88364"></trkpt>
      <trkpt lat="51.29218" lon="4.88353"></trkpt>
      <trkpt lat="51.29218" lon="4.88343"></trkpt>
      <trkpt lat="51.29219" lon="4.88333"></trkpt>
      <trkpt lat="51.29220" lon="4.88323"></trkpt>
      <trkpt lat="51.29221" lon="4.88313"></trkpt>
      <trkpt lat="51.29221" lon="4.88303"></trkpt>
      <trkpt lat="51.29222" lon="4.88292"></trkpt>
      <trkpt lat="51.29223" lon="4.88283"></trkpt>
      <trkpt lat="51.29224" lon="4.88272"></trkpt>
      <trkpt lat="51.29225" lon="4.88263"></trkpt>
      <trkpt lat="51.29226" lon="4.88253"></trkpt>
      <trkpt lat="51.29226" lon="4.88243"></trkpt>
      <trkpt lat="51.29227" lon="4.88233"></trkpt>
      <trkpt lat="51.29228" lon="4.88223"></trkpt>
      <trkpt lat="51.29229" lon="4.88213"></trkpt>
      <trkpt lat="51.29229" lon="4.88204"></trkpt>
      <trkpt lat="51.29230" lon="4.88194"></trkpt>
      <trkpt lat="51.29230" lon="4.88185"></trkpt>
      <trkpt lat="51.29230" lon="4.88175"></trkpt>
      <trkpt lat="51.29231" lon="4.88166"></trkpt>
      <trkpt lat="51.29231" lon="4.88156"></trkpt>
      <trkpt lat="51.29232" lon="4.88146"></trkpt>
      <trkpt lat="51.29232" lon="4.88137"></trkpt>
      <trkpt lat="51.29232" lon="4.88127"></trkpt>
      <trkpt lat="51.29231" lon="4.88117"></trkpt>
      <trkpt lat="51.29231" lon="4.88107"></trkpt>
      <trkpt lat="51.29232" lon="4.88098"></trkpt>
      <trkpt lat="51.29233" lon="4.88088"></trkpt>
      <trkpt lat="51.29233" lon="4.88079"></trkpt>
      <trkpt lat="51.29235" lon="4.88070"></trkpt>
      <trkpt lat="51.29238" lon="4.88062"></trkpt>
      <trkpt lat="51.29241" lon="4.88053"></trkpt>
      <trkpt lat="51.29245" lon="4.88045"></trkpt>
      <trkpt lat="51.29248" lon="4.88037"></trkpt>
      <trkpt lat="51.29253" lon="4.88031"></trkpt>
      <trkpt lat="51.29257" lon="4.88025"></trkpt>
      <trkpt lat="51.29260" lon="4.88017"></trkpt>
      <trkpt lat="51.29265" lon="4.88009"></trkpt>
      <trkpt lat="51.29271" lon="4.88001"></trkpt>
      <trkpt lat="51.29276" lon="4.87994"></trkpt>
      <trkpt lat="51.29281" lon="4.87987"></trkpt>
      <trkpt lat="51.29286" lon="4.87982"></trkpt>
      <trkpt lat="51.29291" lon="4.87974"></trkpt>
      <trkpt lat="51.29294" lon="4.87966"></trkpt>
      <trkpt lat="51.29297" lon="4.87957"></trkpt>
      <trkpt lat="51.29300" lon="4.87949"></trkpt>
      <trkpt lat="51.29302" lon="4.87940"></trkpt>
      <trkpt lat="51.29304" lon="4.87931"></trkpt>
      <trkpt lat="51.29305" lon="4.87922"></trkpt>
      <trkpt lat="51.29305" lon="4.87914"></trkpt>
      <trkpt lat="51.29306" lon="4.87904"></trkpt>
      <trkpt lat="51.29306" lon="4.87895"></trkpt>
      <trkpt lat="51.29306" lon="4.87886"></trkpt>
      <trkpt lat="51.29306" lon="4.87876"></trkpt>
      <trkpt lat="51.29306" lon="4.87868"></trkpt>
      <trkpt lat="51.29305" lon="4.87859"></trkpt>
      <trkpt lat="51.29302" lon="4.87851"></trkpt>
      <trkpt lat="51.29299" lon="4.87844"></trkpt>
      <trkpt lat="51.29295" lon="4.87837"></trkpt>
      <trkpt lat="51.29290" lon="4.87831"></trkpt>
      <trkpt lat="51.29285" lon="4.87824"></trkpt>
      <trkpt lat="51.29281" lon="4.87820"></trkpt>
      <trkpt lat="51.29275" lon="4.87820"></trkpt>
      <trkpt lat="51.29269" lon="4.87820"></trkpt>
      <trkpt lat="51.29263" lon="4.87821"></trkpt>
      <trkpt lat="51.29258" lon="4.87820"></trkpt>
      <trkpt lat="51.29252" lon="4.87819"></trkpt>
      <trkpt lat="51.29247" lon="4.87817"></trkpt>
      <trkpt lat="51.29241" lon="4.87815"></trkpt>
      <trkpt lat="51.29235" lon="4.87813"></trkpt>
      <trkpt lat="51.29229" lon="4.87813"></trkpt>
      <trkpt lat="51.29223" lon="4.87813"></trkpt>
      <trkpt lat="51.29217" lon="4.87812"></trkpt>
      <trkpt lat="51.29212" lon="4.87810"></trkpt>
      <trkpt lat="51.29205" lon="4.87809"></trkpt>
      <trkpt lat="51.29199" lon="4.87810"></trkpt>
      <trkpt lat="51.29193" lon="4.87810"></trkpt>
      <trkpt lat="51.29187" lon="4.87808"></trkpt>
      <trkpt lat="51.29180" lon="4.87807"></trkpt>
      <trkpt lat="51.29174" lon="4.87807"></trkpt>
      <trkpt lat="51.29168" lon="4.87806"></trkpt>
      <trkpt lat="51.29162" lon="4.87806"></trkpt>
      <trkpt lat="51.29156" lon="4.87806"></trkpt>
      <trkpt lat="51.29149" lon="4.87807"></trkpt>
      <trkpt lat="51.29143" lon="4.87806"></trkpt>
      <trkpt lat="51.29137" lon="4.87806"></trkpt>
      <trkpt lat="51.29131" lon="4.87805"></trkpt>
      <trkpt lat="51.29125" lon="4.87803"></trkpt>
      <trkpt lat="51.29119" lon="4.87800"></trkpt>
      <trkpt lat="51.29113" lon="4.87799"></trkpt>
      <trkpt lat="51.29107" lon="4.87798"></trkpt>
      <trkpt lat="51.29101" lon="4.87799"></trkpt>
      <trkpt lat="51.29095" lon="4.87799"></trkpt>
      <trkpt lat="51.29089" lon="4.87799"></trkpt>
      <trkpt lat="51.29083" lon="4.87799"></trkpt>
      <trkpt lat="51.29076" lon="4.87798"></trkpt>
      <trkpt lat="51.29070" lon="4.87798"></trkpt>
      <trkpt lat="51.29064" lon="4.87796"></trkpt>
      <trkpt lat="51.29058" lon="4.87794"></trkpt>
      <trkpt lat="51.29053" lon="4.87794"></trkpt>
      <trkpt lat="51.29046" lon="4.87793"></trkpt>
      <trkpt lat="51.29041" lon="4.87791"></trkpt>
      <trkpt lat="51.29035" lon="4.87790"></trkpt>
      <trkpt lat="51.29029" lon="4.87789"></trkpt>
      <trkpt lat="51.29024" lon="4.87789"></trkpt>
      <trkpt lat="51.29020" lon="4.87789"></trkpt>
      <trkpt lat="51.29018" lon="4.87788"></trkpt>
      <trkpt lat="51.29016" lon="4.87786"></trkpt>
      <trkpt lat="51.29014" lon="4.87779"></trkpt>
      <trkpt lat="51.29014" lon="4.87769"></trkpt>
      <trkpt lat="51.29014" lon="4.87760"></trkpt>
      <trkpt lat="51.29015" lon="4.87750"></trkpt>
      <trkpt lat="51.29015" lon="4.87741"></trkpt>
      <trkpt lat="51.29015" lon="4.87732"></trkpt>
      <trkpt lat="51.29014" lon="4.87722"></trkpt>
      <trkpt lat="51.29014" lon="4.87713"></trkpt>
      <trkpt lat="51.29014" lon="4.87704"></trkpt>
      <trkpt lat="51.29014" lon="4.87694"></trkpt>
      <trkpt lat="51.29015" lon="4.87685"></trkpt>
      <trkpt lat="51.29015" lon="4.87675"></trkpt>
      <trkpt lat="51.29015" lon="4.87665"></trkpt>
      <trkpt lat="51.29015" lon="4.87655"></trkpt>
      <trkpt lat="51.29015" lon="4.87645"></trkpt>
      <trkpt lat="51.29015" lon="4.87636"></trkpt>
      <trkpt lat="51.29015" lon="4.87626"></trkpt>
      <trkpt lat="51.29015" lon="4.87616"></trkpt>
      <trkpt lat="51.29015" lon="4.87606"></trkpt>
      <trkpt lat="51.29014" lon="4.87597"></trkpt>
      <trkpt lat="51.29015" lon="4.87587"></trkpt>
      <trkpt lat="51.29015" lon="4.87577"></trkpt>
      <trkpt lat="51.29014" lon="4.87567"></trkpt>
      <trkpt lat="51.29014" lon="4.87557"></trkpt>
      <trkpt lat="51.29014" lon="4.87548"></trkpt>
      <trkpt lat="51.29015" lon="4.87537"></trkpt>
      <trkpt lat="51.29015" lon="4.87526"></trkpt>
      <trkpt lat="51.29015" lon="4.87515"></trkpt>
      <trkpt lat="51.29015" lon="4.87505"></trkpt>
      <trkpt lat="51.29016" lon="4.87495"></trkpt>
      <trkpt lat="51.29015" lon="4.87484"></trkpt>
      <trkpt lat="51.29015" lon="4.87475"></trkpt>
      <trkpt lat="51.29015" lon="4.87465"></trkpt>
      <trkpt lat="51.29015" lon="4.87454"></trkpt>
      <trkpt lat="51.29016" lon="4.87445"></trkpt>
      <trkpt lat="51.29016" lon="4.87436"></trkpt>
      <trkpt lat="51.29017" lon="4.87426"></trkpt>
      <trkpt lat="51.29017" lon="4.87416"></trkpt>
      <trkpt lat="51.29018" lon="4.87406"></trkpt>
      <trkpt lat="51.29019" lon="4.87397"></trkpt>
      <trkpt lat="51.29019" lon="4.87387"></trkpt>
      <trkpt lat="51.29019" lon="4.87377"></trkpt>
      <trkpt lat="51.29020" lon="4.87367"></trkpt>
      <trkpt lat="51.29020" lon="4.87357"></trkpt>
      <trkpt lat="51.29020" lon="4.87347"></trkpt>
      <trkpt lat="51.29020" lon="4.87337"></trkpt>
      <trkpt lat="51.29020" lon="4.87326"></trkpt>
      <trkpt lat="51.29020" lon="4.87316"></trkpt>
      <trkpt lat="51.29020" lon="4.87306"></trkpt>
      <trkpt lat="51.29021" lon="4.87296"></trkpt>
      <trkpt lat="51.29021" lon="4.87286"></trkpt>
      <trkpt lat="51.29021" lon="4.87276"></trkpt>
      <trkpt lat="51.29021" lon="4.87264"></trkpt>
      <trkpt lat="51.29022" lon="4.87255"></trkpt>
      <trkpt lat="51.29021" lon="4.87245"></trkpt>
      <trkpt lat="51.29021" lon="4.87236"></trkpt>
      <trkpt lat="51.29022" lon="4.87226"></trkpt>
      <trkpt lat="51.29022" lon="4.87217"></trkpt>
      <trkpt lat="51.29022" lon="4.87206"></trkpt>
      <trkpt lat="51.29022" lon="4.87196"></trkpt>
      <trkpt lat="51.29022" lon="4.87186"></trkpt>
      <trkpt lat="51.29021" lon="4.87176"></trkpt>
      <trkpt lat="51.29021" lon="4.87166"></trkpt>
      <trkpt lat="51.29022" lon="4.87156"></trkpt>
      <trkpt lat="51.29022" lon="4.87147"></trkpt>
      <trkpt lat="51.29022" lon="4.87137"></trkpt>
      <trkpt lat="51.29022" lon="4.87128"></trkpt>
      <trkpt lat="51.29023" lon="4.87118"></trkpt>
      <trkpt lat="51.29023" lon="4.87108"></trkpt>
      <trkpt lat="51.29024" lon="4.87097"></trkpt>
      <trkpt lat="51.29023" lon="4.87087"></trkpt>
      <trkpt lat="51.29023" lon="4.87078"></trkpt>
      <trkpt lat="51.29023" lon="4.87069"></trkpt>
      <trkpt lat="51.29023" lon="4.87061"></trkpt>
      <trkpt lat="51.29023" lon="4.87051"></trkpt>
      <trkpt lat="51.29024" lon="4.87041"></trkpt>
      <trkpt lat="51.29023" lon="4.87032"></trkpt>
      <trkpt lat="51.29023" lon="4.87022"></trkpt>
      <trkpt lat="51.29022" lon="4.87012"></trkpt>
      <trkpt lat="51.29023" lon="4.87003"></trkpt>
      <trkpt lat="51.29023" lon="4.86994"></trkpt>
      <trkpt lat="51.29023" lon="4.86984"></trkpt>
      <trkpt lat="51.29024" lon="4.86973"></trkpt>
      <trkpt lat="51.29024" lon="4.86963"></trkpt>
      <trkpt lat="51.29023" lon="4.86954"></trkpt>
      <trkpt lat="51.29023" lon="4.86943"></trkpt>
      <trkpt lat="51.29023" lon="4.86934"></trkpt>
      <trkpt lat="51.29023" lon="4.86924"></trkpt>
      <trkpt lat="51.29023" lon="4.86914"></trkpt>
      <trkpt lat="51.29022" lon="4.86903"></trkpt>
      <trkpt lat="51.29022" lon="4.86894"></trkpt>
      <trkpt lat="51.29022" lon="4.86883"></trkpt>
      <trkpt lat="51.29022" lon="4.86872"></trkpt>
      <trkpt lat="51.29023" lon="4.86862"></trkpt>
      <trkpt lat="51.29023" lon="4.86853"></trkpt>
      <trkpt lat="51.29023" lon="4.86844"></trkpt>
      <trkpt lat="51.29023" lon="4.86835"></trkpt>
      <trkpt lat="51.29024" lon="4.86825"></trkpt>
      <trkpt lat="51.29024" lon="4.86815"></trkpt>
      <trkpt lat="51.29024" lon="4.86807"></trkpt>
      <trkpt lat="51.29022" lon="4.86799"></trkpt>
      <trkpt lat="51.29018" lon="4.86793"></trkpt>
      <trkpt lat="51.29013" lon="4.86790"></trkpt>
      <trkpt lat="51.29008" lon="4.86791"></trkpt>
      <trkpt lat="51.29003" lon="4.86791"></trkpt>
      <trkpt lat="51.28997" lon="4.86791"></trkpt>
      <trkpt lat="51.28992" lon="4.86790"></trkpt>
      <trkpt lat="51.28986" lon="4.86788"></trkpt>
      <trkpt lat="51.28980" lon="4.86787"></trkpt>
      <trkpt lat="51.28974" lon="4.86785"></trkpt>
      <trkpt lat="51.28968" lon="4.86784"></trkpt>
      <trkpt lat="51.28961" lon="4.86782"></trkpt>
      <trkpt lat="51.28956" lon="4.86781"></trkpt>
      <trkpt lat="51.28950" lon="4.86780"></trkpt>
      <trkpt lat="51.28944" lon="4.86779"></trkpt>
      <trkpt lat="51.28938" lon="4.86779"></trkpt>
      <trkpt lat="51.28932" lon="4.86778"></trkpt>
      <trkpt lat="51.28927" lon="4.86778"></trkpt>
      <trkpt lat="51.28921" lon="4.86776"></trkpt>
      <trkpt lat="51.28914" lon="4.86773"></trkpt>
      <trkpt lat="51.28908" lon="4.86771"></trkpt>
      <trkpt lat="51.28901" lon="4.86770"></trkpt>
      <trkpt lat="51.28895" lon="4.86768"></trkpt>
      <trkpt lat="51.28889" lon="4.86767"></trkpt>
      <trkpt lat="51.28882" lon="4.86766"></trkpt>
      <trkpt lat="51.28876" lon="4.86764"></trkpt>
      <trkpt lat="51.28869" lon="4.86762"></trkpt>
      <trkpt lat="51.28863" lon="4.86760"></trkpt>
      <trkpt lat="51.28858" lon="4.86758"></trkpt>
      <trkpt lat="51.28853" lon="4.86758"></trkpt>
      <trkpt lat="51.28847" lon="4.86757"></trkpt>
      <trkpt lat="51.28842" lon="4.86755"></trkpt>
      <trkpt lat="51.28836" lon="4.86753"></trkpt>
      <trkpt lat="51.28830" lon="4.86757"></trkpt>
      <trkpt lat="51.28824" lon="4.86762"></trkpt>
      <trkpt lat="51.28819" lon="4.86768"></trkpt>
      <trkpt lat="51.28814" lon="4.86773"></trkpt>
      <trkpt lat="51.28809" lon="4.86778"></trkpt>
      <trkpt lat="51.28803" lon="4.86782"></trkpt>
      <trkpt lat="51.28798" lon="4.86787"></trkpt>
      <trkpt lat="51.28792" lon="4.86792"></trkpt>
      <trkpt lat="51.28787" lon="4.86798"></trkpt>
      <trkpt lat="51.28781" lon="4.86802"></trkpt>
      <trkpt lat="51.28775" lon="4.86803"></trkpt>
      <trkpt lat="51.28769" lon="4.86804"></trkpt>
      <trkpt lat="51.28763" lon="4.86805"></trkpt>
      <trkpt lat="51.28757" lon="4.86807"></trkpt>
      <trkpt lat="51.28752" lon="4.86812"></trkpt>
      <trkpt lat="51.28748" lon="4.86817"></trkpt>
      <trkpt lat="51.28743" lon="4.86822"></trkpt>
      <trkpt lat="51.28738" lon="4.86828"></trkpt>
      <trkpt lat="51.28731" lon="4.86832"></trkpt>
      <trkpt lat="51.28725" lon="4.86836"></trkpt>
      <trkpt lat="51.28720" lon="4.86838"></trkpt>
      <trkpt lat="51.28715" lon="4.86839"></trkpt>
      <trkpt lat="51.28709" lon="4.86839"></trkpt>
      <trkpt lat="51.28704" lon="4.86841"></trkpt>
      <trkpt lat="51.28698" lon="4.86843"></trkpt>
      <trkpt lat="51.28692" lon="4.86846"></trkpt>
      <trkpt lat="51.28686" lon="4.86849"></trkpt>
      <trkpt lat="51.28680" lon="4.86848"></trkpt>
      <trkpt lat="51.28674" lon="4.86849"></trkpt>
      <trkpt lat="51.28667" lon="4.86850"></trkpt>
      <trkpt lat="51.28661" lon="4.86851"></trkpt>
      <trkpt lat="51.28655" lon="4.86852"></trkpt>
      <trkpt lat="51.28649" lon="4.86853"></trkpt>
      <trkpt lat="51.28643" lon="4.86855"></trkpt>
      <trkpt lat="51.28636" lon="4.86856"></trkpt>
      <trkpt lat="51.28630" lon="4.86857"></trkpt>
      <trkpt lat="51.28624" lon="4.86858"></trkpt>
      <trkpt lat="51.28619" lon="4.86861"></trkpt>
      <trkpt lat="51.28613" lon="4.86863"></trkpt>
      <trkpt lat="51.28606" lon="4.86863"></trkpt>
      <trkpt lat="51.28600" lon="4.86863"></trkpt>
      <trkpt lat="51.28594" lon="4.86864"></trkpt>
      <trkpt lat="51.28589" lon="4.86865"></trkpt>
      <trkpt lat="51.28582" lon="4.86866"></trkpt>
      <trkpt lat="51.28576" lon="4.86868"></trkpt>
      <trkpt lat="51.28570" lon="4.86869"></trkpt>
      <trkpt lat="51.28565" lon="4.86871"></trkpt>
      <trkpt lat="51.28560" lon="4.86873"></trkpt>
      <trkpt lat="51.28554" lon="4.86874"></trkpt>
      <trkpt lat="51.28548" lon="4.86875"></trkpt>
      <trkpt lat="51.28541" lon="4.86878"></trkpt>
      <trkpt lat="51.28535" lon="4.86882"></trkpt>
      <trkpt lat="51.28529" lon="4.86887"></trkpt>
      <trkpt lat="51.28525" lon="4.86893"></trkpt>
      <trkpt lat="51.28521" lon="4.86899"></trkpt>
      <trkpt lat="51.28516" lon="4.86906"></trkpt>
      <trkpt lat="51.28512" lon="4.86910"></trkpt>
      <trkpt lat="51.28507" lon="4.86914"></trkpt>
      <trkpt lat="51.28502" lon="4.86917"></trkpt>
      <trkpt lat="51.28496" lon="4.86921"></trkpt>
      <trkpt lat="51.28491" lon="4.86924"></trkpt>
      <trkpt lat="51.28485" lon="4.86926"></trkpt>
      <trkpt lat="51.28480" lon="4.86929"></trkpt>
      <trkpt lat="51.28474" lon="4.86930"></trkpt>
      <trkpt lat="51.28467" lon="4.86928"></trkpt>
      <trkpt lat="51.28461" lon="4.86923"></trkpt>
      <trkpt lat="51.28456" lon="4.86919"></trkpt>
      <trkpt lat="51.28450" lon="4.86913"></trkpt>
      <trkpt lat="51.28445" lon="4.86907"></trkpt>
      <trkpt lat="51.28439" lon="4.86903"></trkpt>
      <trkpt lat="51.28433" lon="4.86898"></trkpt>
      <trkpt lat="51.28428" lon="4.86894"></trkpt>
      <trkpt lat="51.28422" lon="4.86892"></trkpt>
      <trkpt lat="51.28416" lon="4.86892"></trkpt>
      <trkpt lat="51.28411" lon="4.86893"></trkpt>
      <trkpt lat="51.28405" lon="4.86895"></trkpt>
      <trkpt lat="51.28400" lon="4.86899"></trkpt>
      <trkpt lat="51.28395" lon="4.86903"></trkpt>
      <trkpt lat="51.28390" lon="4.86907"></trkpt>
      <trkpt lat="51.28384" lon="4.86911"></trkpt>
      <trkpt lat="51.28378" lon="4.86915"></trkpt>
      <trkpt lat="51.28373" lon="4.86916"></trkpt>
      <trkpt lat="51.28367" lon="4.86914"></trkpt>
      <trkpt lat="51.28362" lon="4.86908"></trkpt>
      <trkpt lat="51.28358" lon="4.86901"></trkpt>
      <trkpt lat="51.28354" lon="4.86893"></trkpt>
      <trkpt lat="51.28350" lon="4.86885"></trkpt>
      <trkpt lat="51.28346" lon="4.86878"></trkpt>
      <trkpt lat="51.28342" lon="4.86870"></trkpt>
      <trkpt lat="51.28338" lon="4.86862"></trkpt>
      <trkpt lat="51.28334" lon="4.86854"></trkpt>
      <trkpt lat="51.28330" lon="4.86847"></trkpt>
      <trkpt lat="51.28329" lon="4.86838"></trkpt>
      <trkpt lat="51.28332" lon="4.86829"></trkpt>
      <trkpt lat="51.28336" lon="4.86821"></trkpt>
      <trkpt lat="51.28340" lon="4.86813"></trkpt>
      <trkpt lat="51.28343" lon="4.86805"></trkpt>
      <trkpt lat="51.28347" lon="4.86798"></trkpt>
      <trkpt lat="51.28351" lon="4.86791"></trkpt>
      <trkpt lat="51.28355" lon="4.86783"></trkpt>
      <trkpt lat="51.28359" lon="4.86776"></trkpt>
      <trkpt lat="51.28363" lon="4.86768"></trkpt>
      <trkpt lat="51.28367" lon="4.86760"></trkpt>
      <trkpt lat="51.28370" lon="4.86753"></trkpt>
      <trkpt lat="51.28373" lon="4.86746"></trkpt>
      <trkpt lat="51.28375" lon="4.86739"></trkpt>
      <trkpt lat="51.28375" lon="4.86736"></trkpt>
      <trkpt lat="51.28375" lon="4.86735"></trkpt>
      <trkpt lat="51.28375" lon="4.86735"></trkpt>
      <trkpt lat="51.28376" lon="4.86734"></trkpt>
      <trkpt lat="51.28376" lon="4.86734"></trkpt>
      <trkpt lat="51.28376" lon="4.86734"></trkpt>
      <trkpt lat="51.28376" lon="4.86733"></trkpt>
      <trkpt lat="51.28376" lon="4.86733"></trkpt>
      <trkpt lat="51.28377" lon="4.86732"></trkpt>
      <trkpt lat="51.28382" lon="4.86723"></trkpt>
      <trkpt lat="51.28387" lon="4.86714"></trkpt>
      <trkpt lat="51.28391" lon="4.86706"></trkpt>
      <trkpt lat="51.28395" lon="4.86697"></trkpt>
      <trkpt lat="51.28398" lon="4.86689"></trkpt>
      <trkpt lat="51.28401" lon="4.86681"></trkpt>
      <trkpt lat="51.28405" lon="4.86672"></trkpt>
      <trkpt lat="51.28409" lon="4.86664"></trkpt>
      <trkpt lat="51.28412" lon="4.86656"></trkpt>
      <trkpt lat="51.28416" lon="4.86648"></trkpt>
      <trkpt lat="51.28419" lon="4.86639"></trkpt>
      <trkpt lat="51.28423" lon="4.86631"></trkpt>
      <trkpt lat="51.28427" lon="4.86624"></trkpt>
      <trkpt lat="51.28431" lon="4.86617"></trkpt>
      <trkpt lat="51.28435" lon="4.86612"></trkpt>
      <trkpt lat="51.28437" lon="4.86604"></trkpt>
      <trkpt lat="51.28441" lon="4.86596"></trkpt>
      <trkpt lat="51.28444" lon="4.86588"></trkpt>
      <trkpt lat="51.28448" lon="4.86579"></trkpt>
      <trkpt lat="51.28452" lon="4.86572"></trkpt>
      <trkpt lat="51.28455" lon="4.86563"></trkpt>
      <trkpt lat="51.28455" lon="4.86555"></trkpt>
      <trkpt lat="51.28451" lon="4.86546"></trkpt>
      <trkpt lat="51.28447" lon="4.86538"></trkpt>
      <trkpt lat="51.28443" lon="4.86530"></trkpt>
      <trkpt lat="51.28440" lon="4.86522"></trkpt>
      <trkpt lat="51.28436" lon="4.86513"></trkpt>
      <trkpt lat="51.28433" lon="4.86505"></trkpt>
      <trkpt lat="51.28429" lon="4.86496"></trkpt>
      <trkpt lat="51.28426" lon="4.86488"></trkpt>
      <trkpt lat="51.28422" lon="4.86479"></trkpt>
      <trkpt lat="51.28419" lon="4.86470"></trkpt>
      <trkpt lat="51.28416" lon="4.86461"></trkpt>
      <trkpt lat="51.28413" lon="4.86452"></trkpt>
      <trkpt lat="51.28410" lon="4.86444"></trkpt>
      <trkpt lat="51.28406" lon="4.86435"></trkpt>
      <trkpt lat="51.28403" lon="4.86426"></trkpt>
      <trkpt lat="51.28404" lon="4.86418"></trkpt>
      <trkpt lat="51.28410" lon="4.86414"></trkpt>
      <trkpt lat="51.28416" lon="4.86415"></trkpt>
      <trkpt lat="51.28423" lon="4.86416"></trkpt>
      <trkpt lat="51.28429" lon="4.86417"></trkpt>
      <trkpt lat="51.28435" lon="4.86418"></trkpt>
      <trkpt lat="51.28441" lon="4.86419"></trkpt>
      <trkpt lat="51.28448" lon="4.86419"></trkpt>
      <trkpt lat="51.28454" lon="4.86418"></trkpt>
      <trkpt lat="51.28460" lon="4.86416"></trkpt>
      <trkpt lat="51.28467" lon="4.86415"></trkpt>
      <trkpt lat="51.28473" lon="4.86413"></trkpt>
      <trkpt lat="51.28479" lon="4.86411"></trkpt>
      <trkpt lat="51.28486" lon="4.86409"></trkpt>
      <trkpt lat="51.28492" lon="4.86405"></trkpt>
      <trkpt lat="51.28497" lon="4.86401"></trkpt>
      <trkpt lat="51.28502" lon="4.86396"></trkpt>
      <trkpt lat="51.28508" lon="4.86390"></trkpt>
      <trkpt lat="51.28513" lon="4.86383"></trkpt>
      <trkpt lat="51.28517" lon="4.86376"></trkpt>
      <trkpt lat="51.28520" lon="4.86368"></trkpt>
      <trkpt lat="51.28523" lon="4.86359"></trkpt>
      <trkpt lat="51.28525" lon="4.86350"></trkpt>
      <trkpt lat="51.28526" lon="4.86340"></trkpt>
      <trkpt lat="51.28528" lon="4.86330"></trkpt>
      <trkpt lat="51.28529" lon="4.86321"></trkpt>
      <trkpt lat="51.28531" lon="4.86311"></trkpt>
      <trkpt lat="51.28532" lon="4.86302"></trkpt>
      <trkpt lat="51.28534" lon="4.86292"></trkpt>
      <trkpt lat="51.28535" lon="4.86283"></trkpt>
      <trkpt lat="51.28537" lon="4.86273"></trkpt>
      <trkpt lat="51.28539" lon="4.86264"></trkpt>
      <trkpt lat="51.28540" lon="4.86254"></trkpt>
      <trkpt lat="51.28542" lon="4.86245"></trkpt>
      <trkpt lat="51.28543" lon="4.86236"></trkpt>
      <trkpt lat="51.28545" lon="4.86227"></trkpt>
      <trkpt lat="51.28546" lon="4.86217"></trkpt>
      <trkpt lat="51.28548" lon="4.86208"></trkpt>
      <trkpt lat="51.28549" lon="4.86199"></trkpt>
      <trkpt lat="51.28551" lon="4.86190"></trkpt>
      <trkpt lat="51.28552" lon="4.86180"></trkpt>
      <trkpt lat="51.28554" lon="4.86171"></trkpt>
      <trkpt lat="51.28555" lon="4.86161"></trkpt>
      <trkpt lat="51.28557" lon="4.86152"></trkpt>
      <trkpt lat="51.28559" lon="4.86143"></trkpt>
      <trkpt lat="51.28560" lon="4.86133"></trkpt>
      <trkpt lat="51.28562" lon="4.86124"></trkpt>
      <trkpt lat="51.28563" lon="4.86114"></trkpt>
      <trkpt lat="51.28565" lon="4.86105"></trkpt>
      <trkpt lat="51.28562" lon="4.86096"></trkpt>
      <trkpt lat="51.28557" lon="4.86092"></trkpt>
      <trkpt lat="51.28551" lon="4.86089"></trkpt>
      <trkpt lat="51.28545" lon="4.86086"></trkpt>
      <trkpt lat="51.28539" lon="4.86082"></trkpt>
      <trkpt lat="51.28533" lon="4.86079"></trkpt>
      <trkpt lat="51.28527" lon="4.86076"></trkpt>
      <trkpt lat="51.28522" lon="4.86072"></trkpt>
      <trkpt lat="51.28516" lon="4.86069"></trkpt>
      <trkpt lat="51.28510" lon="4.86064"></trkpt>
      <trkpt lat="51.28506" lon="4.86058"></trkpt>
      <trkpt lat="51.28501" lon="4.86050"></trkpt>
      <trkpt lat="51.28497" lon="4.86043"></trkpt>
      <trkpt lat="51.28493" lon="4.86035"></trkpt>
      <trkpt lat="51.28490" lon="4.86027"></trkpt>
      <trkpt lat="51.28486" lon="4.86018"></trkpt>
      <trkpt lat="51.28483" lon="4.86010"></trkpt>
      <trkpt lat="51.28479" lon="4.86002"></trkpt>
      <trkpt lat="51.28476" lon="4.85994"></trkpt>
      <trkpt lat="51.28472" lon="4.85986"></trkpt>
      <trkpt lat="51.28469" lon="4.85978"></trkpt>
      <trkpt lat="51.28465" lon="4.85971"></trkpt>
      <trkpt lat="51.28461" lon="4.85963"></trkpt>
      <trkpt lat="51.28457" lon="4.85955"></trkpt>
      <trkpt lat="51.28454" lon="4.85947"></trkpt>
      <trkpt lat="51.28450" lon="4.85939"></trkpt>
      <trkpt lat="51.28446" lon="4.85931"></trkpt>
      <trkpt lat="51.28442" lon="4.85923"></trkpt>
      <trkpt lat="51.28439" lon="4.85914"></trkpt>
      <trkpt lat="51.28435" lon="4.85906"></trkpt>
      <trkpt lat="51.28431" lon="4.85897"></trkpt>
      <trkpt lat="51.28427" lon="4.85889"></trkpt>
      <trkpt lat="51.28423" lon="4.85881"></trkpt>
      <trkpt lat="51.28420" lon="4.85872"></trkpt>
      <trkpt lat="51.28416" lon="4.85864"></trkpt>
      <trkpt lat="51.28412" lon="4.85856"></trkpt>
      <trkpt lat="51.28409" lon="4.85848"></trkpt>
      <trkpt lat="51.28405" lon="4.85839"></trkpt>
      <trkpt lat="51.28401" lon="4.85831"></trkpt>
      <trkpt lat="51.28397" lon="4.85823"></trkpt>
      <trkpt lat="51.28393" lon="4.85815"></trkpt>
      <trkpt lat="51.28389" lon="4.85807"></trkpt>
      <trkpt lat="51.28386" lon="4.85799"></trkpt>
      <trkpt lat="51.28382" lon="4.85790"></trkpt>
      <trkpt lat="51.28378" lon="4.85782"></trkpt>
      <trkpt lat="51.28375" lon="4.85774"></trkpt>
      <trkpt lat="51.28371" lon="4.85766"></trkpt>
      <trkpt lat="51.28365" lon="4.85763"></trkpt>
      <trkpt lat="51.28359" lon="4.85763"></trkpt>
      <trkpt lat="51.28354" lon="4.85764"></trkpt>
      <trkpt lat="51.28352" lon="4.85760"></trkpt>
      <trkpt lat="51.28350" lon="4.85751"></trkpt>
      <trkpt lat="51.28352" lon="4.85743"></trkpt>
      <trkpt lat="51.28358" lon="4.85738"></trkpt>
      <trkpt lat="51.28363" lon="4.85731"></trkpt>
      <trkpt lat="51.28368" lon="4.85725"></trkpt>
      <trkpt lat="51.28373" lon="4.85719"></trkpt>
      <trkpt lat="51.28378" lon="4.85712"></trkpt>
      <trkpt lat="51.28383" lon="4.85705"></trkpt>
      <trkpt lat="51.28387" lon="4.85698"></trkpt>
      <trkpt lat="51.28388" lon="4.85688"></trkpt>
      <trkpt lat="51.28388" lon="4.85678"></trkpt>
      <trkpt lat="51.28390" lon="4.85668"></trkpt>
      <trkpt lat="51.28394" lon="4.85659"></trkpt>
      <trkpt lat="51.28399" lon="4.85653"></trkpt>
      <trkpt lat="51.28405" lon="4.85649"></trkpt>
      <trkpt lat="51.28411" lon="4.85649"></trkpt>
      <trkpt lat="51.28417" lon="4.85652"></trkpt>
      <trkpt lat="51.28422" lon="4.85659"></trkpt>
      <trkpt lat="51.28428" lon="4.85660"></trkpt>
      <trkpt lat="51.28435" lon="4.85657"></trkpt>
      <trkpt lat="51.28441" lon="4.85652"></trkpt>
      <trkpt lat="51.28447" lon="4.85647"></trkpt>
      <trkpt lat="51.28453" lon="4.85643"></trkpt>
      <trkpt lat="51.28459" lon="4.85639"></trkpt>
      <trkpt lat="51.28465" lon="4.85634"></trkpt>
      <trkpt lat="51.28471" lon="4.85631"></trkpt>
      <trkpt lat="51.28477" lon="4.85627"></trkpt>
      <trkpt lat="51.28482" lon="4.85623"></trkpt>
      <trkpt lat="51.28488" lon="4.85619"></trkpt>
      <trkpt lat="51.28494" lon="4.85615"></trkpt>
      <trkpt lat="51.28500" lon="4.85611"></trkpt>
      <trkpt lat="51.28505" lon="4.85607"></trkpt>
      <trkpt lat="51.28511" lon="4.85603"></trkpt>
      <trkpt lat="51.28517" lon="4.85599"></trkpt>
      <trkpt lat="51.28523" lon="4.85595"></trkpt>
      <trkpt lat="51.28528" lon="4.85591"></trkpt>
      <trkpt lat="51.28534" lon="4.85587"></trkpt>
      <trkpt lat="51.28540" lon="4.85583"></trkpt>
      <trkpt lat="51.28545" lon="4.85579"></trkpt>
      <trkpt lat="51.28551" lon="4.85575"></trkpt>
      <trkpt lat="51.28557" lon="4.85572"></trkpt>
      <trkpt lat="51.28563" lon="4.85569"></trkpt>
      <trkpt lat="51.28569" lon="4.85566"></trkpt>
      <trkpt lat="51.28575" lon="4.85563"></trkpt>
      <trkpt lat="51.28580" lon="4.85560"></trkpt>
      <trkpt lat="51.28586" lon="4.85557"></trkpt>
      <trkpt lat="51.28592" lon="4.85554"></trkpt>
      <trkpt lat="51.28598" lon="4.85551"></trkpt>
      <trkpt lat="51.28604" lon="4.85548"></trkpt>
      <trkpt lat="51.28611" lon="4.85546"></trkpt>
      <trkpt lat="51.28617" lon="4.85543"></trkpt>
      <trkpt lat="51.28623" lon="4.85541"></trkpt>
      <trkpt lat="51.28630" lon="4.85538"></trkpt>
      <trkpt lat="51.28636" lon="4.85536"></trkpt>
      <trkpt lat="51.28643" lon="4.85533"></trkpt>
      <trkpt lat="51.28649" lon="4.85531"></trkpt>
      <trkpt lat="51.28656" lon="4.85529"></trkpt>
      <trkpt lat="51.28662" lon="4.85527"></trkpt>
      <trkpt lat="51.28668" lon="4.85525"></trkpt>
      <trkpt lat="51.28675" lon="4.85523"></trkpt>
      <trkpt lat="51.28681" lon="4.85521"></trkpt>
      <trkpt lat="51.28687" lon="4.85519"></trkpt>
      <trkpt lat="51.28694" lon="4.85518"></trkpt>
      <trkpt lat="51.28700" lon="4.85517"></trkpt>
      <trkpt lat="51.28706" lon="4.85516"></trkpt>
      <trkpt lat="51.28712" lon="4.85516"></trkpt>
      <trkpt lat="51.28718" lon="4.85515"></trkpt>
      <trkpt lat="51.28725" lon="4.85514"></trkpt>
      <trkpt lat="51.28731" lon="4.85513"></trkpt>
      <trkpt lat="51.28737" lon="4.85512"></trkpt>
      <trkpt lat="51.28743" lon="4.85511"></trkpt>
      <trkpt lat="51.28749" lon="4.85510"></trkpt>
      <trkpt lat="51.28756" lon="4.85509"></trkpt>
      <trkpt lat="51.28762" lon="4.85508"></trkpt>
      <trkpt lat="51.28768" lon="4.85507"></trkpt>
      <trkpt lat="51.28774" lon="4.85505"></trkpt>
      <trkpt lat="51.28781" lon="4.85502"></trkpt>
      <trkpt lat="51.28787" lon="4.85499"></trkpt>
      <trkpt lat="51.28793" lon="4.85496"></trkpt>
      <trkpt lat="51.28798" lon="4.85491"></trkpt>
      <trkpt lat="51.28803" lon="4.85486"></trkpt>
      <trkpt lat="51.28809" lon="4.85481"></trkpt>
      <trkpt lat="51.28815" lon="4.85479"></trkpt>
      <trkpt lat="51.28822" lon="4.85481"></trkpt>
      <trkpt lat="51.28828" lon="4.85486"></trkpt>
      <trkpt lat="51.28834" lon="4.85491"></trkpt>
      <trkpt lat="51.28839" lon="4.85496"></trkpt>
      <trkpt lat="51.28845" lon="4.85501"></trkpt>
      <trkpt lat="51.28851" lon="4.85505"></trkpt>
      <trkpt lat="51.28857" lon="4.85510"></trkpt>
      <trkpt lat="51.28863" lon="4.85514"></trkpt>
      <trkpt lat="51.28869" lon="4.85519"></trkpt>
      <trkpt lat="51.28874" lon="4.85525"></trkpt>
      <trkpt lat="51.28879" lon="4.85532"></trkpt>
      <trkpt lat="51.28885" lon="4.85539"></trkpt>
      <trkpt lat="51.28890" lon="4.85545"></trkpt>
      <trkpt lat="51.28895" lon="4.85552"></trkpt>
      <trkpt lat="51.28900" lon="4.85558"></trkpt>
      <trkpt lat="51.28905" lon="4.85562"></trkpt>
      <trkpt lat="51.28912" lon="4.85559"></trkpt>
      <trkpt lat="51.28917" lon="4.85550"></trkpt>
      <trkpt lat="51.28920" lon="4.85541"></trkpt>
      <trkpt lat="51.28923" lon="4.85531"></trkpt>
      <trkpt lat="51.28924" lon="4.85521"></trkpt>
      <trkpt lat="51.28925" lon="4.85512"></trkpt>
      <trkpt lat="51.28926" lon="4.85502"></trkpt>
      <trkpt lat="51.28930" lon="4.85497"></trkpt>
      <trkpt lat="51.28936" lon="4.85495"></trkpt>
      <trkpt lat="51.28942" lon="4.85492"></trkpt>
      <trkpt lat="51.28947" lon="4.85485"></trkpt>
      <trkpt lat="51.28951" lon="4.85479"></trkpt>
      <trkpt lat="51.28957" lon="4.85476"></trkpt>
      <trkpt lat="51.28962" lon="4.85473"></trkpt>
      <trkpt lat="51.28968" lon="4.85470"></trkpt>
      <trkpt lat="51.28975" lon="4.85466"></trkpt>
      <trkpt lat="51.28981" lon="4.85462"></trkpt>
      <trkpt lat="51.28986" lon="4.85459"></trkpt>
      <trkpt lat="51.28992" lon="4.85455"></trkpt>
      <trkpt lat="51.28997" lon="4.85452"></trkpt>
      <trkpt lat="51.29003" lon="4.85448"></trkpt>
      <trkpt lat="51.29009" lon="4.85445"></trkpt>
      <trkpt lat="51.29014" lon="4.85442"></trkpt>
      <trkpt lat="51.29020" lon="4.85439"></trkpt>
      <trkpt lat="51.29025" lon="4.85436"></trkpt>
      <trkpt lat="51.29031" lon="4.85433"></trkpt>
      <trkpt lat="51.29037" lon="4.85429"></trkpt>
      <trkpt lat="51.29043" lon="4.85426"></trkpt>
      <trkpt lat="51.29048" lon="4.85422"></trkpt>
      <trkpt lat="51.29053" lon="4.85419"></trkpt>
      <trkpt lat="51.29058" lon="4.85414"></trkpt>
      <trkpt lat="51.29064" lon="4.85411"></trkpt>
      <trkpt lat="51.29069" lon="4.85406"></trkpt>
      <trkpt lat="51.29075" lon="4.85402"></trkpt>
      <trkpt lat="51.29080" lon="4.85398"></trkpt>
      <trkpt lat="51.29086" lon="4.85395"></trkpt>
      <trkpt lat="51.29091" lon="4.85392"></trkpt>
      <trkpt lat="51.29097" lon="4.85388"></trkpt>
      <trkpt lat="51.29103" lon="4.85385"></trkpt>
      <trkpt lat="51.29109" lon="4.85381"></trkpt>
      <trkpt lat="51.29114" lon="4.85378"></trkpt>
      <trkpt lat="51.29120" lon="4.85375"></trkpt>
      <trkpt lat="51.29125" lon="4.85372"></trkpt>
      <trkpt lat="51.29131" lon="4.85369"></trkpt>
      <trkpt lat="51.29137" lon="4.85366"></trkpt>
      <trkpt lat="51.29142" lon="4.85363"></trkpt>
      <trkpt lat="51.29147" lon="4.85360"></trkpt>
      <trkpt lat="51.29153" lon="4.85356"></trkpt>
      <trkpt lat="51.29159" lon="4.85353"></trkpt>
      <trkpt lat="51.29165" lon="4.85350"></trkpt>
      <trkpt lat="51.29171" lon="4.85346"></trkpt>
      <trkpt lat="51.29177" lon="4.85342"></trkpt>
      <trkpt lat="51.29183" lon="4.85340"></trkpt>
      <trkpt lat="51.29188" lon="4.85336"></trkpt>
      <trkpt lat="51.29193" lon="4.85331"></trkpt>
      <trkpt lat="51.29197" lon="4.85325"></trkpt>
      <trkpt lat="51.29202" lon="4.85321"></trkpt>
      <trkpt lat="51.29208" lon="4.85318"></trkpt>
      <trkpt lat="51.29214" lon="4.85314"></trkpt>
      <trkpt lat="51.29220" lon="4.85310"></trkpt>
      <trkpt lat="51.29226" lon="4.85305"></trkpt>
      <trkpt lat="51.29231" lon="4.85300"></trkpt>
      <trkpt lat="51.29237" lon="4.85295"></trkpt>
      <trkpt lat="51.29242" lon="4.85289"></trkpt>
      <trkpt lat="51.29247" lon="4.85284"></trkpt>
      <trkpt lat="51.29253" lon="4.85279"></trkpt>
      <trkpt lat="51.29259" lon="4.85274"></trkpt>
      <trkpt lat="51.29264" lon="4.85269"></trkpt>
      <trkpt lat="51.29270" lon="4.85264"></trkpt>
      <trkpt lat="51.29276" lon="4.85259"></trkpt>
      <trkpt lat="51.29281" lon="4.85254"></trkpt>
      <trkpt lat="51.29287" lon="4.85249"></trkpt>
      <trkpt lat="51.29293" lon="4.85244"></trkpt>
      <trkpt lat="51.29298" lon="4.85239"></trkpt>
      <trkpt lat="51.29304" lon="4.85234"></trkpt>
      <trkpt lat="51.29309" lon="4.85228"></trkpt>
      <trkpt lat="51.29314" lon="4.85223"></trkpt>
      <trkpt lat="51.29319" lon="4.85218"></trkpt>
      <trkpt lat="51.29325" lon="4.85213"></trkpt>
      <trkpt lat="51.29330" lon="4.85208"></trkpt>
      <trkpt lat="51.29336" lon="4.85203"></trkpt>
      <trkpt lat="51.29341" lon="4.85199"></trkpt>
      <trkpt lat="51.29345" lon="4.85194"></trkpt>
      <trkpt lat="51.29350" lon="4.85189"></trkpt>
      <trkpt lat="51.29356" lon="4.85185"></trkpt>
      <trkpt lat="51.29361" lon="4.85180"></trkpt>
      <trkpt lat="51.29367" lon="4.85175"></trkpt>
      <trkpt lat="51.29372" lon="4.85170"></trkpt>
      <trkpt lat="51.29378" lon="4.85166"></trkpt>
      <trkpt lat="51.29383" lon="4.85160"></trkpt>
      <trkpt lat="51.29388" lon="4.85155"></trkpt>
      <trkpt lat="51.29393" lon="4.85149"></trkpt>
      <trkpt lat="51.29399" lon="4.85144"></trkpt>
      <trkpt lat="51.29404" lon="4.85140"></trkpt>
      <trkpt lat="51.29410" lon="4.85136"></trkpt>
      <trkpt lat="51.29415" lon="4.85130"></trkpt>
      <trkpt lat="51.29421" lon="4.85125"></trkpt>
      <trkpt lat="51.29427" lon="4.85120"></trkpt>
      <trkpt lat="51.29431" lon="4.85117"></trkpt>
    </trkseg>
  </trk>
</gpx>