<?xml version="1.0" encoding="UTF-8"?>
<gpx version="1.1" creator="jeffry.running" xmlns="http://www.topografix.com/GPX/1/1">
  <metadata><time>2026-08-30T05:58:21.379Z</time></metadata>
  <trk>
    <trkseg>
      <trkpt lat="51.29633" lon="4.85578"></trkpt>
      <trkpt lat="51.29641" lon="4.85596"></trkpt>
      <trkpt lat="51.29655" lon="4.85605"></trkpt>
      <trkpt lat="51.29671" lon="4.85611"></trkpt>
      <trkpt lat="51.29686" lon="4.85609"></trkpt>
      <trkpt lat="51.29702" lon="4.85610"></trkpt>
      <trkpt lat="51.29715" lon="4.85609"></trkpt>
      <trkpt lat="51.29722" lon="4.85603"></trkpt>
      <trkpt lat="51.29734" lon="4.85592"></trkpt>
      <trkpt lat="51.29747" lon="4.85595"></trkpt>
      <trkpt lat="51.29754" lon="4.85615"></trkpt>
      <trkpt lat="51.29761" lon="4.85637"></trkpt>
      <trkpt lat="51.29768" lon="4.85657"></trkpt>
      <trkpt lat="51.29773" lon="4.85678"></trkpt>
      <trkpt lat="51.29779" lon="4.85699"></trkpt>
      <trkpt lat="51.29784" lon="4.85717"></trkpt>
      <trkpt lat="51.29789" lon="4.85733"></trkpt>
      <trkpt lat="51.29793" lon="4.85754"></trkpt>
      <trkpt lat="51.29797" lon="4.85776"></trkpt>
      <trkpt lat="51.29804" lon="4.85798"></trkpt>
      <trkpt lat="51.29812" lon="4.85821"></trkpt>
      <trkpt lat="51.29819" lon="4.85845"></trkpt>
      <trkpt lat="51.29826" lon="4.85868"></trkpt>
      <trkpt lat="51.29833" lon="4.85891"></trkpt>
      <trkpt lat="51.29838" lon="4.85914"></trkpt>
      <trkpt lat="51.29843" lon="4.85937"></trkpt>
      <trkpt lat="51.29851" lon="4.85959"></trkpt>
      <trkpt lat="51.29859" lon="4.85982"></trkpt>
      <trkpt lat="51.29867" lon="4.86006"></trkpt>
      <trkpt lat="51.29875" lon="4.86029"></trkpt>
      <trkpt lat="51.29881" lon="4.86053"></trkpt>
      <trkpt lat="51.29887" lon="4.86075"></trkpt>
      <trkpt lat="51.29894" lon="4.86097"></trkpt>
      <trkpt lat="51.29901" lon="4.86119"></trkpt>
      <trkpt lat="51.29908" lon="4.86140"></trkpt>
      <trkpt lat="51.29914" lon="4.86162"></trkpt>
      <trkpt lat="51.29921" lon="4.86183"></trkpt>
      <trkpt lat="51.29929" lon="4.86205"></trkpt>
      <trkpt lat="51.29936" lon="4.86227"></trkpt>
      <trkpt lat="51.29943" lon="4.86247"></trkpt>
      <trkpt lat="51.29952" lon="4.86265"></trkpt>
      <trkpt lat="51.29960" lon="4.86285"></trkpt>
      <trkpt lat="51.29965" lon="4.86302"></trkpt>
      <trkpt lat="51.29971" lon="4.86315"></trkpt>
      <trkpt lat="51.29974" lon="4.86327"></trkpt>
      <trkpt lat="51.29977" lon="4.86339"></trkpt>
      <trkpt lat="51.29981" lon="4.86351"></trkpt>
      <trkpt lat="51.29985" lon="4.86363"></trkpt>
      <trkpt lat="51.29989" lon="4.86375"></trkpt>
      <trkpt lat="51.29994" lon="4.86389"></trkpt>
      <trkpt lat="51.29997" lon="4.86402"></trkpt>
      <trkpt lat="51.30002" lon="4.86415"></trkpt>
      <trkpt lat="51.30007" lon="4.86427"></trkpt>
      <trkpt lat="51.30012" lon="4.86439"></trkpt>
      <trkpt lat="51.30017" lon="4.86459"></trkpt>
      <trkpt lat="51.30024" lon="4.86484"></trkpt>
      <trkpt lat="51.30031" lon="4.86509"></trkpt>
      <trkpt lat="51.30041" lon="4.86532"></trkpt>
      <trkpt lat="51.30048" lon="4.86556"></trkpt>
      <trkpt lat="51.30055" lon="4.86578"></trkpt>
      <trkpt lat="51.30062" lon="4.86601"></trkpt>
      <trkpt lat="51.30069" lon="4.86623"></trkpt>
      <trkpt lat="51.30077" lon="4.86647"></trkpt>
      <trkpt lat="51.30087" lon="4.86671"></trkpt>
      <trkpt lat="51.30094" lon="4.86694"></trkpt>
      <trkpt lat="51.30100" lon="4.86717"></trkpt>
      <trkpt lat="51.30108" lon="4.86740"></trkpt>
      <trkpt lat="51.30115" lon="4.86762"></trkpt>
      <trkpt lat="51.30123" lon="4.86785"></trkpt>
      <trkpt lat="51.30130" lon="4.86806"></trkpt>
      <trkpt lat="51.30137" lon="4.86831"></trkpt>
      <trkpt lat="51.30145" lon="4.86854"></trkpt>
      <trkpt lat="51.30152" lon="4.86878"></trkpt>
      <trkpt lat="51.30151" lon="4.86902"></trkpt>
      <trkpt lat="51.30138" lon="4.86913"></trkpt>
      <trkpt lat="51.30125" lon="4.86923"></trkpt>
      <trkpt lat="51.30112" lon="4.86934"></trkpt>
      <trkpt lat="51.30098" lon="4.86945"></trkpt>
      <trkpt lat="51.30084" lon="4.86958"></trkpt>
      <trkpt lat="51.30070" lon="4.86968"></trkpt>
      <trkpt lat="51.30057" lon="4.86978"></trkpt>
      <trkpt lat="51.30044" lon="4.86990"></trkpt>
      <trkpt lat="51.30030" lon="4.87001"></trkpt>
      <trkpt lat="51.30017" lon="4.87012"></trkpt>
      <trkpt lat="51.30002" lon="4.87025"></trkpt>
      <trkpt lat="51.29987" lon="4.87038"></trkpt>
      <trkpt lat="51.29972" lon="4.87051"></trkpt>
      <trkpt lat="51.29959" lon="4.87064"></trkpt>
      <trkpt lat="51.29944" lon="4.87077"></trkpt>
      <trkpt lat="51.29929" lon="4.87090"></trkpt>
      <trkpt lat="51.29915" lon="4.87101"></trkpt>
      <trkpt lat="51.29900" lon="4.87115"></trkpt>
      <trkpt lat="51.29886" lon="4.87126"></trkpt>
      <trkpt lat="51.29872" lon="4.87136"></trkpt>
      <trkpt lat="51.29854" lon="4.87141"></trkpt>
      <trkpt lat="51.29836" lon="4.87139"></trkpt>
      <trkpt lat="51.29820" lon="4.87139"></trkpt>
      <trkpt lat="51.29804" lon="4.87137"></trkpt>
      <trkpt lat="51.29788" lon="4.87133"></trkpt>
      <trkpt lat="51.29772" lon="4.87132"></trkpt>
      <trkpt lat="51.29756" lon="4.87130"></trkpt>
      <trkpt lat="51.29740" lon="4.87126"></trkpt>
      <trkpt lat="51.29725" lon="4.87124"></trkpt>
      <trkpt lat="51.29709" lon="4.87123"></trkpt>
      <trkpt lat="51.29692" lon="4.87121"></trkpt>
      <trkpt lat="51.29676" lon="4.87119"></trkpt>
      <trkpt lat="51.29660" lon="4.87117"></trkpt>
      <trkpt lat="51.29645" lon="4.87113"></trkpt>
      <trkpt lat="51.29629" lon="4.87110"></trkpt>
      <trkpt lat="51.29613" lon="4.87107"></trkpt>
      <trkpt lat="51.29597" lon="4.87107"></trkpt>
      <trkpt lat="51.29580" lon="4.87107"></trkpt>
      <trkpt lat="51.29563" lon="4.87104"></trkpt>
      <trkpt lat="51.29546" lon="4.87102"></trkpt>
      <trkpt lat="51.29530" lon="4.87101"></trkpt>
      <trkpt lat="51.29513" lon="4.87100"></trkpt>
      <trkpt lat="51.29496" lon="4.87099"></trkpt>
      <trkpt lat="51.29479" lon="4.87098"></trkpt>
      <trkpt lat="51.29463" lon="4.87093"></trkpt>
      <trkpt lat="51.29448" lon="4.87091"></trkpt>
      <trkpt lat="51.29433" lon="4.87088"></trkpt>
      <trkpt lat="51.29418" lon="4.87084"></trkpt>
      <trkpt lat="51.29402" lon="4.87082"></trkpt>
      <trkpt lat="51.29386" lon="4.87078"></trkpt>
      <trkpt lat="51.29370" lon="4.87074"></trkpt>
      <trkpt lat="51.29352" lon="4.87076"></trkpt>
      <trkpt lat="51.29338" lon="4.87081"></trkpt>
      <trkpt lat="51.29334" lon="4.87105"></trkpt>
      <trkpt lat="51.29336" lon="4.87131"></trkpt>
      <trkpt lat="51.29338" lon="4.87157"></trkpt>
      <trkpt lat="51.29341" lon="4.87183"></trkpt>
      <trkpt lat="51.29345" lon="4.87208"></trkpt>
      <trkpt lat="51.29348" lon="4.87232"></trkpt>
      <trkpt lat="51.29351" lon="4.87257"></trkpt>
      <trkpt lat="51.29356" lon="4.87276"></trkpt>
      <trkpt lat="51.29368" lon="4.87271"></trkpt>
      <trkpt lat="51.29384" lon="4.87259"></trkpt>
      <trkpt lat="51.29398" lon="4.87249"></trkpt>
      <trkpt lat="51.29412" lon="4.87239"></trkpt>
      <trkpt lat="51.29425" lon="4.87228"></trkpt>
      <trkpt lat="51.29432" lon="4.87236"></trkpt>
      <trkpt lat="51.29427" lon="4.87262"></trkpt>
      <trkpt lat="51.29424" lon="4.87286"></trkpt>
      <trkpt lat="51.29419" lon="4.87314"></trkpt>
      <trkpt lat="51.29416" lon="4.87342"></trkpt>
      <trkpt lat="51.29410" lon="4.87362"></trkpt>
      <trkpt lat="51.29397" lon="4.87370"></trkpt>
      <trkpt lat="51.29386" lon="4.87386"></trkpt>
      <trkpt lat="51.29374" lon="4.87406"></trkpt>
      <trkpt lat="51.29362" lon="4.87426"></trkpt>
      <trkpt lat="51.29352" lon="4.87444"></trkpt>
      <trkpt lat="51.29349" lon="4.87470"></trkpt>
      <trkpt lat="51.29358" lon="4.87488"></trkpt>
      <trkpt lat="51.29372" lon="4.87501"></trkpt>
      <trkpt lat="51.29385" lon="4.87515"></trkpt>
      <trkpt lat="51.29400" lon="4.87529"></trkpt>
      <trkpt lat="51.29413" lon="4.87542"></trkpt>
      <trkpt lat="51.29427" lon="4.87556"></trkpt>
      <trkpt lat="51.29442" lon="4.87571"></trkpt>
      <trkpt lat="51.29455" lon="4.87584"></trkpt>
      <trkpt lat="51.29469" lon="4.87596"></trkpt>
      <trkpt lat="51.29482" lon="4.87609"></trkpt>
      <trkpt lat="51.29496" lon="4.87622"></trkpt>
      <trkpt lat="51.29510" lon="4.87635"></trkpt>
      <trkpt lat="51.29523" lon="4.87649"></trkpt>
      <trkpt lat="51.29536" lon="4.87662"></trkpt>
      <trkpt lat="51.29550" lon="4.87676"></trkpt>
      <trkpt lat="51.29565" lon="4.87690"></trkpt>
      <trkpt lat="51.29581" lon="4.87701"></trkpt>
      <trkpt lat="51.29599" lon="4.87704"></trkpt>
      <trkpt lat="51.29615" lon="4.87701"></trkpt>
      <trkpt lat="51.29631" lon="4.87698"></trkpt>
      <trkpt lat="51.29647" lon="4.87694"></trkpt>
      <trkpt lat="51.29663" lon="4.87690"></trkpt>
      <trkpt lat="51.29680" lon="4.87688"></trkpt>
      <trkpt lat="51.29696" lon="4.87687"></trkpt>
      <trkpt lat="51.29712" lon="4.87686"></trkpt>
      <trkpt lat="51.29729" lon="4.87686"></trkpt>
      <trkpt lat="51.29747" lon="4.87687"></trkpt>
      <trkpt lat="51.29763" lon="4.87688"></trkpt>
      <trkpt lat="51.29780" lon="4.87689"></trkpt>
      <trkpt lat="51.29797" lon="4.87692"></trkpt>
      <trkpt lat="51.29813" lon="4.87694"></trkpt>
      <trkpt lat="51.29828" lon="4.87699"></trkpt>
      <trkpt lat="51.29832" lon="4.87721"></trkpt>
      <trkpt lat="51.29832" lon="4.87747"></trkpt>
      <trkpt lat="51.29835" lon="4.87773"></trkpt>
      <trkpt lat="51.29841" lon="4.87798"></trkpt>
      <trkpt lat="51.29847" lon="4.87822"></trkpt>
      <trkpt lat="51.29852" lon="4.87847"></trkpt>
      <trkpt lat="51.29857" lon="4.87873"></trkpt>
      <trkpt lat="51.29858" lon="4.87900"></trkpt>
      <trkpt lat="51.29857" lon="4.87926"></trkpt>
      <trkpt lat="51.29857" lon="4.87953"></trkpt>
      <trkpt lat="51.29857" lon="4.87979"></trkpt>
      <trkpt lat="51.29856" lon="4.88006"></trkpt>
      <trkpt lat="51.29854" lon="4.88032"></trkpt>
      <trkpt lat="51.29852" lon="4.88059"></trkpt>
      <trkpt lat="51.29850" lon="4.88086"></trkpt>
      <trkpt lat="51.29848" lon="4.88113"></trkpt>
      <trkpt lat="51.29845" lon="4.88141"></trkpt>
      <trkpt lat="51.29843" lon="4.88168"></trkpt>
      <trkpt lat="51.29841" lon="4.88195"></trkpt>
      <trkpt lat="51.29839" lon="4.88222"></trkpt>
      <trkpt lat="51.29835" lon="4.88249"></trkpt>
      <trkpt lat="51.29828" lon="4.88273"></trkpt>
      <trkpt lat="51.29822" lon="4.88298"></trkpt>
      <trkpt lat="51.29818" lon="4.88325"></trkpt>
      <trkpt lat="51.29815" lon="4.88352"></trkpt>
      <trkpt lat="51.29816" lon="4.88380"></trkpt>
      <trkpt lat="51.29821" lon="4.88406"></trkpt>
      <trkpt lat="51.29826" lon="4.88433"></trkpt>
      <trkpt lat="51.29830" lon="4.88460"></trkpt>
      <trkpt lat="51.29831" lon="4.88487"></trkpt>
      <trkpt lat="51.29831" lon="4.88514"></trkpt>
      <trkpt lat="51.29831" lon="4.88542"></trkpt>
      <trkpt lat="51.29831" lon="4.88569"></trkpt>
      <trkpt lat="51.29831" lon="4.88596"></trkpt>
      <trkpt lat="51.29832" lon="4.88623"></trkpt>
      <trkpt lat="51.29832" lon="4.88650"></trkpt>
      <trkpt lat="51.29833" lon="4.88677"></trkpt>
      <trkpt lat="51.29833" lon="4.88704"></trkpt>
      <trkpt lat="51.29832" lon="4.88730"></trkpt>
      <trkpt lat="51.29831" lon="4.88756"></trkpt>
      <trkpt lat="51.29830" lon="4.88783"></trkpt>
      <trkpt lat="51.29827" lon="4.88809"></trkpt>
      <trkpt lat="51.29814" lon="4.88823"></trkpt>
      <trkpt lat="51.29797" lon="4.88829"></trkpt>
      <trkpt lat="51.29780" lon="4.88835"></trkpt>
      <trkpt lat="51.29764" lon="4.88840"></trkpt>
      <trkpt lat="51.29748" lon="4.88846"></trkpt>
      <trkpt lat="51.29732" lon="4.88852"></trkpt>
      <trkpt lat="51.29716" lon="4.88858"></trkpt>
      <trkpt lat="51.29700" lon="4.88864"></trkpt>
      <trkpt lat="51.29683" lon="4.88870"></trkpt>
      <trkpt lat="51.29667" lon="4.88876"></trkpt>
      <trkpt lat="51.29651" lon="4.88881"></trkpt>
      <trkpt lat="51.29635" lon="4.88886"></trkpt>
      <trkpt lat="51.29618" lon="4.88891"></trkpt>
      <trkpt lat="51.29602" lon="4.88897"></trkpt>
      <trkpt lat="51.29585" lon="4.88902"></trkpt>
      <trkpt lat="51.29568" lon="4.88908"></trkpt>
      <trkpt lat="51.29551" lon="4.88914"></trkpt>
      <trkpt lat="51.29534" lon="4.88917"></trkpt>
      <trkpt lat="51.29516" lon="4.88912"></trkpt>
      <trkpt lat="51.29503" lon="4.88894"></trkpt>
      <trkpt lat="51.29497" lon="4.88867"></trkpt>
      <trkpt lat="51.29495" lon="4.88841"></trkpt>
      <trkpt lat="51.29489" lon="4.88821"></trkpt>
      <trkpt lat="51.29474" lon="4.88815"></trkpt>
      <trkpt lat="51.29459" lon="4.88807"></trkpt>
      <trkpt lat="51.29446" lon="4.88791"></trkpt>
      <trkpt lat="51.29432" lon="4.88774"></trkpt>
      <trkpt lat="51.29417" lon="4.88756"></trkpt>
      <trkpt lat="51.29402" lon="4.88741"></trkpt>
      <trkpt lat="51.29388" lon="4.88728"></trkpt>
      <trkpt lat="51.29372" lon="4.88721"></trkpt>
      <trkpt lat="51.29356" lon="4.88722"></trkpt>
      <trkpt lat="51.29340" lon="4.88725"></trkpt>
      <trkpt lat="51.29324" lon="4.88726"></trkpt>
      <trkpt lat="51.29309" lon="4.88726"></trkpt>
      <trkpt lat="51.29292" lon="4.88726"></trkpt>
      <trkpt lat="51.29275" lon="4.88726"></trkpt>
      <trkpt lat="51.29257" lon="4.88728"></trkpt>
      <trkpt lat="51.29241" lon="4.88729"></trkpt>
      <trkpt lat="51.29229" lon="4.88722"></trkpt>
      <trkpt lat="51.29229" lon="4.88697"></trkpt>
      <trkpt lat="51.29229" lon="4.88669"></trkpt>
      <trkpt lat="51.29226" lon="4.88643"></trkpt>
      <trkpt lat="51.29217" lon="4.88620"></trkpt>
      <trkpt lat="51.29208" lon="4.88597"></trkpt>
      <trkpt lat="51.29202" lon="4.88573"></trkpt>
      <trkpt lat="51.29202" lon="4.88546"></trkpt>
      <trkpt lat="51.29205" lon="4.88520"></trkpt>
      <trkpt lat="51.29207" lon="4.88494"></trkpt>
      <trkpt lat="51.29209" lon="4.88467"></trkpt>
      <trkpt lat="51.29212" lon="4.88442"></trkpt>
      <trkpt lat="51.29214" lon="4.88416"></trkpt>
      <trkpt lat="51.29216" lon="4.88390"></trkpt>
      <trkpt lat="51.29217" lon="4.88363"></trkpt>
      <trkpt lat="51.29220" lon="4.88337"></trkpt>
      <trkpt lat="51.29222" lon="4.88310"></trkpt>
      <trkpt lat="51.29224" lon="4.88284"></trkpt>
      <trkpt lat="51.29225" lon="4.88271"></trkpt>
      <trkpt lat="51.29225" lon="4.88269"></trkpt>
      <trkpt lat="51.29225" lon="4.88254"></trkpt>
      <trkpt lat="51.29228" lon="4.88224"></trkpt>
      <trkpt lat="51.29229" lon="4.88196"></trkpt>
      <trkpt lat="51.29231" lon="4.88168"></trkpt>
      <trkpt lat="51.29231" lon="4.88140"></trkpt>
      <trkpt lat="51.29230" lon="4.88113"></trkpt>
      <trkpt lat="51.29231" lon="4.88086"></trkpt>
      <trkpt lat="51.29236" lon="4.88061"></trkpt>
      <trkpt lat="51.29247" lon="4.88041"></trkpt>
      <trkpt lat="51.29258" lon="4.88024"></trkpt>
      <trkpt lat="51.29270" lon="4.88006"></trkpt>
      <trkpt lat="51.29283" lon="4.87988"></trkpt>
      <trkpt lat="51.29294" lon="4.87967"></trkpt>
      <trkpt lat="51.29301" lon="4.87944"></trkpt>
      <trkpt lat="51.29305" lon="4.87919"></trkpt>
      <trkpt lat="51.29306" lon="4.87893"></trkpt>
      <trkpt lat="51.29306" lon="4.87874"></trkpt>
      <trkpt lat="51.29302" lon="4.87860"></trkpt>
      <trkpt lat="51.29296" lon="4.87849"></trkpt>
      <trkpt lat="51.29290" lon="4.87837"></trkpt>
      <trkpt lat="51.29283" lon="4.87826"></trkpt>
      <trkpt lat="51.29274" lon="4.87823"></trkpt>
      <trkpt lat="51.29266" lon="4.87820"></trkpt>
      <trkpt lat="51.29257" lon="4.87818"></trkpt>
      <trkpt lat="51.29248" lon="4.87817"></trkpt>
      <trkpt lat="51.29237" lon="4.87814"></trkpt>
      <trkpt lat="51.29230" lon="4.87812"></trkpt>
      <trkpt lat="51.29222" lon="4.87809"></trkpt>
      <trkpt lat="51.29212" lon="4.87808"></trkpt>
      <trkpt lat="51.29201" lon="4.87807"></trkpt>
      <trkpt lat="51.29185" lon="4.87806"></trkpt>
      <trkpt lat="51.29168" lon="4.87804"></trkpt>
      <trkpt lat="51.29151" lon="4.87804"></trkpt>
      <trkpt lat="51.29134" lon="4.87803"></trkpt>
      <trkpt lat="51.29119" lon="4.87800"></trkpt>
      <trkpt lat="51.29104" lon="4.87798"></trkpt>
      <trkpt lat="51.29088" lon="4.87797"></trkpt>
      <trkpt lat="51.29071" lon="4.87794"></trkpt>
      <trkpt lat="51.29055" lon="4.87790"></trkpt>
      <trkpt lat="51.29038" lon="4.87786"></trkpt>
      <trkpt lat="51.29023" lon="4.87783"></trkpt>
      <trkpt lat="51.29014" lon="4.87767"></trkpt>
      <trkpt lat="51.29015" lon="4.87741"></trkpt>
      <trkpt lat="51.29016" lon="4.87715"></trkpt>
      <trkpt lat="51.29017" lon="4.87688"></trkpt>
      <trkpt lat="51.29017" lon="4.87662"></trkpt>
      <trkpt lat="51.29018" lon="4.87635"></trkpt>
      <trkpt lat="51.29018" lon="4.87608"></trkpt>
      <trkpt lat="51.29018" lon="4.87582"></trkpt>
      <trkpt lat="51.29018" lon="4.87556"></trkpt>
      <trkpt lat="51.29019" lon="4.87529"></trkpt>
      <trkpt lat="51.29019" lon="4.87504"></trkpt>
      <trkpt lat="51.29020" lon="4.87479"></trkpt>
      <trkpt lat="51.29019" lon="4.87452"></trkpt>
      <trkpt lat="51.29019" lon="4.87426"></trkpt>
      <trkpt lat="51.29020" lon="4.87399"></trkpt>
      <trkpt lat="51.29021" lon="4.87372"></trkpt>
      <trkpt lat="51.29021" lon="4.87345"></trkpt>
      <trkpt lat="51.29022" lon="4.87318"></trkpt>
      <trkpt lat="51.29022" lon="4.87292"></trkpt>
      <trkpt lat="51.29022" lon="4.87265"></trkpt>
      <trkpt lat="51.29024" lon="4.87240"></trkpt>
      <trkpt lat="51.29024" lon="4.87214"></trkpt>
      <trkpt lat="51.29023" lon="4.87186"></trkpt>
      <trkpt lat="51.29023" lon="4.87160"></trkpt>
      <trkpt lat="51.29024" lon="4.87134"></trkpt>
      <trkpt lat="51.29025" lon="4.87108"></trkpt>
      <trkpt lat="51.29024" lon="4.87082"></trkpt>
      <trkpt lat="51.29024" lon="4.87056"></trkpt>
      <trkpt lat="51.29024" lon="4.87028"></trkpt>
      <trkpt lat="51.29024" lon="4.87001"></trkpt>
      <trkpt lat="51.29025" lon="4.86975"></trkpt>
      <trkpt lat="51.29024" lon="4.86948"></trkpt>
      <trkpt lat="51.29024" lon="4.86920"></trkpt>
      <trkpt lat="51.29026" lon="4.86894"></trkpt>
      <trkpt lat="51.29026" lon="4.86869"></trkpt>
      <trkpt lat="51.29026" lon="4.86842"></trkpt>
      <trkpt lat="51.29027" lon="4.86815"></trkpt>
      <trkpt lat="51.29022" lon="4.86796"></trkpt>
      <trkpt lat="51.29008" lon="4.86790"></trkpt>
      <trkpt lat="51.28993" lon="4.86785"></trkpt>
      <trkpt lat="51.28976" lon="4.86783"></trkpt>
      <trkpt lat="51.28961" lon="4.86780"></trkpt>
      <trkpt lat="51.28944" lon="4.86775"></trkpt>
      <trkpt lat="51.28927" lon="4.86771"></trkpt>
      <trkpt lat="51.28911" lon="4.86767"></trkpt>
      <trkpt lat="51.28895" lon="4.86762"></trkpt>
      <trkpt lat="51.28879" lon="4.86759"></trkpt>
      <trkpt lat="51.28863" lon="4.86756"></trkpt>
      <trkpt lat="51.28846" lon="4.86751"></trkpt>
      <trkpt lat="51.28829" lon="4.86754"></trkpt>
      <trkpt lat="51.28814" lon="4.86768"></trkpt>
      <trkpt lat="51.28799" lon="4.86780"></trkpt>
      <trkpt lat="51.28785" lon="4.86792"></trkpt>
      <trkpt lat="51.28768" lon="4.86798"></trkpt>
      <trkpt lat="51.28753" lon="4.86804"></trkpt>
      <trkpt lat="51.28739" lon="4.86815"></trkpt>
      <trkpt lat="51.28724" lon="4.86825"></trkpt>
      <trkpt lat="51.28707" lon="4.86830"></trkpt>
      <trkpt lat="51.28690" lon="4.86838"></trkpt>
      <trkpt lat="51.28674" lon="4.86841"></trkpt>
      <trkpt lat="51.28659" lon="4.86844"></trkpt>
      <trkpt lat="51.28643" lon="4.86847"></trkpt>
      <trkpt lat="51.28628" lon="4.86851"></trkpt>
      <trkpt lat="51.28612" lon="4.86855"></trkpt>
      <trkpt lat="51.28596" lon="4.86857"></trkpt>
      <trkpt lat="51.28578" lon="4.86860"></trkpt>
      <trkpt lat="51.28560" lon="4.86868"></trkpt>
      <trkpt lat="51.28545" lon="4.86872"></trkpt>
      <trkpt lat="51.28531" lon="4.86882"></trkpt>
      <trkpt lat="51.28519" lon="4.86897"></trkpt>
      <trkpt lat="51.28504" lon="4.86908"></trkpt>
      <trkpt lat="51.28489" lon="4.86915"></trkpt>
      <trkpt lat="51.28473" lon="4.86918"></trkpt>
      <trkpt lat="51.28457" lon="4.86910"></trkpt>
      <trkpt lat="51.28442" lon="4.86899"></trkpt>
      <trkpt lat="51.28426" lon="4.86888"></trkpt>
      <trkpt lat="51.28409" lon="4.86888"></trkpt>
      <trkpt lat="51.28394" lon="4.86897"></trkpt>
      <trkpt lat="51.28378" lon="4.86906"></trkpt>
      <trkpt lat="51.28363" lon="4.86904"></trkpt>
      <trkpt lat="51.28352" lon="4.86885"></trkpt>
      <trkpt lat="51.28342" lon="4.86864"></trkpt>
      <trkpt lat="51.28332" lon="4.86845"></trkpt>
      <trkpt lat="51.28336" lon="4.86823"></trkpt>
      <trkpt lat="51.28345" lon="4.86803"></trkpt>
      <trkpt lat="51.28355" lon="4.86782"></trkpt>
      <trkpt lat="51.28365" lon="4.86761"></trkpt>
      <trkpt lat="51.28374" lon="4.86740"></trkpt>
      <trkpt lat="51.28385" lon="4.86718"></trkpt>
      <trkpt lat="51.28396" lon="4.86698"></trkpt>
      <trkpt lat="51.28405" lon="4.86678"></trkpt>
      <trkpt lat="51.28409" lon="4.86671"></trkpt>
      <trkpt lat="51.28409" lon="4.86670"></trkpt>
      <trkpt lat="51.28409" lon="4.86669"></trkpt>
      <trkpt lat="51.28412" lon="4.86661"></trkpt>
      <trkpt lat="51.28424" lon="4.86637"></trkpt>
      <trkpt lat="51.28434" lon="4.86618"></trkpt>
      <trkpt lat="51.28443" lon="4.86594"></trkpt>
      <trkpt lat="51.28453" lon="4.86571"></trkpt>
      <trkpt lat="51.28451" lon="4.86547"></trkpt>
      <trkpt lat="51.28442" lon="4.86525"></trkpt>
      <trkpt lat="51.28432" lon="4.86502"></trkpt>
      <trkpt lat="51.28423" lon="4.86479"></trkpt>
      <trkpt lat="51.28414" lon="4.86455"></trkpt>
      <trkpt lat="51.28407" lon="4.86433"></trkpt>
      <trkpt lat="51.28411" lon="4.86416"></trkpt>
      <trkpt lat="51.28427" lon="4.86417"></trkpt>
      <trkpt lat="51.28443" lon="4.86419"></trkpt>
      <trkpt lat="51.28459" lon="4.86417"></trkpt>
      <trkpt lat="51.28476" lon="4.86412"></trkpt>
      <trkpt lat="51.28492" lon="4.86405"></trkpt>
      <trkpt lat="51.28507" lon="4.86391"></trkpt>
      <trkpt lat="51.28519" lon="4.86372"></trkpt>
      <trkpt lat="51.28526" lon="4.86347"></trkpt>
      <trkpt lat="51.28530" lon="4.86321"></trkpt>
      <trkpt lat="51.28534" lon="4.86294"></trkpt>
      <trkpt lat="51.28539" lon="4.86268"></trkpt>
      <trkpt lat="51.28543" lon="4.86243"></trkpt>
      <trkpt lat="51.28548" lon="4.86216"></trkpt>
      <trkpt lat="51.28552" lon="4.86189"></trkpt>
      <trkpt lat="51.28557" lon="4.86163"></trkpt>
      <trkpt lat="51.28562" lon="4.86137"></trkpt>
      <trkpt lat="51.28566" lon="4.86111"></trkpt>
      <trkpt lat="51.28559" lon="4.86091"></trkpt>
      <trkpt lat="51.28543" lon="4.86081"></trkpt>
      <trkpt lat="51.28526" lon="4.86072"></trkpt>
      <trkpt lat="51.28511" lon="4.86060"></trkpt>
      <trkpt lat="51.28500" lon="4.86042"></trkpt>
      <trkpt lat="51.28491" lon="4.86021"></trkpt>
      <trkpt lat="51.28481" lon="4.86001"></trkpt>
      <trkpt lat="51.28472" lon="4.85980"></trkpt>
      <trkpt lat="51.28463" lon="4.85960"></trkpt>
      <trkpt lat="51.28454" lon="4.85939"></trkpt>
      <trkpt lat="51.28444" lon="4.85916"></trkpt>
      <trkpt lat="51.28433" lon="4.85893"></trkpt>
      <trkpt lat="51.28423" lon="4.85870"></trkpt>
      <trkpt lat="51.28413" lon="4.85847"></trkpt>
      <trkpt lat="51.28402" lon="4.85825"></trkpt>
      <trkpt lat="51.28391" lon="4.85803"></trkpt>
      <trkpt lat="51.28381" lon="4.85781"></trkpt>
      <trkpt lat="51.28370" lon="4.85762"></trkpt>
      <trkpt lat="51.28354" lon="4.85757"></trkpt>
      <trkpt lat="51.28355" lon="4.85738"></trkpt>
      <trkpt lat="51.28369" lon="4.85723"></trkpt>
      <trkpt lat="51.28382" lon="4.85707"></trkpt>
      <trkpt lat="51.28389" lon="4.85686"></trkpt>
      <trkpt lat="51.28394" lon="4.85662"></trkpt>
      <trkpt lat="51.28408" lon="4.85650"></trkpt>
      <trkpt lat="51.28424" lon="4.85655"></trkpt>
      <trkpt lat="51.28439" lon="4.85652"></trkpt>
      <trkpt lat="51.28454" lon="4.85642"></trkpt>
      <trkpt lat="51.28470" lon="4.85631"></trkpt>
      <trkpt lat="51.28486" lon="4.85620"></trkpt>
      <trkpt lat="51.28501" lon="4.85609"></trkpt>
      <trkpt lat="51.28516" lon="4.85599"></trkpt>
      <trkpt lat="51.28531" lon="4.85588"></trkpt>
      <trkpt lat="51.28547" lon="4.85578"></trkpt>
      <trkpt lat="51.28563" lon="4.85569"></trkpt>
      <trkpt lat="51.28578" lon="4.85561"></trkpt>
      <trkpt lat="51.28593" lon="4.85553"></trkpt>
      <trkpt lat="51.28608" lon="4.85547"></trkpt>
      <trkpt lat="51.28624" lon="4.85540"></trkpt>
      <trkpt lat="51.28640" lon="4.85534"></trkpt>
      <trkpt lat="51.28656" lon="4.85529"></trkpt>
      <trkpt lat="51.28671" lon="4.85524"></trkpt>
      <trkpt lat="51.28686" lon="4.85519"></trkpt>
      <trkpt lat="51.28702" lon="4.85516"></trkpt>
      <trkpt lat="51.28718" lon="4.85514"></trkpt>
      <trkpt lat="51.28735" lon="4.85512"></trkpt>
      <trkpt lat="51.28751" lon="4.85510"></trkpt>
      <trkpt lat="51.28768" lon="4.85506"></trkpt>
      <trkpt lat="51.28784" lon="4.85501"></trkpt>
      <trkpt lat="51.28799" lon="4.85490"></trkpt>
      <trkpt lat="51.28816" lon="4.85482"></trkpt>
      <trkpt lat="51.28832" lon="4.85492"></trkpt>
      <trkpt lat="51.28848" lon="4.85503"></trkpt>
      <trkpt lat="51.28863" lon="4.85513"></trkpt>
      <trkpt lat="51.28877" lon="4.85527"></trkpt>
      <trkpt lat="51.28890" lon="4.85546"></trkpt>
      <trkpt lat="51.28904" lon="4.85562"></trkpt>
      <trkpt lat="51.28916" lon="4.85581"></trkpt>
      <trkpt lat="51.28913" lon="4.85606"></trkpt>
      <trkpt lat="51.28910" lon="4.85634"></trkpt>
      <trkpt lat="51.28913" lon="4.85661"></trkpt>
      <trkpt lat="51.28917" lon="4.85687"></trkpt>
      <trkpt lat="51.28923" lon="4.85712"></trkpt>
      <trkpt lat="51.28932" lon="4.85734"></trkpt>
      <trkpt lat="51.28933" lon="4.85756"></trkpt>
      <trkpt lat="51.28932" lon="4.85779"></trkpt>
      <trkpt lat="51.28944" lon="4.85798"></trkpt>
      <trkpt lat="51.28955" lon="4.85817"></trkpt>
      <trkpt lat="51.28969" lon="4.85834"></trkpt>
      <trkpt lat="51.28983" lon="4.85852"></trkpt>
      <trkpt lat="51.28996" lon="4.85871"></trkpt>
      <trkpt lat="51.29009" lon="4.85890"></trkpt>
      <trkpt lat="51.29021" lon="4.85909"></trkpt>
      <trkpt lat="51.29034" lon="4.85929"></trkpt>
      <trkpt lat="51.29046" lon="4.85948"></trkpt>
      <trkpt lat="51.29058" lon="4.85967"></trkpt>
      <trkpt lat="51.29069" lon="4.85987"></trkpt>
      <trkpt lat="51.29081" lon="4.86008"></trkpt>
      <trkpt lat="51.29093" lon="4.86027"></trkpt>
      <trkpt lat="51.29106" lon="4.86046"></trkpt>
      <trkpt lat="51.29118" lon="4.86066"></trkpt>
      <trkpt lat="51.29130" lon="4.86085"></trkpt>
      <trkpt lat="51.29143" lon="4.86103"></trkpt>
      <trkpt lat="51.29157" lon="4.86121"></trkpt>
      <trkpt lat="51.29171" lon="4.86140"></trkpt>
      <trkpt lat="51.29184" lon="4.86157"></trkpt>
      <trkpt lat="51.29197" lon="4.86176"></trkpt>
      <trkpt lat="51.29210" lon="4.86196"></trkpt>
      <trkpt lat="51.29223" lon="4.86214"></trkpt>
      <trkpt lat="51.29235" lon="4.86231"></trkpt>
      <trkpt lat="51.29246" lon="4.86248"></trkpt>
      <trkpt lat="51.29258" lon="4.86265"></trkpt>
      <trkpt lat="51.29270" lon="4.86283"></trkpt>
      <trkpt lat="51.29281" lon="4.86304"></trkpt>
      <trkpt lat="51.29291" lon="4.86326"></trkpt>
      <trkpt lat="51.29303" lon="4.86344"></trkpt>
      <trkpt lat="51.29315" lon="4.86365"></trkpt>
      <trkpt lat="51.29328" lon="4.86385"></trkpt>
      <trkpt lat="51.29340" lon="4.86403"></trkpt>
      <trkpt lat="51.29351" lon="4.86421"></trkpt>
      <trkpt lat="51.29360" lon="4.86440"></trkpt>
      <trkpt lat="51.29370" lon="4.86462"></trkpt>
      <trkpt lat="51.29380" lon="4.86484"></trkpt>
      <trkpt lat="51.29391" lon="4.86506"></trkpt>
      <trkpt lat="51.29402" lon="4.86529"></trkpt>
      <trkpt lat="51.29414" lon="4.86551"></trkpt>
      <trkpt lat="51.29413" lon="4.86579"></trkpt>
      <trkpt lat="51.29409" lon="4.86596"></trkpt>
      <trkpt lat="51.29415" lon="4.86608"></trkpt>
      <trkpt lat="51.29427" lon="4.86626"></trkpt>
      <trkpt lat="51.29441" lon="4.86643"></trkpt>
      <trkpt lat="51.29456" lon="4.86659"></trkpt>
      <trkpt lat="51.29470" lon="4.86676"></trkpt>
      <trkpt lat="51.29484" lon="4.86693"></trkpt>
      <trkpt lat="51.29496" lon="4.86710"></trkpt>
      <trkpt lat="51.29509" lon="4.86725"></trkpt>
      <trkpt lat="51.29523" lon="4.86742"></trkpt>
      <trkpt lat="51.29535" lon="4.86761"></trkpt>
      <trkpt lat="51.29549" lon="4.86779"></trkpt>
      <trkpt lat="51.29562" lon="4.86796"></trkpt>
      <trkpt lat="51.29577" lon="4.86814"></trkpt>
      <trkpt lat="51.29590" lon="4.86831"></trkpt>
      <trkpt lat="51.29604" lon="4.86848"></trkpt>
      <trkpt lat="51.29618" lon="4.86865"></trkpt>
      <trkpt lat="51.29631" lon="4.86883"></trkpt>
      <trkpt lat="51.29644" lon="4.86898"></trkpt>
      <trkpt lat="51.29658" lon="4.86914"></trkpt>
      <trkpt lat="51.29671" lon="4.86932"></trkpt>
      <trkpt lat="51.29682" lon="4.86955"></trkpt>
      <trkpt lat="51.29690" lon="4.86981"></trkpt>
      <trkpt lat="51.29698" lon="4.87006"></trkpt>
      <trkpt lat="51.29707" lon="4.87031"></trkpt>
      <trkpt lat="51.29716" lon="4.87057"></trkpt>
      <trkpt lat="51.29723" lon="4.87082"></trkpt>
      <trkpt lat="51.29728" lon="4.87108"></trkpt>
      <trkpt lat="51.29724" lon="4.87127"></trkpt>
      <trkpt lat="51.29708" lon="4.87126"></trkpt>
      <trkpt lat="51.29693" lon="4.87124"></trkpt>
      <trkpt lat="51.29676" lon="4.87121"></trkpt>
      <trkpt lat="51.29658" lon="4.87118"></trkpt>
      <trkpt lat="51.29642" lon="4.87116"></trkpt>
      <trkpt lat="51.29625" lon="4.87114"></trkpt>
      <trkpt lat="51.29607" lon="4.87111"></trkpt>
      <trkpt lat="51.29590" lon="4.87109"></trkpt>
      <trkpt lat="51.29573" lon="4.87107"></trkpt>
      <trkpt lat="51.29555" lon="4.87105"></trkpt>
      <trkpt lat="51.29538" lon="4.87102"></trkpt>
      <trkpt lat="51.29522" lon="4.87100"></trkpt>
      <trkpt lat="51.29504" lon="4.87098"></trkpt>
      <trkpt lat="51.29487" lon="4.87097"></trkpt>
      <trkpt lat="51.29470" lon="4.87095"></trkpt>
      <trkpt lat="51.29456" lon="4.87092"></trkpt>
      <trkpt lat="51.29446" lon="4.87090"></trkpt>
      <trkpt lat="51.29436" lon="4.87090"></trkpt>
      <trkpt lat="51.29426" lon="4.87093"></trkpt>
      <trkpt lat="51.29417" lon="4.87093"></trkpt>
      <trkpt lat="51.29408" lon="4.87092"></trkpt>
      <trkpt lat="51.29398" lon="4.87091"></trkpt>
      <trkpt lat="51.29388" lon="4.87089"></trkpt>
      <trkpt lat="51.29378" lon="4.87088"></trkpt>
      <trkpt lat="51.29362" lon="4.87087"></trkpt>
      <trkpt lat="51.29346" lon="4.87086"></trkpt>
      <trkpt lat="51.29335" lon="4.87099"></trkpt>
      <trkpt lat="51.29336" lon="4.87124"></trkpt>
      <trkpt lat="51.29338" lon="4.87149"></trkpt>
      <trkpt lat="51.29340" lon="4.87174"></trkpt>
      <trkpt lat="51.29342" lon="4.87200"></trkpt>
      <trkpt lat="51.29345" lon="4.87226"></trkpt>
      <trkpt lat="51.29347" lon="4.87252"></trkpt>
      <trkpt lat="51.29354" lon="4.87274"></trkpt>
      <trkpt lat="51.29368" lon="4.87269"></trkpt>
      <trkpt lat="51.29383" lon="4.87257"></trkpt>
      <trkpt lat="51.29398" lon="4.87245"></trkpt>
      <trkpt lat="51.29412" lon="4.87235"></trkpt>
      <trkpt lat="51.29425" lon="4.87230"></trkpt>
      <trkpt lat="51.29425" lon="4.87249"></trkpt>
      <trkpt lat="51.29420" lon="4.87274"></trkpt>
      <trkpt lat="51.29416" lon="4.87301"></trkpt>
      <trkpt lat="51.29412" lon="4.87329"></trkpt>
      <trkpt lat="51.29408" lon="4.87354"></trkpt>
      <trkpt lat="51.29396" lon="4.87367"></trkpt>
      <trkpt lat="51.29384" lon="4.87383"></trkpt>
      <trkpt lat="51.29371" lon="4.87402"></trkpt>
      <trkpt lat="51.29359" lon="4.87423"></trkpt>
      <trkpt lat="51.29349" lon="4.87447"></trkpt>
      <trkpt lat="51.29351" lon="4.87476"></trkpt>
      <trkpt lat="51.29363" lon="4.87495"></trkpt>
      <trkpt lat="51.29376" lon="4.87509"></trkpt>
      <trkpt lat="51.29391" lon="4.87524"></trkpt>
      <trkpt lat="51.29405" lon="4.87538"></trkpt>
      <trkpt lat="51.29419" lon="4.87552"></trkpt>
      <trkpt lat="51.29434" lon="4.87567"></trkpt>
      <trkpt lat="51.29449" lon="4.87582"></trkpt>
      <trkpt lat="51.29462" lon="4.87595"></trkpt>
      <trkpt lat="51.29476" lon="4.87608"></trkpt>
      <trkpt lat="51.29490" lon="4.87621"></trkpt>
      <trkpt lat="51.29503" lon="4.87633"></trkpt>
      <trkpt lat="51.29516" lon="4.87647"></trkpt>
      <trkpt lat="51.29530" lon="4.87661"></trkpt>
      <trkpt lat="51.29545" lon="4.87676"></trkpt>
      <trkpt lat="51.29560" lon="4.87691"></trkpt>
      <trkpt lat="51.29576" lon="4.87700"></trkpt>
      <trkpt lat="51.29594" lon="4.87703"></trkpt>
      <trkpt lat="51.29610" lon="4.87702"></trkpt>
      <trkpt lat="51.29627" lon="4.87699"></trkpt>
      <trkpt lat="51.29644" lon="4.87695"></trkpt>
      <trkpt lat="51.29662" lon="4.87691"></trkpt>
      <trkpt lat="51.29679" lon="4.87689"></trkpt>
      <trkpt lat="51.29697" lon="4.87689"></trkpt>
      <trkpt lat="51.29715" lon="4.87688"></trkpt>
      <trkpt lat="51.29733" lon="4.87689"></trkpt>
      <trkpt lat="51.29750" lon="4.87690"></trkpt>
      <trkpt lat="51.29768" lon="4.87691"></trkpt>
      <trkpt lat="51.29786" lon="4.87693"></trkpt>
      <trkpt lat="51.29803" lon="4.87695"></trkpt>
      <trkpt lat="51.29819" lon="4.87698"></trkpt>
      <trkpt lat="51.29826" lon="4.87717"></trkpt>
      <trkpt lat="51.29827" lon="4.87744"></trkpt>
      <trkpt lat="51.29830" lon="4.87770"></trkpt>
      <trkpt lat="51.29836" lon="4.87796"></trkpt>
      <trkpt lat="51.29842" lon="4.87820"></trkpt>
      <trkpt lat="51.29848" lon="4.87845"></trkpt>
      <trkpt lat="51.29852" lon="4.87871"></trkpt>
      <trkpt lat="51.29853" lon="4.87898"></trkpt>
      <trkpt lat="51.29853" lon="4.87926"></trkpt>
      <trkpt lat="51.29853" lon="4.87953"></trkpt>
      <trkpt lat="51.29854" lon="4.87981"></trkpt>
      <trkpt lat="51.29853" lon="4.88008"></trkpt>
      <trkpt lat="51.29851" lon="4.88036"></trkpt>
      <trkpt lat="51.29849" lon="4.88063"></trkpt>
      <trkpt lat="51.29848" lon="4.88091"></trkpt>
      <trkpt lat="51.29846" lon="4.88118"></trkpt>
      <trkpt lat="51.29844" lon="4.88145"></trkpt>
      <trkpt lat="51.29841" lon="4.88172"></trkpt>
      <trkpt lat="51.29839" lon="4.88200"></trkpt>
      <trkpt lat="51.29837" lon="4.88228"></trkpt>
      <trkpt lat="51.29833" lon="4.88254"></trkpt>
      <trkpt lat="51.29825" lon="4.88278"></trkpt>
      <trkpt lat="51.29820" lon="4.88304"></trkpt>
      <trkpt lat="51.29816" lon="4.88329"></trkpt>
      <trkpt lat="51.29814" lon="4.88356"></trkpt>
      <trkpt lat="51.29816" lon="4.88382"></trkpt>
      <trkpt lat="51.29821" lon="4.88409"></trkpt>
      <trkpt lat="51.29826" lon="4.88437"></trkpt>
      <trkpt lat="51.29830" lon="4.88465"></trkpt>
      <trkpt lat="51.29832" lon="4.88493"></trkpt>
      <trkpt lat="51.29832" lon="4.88521"></trkpt>
      <trkpt lat="51.29832" lon="4.88548"></trkpt>
      <trkpt lat="51.29832" lon="4.88575"></trkpt>
      <trkpt lat="51.29832" lon="4.88602"></trkpt>
      <trkpt lat="51.29833" lon="4.88629"></trkpt>
      <trkpt lat="51.29833" lon="4.88656"></trkpt>
      <trkpt lat="51.29833" lon="4.88684"></trkpt>
      <trkpt lat="51.29832" lon="4.88711"></trkpt>
      <trkpt lat="51.29831" lon="4.88739"></trkpt>
      <trkpt lat="51.29830" lon="4.88766"></trkpt>
      <trkpt lat="51.29829" lon="4.88795"></trkpt>
      <trkpt lat="51.29821" lon="4.88815"></trkpt>
      <trkpt lat="51.29804" lon="4.88821"></trkpt>
      <trkpt lat="51.29787" lon="4.88832"></trkpt>
      <trkpt lat="51.29770" lon="4.88837"></trkpt>
      <trkpt lat="51.29754" lon="4.88843"></trkpt>
      <trkpt lat="51.29737" lon="4.88849"></trkpt>
      <trkpt lat="51.29720" lon="4.88854"></trkpt>
      <trkpt lat="51.29704" lon="4.88860"></trkpt>
      <trkpt lat="51.29690" lon="4.88864"></trkpt>
      <trkpt lat="51.29678" lon="4.88868"></trkpt>
      <trkpt lat="51.29667" lon="4.88873"></trkpt>
      <trkpt lat="51.29656" lon="4.88877"></trkpt>
      <trkpt lat="51.29645" lon="4.88880"></trkpt>
      <trkpt lat="51.29635" lon="4.88884"></trkpt>
      <trkpt lat="51.29624" lon="4.88888"></trkpt>
      <trkpt lat="51.29610" lon="4.88892"></trkpt>
      <trkpt lat="51.29593" lon="4.88898"></trkpt>
      <trkpt lat="51.29576" lon="4.88903"></trkpt>
      <trkpt lat="51.29559" lon="4.88909"></trkpt>
      <trkpt lat="51.29543" lon="4.88914"></trkpt>
      <trkpt lat="51.29525" lon="4.88912"></trkpt>
      <trkpt lat="51.29509" lon="4.88904"></trkpt>
      <trkpt lat="51.29499" lon="4.88881"></trkpt>
      <trkpt lat="51.29495" lon="4.88853"></trkpt>
      <trkpt lat="51.29493" lon="4.88826"></trkpt>
      <trkpt lat="51.29480" lon="4.88813"></trkpt>
      <trkpt lat="51.29466" lon="4.88806"></trkpt>
      <trkpt lat="51.29452" lon="4.88792"></trkpt>
      <trkpt lat="51.29438" lon="4.88775"></trkpt>
      <trkpt lat="51.29425" lon="4.88758"></trkpt>
      <trkpt lat="51.29410" lon="4.88743"></trkpt>
      <trkpt lat="51.29395" lon="4.88728"></trkpt>
      <trkpt lat="51.29382" lon="4.88710"></trkpt>
      <trkpt lat="51.29369" lon="4.88692"></trkpt>
      <trkpt lat="51.29355" lon="4.88676"></trkpt>
      <trkpt lat="51.29342" lon="4.88661"></trkpt>
      <trkpt lat="51.29328" lon="4.88644"></trkpt>
      <trkpt lat="51.29316" lon="4.88627"></trkpt>
      <trkpt lat="51.29302" lon="4.88610"></trkpt>
      <trkpt lat="51.29287" lon="4.88594"></trkpt>
      <trkpt lat="51.29273" lon="4.88580"></trkpt>
      <trkpt lat="51.29259" lon="4.88565"></trkpt>
      <trkpt lat="51.29247" lon="4.88550"></trkpt>
      <trkpt lat="51.29236" lon="4.88530"></trkpt>
      <trkpt lat="51.29241" lon="4.88507"></trkpt>
      <trkpt lat="51.29250" lon="4.88486"></trkpt>
      <trkpt lat="51.29260" lon="4.88466"></trkpt>
      <trkpt lat="51.29270" lon="4.88444"></trkpt>
      <trkpt lat="51.29280" lon="4.88425"></trkpt>
      <trkpt lat="51.29291" lon="4.88405"></trkpt>
      <trkpt lat="51.29303" lon="4.88389"></trkpt>
      <trkpt lat="51.29315" lon="4.88372"></trkpt>
      <trkpt lat="51.29319" lon="4.88349"></trkpt>
      <trkpt lat="51.29315" lon="4.88324"></trkpt>
      <trkpt lat="51.29315" lon="4.88297"></trkpt>
      <trkpt lat="51.29323" lon="4.88276"></trkpt>
      <trkpt lat="51.29336" lon="4.88263"></trkpt>
      <trkpt lat="51.29350" lon="4.88252"></trkpt>
      <trkpt lat="51.29362" lon="4.88235"></trkpt>
      <trkpt lat="51.29372" lon="4.88217"></trkpt>
      <trkpt lat="51.29373" lon="4.88189"></trkpt>
      <trkpt lat="51.29370" lon="4.88162"></trkpt>
      <trkpt lat="51.29361" lon="4.88138"></trkpt>
      <trkpt lat="51.29346" lon="4.88127"></trkpt>
      <trkpt lat="51.29331" lon="4.88120"></trkpt>
      <trkpt lat="51.29315" lon="4.88113"></trkpt>
      <trkpt lat="51.29299" lon="4.88109"></trkpt>
      <trkpt lat="51.29283" lon="4.88103"></trkpt>
      <trkpt lat="51.29266" lon="4.88100"></trkpt>
      <trkpt lat="51.29249" lon="4.88098"></trkpt>
      <trkpt lat="51.29235" lon="4.88090"></trkpt>
      <trkpt lat="51.29233" lon="4.88067"></trkpt>
      <trkpt lat="51.29242" lon="4.88045"></trkpt>
      <trkpt lat="51.29252" lon="4.88028"></trkpt>
      <trkpt lat="51.29265" lon="4.88008"></trkpt>
      <trkpt lat="51.29278" lon="4.87989"></trkpt>
      <trkpt lat="51.29289" lon="4.87969"></trkpt>
      <trkpt lat="51.29295" lon="4.87945"></trkpt>
      <trkpt lat="51.29300" lon="4.87918"></trkpt>
      <trkpt lat="51.29301" lon="4.87890"></trkpt>
      <trkpt lat="51.29299" lon="4.87862"></trkpt>
      <trkpt lat="51.29290" lon="4.87840"></trkpt>
      <trkpt lat="51.29278" lon="4.87822"></trkpt>
      <trkpt lat="51.29264" lon="4.87817"></trkpt>
      <trkpt lat="51.29248" lon="4.87817"></trkpt>
      <trkpt lat="51.29233" lon="4.87812"></trkpt>
      <trkpt lat="51.29218" lon="4.87809"></trkpt>
      <trkpt lat="51.29201" lon="4.87807"></trkpt>
      <trkpt lat="51.29184" lon="4.87804"></trkpt>
      <trkpt lat="51.29168" lon="4.87800"></trkpt>
      <trkpt lat="51.29152" lon="4.87799"></trkpt>
      <trkpt lat="51.29135" lon="4.87799"></trkpt>
      <trkpt lat="51.29117" lon="4.87795"></trkpt>
      <trkpt lat="51.29101" lon="4.87794"></trkpt>
      <trkpt lat="51.29084" lon="4.87794"></trkpt>
      <trkpt lat="51.29067" lon="4.87791"></trkpt>
      <trkpt lat="51.29050" lon="4.87787"></trkpt>
      <trkpt lat="51.29033" lon="4.87784"></trkpt>
      <trkpt lat="51.29018" lon="4.87778"></trkpt>
      <trkpt lat="51.29014" lon="4.87754"></trkpt>
      <trkpt lat="51.29014" lon="4.87728"></trkpt>
      <trkpt lat="51.29014" lon="4.87700"></trkpt>
      <trkpt lat="51.29014" lon="4.87673"></trkpt>
      <trkpt lat="51.29014" lon="4.87645"></trkpt>
      <trkpt lat="51.29015" lon="4.87617"></trkpt>
      <trkpt lat="51.29015" lon="4.87590"></trkpt>
      <trkpt lat="51.29015" lon="4.87562"></trkpt>
      <trkpt lat="51.29016" lon="4.87535"></trkpt>
      <trkpt lat="51.29016" lon="4.87508"></trkpt>
      <trkpt lat="51.29016" lon="4.87480"></trkpt>
      <trkpt lat="51.29016" lon="4.87453"></trkpt>
      <trkpt lat="51.29016" lon="4.87425"></trkpt>
      <trkpt lat="51.29016" lon="4.87399"></trkpt>
      <trkpt lat="51.29016" lon="4.87371"></trkpt>
      <trkpt lat="51.29016" lon="4.87344"></trkpt>
      <trkpt lat="51.29016" lon="4.87317"></trkpt>
      <trkpt lat="51.29016" lon="4.87288"></trkpt>
      <trkpt lat="51.29017" lon="4.87261"></trkpt>
      <trkpt lat="51.29019" lon="4.87236"></trkpt>
      <trkpt lat="51.29019" lon="4.87218"></trkpt>
      <trkpt lat="51.29018" lon="4.87194"></trkpt>
      <trkpt lat="51.29018" lon="4.87169"></trkpt>
      <trkpt lat="51.29018" lon="4.87142"></trkpt>
      <trkpt lat="51.29020" lon="4.87115"></trkpt>
      <trkpt lat="51.29021" lon="4.87088"></trkpt>
      <trkpt lat="51.29021" lon="4.87061"></trkpt>
      <trkpt lat="51.29020" lon="4.87034"></trkpt>
      <trkpt lat="51.29020" lon="4.87006"></trkpt>
      <trkpt lat="51.29019" lon="4.86982"></trkpt>
      <trkpt lat="51.29019" lon="4.86968"></trkpt>
      <trkpt lat="51.29018" lon="4.86953"></trkpt>
      <trkpt lat="51.29018" lon="4.86938"></trkpt>
      <trkpt lat="51.29019" lon="4.86924"></trkpt>
      <trkpt lat="51.29020" lon="4.86910"></trkpt>
      <trkpt lat="51.29021" lon="4.86894"></trkpt>
      <trkpt lat="51.29022" lon="4.86877"></trkpt>
      <trkpt lat="51.29022" lon="4.86862"></trkpt>
      <trkpt lat="51.29022" lon="4.86837"></trkpt>
      <trkpt lat="51.29021" lon="4.86809"></trkpt>
      <trkpt lat="51.29013" lon="4.86791"></trkpt>
      <trkpt lat="51.29002" lon="4.86787"></trkpt>
      <trkpt lat="51.28987" lon="4.86783"></trkpt>
      <trkpt lat="51.28970" lon="4.86778"></trkpt>
      <trkpt lat="51.28953" lon="4.86773"></trkpt>
      <trkpt lat="51.28936" lon="4.86771"></trkpt>
      <trkpt lat="51.28920" lon="4.86767"></trkpt>
      <trkpt lat="51.28903" lon="4.86761"></trkpt>
      <trkpt lat="51.28886" lon="4.86757"></trkpt>
      <trkpt lat="51.28868" lon="4.86755"></trkpt>
      <trkpt lat="51.28850" lon="4.86752"></trkpt>
      <trkpt lat="51.28834" lon="4.86748"></trkpt>
      <trkpt lat="51.28819" lon="4.86760"></trkpt>
      <trkpt lat="51.28805" lon="4.86774"></trkpt>
      <trkpt lat="51.28790" lon="4.86786"></trkpt>
      <trkpt lat="51.28775" lon="4.86793"></trkpt>
      <trkpt lat="51.28758" lon="4.86797"></trkpt>
      <trkpt lat="51.28743" lon="4.86809"></trkpt>
      <trkpt lat="51.28729" lon="4.86820"></trkpt>
      <trkpt lat="51.28712" lon="4.86825"></trkpt>
      <trkpt lat="51.28696" lon="4.86832"></trkpt>
      <trkpt lat="51.28679" lon="4.86835"></trkpt>
      <trkpt lat="51.28662" lon="4.86838"></trkpt>
      <trkpt lat="51.28645" lon="4.86840"></trkpt>
      <trkpt lat="51.28628" lon="4.86846"></trkpt>
      <trkpt lat="51.28611" lon="4.86852"></trkpt>
      <trkpt lat="51.28594" lon="4.86854"></trkpt>
      <trkpt lat="51.28582" lon="4.86854"></trkpt>
      <trkpt lat="51.28573" lon="4.86856"></trkpt>
      <trkpt lat="51.28563" lon="4.86860"></trkpt>
      <trkpt lat="51.28554" lon="4.86864"></trkpt>
      <trkpt lat="51.28546" lon="4.86868"></trkpt>
      <trkpt lat="51.28536" lon="4.86875"></trkpt>
      <trkpt lat="51.28528" lon="4.86884"></trkpt>
      <trkpt lat="51.28519" lon="4.86895"></trkpt>
      <trkpt lat="51.28509" lon="4.86903"></trkpt>
      <trkpt lat="51.28496" lon="4.86911"></trkpt>
      <trkpt lat="51.28480" lon="4.86917"></trkpt>
      <trkpt lat="51.28462" lon="4.86916"></trkpt>
      <trkpt lat="51.28446" lon="4.86903"></trkpt>
      <trkpt lat="51.28430" lon="4.86890"></trkpt>
      <trkpt lat="51.28414" lon="4.86887"></trkpt>
      <trkpt lat="51.28398" lon="4.86894"></trkpt>
      <trkpt lat="51.28383" lon="4.86905"></trkpt>
      <trkpt lat="51.28367" lon="4.86906"></trkpt>
      <trkpt lat="51.28356" lon="4.86887"></trkpt>
      <trkpt lat="51.28346" lon="4.86867"></trkpt>
      <trkpt lat="51.28336" lon="4.86849"></trkpt>
      <trkpt lat="51.28332" lon="4.86829"></trkpt>
      <trkpt lat="51.28341" lon="4.86807"></trkpt>
      <trkpt lat="51.28352" lon="4.86786"></trkpt>
      <trkpt lat="51.28362" lon="4.86764"></trkpt>
      <trkpt lat="51.28372" lon="4.86744"></trkpt>
      <trkpt lat="51.28383" lon="4.86723"></trkpt>
      <trkpt lat="51.28393" lon="4.86702"></trkpt>
      <trkpt lat="51.28401" lon="4.86681"></trkpt>
      <trkpt lat="51.28410" lon="4.86663"></trkpt>
      <trkpt lat="51.28419" lon="4.86644"></trkpt>
      <trkpt lat="51.28429" lon="4.86623"></trkpt>
      <trkpt lat="51.28435" lon="4.86608"></trkpt>
      <trkpt lat="51.28440" lon="4.86596"></trkpt>
      <trkpt lat="51.28450" lon="4.86574"></trkpt>
      <trkpt lat="51.28452" lon="4.86556"></trkpt>
      <trkpt lat="51.28445" lon="4.86536"></trkpt>
      <trkpt lat="51.28436" lon="4.86514"></trkpt>
      <trkpt lat="51.28429" lon="4.86498"></trkpt>
      <trkpt lat="51.28422" lon="4.86482"></trkpt>
      <trkpt lat="51.28415" lon="4.86461"></trkpt>
      <trkpt lat="51.28408" lon="4.86442"></trkpt>
      <trkpt lat="51.28403" lon="4.86421"></trkpt>
      <trkpt lat="51.28414" lon="4.86413"></trkpt>
      <trkpt lat="51.28430" lon="4.86416"></trkpt>
      <trkpt lat="51.28446" lon="4.86418"></trkpt>
      <trkpt lat="51.28463" lon="4.86415"></trkpt>
      <trkpt lat="51.28480" lon="4.86410"></trkpt>
      <trkpt lat="51.28496" lon="4.86398"></trkpt>
      <trkpt lat="51.28509" lon="4.86381"></trkpt>
      <trkpt lat="51.28520" lon="4.86359"></trkpt>
      <trkpt lat="51.28527" lon="4.86335"></trkpt>
      <trkpt lat="51.28532" lon="4.86308"></trkpt>
      <trkpt lat="51.28536" lon="4.86281"></trkpt>
      <trkpt lat="51.28539" lon="4.86254"></trkpt>
      <trkpt lat="51.28543" lon="4.86227"></trkpt>
      <trkpt lat="51.28548" lon="4.86200"></trkpt>
      <trkpt lat="51.28552" lon="4.86175"></trkpt>
      <trkpt lat="51.28556" lon="4.86150"></trkpt>
      <trkpt lat="51.28560" lon="4.86125"></trkpt>
      <trkpt lat="51.28563" lon="4.86101"></trkpt>
      <trkpt lat="51.28551" lon="4.86087"></trkpt>
      <trkpt lat="51.28535" lon="4.86078"></trkpt>
      <trkpt lat="51.28519" lon="4.86068"></trkpt>
      <trkpt lat="51.28505" lon="4.86053"></trkpt>
      <trkpt lat="51.28493" lon="4.86032"></trkpt>
      <trkpt lat="51.28483" lon="4.86009"></trkpt>
      <trkpt lat="51.28474" lon="4.85987"></trkpt>
      <trkpt lat="51.28464" lon="4.85966"></trkpt>
      <trkpt lat="51.28454" lon="4.85943"></trkpt>
      <trkpt lat="51.28444" lon="4.85921"></trkpt>
      <trkpt lat="51.28434" lon="4.85899"></trkpt>
      <trkpt lat="51.28424" lon="4.85877"></trkpt>
      <trkpt lat="51.28414" lon="4.85855"></trkpt>
      <trkpt lat="51.28404" lon="4.85833"></trkpt>
      <trkpt lat="51.28394" lon="4.85811"></trkpt>
      <trkpt lat="51.28383" lon="4.85789"></trkpt>
      <trkpt lat="51.28373" lon="4.85767"></trkpt>
      <trkpt lat="51.28358" lon="4.85759"></trkpt>
      <trkpt lat="51.28351" lon="4.85745"></trkpt>
      <trkpt lat="51.28362" lon="4.85729"></trkpt>
      <trkpt lat="51.28375" lon="4.85713"></trkpt>
      <trkpt lat="51.28386" lon="4.85693"></trkpt>
      <trkpt lat="51.28389" lon="4.85667"></trkpt>
      <trkpt lat="51.28400" lon="4.85650"></trkpt>
      <trkpt lat="51.28416" lon="4.85651"></trkpt>
      <trkpt lat="51.28432" lon="4.85653"></trkpt>
      <trkpt lat="51.28448" lon="4.85644"></trkpt>
      <trkpt lat="51.28464" lon="4.85634"></trkpt>
      <trkpt lat="51.28480" lon="4.85624"></trkpt>
      <trkpt lat="51.28496" lon="4.85612"></trkpt>
      <trkpt lat="51.28511" lon="4.85601"></trkpt>
      <trkpt lat="51.28528" lon="4.85590"></trkpt>
      <trkpt lat="51.28544" lon="4.85579"></trkpt>
      <trkpt lat="51.28560" lon="4.85570"></trkpt>
      <trkpt lat="51.28576" lon="4.85561"></trkpt>
      <trkpt lat="51.28593" lon="4.85553"></trkpt>
      <trkpt lat="51.28610" lon="4.85545"></trkpt>
      <trkpt lat="51.28627" lon="4.85538"></trkpt>
      <trkpt lat="51.28644" lon="4.85532"></trkpt>
      <trkpt lat="51.28661" lon="4.85527"></trkpt>
      <trkpt lat="51.28678" lon="4.85522"></trkpt>
      <trkpt lat="51.28696" lon="4.85518"></trkpt>
      <trkpt lat="51.28713" lon="4.85515"></trkpt>
      <trkpt lat="51.28730" lon="4.85513"></trkpt>
      <trkpt lat="51.28747" lon="4.85510"></trkpt>
      <trkpt lat="51.28764" lon="4.85507"></trkpt>
      <trkpt lat="51.28781" lon="4.85502"></trkpt>
      <trkpt lat="51.28796" lon="4.85491"></trkpt>
      <trkpt lat="51.28812" lon="4.85481"></trkpt>
      <trkpt lat="51.28828" lon="4.85490"></trkpt>
      <trkpt lat="51.28843" lon="4.85503"></trkpt>
      <trkpt lat="51.28859" lon="4.85515"></trkpt>
      <trkpt lat="51.28874" lon="4.85530"></trkpt>
      <trkpt lat="51.28889" lon="4.85547"></trkpt>
      <trkpt lat="51.28902" lon="4.85561"></trkpt>
      <trkpt lat="51.28915" lon="4.85545"></trkpt>
      <trkpt lat="51.28917" lon="4.85518"></trkpt>
      <trkpt lat="51.28907" lon="4.85491"></trkpt>
      <trkpt lat="51.28910" lon="4.85471"></trkpt>
      <trkpt lat="51.28935" lon="4.85467"></trkpt>
      <trkpt lat="51.28957" lon="4.85463"></trkpt>
      <trkpt lat="51.28976" lon="4.85458"></trkpt>
      <trkpt lat="51.28995" lon="4.85451"></trkpt>
      <trkpt lat="51.29013" lon="4.85442"></trkpt>
      <trkpt lat="51.29030" lon="4.85433"></trkpt>
      <trkpt lat="51.29046" lon="4.85423"></trkpt>
      <trkpt lat="51.29063" lon="4.85412"></trkpt>
      <trkpt lat="51.29079" lon="4.85401"></trkpt>
      <trkpt lat="51.29096" lon="4.85391"></trkpt>
      <trkpt lat="51.29112" lon="4.85383"></trkpt>
      <trkpt lat="51.29128" lon="4.85374"></trkpt>
      <trkpt lat="51.29145" lon="4.85364"></trkpt>
      <trkpt lat="51.29161" lon="4.85357"></trkpt>
      <trkpt lat="51.29177" lon="4.85346"></trkpt>
      <trkpt lat="51.29191" lon="4.85332"></trkpt>
      <trkpt lat="51.29205" lon="4.85322"></trkpt>
      <trkpt lat="51.29220" lon="4.85311"></trkpt>
      <trkpt lat="51.29235" lon="4.85298"></trkpt>
      <trkpt lat="51.29252" lon="4.85285"></trkpt>
      <trkpt lat="51.29268" lon="4.85270"></trkpt>
      <trkpt lat="51.29283" lon="4.85256"></trkpt>
      <trkpt lat="51.29296" lon="4.85244"></trkpt>
      <trkpt lat="51.29310" lon="4.85229"></trkpt>
      <trkpt lat="51.29325" lon="4.85215"></trkpt>
      <trkpt lat="51.29340" lon="4.85201"></trkpt>
      <trkpt lat="51.29355" lon="4.85188"></trkpt>
      <trkpt lat="51.29370" lon="4.85174"></trkpt>
      <trkpt lat="51.29385" lon="4.85159"></trkpt>
      <trkpt lat="51.29399" lon="4.85146"></trkpt>
      <trkpt lat="51.29415" lon="4.85133"></trkpt>
      <trkpt lat="51.29431" lon="4.85120"></trkpt>
      <trkpt lat="51.29446" lon="4.85105"></trkpt>
      <trkpt lat="51.29456" lon="4.85088"></trkpt>
      <trkpt lat="51.29461" lon="4.85080"></trkpt>
      <trkpt lat="51.29462" lon="4.85080"></trkpt>
      <trkpt lat="51.29462" lon="4.85080"></trkpt>
      <trkpt lat="51.29462" lon="4.85079"></trkpt>
      <trkpt lat="51.29462" lon="4.85079"></trkpt>
      <trkpt lat="51.29462" lon="4.85079"></trkpt>
      <trkpt lat="51.29462" lon="4.85079"></trkpt>
      <trkpt lat="51.29462" lon="4.85079"></trkpt>
      <trkpt lat="51.29462" lon="4.85079"></trkpt>
      <trkpt lat="51.29462" lon="4.85079"></trkpt>
      <trkpt lat="51.29462" lon="4.85079"></trkpt>
      <trkpt lat="51.29462" lon="4.85079"></trkpt>
      <trkpt lat="51.29462" lon="4.85079"></trkpt>
      <trkpt lat="51.29462" lon="4.85079"></trkpt>
      <trkpt lat="51.29462" lon="4.85079"></trkpt>
      <trkpt lat="51.29462" lon="4.85079"></trkpt>
      <trkpt lat="51.29462" lon="4.85079"></trkpt>
      <trkpt lat="51.29462" lon="4.85079"></trkpt>
      <trkpt lat="51.29462" lon="4.85078"></trkpt>
      <trkpt lat="51.29462" lon="4.85078"></trkpt>
      <trkpt lat="51.29462" lon="4.85078"></trkpt>
      <trkpt lat="51.29462" lon="4.85078"></trkpt>
      <trkpt lat="51.29462" lon="4.85078"></trkpt>
      <trkpt lat="51.29463" lon="4.85078"></trkpt>
      <trkpt lat="51.29463" lon="4.85078"></trkpt>
      <trkpt lat="51.29463" lon="4.85078"></trkpt>
      <trkpt lat="51.29463" lon="4.85078"></trkpt>
      <trkpt lat="51.29463" lon="4.85078"></trkpt>
      <trkpt lat="51.29463" lon="4.85078"></trkpt>
      <trkpt lat="51.29463" lon="4.85078"></trkpt>
      <trkpt lat="51.29463" lon="4.85078"></trkpt>
      <trkpt lat="51.29463" lon="4.85078"></trkpt>
      <trkpt lat="51.29463" lon="4.85078"></trkpt>
      <trkpt lat="51.29463" lon="4.85077"></trkpt>
      <trkpt lat="51.29463" lon="4.85077"></trkpt>
      <trkpt lat="51.29463" lon="4.85077"></trkpt>
      <trkpt lat="51.29463" lon="4.85077"></trkpt>
      <trkpt lat="51.29463" lon="4.85077"></trkpt>
      <trkpt lat="51.29463" lon="4.85077"></trkpt>
      <trkpt lat="51.29463" lon="4.85077"></trkpt>
      <trkpt lat="51.29463" lon="4.85077"></trkpt>
      <trkpt lat="51.29464" lon="4.85069"></trkpt>
      <trkpt lat="51.29460" lon="4.85053"></trkpt>
      <trkpt lat="51.29453" lon="4.85034"></trkpt>
      <trkpt lat="51.29446" lon="4.85012"></trkpt>
      <trkpt lat="51.29437" lon="4.84989"></trkpt>
      <trkpt lat="51.29428" lon="4.84966"></trkpt>
      <trkpt lat="51.29420" lon="4.84943"></trkpt>
      <trkpt lat="51.29411" lon="4.84918"></trkpt>
      <trkpt lat="51.29402" lon="4.84896"></trkpt>
      <trkpt lat="51.29392" lon="4.84874"></trkpt>
      <trkpt lat="51.29381" lon="4.84852"></trkpt>
      <trkpt lat="51.29372" lon="4.84830"></trkpt>
      <trkpt lat="51.29360" lon="4.84820"></trkpt>
      <trkpt lat="51.29345" lon="4.84832"></trkpt>
      <trkpt lat="51.29332" lon="4.84844"></trkpt>
      <trkpt lat="51.29319" lon="4.84859"></trkpt>
      <trkpt lat="51.29306" lon="4.84873"></trkpt>
      <trkpt lat="51.29292" lon="4.84888"></trkpt>
      <trkpt lat="51.29276" lon="4.84896"></trkpt>
      <trkpt lat="51.29262" lon="4.84880"></trkpt>
      <trkpt lat="51.29248" lon="4.84862"></trkpt>
      <trkpt lat="51.29235" lon="4.84842"></trkpt>
      <trkpt lat="51.29223" lon="4.84820"></trkpt>
      <trkpt lat="51.29210" lon="4.84800"></trkpt>
      <trkpt lat="51.29197" lon="4.84782"></trkpt>
      <trkpt lat="51.29185" lon="4.84762"></trkpt>
      <trkpt lat="51.29173" lon="4.84745"></trkpt>
      <trkpt lat="51.29160" lon="4.84725"></trkpt>
      <trkpt lat="51.29147" lon="4.84707"></trkpt>
      <trkpt lat="51.29135" lon="4.84688"></trkpt>
      <trkpt lat="51.29123" lon="4.84669"></trkpt>
      <trkpt lat="51.29112" lon="4.84649"></trkpt>
      <trkpt lat="51.29118" lon="4.84630"></trkpt>
      <trkpt lat="51.29131" lon="4.84613"></trkpt>
      <trkpt lat="51.29145" lon="4.84599"></trkpt>
      <trkpt lat="51.29157" lon="4.84581"></trkpt>
      <trkpt lat="51.29170" lon="4.84563"></trkpt>
      <trkpt lat="51.29184" lon="4.84547"></trkpt>
      <trkpt lat="51.29193" lon="4.84525"></trkpt>
      <trkpt lat="51.29187" lon="4.84504"></trkpt>
      <trkpt lat="51.29171" lon="4.84493"></trkpt>
      <trkpt lat="51.29158" lon="4.84475"></trkpt>
      <trkpt lat="51.29146" lon="4.84454"></trkpt>
      <trkpt lat="51.29135" lon="4.84434"></trkpt>
      <trkpt lat="51.29123" lon="4.84415"></trkpt>
      <trkpt lat="51.29109" lon="4.84399"></trkpt>
      <trkpt lat="51.29096" lon="4.84382"></trkpt>
      <trkpt lat="51.29086" lon="4.84359"></trkpt>
      <trkpt lat="51.29073" lon="4.84341"></trkpt>
      <trkpt lat="51.29060" lon="4.84324"></trkpt>
      <trkpt lat="51.29048" lon="4.84302"></trkpt>
      <trkpt lat="51.29036" lon="4.84281"></trkpt>
      <trkpt lat="51.29026" lon="4.84261"></trkpt>
      <trkpt lat="51.29015" lon="4.84242"></trkpt>
      <trkpt lat="51.29007" lon="4.84227"></trkpt>
      <trkpt lat="51.28997" lon="4.84218"></trkpt>
      <trkpt lat="51.28982" lon="4.84215"></trkpt>
      <trkpt lat="51.28966" lon="4.84210"></trkpt>
      <trkpt lat="51.28950" lon="4.84200"></trkpt>
      <trkpt lat="51.28936" lon="4.84187"></trkpt>
      <trkpt lat="51.28920" lon="4.84177"></trkpt>
      <trkpt lat="51.28909" lon="4.84167"></trkpt>
      <trkpt lat="51.28894" lon="4.84159"></trkpt>
      <trkpt lat="51.28883" lon="4.84155"></trkpt>
      <trkpt lat="51.28868" lon="4.84151"></trkpt>
      <trkpt lat="51.28853" lon="4.84140"></trkpt>
      <trkpt lat="51.28835" lon="4.84127"></trkpt>
      <trkpt lat="51.28818" lon="4.84114"></trkpt>
      <trkpt lat="51.28803" lon="4.84104"></trkpt>
      <trkpt lat="51.28788" lon="4.84094"></trkpt>
      <trkpt lat="51.28776" lon="4.84076"></trkpt>
      <trkpt lat="51.28764" lon="4.84057"></trkpt>
      <trkpt lat="51.28752" lon="4.84036"></trkpt>
      <trkpt lat="51.28742" lon="4.84012"></trkpt>
      <trkpt lat="51.28733" lon="4.83988"></trkpt>
      <trkpt lat="51.28730" lon="4.83964"></trkpt>
      <trkpt lat="51.28736" lon="4.83942"></trkpt>
      <trkpt lat="51.28749" lon="4.83925"></trkpt>
      <trkpt lat="51.28763" lon="4.83908"></trkpt>
      <trkpt lat="51.28776" lon="4.83889"></trkpt>
      <trkpt lat="51.28787" lon="4.83868"></trkpt>
      <trkpt lat="51.28797" lon="4.83848"></trkpt>
      <trkpt lat="51.28805" lon="4.83826"></trkpt>
      <trkpt lat="51.28801" lon="4.83809"></trkpt>
      <trkpt lat="51.28794" lon="4.83795"></trkpt>
      <trkpt lat="51.28779" lon="4.83782"></trkpt>
      <trkpt lat="51.28763" lon="4.83769"></trkpt>
      <trkpt lat="51.28747" lon="4.83757"></trkpt>
      <trkpt lat="51.28730" lon="4.83746"></trkpt>
      <trkpt lat="51.28714" lon="4.83736"></trkpt>
      <trkpt lat="51.28699" lon="4.83727"></trkpt>
      <trkpt lat="51.28683" lon="4.83717"></trkpt>
      <trkpt lat="51.28668" lon="4.83709"></trkpt>
      <trkpt lat="51.28654" lon="4.83703"></trkpt>
      <trkpt lat="51.28640" lon="4.83698"></trkpt>
      <trkpt lat="51.28625" lon="4.83693"></trkpt>
      <trkpt lat="51.28611" lon="4.83687"></trkpt>
      <trkpt lat="51.28597" lon="4.83682"></trkpt>
      <trkpt lat="51.28583" lon="4.83677"></trkpt>
      <trkpt lat="51.28568" lon="4.83671"></trkpt>
      <trkpt lat="51.28554" lon="4.83666"></trkpt>
      <trkpt lat="51.28540" lon="4.83661"></trkpt>
      <trkpt lat="51.28526" lon="4.83655"></trkpt>
      <trkpt lat="51.28511" lon="4.83650"></trkpt>
      <trkpt lat="51.28497" lon="4.83644"></trkpt>
      <trkpt lat="51.28483" lon="4.83639"></trkpt>
      <trkpt lat="51.28469" lon="4.83634"></trkpt>
      <trkpt lat="51.28454" lon="4.83628"></trkpt>
      <trkpt lat="51.28440" lon="4.83623"></trkpt>
      <trkpt lat="51.28426" lon="4.83618"></trkpt>
      <trkpt lat="51.28412" lon="4.83612"></trkpt>
      <trkpt lat="51.28397" lon="4.83607"></trkpt>
      <trkpt lat="51.28383" lon="4.83602"></trkpt>
      <trkpt lat="51.28369" lon="4.83596"></trkpt>
      <trkpt lat="51.28355" lon="4.83591"></trkpt>
      <trkpt lat="51.28340" lon="4.83585"></trkpt>
      <trkpt lat="51.28326" lon="4.83580"></trkpt>
      <trkpt lat="51.28312" lon="4.83575"></trkpt>
      <trkpt lat="51.28298" lon="4.83569"></trkpt>
      <trkpt lat="51.28283" lon="4.83564"></trkpt>
      <trkpt lat="51.28269" lon="4.83559"></trkpt>
      <trkpt lat="51.28255" lon="4.83553"></trkpt>
      <trkpt lat="51.28241" lon="4.83548"></trkpt>
      <trkpt lat="51.28226" lon="4.83543"></trkpt>
      <trkpt lat="51.28212" lon="4.83537"></trkpt>
      <trkpt lat="51.28198" lon="4.83532"></trkpt>
      <trkpt lat="51.28184" lon="4.83526"></trkpt>
      <trkpt lat="51.28169" lon="4.83521"></trkpt>
      <trkpt lat="51.28155" lon="4.83516"></trkpt>
      <trkpt lat="51.28141" lon="4.83510"></trkpt>
      <trkpt lat="51.28127" lon="4.83505"></trkpt>
      <trkpt lat="51.28112" lon="4.83500"></trkpt>
      <trkpt lat="51.28098" lon="4.83494"></trkpt>
      <trkpt lat="51.28084" lon="4.83489"></trkpt>
      <trkpt lat="51.28070" lon="4.83484"></trkpt>
      <trkpt lat="51.28055" lon="4.83478"></trkpt>
      <trkpt lat="51.28041" lon="4.83473"></trkpt>
      <trkpt lat="51.28027" lon="4.83467"></trkpt>
      <trkpt lat="51.28013" lon="4.83462"></trkpt>
      <trkpt lat="51.27998" lon="4.83457"></trkpt>
      <trkpt lat="51.27984" lon="4.83451"></trkpt>
      <trkpt lat="51.27970" lon="4.83446"></trkpt>
      <trkpt lat="51.27956" lon="4.83441"></trkpt>
      <trkpt lat="51.27941" lon="4.83435"></trkpt>
      <trkpt lat="51.27927" lon="4.83430"></trkpt>
      <trkpt lat="51.27913" lon="4.83425"></trkpt>
      <trkpt lat="51.27899" lon="4.83419"></trkpt>
      <trkpt lat="51.27884" lon="4.83414"></trkpt>
      <trkpt lat="51.27870" lon="4.83408"></trkpt>
      <trkpt lat="51.27856" lon="4.83403"></trkpt>
      <trkpt lat="51.27842" lon="4.83398"></trkpt>
      <trkpt lat="51.27827" lon="4.83392"></trkpt>
      <trkpt lat="51.27813" lon="4.83387"></trkpt>
      <trkpt lat="51.27799" lon="4.83382"></trkpt>
      <trkpt lat="51.27785" lon="4.83376"></trkpt>
      <trkpt lat="51.27770" lon="4.83371"></trkpt>
      <trkpt lat="51.27756" lon="4.83366"></trkpt>
      <trkpt lat="51.27742" lon="4.83360"></trkpt>
      <trkpt lat="51.27728" lon="4.83355"></trkpt>
      <trkpt lat="51.27713" lon="4.83349"></trkpt>
      <trkpt lat="51.27699" lon="4.83344"></trkpt>
      <trkpt lat="51.27685" lon="4.83339"></trkpt>
      <trkpt lat="51.27670" lon="4.83336"></trkpt>
      <trkpt lat="51.27646" lon="4.83352"></trkpt>
      <trkpt lat="51.27623" lon="4.83367"></trkpt>
      <trkpt lat="51.27605" lon="4.83375"></trkpt>
      <trkpt lat="51.27587" lon="4.83385"></trkpt>
      <trkpt lat="51.27568" lon="4.83389"></trkpt>
      <trkpt lat="51.27547" lon="4.83393"></trkpt>
      <trkpt lat="51.27529" lon="4.83395"></trkpt>
      <trkpt lat="51.27513" lon="4.83395"></trkpt>
      <trkpt lat="51.27496" lon="4.83397"></trkpt>
      <trkpt lat="51.27477" lon="4.83398"></trkpt>
      <trkpt lat="51.27461" lon="4.83396"></trkpt>
      <trkpt lat="51.27444" lon="4.83390"></trkpt>
      <trkpt lat="51.27429" lon="4.83384"></trkpt>
      <trkpt lat="51.27413" lon="4.83381"></trkpt>
      <trkpt lat="51.27399" lon="4.83373"></trkpt>
      <trkpt lat="51.27387" lon="4.83364"></trkpt>
      <trkpt lat="51.27375" lon="4.83353"></trkpt>
      <trkpt lat="51.27364" lon="4.83338"></trkpt>
      <trkpt lat="51.27355" lon="4.83322"></trkpt>
      <trkpt lat="51.27344" lon="4.83304"></trkpt>
      <trkpt lat="51.27334" lon="4.83286"></trkpt>
      <trkpt lat="51.27324" lon="4.83265"></trkpt>
      <trkpt lat="51.27322" lon="4.83240"></trkpt>
      <trkpt lat="51.27322" lon="4.83214"></trkpt>
      <trkpt lat="51.27322" lon="4.83188"></trkpt>
      <trkpt lat="51.27323" lon="4.83160"></trkpt>
      <trkpt lat="51.27324" lon="4.83134"></trkpt>
      <trkpt lat="51.27323" lon="4.83114"></trkpt>
      <trkpt lat="51.27326" lon="4.83097"></trkpt>
      <trkpt lat="51.27330" lon="4.83072"></trkpt>
      <trkpt lat="51.27334" lon="4.83047"></trkpt>
      <trkpt lat="51.27333" lon="4.83022"></trkpt>
      <trkpt lat="51.27334" lon="4.83002"></trkpt>
      <trkpt lat="51.27339" lon="4.82989"></trkpt>
      <trkpt lat="51.27346" lon="4.82976"></trkpt>
      <trkpt lat="51.27356" lon="4.82957"></trkpt>
      <trkpt lat="51.27369" lon="4.82943"></trkpt>
      <trkpt lat="51.27379" lon="4.82924"></trkpt>
      <trkpt lat="51.27385" lon="4.82900"></trkpt>
      <trkpt lat="51.27390" lon="4.82874"></trkpt>
      <trkpt lat="51.27395" lon="4.82850"></trkpt>
      <trkpt lat="51.27403" lon="4.82833"></trkpt>
      <trkpt lat="51.27411" lon="4.82811"></trkpt>
      <trkpt lat="51.27411" lon="4.82783"></trkpt>
      <trkpt lat="51.27403" lon="4.82759"></trkpt>
      <trkpt lat="51.27398" lon="4.82732"></trkpt>
      <trkpt lat="51.27390" lon="4.82708"></trkpt>
      <trkpt lat="51.27384" lon="4.82682"></trkpt>
      <trkpt lat="51.27380" lon="4.82654"></trkpt>
      <trkpt lat="51.27374" lon="4.82627"></trkpt>
      <trkpt lat="51.27368" lon="4.82602"></trkpt>
      <trkpt lat="51.27363" lon="4.82576"></trkpt>
      <trkpt lat="51.27359" lon="4.82551"></trkpt>
      <trkpt lat="51.27358" lon="4.82529"></trkpt>
      <trkpt lat="51.27372" lon="4.82513"></trkpt>
      <trkpt lat="51.27387" lon="4.82500"></trkpt>
      <trkpt lat="51.27402" lon="4.82487"></trkpt>
      <trkpt lat="51.27417" lon="4.82475"></trkpt>
      <trkpt lat="51.27433" lon="4.82462"></trkpt>
      <trkpt lat="51.27447" lon="4.82448"></trkpt>
      <trkpt lat="51.27460" lon="4.82433"></trkpt>
      <trkpt lat="51.27474" lon="4.82420"></trkpt>
      <trkpt lat="51.27489" lon="4.82406"></trkpt>
      <trkpt lat="51.27504" lon="4.82394"></trkpt>
      <trkpt lat="51.27519" lon="4.82380"></trkpt>
      <trkpt lat="51.27535" lon="4.82366"></trkpt>
      <trkpt lat="51.27550" lon="4.82353"></trkpt>
      <trkpt lat="51.27565" lon="4.82340"></trkpt>
      <trkpt lat="51.27579" lon="4.82328"></trkpt>
      <trkpt lat="51.27594" lon="4.82315"></trkpt>
      <trkpt lat="51.27609" lon="4.82299"></trkpt>
      <trkpt lat="51.27623" lon="4.82284"></trkpt>
      <trkpt lat="51.27637" lon="4.82269"></trkpt>
      <trkpt lat="51.27651" lon="4.82253"></trkpt>
      <trkpt lat="51.27664" lon="4.82241"></trkpt>
      <trkpt lat="51.27671" lon="4.82254"></trkpt>
      <trkpt lat="51.27678" lon="4.82274"></trkpt>
      <trkpt lat="51.27687" lon="4.82296"></trkpt>
      <trkpt lat="51.27696" lon="4.82320"></trkpt>
      <trkpt lat="51.27704" lon="4.82343"></trkpt>
      <trkpt lat="51.27713" lon="4.82366"></trkpt>
      <trkpt lat="51.27722" lon="4.82388"></trkpt>
      <trkpt lat="51.27731" lon="4.82411"></trkpt>
      <trkpt lat="51.27739" lon="4.82434"></trkpt>
      <trkpt lat="51.27746" lon="4.82457"></trkpt>
      <trkpt lat="51.27754" lon="4.82479"></trkpt>
      <trkpt lat="51.27762" lon="4.82501"></trkpt>
      <trkpt lat="51.27770" lon="4.82523"></trkpt>
      <trkpt lat="51.27779" lon="4.82544"></trkpt>
      <trkpt lat="51.27788" lon="4.82566"></trkpt>
      <trkpt lat="51.27797" lon="4.82589"></trkpt>
      <trkpt lat="51.27806" lon="4.82610"></trkpt>
      <trkpt lat="51.27814" lon="4.82632"></trkpt>
      <trkpt lat="51.27823" lon="4.82652"></trkpt>
      <trkpt lat="51.27838" lon="4.82657"></trkpt>
      <trkpt lat="51.27850" lon="4.82648"></trkpt>
      <trkpt lat="51.27862" lon="4.82638"></trkpt>
      <trkpt lat="51.27877" lon="4.82629"></trkpt>
      <trkpt lat="51.27891" lon="4.82623"></trkpt>
      <trkpt lat="51.27902" lon="4.82641"></trkpt>
      <trkpt lat="51.27909" lon="4.82664"></trkpt>
      <trkpt lat="51.27915" lon="4.82688"></trkpt>
      <trkpt lat="51.27921" lon="4.82711"></trkpt>
      <trkpt lat="51.27927" lon="4.82733"></trkpt>
      <trkpt lat="51.27933" lon="4.82756"></trkpt>
      <trkpt lat="51.27939" lon="4.82780"></trkpt>
      <trkpt lat="51.27945" lon="4.82804"></trkpt>
      <trkpt lat="51.27952" lon="4.82829"></trkpt>
      <trkpt lat="51.27960" lon="4.82851"></trkpt>
      <trkpt lat="51.27968" lon="4.82874"></trkpt>
      <trkpt lat="51.27977" lon="4.82896"></trkpt>
      <trkpt lat="51.27986" lon="4.82917"></trkpt>
      <trkpt lat="51.27988" lon="4.82940"></trkpt>
      <trkpt lat="51.27989" lon="4.82964"></trkpt>
      <trkpt lat="51.27995" lon="4.82987"></trkpt>
      <trkpt lat="51.28001" lon="4.83010"></trkpt>
      <trkpt lat="51.28012" lon="4.83021"></trkpt>
      <trkpt lat="51.28024" lon="4.83024"></trkpt>
      <trkpt lat="51.28029" lon="4.83047"></trkpt>
      <trkpt lat="51.28032" lon="4.83072"></trkpt>
      <trkpt lat="51.28037" lon="4.83097"></trkpt>
      <trkpt lat="51.28040" lon="4.83123"></trkpt>
      <trkpt lat="51.28043" lon="4.83150"></trkpt>
      <trkpt lat="51.28048" lon="4.83176"></trkpt>
      <trkpt lat="51.28051" lon="4.83202"></trkpt>
      <trkpt lat="51.28055" lon="4.83226"></trkpt>
      <trkpt lat="51.28065" lon="4.83235"></trkpt>
      <trkpt lat="51.28070" lon="4.83238"></trkpt>
      <trkpt lat="51.28077" lon="4.83242"></trkpt>
      <trkpt lat="51.28084" lon="4.83243"></trkpt>
      <trkpt lat="51.28098" lon="4.83245"></trkpt>
      <trkpt lat="51.28114" lon="4.83247"></trkpt>
      <trkpt lat="51.28131" lon="4.83251"></trkpt>
      <trkpt lat="51.28148" lon="4.83256"></trkpt>
      <trkpt lat="51.28166" lon="4.83261"></trkpt>
      <trkpt lat="51.28183" lon="4.83265"></trkpt>
      <trkpt lat="51.28199" lon="4.83269"></trkpt>
      <trkpt lat="51.28216" lon="4.83265"></trkpt>
      <trkpt lat="51.28231" lon="4.83268"></trkpt>
      <trkpt lat="51.28247" lon="4.83281"></trkpt>
      <trkpt lat="51.28260" lon="4.83302"></trkpt>
      <trkpt lat="51.28269" lon="4.83325"></trkpt>
      <trkpt lat="51.28280" lon="4.83348"></trkpt>
      <trkpt lat="51.28289" lon="4.83370"></trkpt>
      <trkpt lat="51.28299" lon="4.83392"></trkpt>
      <trkpt lat="51.28309" lon="4.83413"></trkpt>
      <trkpt lat="51.28321" lon="4.83434"></trkpt>
      <trkpt lat="51.28333" lon="4.83454"></trkpt>
      <trkpt lat="51.28343" lon="4.83475"></trkpt>
      <trkpt lat="51.28355" lon="4.83488"></trkpt>
      <trkpt lat="51.28368" lon="4.83504"></trkpt>
      <trkpt lat="51.28383" lon="4.83520"></trkpt>
      <trkpt lat="51.28396" lon="4.83539"></trkpt>
      <trkpt lat="51.28408" lon="4.83557"></trkpt>
      <trkpt lat="51.28422" lon="4.83571"></trkpt>
      <trkpt lat="51.28436" lon="4.83582"></trkpt>
      <trkpt lat="51.28451" lon="4.83585"></trkpt>
      <trkpt lat="51.28466" lon="4.83594"></trkpt>
      <trkpt lat="51.28481" lon="4.83603"></trkpt>
      <trkpt lat="51.28495" lon="4.83614"></trkpt>
      <trkpt lat="51.28510" lon="4.83623"></trkpt>
      <trkpt lat="51.28526" lon="4.83631"></trkpt>
      <trkpt lat="51.28542" lon="4.83642"></trkpt>
      <trkpt lat="51.28558" lon="4.83651"></trkpt>
      <trkpt lat="51.28573" lon="4.83662"></trkpt>
      <trkpt lat="51.28587" lon="4.83670"></trkpt>
      <trkpt lat="51.28602" lon="4.83678"></trkpt>
      <trkpt lat="51.28619" lon="4.83688"></trkpt>
      <trkpt lat="51.28635" lon="4.83699"></trkpt>
      <trkpt lat="51.28650" lon="4.83707"></trkpt>
      <trkpt lat="51.28666" lon="4.83717"></trkpt>
      <trkpt lat="51.28681" lon="4.83725"></trkpt>
      <trkpt lat="51.28696" lon="4.83735"></trkpt>
      <trkpt lat="51.28711" lon="4.83744"></trkpt>
      <trkpt lat="51.28726" lon="4.83754"></trkpt>
      <trkpt lat="51.28741" lon="4.83763"></trkpt>
      <trkpt lat="51.28756" lon="4.83773"></trkpt>
      <trkpt lat="51.28772" lon="4.83779"></trkpt>
      <trkpt lat="51.28787" lon="4.83787"></trkpt>
      <trkpt lat="51.28803" lon="4.83796"></trkpt>
      <trkpt lat="51.28811" lon="4.83814"></trkpt>
      <trkpt lat="51.28810" lon="4.83837"></trkpt>
      <trkpt lat="51.28800" lon="4.83855"></trkpt>
      <trkpt lat="51.28787" lon="4.83873"></trkpt>
      <trkpt lat="51.28775" lon="4.83892"></trkpt>
      <trkpt lat="51.28763" lon="4.83911"></trkpt>
      <trkpt lat="51.28749" lon="4.83927"></trkpt>
      <trkpt lat="51.28737" lon="4.83944"></trkpt>
      <trkpt lat="51.28728" lon="4.83964"></trkpt>
      <trkpt lat="51.28735" lon="4.83987"></trkpt>
      <trkpt lat="51.28744" lon="4.84009"></trkpt>
      <trkpt lat="51.28752" lon="4.84030"></trkpt>
      <trkpt lat="51.28763" lon="4.84050"></trkpt>
      <trkpt lat="51.28772" lon="4.84068"></trkpt>
      <trkpt lat="51.28784" lon="4.84085"></trkpt>
      <trkpt lat="51.28798" lon="4.84099"></trkpt>
      <trkpt lat="51.28812" lon="4.84107"></trkpt>
      <trkpt lat="51.28828" lon="4.84117"></trkpt>
      <trkpt lat="51.28843" lon="4.84130"></trkpt>
      <trkpt lat="51.28858" lon="4.84143"></trkpt>
      <trkpt lat="51.28874" lon="4.84150"></trkpt>
      <trkpt lat="51.28887" lon="4.84152"></trkpt>
      <trkpt lat="51.28897" lon="4.84157"></trkpt>
      <trkpt lat="51.28908" lon="4.84165"></trkpt>
      <trkpt lat="51.28917" lon="4.84175"></trkpt>
      <trkpt lat="51.28926" lon="4.84180"></trkpt>
      <trkpt lat="51.28927" lon="4.84180"></trkpt>
      <trkpt lat="51.28929" lon="4.84181"></trkpt>
      <trkpt lat="51.28940" lon="4.84187"></trkpt>
      <trkpt lat="51.28944" lon="4.84190"></trkpt>
      <trkpt lat="51.28944" lon="4.84190"></trkpt>
      <trkpt lat="51.28945" lon="4.84191"></trkpt>
      <trkpt lat="51.28948" lon="4.84197"></trkpt>
      <trkpt lat="51.28957" lon="4.84202"></trkpt>
    </trkseg>
  </trk>
</gpx>