<?xml version="1.0" encoding="UTF-8"?>
<gpx version="1.1" creator="jeffry.running" xmlns="http://www.topografix.com/GPX/1/1">
  <metadata><time>2026-08-02T06:53:17.372Z</time></metadata>
  <trk>
    <trkseg>
      <trkpt lat="51.29260" lon="4.84884"></trkpt>
      <trkpt lat="51.29257" lon="4.84875"></trkpt>
      <trkpt lat="51.29252" lon="4.84866"></trkpt>
      <trkpt lat="51.29246" lon="4.84856"></trkpt>
      <trkpt lat="51.29239" lon="4.84847"></trkpt>
      <trkpt lat="51.29233" lon="4.84838"></trkpt>
      <trkpt lat="51.29227" lon="4.84830"></trkpt>
      <trkpt lat="51.29222" lon="4.84822"></trkpt>
      <trkpt lat="51.29215" lon="4.84815"></trkpt>
      <trkpt lat="51.29210" lon="4.84805"></trkpt>
      <trkpt lat="51.29205" lon="4.84795"></trkpt>
      <trkpt lat="51.29199" lon="4.84785"></trkpt>
      <trkpt lat="51.29194" lon="4.84775"></trkpt>
      <trkpt lat="51.29188" lon="4.84766"></trkpt>
      <trkpt lat="51.29182" lon="4.84758"></trkpt>
      <trkpt lat="51.29177" lon="4.84749"></trkpt>
      <trkpt lat="51.29171" lon="4.84740"></trkpt>
      <trkpt lat="51.29164" lon="4.84732"></trkpt>
      <trkpt lat="51.29159" lon="4.84722"></trkpt>
      <trkpt lat="51.29153" lon="4.84712"></trkpt>
      <trkpt lat="51.29147" lon="4.84704"></trkpt>
      <trkpt lat="51.29142" lon="4.84697"></trkpt>
      <trkpt lat="51.29136" lon="4.84689"></trkpt>
      <trkpt lat="51.29131" lon="4.84680"></trkpt>
      <trkpt lat="51.29125" lon="4.84671"></trkpt>
      <trkpt lat="51.29119" lon="4.84663"></trkpt>
      <trkpt lat="51.29113" lon="4.84653"></trkpt>
      <trkpt lat="51.29113" lon="4.84641"></trkpt>
      <trkpt lat="51.29118" lon="4.84632"></trkpt>
      <trkpt lat="51.29124" lon="4.84623"></trkpt>
      <trkpt lat="51.29131" lon="4.84614"></trkpt>
      <trkpt lat="51.29137" lon="4.84606"></trkpt>
      <trkpt lat="51.29143" lon="4.84599"></trkpt>
      <trkpt lat="51.29149" lon="4.84591"></trkpt>
      <trkpt lat="51.29156" lon="4.84583"></trkpt>
      <trkpt lat="51.29162" lon="4.84574"></trkpt>
      <trkpt lat="51.29168" lon="4.84567"></trkpt>
      <trkpt lat="51.29175" lon="4.84559"></trkpt>
      <trkpt lat="51.29181" lon="4.84552"></trkpt>
      <trkpt lat="51.29188" lon="4.84545"></trkpt>
      <trkpt lat="51.29194" lon="4.84536"></trkpt>
      <trkpt lat="51.29200" lon="4.84529"></trkpt>
      <trkpt lat="51.29205" lon="4.84522"></trkpt>
      <trkpt lat="51.29211" lon="4.84513"></trkpt>
      <trkpt lat="51.29214" lon="4.84503"></trkpt>
      <trkpt lat="51.29211" lon="4.84493"></trkpt>
      <trkpt lat="51.29207" lon="4.84484"></trkpt>
      <trkpt lat="51.29202" lon="4.84475"></trkpt>
      <trkpt lat="51.29197" lon="4.84464"></trkpt>
      <trkpt lat="51.29192" lon="4.84455"></trkpt>
      <trkpt lat="51.29187" lon="4.84445"></trkpt>
      <trkpt lat="51.29182" lon="4.84435"></trkpt>
      <trkpt lat="51.29176" lon="4.84425"></trkpt>
      <trkpt lat="51.29172" lon="4.84415"></trkpt>
      <trkpt lat="51.29167" lon="4.84405"></trkpt>
      <trkpt lat="51.29162" lon="4.84395"></trkpt>
      <trkpt lat="51.29157" lon="4.84384"></trkpt>
      <trkpt lat="51.29153" lon="4.84373"></trkpt>
      <trkpt lat="51.29147" lon="4.84362"></trkpt>
      <trkpt lat="51.29142" lon="4.84350"></trkpt>
      <trkpt lat="51.29137" lon="4.84339"></trkpt>
      <trkpt lat="51.29132" lon="4.84329"></trkpt>
      <trkpt lat="51.29127" lon="4.84319"></trkpt>
      <trkpt lat="51.29122" lon="4.84309"></trkpt>
      <trkpt lat="51.29117" lon="4.84298"></trkpt>
      <trkpt lat="51.29112" lon="4.84287"></trkpt>
      <trkpt lat="51.29107" lon="4.84276"></trkpt>
      <trkpt lat="51.29101" lon="4.84266"></trkpt>
      <trkpt lat="51.29096" lon="4.84255"></trkpt>
      <trkpt lat="51.29091" lon="4.84245"></trkpt>
      <trkpt lat="51.29087" lon="4.84235"></trkpt>
      <trkpt lat="51.29081" lon="4.84225"></trkpt>
      <trkpt lat="51.29076" lon="4.84215"></trkpt>
      <trkpt lat="51.29071" lon="4.84205"></trkpt>
      <trkpt lat="51.29065" lon="4.84195"></trkpt>
      <trkpt lat="51.29060" lon="4.84185"></trkpt>
      <trkpt lat="51.29055" lon="4.84175"></trkpt>
      <trkpt lat="51.29050" lon="4.84164"></trkpt>
      <trkpt lat="51.29045" lon="4.84153"></trkpt>
      <trkpt lat="51.29040" lon="4.84143"></trkpt>
      <trkpt lat="51.29035" lon="4.84134"></trkpt>
      <trkpt lat="51.29030" lon="4.84124"></trkpt>
      <trkpt lat="51.29026" lon="4.84114"></trkpt>
      <trkpt lat="51.29021" lon="4.84104"></trkpt>
      <trkpt lat="51.29016" lon="4.84094"></trkpt>
      <trkpt lat="51.29012" lon="4.84083"></trkpt>
      <trkpt lat="51.29007" lon="4.84072"></trkpt>
      <trkpt lat="51.29001" lon="4.84063"></trkpt>
      <trkpt lat="51.28997" lon="4.84054"></trkpt>
      <trkpt lat="51.28990" lon="4.84052"></trkpt>
      <trkpt lat="51.28982" lon="4.84060"></trkpt>
      <trkpt lat="51.28975" lon="4.84067"></trkpt>
      <trkpt lat="51.28968" lon="4.84075"></trkpt>
      <trkpt lat="51.28962" lon="4.84084"></trkpt>
      <trkpt lat="51.28955" lon="4.84091"></trkpt>
      <trkpt lat="51.28948" lon="4.84096"></trkpt>
      <trkpt lat="51.28942" lon="4.84104"></trkpt>
      <trkpt lat="51.28936" lon="4.84112"></trkpt>
      <trkpt lat="51.28930" lon="4.84121"></trkpt>
      <trkpt lat="51.28924" lon="4.84128"></trkpt>
      <trkpt lat="51.28916" lon="4.84136"></trkpt>
      <trkpt lat="51.28909" lon="4.84144"></trkpt>
      <trkpt lat="51.28903" lon="4.84152"></trkpt>
      <trkpt lat="51.28895" lon="4.84158"></trkpt>
      <trkpt lat="51.28889" lon="4.84155"></trkpt>
      <trkpt lat="51.28884" lon="4.84153"></trkpt>
      <trkpt lat="51.28877" lon="4.84153"></trkpt>
      <trkpt lat="51.28869" lon="4.84150"></trkpt>
      <trkpt lat="51.28861" lon="4.84147"></trkpt>
      <trkpt lat="51.28854" lon="4.84140"></trkpt>
      <trkpt lat="51.28847" lon="4.84134"></trkpt>
      <trkpt lat="51.28841" lon="4.84127"></trkpt>
      <trkpt lat="51.28834" lon="4.84120"></trkpt>
      <trkpt lat="51.28827" lon="4.84114"></trkpt>
      <trkpt lat="51.28819" lon="4.84109"></trkpt>
      <trkpt lat="51.28812" lon="4.84104"></trkpt>
      <trkpt lat="51.28805" lon="4.84100"></trkpt>
      <trkpt lat="51.28797" lon="4.84095"></trkpt>
      <trkpt lat="51.28791" lon="4.84088"></trkpt>
      <trkpt lat="51.28784" lon="4.84081"></trkpt>
      <trkpt lat="51.28778" lon="4.84074"></trkpt>
      <trkpt lat="51.28771" lon="4.84065"></trkpt>
      <trkpt lat="51.28765" lon="4.84057"></trkpt>
      <trkpt lat="51.28760" lon="4.84048"></trkpt>
      <trkpt lat="51.28755" lon="4.84039"></trkpt>
      <trkpt lat="51.28749" lon="4.84028"></trkpt>
      <trkpt lat="51.28746" lon="4.84017"></trkpt>
      <trkpt lat="51.28741" lon="4.84006"></trkpt>
      <trkpt lat="51.28736" lon="4.83994"></trkpt>
      <trkpt lat="51.28731" lon="4.83984"></trkpt>
      <trkpt lat="51.28727" lon="4.83974"></trkpt>
      <trkpt lat="51.28725" lon="4.83962"></trkpt>
      <trkpt lat="51.28730" lon="4.83952"></trkpt>
      <trkpt lat="51.28736" lon="4.83944"></trkpt>
      <trkpt lat="51.28743" lon="4.83936"></trkpt>
      <trkpt lat="51.28749" lon="4.83926"></trkpt>
      <trkpt lat="51.28756" lon="4.83918"></trkpt>
      <trkpt lat="51.28763" lon="4.83912"></trkpt>
      <trkpt lat="51.28769" lon="4.83904"></trkpt>
      <trkpt lat="51.28774" lon="4.83894"></trkpt>
      <trkpt lat="51.28780" lon="4.83884"></trkpt>
      <trkpt lat="51.28786" lon="4.83875"></trkpt>
      <trkpt lat="51.28792" lon="4.83867"></trkpt>
      <trkpt lat="51.28798" lon="4.83858"></trkpt>
      <trkpt lat="51.28804" lon="4.83849"></trkpt>
      <trkpt lat="51.28810" lon="4.83839"></trkpt>
      <trkpt lat="51.28811" lon="4.83826"></trkpt>
      <trkpt lat="51.28812" lon="4.83814"></trkpt>
      <trkpt lat="51.28810" lon="4.83803"></trkpt>
      <trkpt lat="51.28804" lon="4.83795"></trkpt>
      <trkpt lat="51.28796" lon="4.83789"></trkpt>
      <trkpt lat="51.28788" lon="4.83786"></trkpt>
      <trkpt lat="51.28780" lon="4.83782"></trkpt>
      <trkpt lat="51.28771" lon="4.83777"></trkpt>
      <trkpt lat="51.28763" lon="4.83772"></trkpt>
      <trkpt lat="51.28755" lon="4.83768"></trkpt>
      <trkpt lat="51.28747" lon="4.83764"></trkpt>
      <trkpt lat="51.28739" lon="4.83760"></trkpt>
      <trkpt lat="51.28731" lon="4.83755"></trkpt>
      <trkpt lat="51.28724" lon="4.83751"></trkpt>
      <trkpt lat="51.28717" lon="4.83745"></trkpt>
      <trkpt lat="51.28709" lon="4.83740"></trkpt>
      <trkpt lat="51.28701" lon="4.83736"></trkpt>
      <trkpt lat="51.28693" lon="4.83732"></trkpt>
      <trkpt lat="51.28685" lon="4.83727"></trkpt>
      <trkpt lat="51.28678" lon="4.83722"></trkpt>
      <trkpt lat="51.28670" lon="4.83718"></trkpt>
      <trkpt lat="51.28662" lon="4.83713"></trkpt>
      <trkpt lat="51.28655" lon="4.83709"></trkpt>
      <trkpt lat="51.28647" lon="4.83704"></trkpt>
      <trkpt lat="51.28640" lon="4.83700"></trkpt>
      <trkpt lat="51.28632" lon="4.83697"></trkpt>
      <trkpt lat="51.28624" lon="4.83692"></trkpt>
      <trkpt lat="51.28617" lon="4.83687"></trkpt>
      <trkpt lat="51.28610" lon="4.83681"></trkpt>
      <trkpt lat="51.28602" lon="4.83677"></trkpt>
      <trkpt lat="51.28594" lon="4.83673"></trkpt>
      <trkpt lat="51.28587" lon="4.83669"></trkpt>
      <trkpt lat="51.28579" lon="4.83665"></trkpt>
      <trkpt lat="51.28571" lon="4.83660"></trkpt>
      <trkpt lat="51.28563" lon="4.83655"></trkpt>
      <trkpt lat="51.28556" lon="4.83651"></trkpt>
      <trkpt lat="51.28548" lon="4.83646"></trkpt>
      <trkpt lat="51.28541" lon="4.83642"></trkpt>
      <trkpt lat="51.28533" lon="4.83637"></trkpt>
      <trkpt lat="51.28525" lon="4.83633"></trkpt>
      <trkpt lat="51.28517" lon="4.83630"></trkpt>
      <trkpt lat="51.28509" lon="4.83626"></trkpt>
      <trkpt lat="51.28502" lon="4.83621"></trkpt>
      <trkpt lat="51.28494" lon="4.83615"></trkpt>
      <trkpt lat="51.28486" lon="4.83611"></trkpt>
      <trkpt lat="51.28479" lon="4.83606"></trkpt>
      <trkpt lat="51.28472" lon="4.83601"></trkpt>
      <trkpt lat="51.28465" lon="4.83596"></trkpt>
      <trkpt lat="51.28457" lon="4.83592"></trkpt>
      <trkpt lat="51.28449" lon="4.83588"></trkpt>
      <trkpt lat="51.28441" lon="4.83585"></trkpt>
      <trkpt lat="51.28433" lon="4.83585"></trkpt>
      <trkpt lat="51.28425" lon="4.83582"></trkpt>
      <trkpt lat="51.28418" lon="4.83573"></trkpt>
      <trkpt lat="51.28410" lon="4.83567"></trkpt>
      <trkpt lat="51.28403" lon="4.83560"></trkpt>
      <trkpt lat="51.28397" lon="4.83553"></trkpt>
      <trkpt lat="51.28391" lon="4.83544"></trkpt>
      <trkpt lat="51.28385" lon="4.83536"></trkpt>
      <trkpt lat="51.28378" lon="4.83528"></trkpt>
      <trkpt lat="51.28371" lon="4.83519"></trkpt>
      <trkpt lat="51.28365" lon="4.83510"></trkpt>
      <trkpt lat="51.28359" lon="4.83499"></trkpt>
      <trkpt lat="51.28352" lon="4.83490"></trkpt>
      <trkpt lat="51.28346" lon="4.83482"></trkpt>
      <trkpt lat="51.28338" lon="4.83477"></trkpt>
      <trkpt lat="51.28330" lon="4.83471"></trkpt>
      <trkpt lat="51.28323" lon="4.83463"></trkpt>
      <trkpt lat="51.28318" lon="4.83454"></trkpt>
      <trkpt lat="51.28313" lon="4.83444"></trkpt>
      <trkpt lat="51.28308" lon="4.83434"></trkpt>
      <trkpt lat="51.28303" lon="4.83423"></trkpt>
      <trkpt lat="51.28298" lon="4.83413"></trkpt>
      <trkpt lat="51.28293" lon="4.83402"></trkpt>
      <trkpt lat="51.28290" lon="4.83392"></trkpt>
      <trkpt lat="51.28285" lon="4.83383"></trkpt>
      <trkpt lat="51.28281" lon="4.83372"></trkpt>
      <trkpt lat="51.28276" lon="4.83361"></trkpt>
      <trkpt lat="51.28271" lon="4.83350"></trkpt>
      <trkpt lat="51.28266" lon="4.83339"></trkpt>
      <trkpt lat="51.28262" lon="4.83327"></trkpt>
      <trkpt lat="51.28257" lon="4.83316"></trkpt>
      <trkpt lat="51.28254" lon="4.83306"></trkpt>
      <trkpt lat="51.28249" lon="4.83295"></trkpt>
      <trkpt lat="51.28244" lon="4.83285"></trkpt>
      <trkpt lat="51.28237" lon="4.83281"></trkpt>
      <trkpt lat="51.28232" lon="4.83286"></trkpt>
      <trkpt lat="51.28228" lon="4.83296"></trkpt>
      <trkpt lat="51.28223" lon="4.83306"></trkpt>
      <trkpt lat="51.28217" lon="4.83313"></trkpt>
      <trkpt lat="51.28210" lon="4.83321"></trkpt>
      <trkpt lat="51.28204" lon="4.83326"></trkpt>
      <trkpt lat="51.28197" lon="4.83330"></trkpt>
      <trkpt lat="51.28190" lon="4.83334"></trkpt>
      <trkpt lat="51.28184" lon="4.83341"></trkpt>
      <trkpt lat="51.28177" lon="4.83346"></trkpt>
      <trkpt lat="51.28171" lon="4.83351"></trkpt>
      <trkpt lat="51.28164" lon="4.83357"></trkpt>
      <trkpt lat="51.28157" lon="4.83364"></trkpt>
      <trkpt lat="51.28151" lon="4.83370"></trkpt>
      <trkpt lat="51.28144" lon="4.83376"></trkpt>
      <trkpt lat="51.28138" lon="4.83379"></trkpt>
      <trkpt lat="51.28133" lon="4.83386"></trkpt>
      <trkpt lat="51.28127" lon="4.83394"></trkpt>
      <trkpt lat="51.28123" lon="4.83405"></trkpt>
      <trkpt lat="51.28119" lon="4.83415"></trkpt>
      <trkpt lat="51.28116" lon="4.83424"></trkpt>
      <trkpt lat="51.28113" lon="4.83434"></trkpt>
      <trkpt lat="51.28114" lon="4.83443"></trkpt>
      <trkpt lat="51.28113" lon="4.83453"></trkpt>
      <trkpt lat="51.28109" lon="4.83464"></trkpt>
      <trkpt lat="51.28103" lon="4.83473"></trkpt>
      <trkpt lat="51.28098" lon="4.83482"></trkpt>
      <trkpt lat="51.28096" lon="4.83489"></trkpt>
      <trkpt lat="51.28095" lon="4.83498"></trkpt>
      <trkpt lat="51.28094" lon="4.83507"></trkpt>
      <trkpt lat="51.28092" lon="4.83514"></trkpt>
      <trkpt lat="51.28088" lon="4.83521"></trkpt>
      <trkpt lat="51.28086" lon="4.83527"></trkpt>
      <trkpt lat="51.28084" lon="4.83535"></trkpt>
      <trkpt lat="51.28079" lon="4.83545"></trkpt>
      <trkpt lat="51.28072" lon="4.83554"></trkpt>
      <trkpt lat="51.28065" lon="4.83561"></trkpt>
      <trkpt lat="51.28058" lon="4.83567"></trkpt>
      <trkpt lat="51.28050" lon="4.83574"></trkpt>
      <trkpt lat="51.28044" lon="4.83581"></trkpt>
      <trkpt lat="51.28038" lon="4.83585"></trkpt>
      <trkpt lat="51.28032" lon="4.83587"></trkpt>
      <trkpt lat="51.28025" lon="4.83579"></trkpt>
      <trkpt lat="51.28020" lon="4.83571"></trkpt>
      <trkpt lat="51.28015" lon="4.83563"></trkpt>
      <trkpt lat="51.28010" lon="4.83552"></trkpt>
      <trkpt lat="51.28005" lon="4.83544"></trkpt>
      <trkpt lat="51.27998" lon="4.83545"></trkpt>
      <trkpt lat="51.27991" lon="4.83549"></trkpt>
      <trkpt lat="51.27983" lon="4.83553"></trkpt>
      <trkpt lat="51.27976" lon="4.83558"></trkpt>
      <trkpt lat="51.27969" lon="4.83563"></trkpt>
      <trkpt lat="51.27961" lon="4.83569"></trkpt>
      <trkpt lat="51.27954" lon="4.83572"></trkpt>
      <trkpt lat="51.27946" lon="4.83575"></trkpt>
      <trkpt lat="51.27939" lon="4.83574"></trkpt>
      <trkpt lat="51.27931" lon="4.83573"></trkpt>
      <trkpt lat="51.27924" lon="4.83576"></trkpt>
      <trkpt lat="51.27920" lon="4.83581"></trkpt>
      <trkpt lat="51.27917" lon="4.83586"></trkpt>
      <trkpt lat="51.27917" lon="4.83591"></trkpt>
      <trkpt lat="51.27916" lon="4.83596"></trkpt>
      <trkpt lat="51.27916" lon="4.83605"></trkpt>
      <trkpt lat="51.27914" lon="4.83613"></trkpt>
      <trkpt lat="51.27907" lon="4.83613"></trkpt>
      <trkpt lat="51.27900" lon="4.83609"></trkpt>
      <trkpt lat="51.27893" lon="4.83606"></trkpt>
      <trkpt lat="51.27891" lon="4.83605"></trkpt>
      <trkpt lat="51.27890" lon="4.83606"></trkpt>
      <trkpt lat="51.27890" lon="4.83606"></trkpt>
      <trkpt lat="51.27890" lon="4.83605"></trkpt>
      <trkpt lat="51.27890" lon="4.83604"></trkpt>
      <trkpt lat="51.27890" lon="4.83604"></trkpt>
      <trkpt lat="51.27890" lon="4.83603"></trkpt>
      <trkpt lat="51.27890" lon="4.83602"></trkpt>
      <trkpt lat="51.27887" lon="4.83598"></trkpt>
      <trkpt lat="51.27883" lon="4.83594"></trkpt>
      <trkpt lat="51.27880" lon="4.83590"></trkpt>
      <trkpt lat="51.27876" lon="4.83588"></trkpt>
      <trkpt lat="51.27872" lon="4.83587"></trkpt>
      <trkpt lat="51.27866" lon="4.83583"></trkpt>
      <trkpt lat="51.27861" lon="4.83577"></trkpt>
      <trkpt lat="51.27854" lon="4.83574"></trkpt>
      <trkpt lat="51.27849" lon="4.83575"></trkpt>
      <trkpt lat="51.27845" lon="4.83577"></trkpt>
      <trkpt lat="51.27842" lon="4.83578"></trkpt>
      <trkpt lat="51.27838" lon="4.83578"></trkpt>
      <trkpt lat="51.27832" lon="4.83579"></trkpt>
      <trkpt lat="51.27826" lon="4.83579"></trkpt>
      <trkpt lat="51.27819" lon="4.83581"></trkpt>
      <trkpt lat="51.27813" lon="4.83580"></trkpt>
      <trkpt lat="51.27808" lon="4.83574"></trkpt>
      <trkpt lat="51.27801" lon="4.83569"></trkpt>
      <trkpt lat="51.27792" lon="4.83565"></trkpt>
      <trkpt lat="51.27791" lon="4.83563"></trkpt>
      <trkpt lat="51.27791" lon="4.83562"></trkpt>
      <trkpt lat="51.27791" lon="4.83561"></trkpt>
      <trkpt lat="51.27791" lon="4.83561"></trkpt>
      <trkpt lat="51.27790" lon="4.83558"></trkpt>
      <trkpt lat="51.27787" lon="4.83554"></trkpt>
      <trkpt lat="51.27783" lon="4.83542"></trkpt>
      <trkpt lat="51.27779" lon="4.83531"></trkpt>
      <trkpt lat="51.27776" lon="4.83520"></trkpt>
      <trkpt lat="51.27777" lon="4.83508"></trkpt>
      <trkpt lat="51.27777" lon="4.83495"></trkpt>
      <trkpt lat="51.27777" lon="4.83482"></trkpt>
      <trkpt lat="51.27774" lon="4.83469"></trkpt>
      <trkpt lat="51.27770" lon="4.83460"></trkpt>
      <trkpt lat="51.27765" lon="4.83451"></trkpt>
      <trkpt lat="51.27763" lon="4.83439"></trkpt>
      <trkpt lat="51.27758" lon="4.83435"></trkpt>
      <trkpt lat="51.27750" lon="4.83437"></trkpt>
      <trkpt lat="51.27742" lon="4.83440"></trkpt>
      <trkpt lat="51.27735" lon="4.83444"></trkpt>
      <trkpt lat="51.27728" lon="4.83448"></trkpt>
      <trkpt lat="51.27721" lon="4.83451"></trkpt>
      <trkpt lat="51.27714" lon="4.83453"></trkpt>
      <trkpt lat="51.27707" lon="4.83453"></trkpt>
      <trkpt lat="51.27699" lon="4.83454"></trkpt>
      <trkpt lat="51.27692" lon="4.83454"></trkpt>
      <trkpt lat="51.27685" lon="4.83454"></trkpt>
      <trkpt lat="51.27677" lon="4.83453"></trkpt>
      <trkpt lat="51.27669" lon="4.83454"></trkpt>
      <trkpt lat="51.27661" lon="4.83458"></trkpt>
      <trkpt lat="51.27654" lon="4.83462"></trkpt>
      <trkpt lat="51.27646" lon="4.83464"></trkpt>
      <trkpt lat="51.27638" lon="4.83465"></trkpt>
      <trkpt lat="51.27630" lon="4.83466"></trkpt>
      <trkpt lat="51.27623" lon="4.83467"></trkpt>
      <trkpt lat="51.27616" lon="4.83469"></trkpt>
      <trkpt lat="51.27608" lon="4.83472"></trkpt>
      <trkpt lat="51.27600" lon="4.83475"></trkpt>
      <trkpt lat="51.27593" lon="4.83475"></trkpt>
      <trkpt lat="51.27584" lon="4.83478"></trkpt>
      <trkpt lat="51.27576" lon="4.83479"></trkpt>
      <trkpt lat="51.27569" lon="4.83476"></trkpt>
      <trkpt lat="51.27565" lon="4.83466"></trkpt>
      <trkpt lat="51.27565" lon="4.83452"></trkpt>
      <trkpt lat="51.27564" lon="4.83437"></trkpt>
      <trkpt lat="51.27562" lon="4.83425"></trkpt>
      <trkpt lat="51.27559" lon="4.83413"></trkpt>
      <trkpt lat="51.27553" lon="4.83405"></trkpt>
      <trkpt lat="51.27545" lon="4.83403"></trkpt>
      <trkpt lat="51.27537" lon="4.83402"></trkpt>
      <trkpt lat="51.27529" lon="4.83401"></trkpt>
      <trkpt lat="51.27521" lon="4.83400"></trkpt>
      <trkpt lat="51.27513" lon="4.83399"></trkpt>
      <trkpt lat="51.27505" lon="4.83398"></trkpt>
      <trkpt lat="51.27497" lon="4.83399"></trkpt>
      <trkpt lat="51.27489" lon="4.83400"></trkpt>
      <trkpt lat="51.27481" lon="4.83401"></trkpt>
      <trkpt lat="51.27473" lon="4.83401"></trkpt>
      <trkpt lat="51.27464" lon="4.83400"></trkpt>
      <trkpt lat="51.27456" lon="4.83399"></trkpt>
      <trkpt lat="51.27447" lon="4.83397"></trkpt>
      <trkpt lat="51.27440" lon="4.83394"></trkpt>
      <trkpt lat="51.27434" lon="4.83390"></trkpt>
      <trkpt lat="51.27426" lon="4.83385"></trkpt>
      <trkpt lat="51.27419" lon="4.83380"></trkpt>
      <trkpt lat="51.27411" lon="4.83378"></trkpt>
      <trkpt lat="51.27404" lon="4.83375"></trkpt>
      <trkpt lat="51.27396" lon="4.83372"></trkpt>
      <trkpt lat="51.27387" lon="4.83367"></trkpt>
      <trkpt lat="51.27380" lon="4.83361"></trkpt>
      <trkpt lat="51.27373" lon="4.83353"></trkpt>
      <trkpt lat="51.27366" lon="4.83345"></trkpt>
      <trkpt lat="51.27360" lon="4.83335"></trkpt>
      <trkpt lat="51.27354" lon="4.83325"></trkpt>
      <trkpt lat="51.27348" lon="4.83315"></trkpt>
      <trkpt lat="51.27342" lon="4.83305"></trkpt>
      <trkpt lat="51.27336" lon="4.83295"></trkpt>
      <trkpt lat="51.27331" lon="4.83285"></trkpt>
      <trkpt lat="51.27326" lon="4.83275"></trkpt>
      <trkpt lat="51.27321" lon="4.83266"></trkpt>
      <trkpt lat="51.27319" lon="4.83254"></trkpt>
      <trkpt lat="51.27319" lon="4.83242"></trkpt>
      <trkpt lat="51.27319" lon="4.83229"></trkpt>
      <trkpt lat="51.27319" lon="4.83216"></trkpt>
      <trkpt lat="51.27320" lon="4.83204"></trkpt>
      <trkpt lat="51.27320" lon="4.83192"></trkpt>
      <trkpt lat="51.27320" lon="4.83179"></trkpt>
      <trkpt lat="51.27320" lon="4.83165"></trkpt>
      <trkpt lat="51.27320" lon="4.83152"></trkpt>
      <trkpt lat="51.27321" lon="4.83140"></trkpt>
      <trkpt lat="51.27321" lon="4.83129"></trkpt>
      <trkpt lat="51.27322" lon="4.83117"></trkpt>
      <trkpt lat="51.27323" lon="4.83108"></trkpt>
      <trkpt lat="51.27325" lon="4.83098"></trkpt>
      <trkpt lat="51.27326" lon="4.83086"></trkpt>
      <trkpt lat="51.27328" lon="4.83073"></trkpt>
      <trkpt lat="51.27330" lon="4.83060"></trkpt>
      <trkpt lat="51.27333" lon="4.83048"></trkpt>
      <trkpt lat="51.27333" lon="4.83035"></trkpt>
      <trkpt lat="51.27331" lon="4.83024"></trkpt>
      <trkpt lat="51.27331" lon="4.83012"></trkpt>
      <trkpt lat="51.27333" lon="4.82999"></trkpt>
      <trkpt lat="51.27337" lon="4.82988"></trkpt>
      <trkpt lat="51.27343" lon="4.82978"></trkpt>
      <trkpt lat="51.27348" lon="4.82968"></trkpt>
      <trkpt lat="51.27352" lon="4.82959"></trkpt>
      <trkpt lat="51.27357" lon="4.82951"></trkpt>
      <trkpt lat="51.27364" lon="4.82945"></trkpt>
      <trkpt lat="51.27369" lon="4.82938"></trkpt>
      <trkpt lat="51.27374" lon="4.82927"></trkpt>
      <trkpt lat="51.27378" lon="4.82914"></trkpt>
      <trkpt lat="51.27382" lon="4.82901"></trkpt>
      <trkpt lat="51.27384" lon="4.82889"></trkpt>
      <trkpt lat="51.27386" lon="4.82876"></trkpt>
      <trkpt lat="51.27388" lon="4.82865"></trkpt>
      <trkpt lat="51.27391" lon="4.82853"></trkpt>
      <trkpt lat="51.27394" lon="4.82842"></trkpt>
      <trkpt lat="51.27397" lon="4.82832"></trkpt>
      <trkpt lat="51.27400" lon="4.82826"></trkpt>
      <trkpt lat="51.27405" lon="4.82816"></trkpt>
      <trkpt lat="51.27410" lon="4.82806"></trkpt>
      <trkpt lat="51.27412" lon="4.82794"></trkpt>
      <trkpt lat="51.27412" lon="4.82781"></trkpt>
      <trkpt lat="51.27408" lon="4.82771"></trkpt>
      <trkpt lat="51.27403" lon="4.82761"></trkpt>
      <trkpt lat="51.27399" lon="4.82749"></trkpt>
      <trkpt lat="51.27395" lon="4.82736"></trkpt>
      <trkpt lat="51.27392" lon="4.82723"></trkpt>
      <trkpt lat="51.27389" lon="4.82712"></trkpt>
      <trkpt lat="51.27385" lon="4.82703"></trkpt>
      <trkpt lat="51.27384" lon="4.82690"></trkpt>
      <trkpt lat="51.27382" lon="4.82676"></trkpt>
      <trkpt lat="51.27378" lon="4.82662"></trkpt>
      <trkpt lat="51.27376" lon="4.82649"></trkpt>
      <trkpt lat="51.27373" lon="4.82637"></trkpt>
      <trkpt lat="51.27370" lon="4.82623"></trkpt>
      <trkpt lat="51.27368" lon="4.82610"></trkpt>
      <trkpt lat="51.27365" lon="4.82599"></trkpt>
      <trkpt lat="51.27362" lon="4.82587"></trkpt>
      <trkpt lat="51.27360" lon="4.82575"></trkpt>
      <trkpt lat="51.27357" lon="4.82562"></trkpt>
      <trkpt lat="51.27356" lon="4.82549"></trkpt>
      <trkpt lat="51.27353" lon="4.82536"></trkpt>
      <trkpt lat="51.27351" lon="4.82523"></trkpt>
      <trkpt lat="51.27350" lon="4.82510"></trkpt>
      <trkpt lat="51.27349" lon="4.82497"></trkpt>
      <trkpt lat="51.27348" lon="4.82485"></trkpt>
      <trkpt lat="51.27347" lon="4.82470"></trkpt>
      <trkpt lat="51.27345" lon="4.82458"></trkpt>
      <trkpt lat="51.27344" lon="4.82446"></trkpt>
      <trkpt lat="51.27343" lon="4.82432"></trkpt>
      <trkpt lat="51.27341" lon="4.82419"></trkpt>
      <trkpt lat="51.27340" lon="4.82406"></trkpt>
      <trkpt lat="51.27340" lon="4.82394"></trkpt>
      <trkpt lat="51.27339" lon="4.82380"></trkpt>
      <trkpt lat="51.27339" lon="4.82366"></trkpt>
      <trkpt lat="51.27337" lon="4.82355"></trkpt>
      <trkpt lat="51.27336" lon="4.82341"></trkpt>
      <trkpt lat="51.27335" lon="4.82328"></trkpt>
      <trkpt lat="51.27334" lon="4.82315"></trkpt>
      <trkpt lat="51.27333" lon="4.82303"></trkpt>
      <trkpt lat="51.27332" lon="4.82290"></trkpt>
      <trkpt lat="51.27330" lon="4.82278"></trkpt>
      <trkpt lat="51.27329" lon="4.82265"></trkpt>
      <trkpt lat="51.27328" lon="4.82252"></trkpt>
      <trkpt lat="51.27327" lon="4.82239"></trkpt>
      <trkpt lat="51.27327" lon="4.82228"></trkpt>
      <trkpt lat="51.27326" lon="4.82214"></trkpt>
      <trkpt lat="51.27325" lon="4.82199"></trkpt>
      <trkpt lat="51.27324" lon="4.82187"></trkpt>
      <trkpt lat="51.27324" lon="4.82175"></trkpt>
      <trkpt lat="51.27323" lon="4.82160"></trkpt>
      <trkpt lat="51.27322" lon="4.82145"></trkpt>
      <trkpt lat="51.27321" lon="4.82134"></trkpt>
      <trkpt lat="51.27319" lon="4.82121"></trkpt>
      <trkpt lat="51.27319" lon="4.82110"></trkpt>
      <trkpt lat="51.27318" lon="4.82096"></trkpt>
      <trkpt lat="51.27317" lon="4.82082"></trkpt>
      <trkpt lat="51.27316" lon="4.82069"></trkpt>
      <trkpt lat="51.27314" lon="4.82056"></trkpt>
      <trkpt lat="51.27314" lon="4.82046"></trkpt>
      <trkpt lat="51.27313" lon="4.82029"></trkpt>
      <trkpt lat="51.27312" lon="4.82017"></trkpt>
      <trkpt lat="51.27311" lon="4.82004"></trkpt>
      <trkpt lat="51.27309" lon="4.81991"></trkpt>
      <trkpt lat="51.27308" lon="4.81979"></trkpt>
      <trkpt lat="51.27307" lon="4.81966"></trkpt>
      <trkpt lat="51.27307" lon="4.81953"></trkpt>
      <trkpt lat="51.27306" lon="4.81940"></trkpt>
      <trkpt lat="51.27305" lon="4.81927"></trkpt>
      <trkpt lat="51.27304" lon="4.81914"></trkpt>
      <trkpt lat="51.27303" lon="4.81901"></trkpt>
      <trkpt lat="51.27302" lon="4.81888"></trkpt>
      <trkpt lat="51.27300" lon="4.81874"></trkpt>
      <trkpt lat="51.27299" lon="4.81861"></trkpt>
      <trkpt lat="51.27298" lon="4.81848"></trkpt>
      <trkpt lat="51.27298" lon="4.81835"></trkpt>
      <trkpt lat="51.27298" lon="4.81828"></trkpt>
      <trkpt lat="51.27297" lon="4.81821"></trkpt>
      <trkpt lat="51.27298" lon="4.81815"></trkpt>
      <trkpt lat="51.27298" lon="4.81808"></trkpt>
      <trkpt lat="51.27297" lon="4.81802"></trkpt>
      <trkpt lat="51.27297" lon="4.81796"></trkpt>
      <trkpt lat="51.27297" lon="4.81790"></trkpt>
      <trkpt lat="51.27296" lon="4.81781"></trkpt>
      <trkpt lat="51.27296" lon="4.81772"></trkpt>
      <trkpt lat="51.27296" lon="4.81762"></trkpt>
      <trkpt lat="51.27297" lon="4.81749"></trkpt>
      <trkpt lat="51.27298" lon="4.81735"></trkpt>
      <trkpt lat="51.27299" lon="4.81722"></trkpt>
      <trkpt lat="51.27300" lon="4.81709"></trkpt>
      <trkpt lat="51.27299" lon="4.81695"></trkpt>
      <trkpt lat="51.27298" lon="4.81681"></trkpt>
      <trkpt lat="51.27297" lon="4.81668"></trkpt>
      <trkpt lat="51.27295" lon="4.81656"></trkpt>
      <trkpt lat="51.27292" lon="4.81643"></trkpt>
      <trkpt lat="51.27290" lon="4.81631"></trkpt>
      <trkpt lat="51.27289" lon="4.81618"></trkpt>
      <trkpt lat="51.27287" lon="4.81605"></trkpt>
      <trkpt lat="51.27286" lon="4.81591"></trkpt>
      <trkpt lat="51.27285" lon="4.81578"></trkpt>
      <trkpt lat="51.27284" lon="4.81566"></trkpt>
      <trkpt lat="51.27283" lon="4.81553"></trkpt>
      <trkpt lat="51.27282" lon="4.81543"></trkpt>
      <trkpt lat="51.27279" lon="4.81529"></trkpt>
      <trkpt lat="51.27278" lon="4.81516"></trkpt>
      <trkpt lat="51.27278" lon="4.81502"></trkpt>
      <trkpt lat="51.27278" lon="4.81490"></trkpt>
      <trkpt lat="51.27276" lon="4.81476"></trkpt>
      <trkpt lat="51.27274" lon="4.81462"></trkpt>
      <trkpt lat="51.27272" lon="4.81449"></trkpt>
      <trkpt lat="51.27271" lon="4.81437"></trkpt>
      <trkpt lat="51.27270" lon="4.81424"></trkpt>
      <trkpt lat="51.27269" lon="4.81412"></trkpt>
      <trkpt lat="51.27267" lon="4.81400"></trkpt>
      <trkpt lat="51.27266" lon="4.81388"></trkpt>
      <trkpt lat="51.27266" lon="4.81373"></trkpt>
      <trkpt lat="51.27265" lon="4.81360"></trkpt>
      <trkpt lat="51.27263" lon="4.81348"></trkpt>
      <trkpt lat="51.27262" lon="4.81335"></trkpt>
      <trkpt lat="51.27260" lon="4.81322"></trkpt>
      <trkpt lat="51.27259" lon="4.81309"></trkpt>
      <trkpt lat="51.27258" lon="4.81297"></trkpt>
      <trkpt lat="51.27257" lon="4.81283"></trkpt>
      <trkpt lat="51.27256" lon="4.81270"></trkpt>
      <trkpt lat="51.27255" lon="4.81257"></trkpt>
      <trkpt lat="51.27254" lon="4.81244"></trkpt>
      <trkpt lat="51.27253" lon="4.81232"></trkpt>
      <trkpt lat="51.27252" lon="4.81219"></trkpt>
      <trkpt lat="51.27251" lon="4.81207"></trkpt>
      <trkpt lat="51.27249" lon="4.81194"></trkpt>
      <trkpt lat="51.27247" lon="4.81181"></trkpt>
      <trkpt lat="51.27247" lon="4.81169"></trkpt>
      <trkpt lat="51.27246" lon="4.81156"></trkpt>
      <trkpt lat="51.27245" lon="4.81143"></trkpt>
      <trkpt lat="51.27244" lon="4.81131"></trkpt>
      <trkpt lat="51.27242" lon="4.81119"></trkpt>
      <trkpt lat="51.27241" lon="4.81106"></trkpt>
      <trkpt lat="51.27240" lon="4.81095"></trkpt>
      <trkpt lat="51.27239" lon="4.81084"></trkpt>
      <trkpt lat="51.27238" lon="4.81076"></trkpt>
      <trkpt lat="51.27237" lon="4.81069"></trkpt>
      <trkpt lat="51.27236" lon="4.81062"></trkpt>
      <trkpt lat="51.27236" lon="4.81055"></trkpt>
      <trkpt lat="51.27236" lon="4.81050"></trkpt>
      <trkpt lat="51.27236" lon="4.81044"></trkpt>
      <trkpt lat="51.27235" lon="4.81035"></trkpt>
      <trkpt lat="51.27235" lon="4.81029"></trkpt>
      <trkpt lat="51.27234" lon="4.81022"></trkpt>
      <trkpt lat="51.27234" lon="4.81016"></trkpt>
      <trkpt lat="51.27233" lon="4.81010"></trkpt>
      <trkpt lat="51.27232" lon="4.81003"></trkpt>
      <trkpt lat="51.27232" lon="4.80996"></trkpt>
      <trkpt lat="51.27230" lon="4.80988"></trkpt>
      <trkpt lat="51.27229" lon="4.80982"></trkpt>
      <trkpt lat="51.27229" lon="4.80975"></trkpt>
      <trkpt lat="51.27228" lon="4.80969"></trkpt>
      <trkpt lat="51.27229" lon="4.80962"></trkpt>
      <trkpt lat="51.27229" lon="4.80955"></trkpt>
      <trkpt lat="51.27227" lon="4.80949"></trkpt>
      <trkpt lat="51.27226" lon="4.80941"></trkpt>
      <trkpt lat="51.27226" lon="4.80934"></trkpt>
      <trkpt lat="51.27225" lon="4.80927"></trkpt>
      <trkpt lat="51.27225" lon="4.80919"></trkpt>
      <trkpt lat="51.27224" lon="4.80912"></trkpt>
      <trkpt lat="51.27224" lon="4.80905"></trkpt>
      <trkpt lat="51.27224" lon="4.80898"></trkpt>
      <trkpt lat="51.27224" lon="4.80891"></trkpt>
      <trkpt lat="51.27224" lon="4.80887"></trkpt>
      <trkpt lat="51.27223" lon="4.80881"></trkpt>
      <trkpt lat="51.27222" lon="4.80876"></trkpt>
      <trkpt lat="51.27222" lon="4.80869"></trkpt>
      <trkpt lat="51.27222" lon="4.80862"></trkpt>
      <trkpt lat="51.27222" lon="4.80856"></trkpt>
      <trkpt lat="51.27224" lon="4.80849"></trkpt>
      <trkpt lat="51.27226" lon="4.80843"></trkpt>
      <trkpt lat="51.27227" lon="4.80838"></trkpt>
      <trkpt lat="51.27229" lon="4.80832"></trkpt>
      <trkpt lat="51.27233" lon="4.80826"></trkpt>
      <trkpt lat="51.27236" lon="4.80821"></trkpt>
      <trkpt lat="51.27240" lon="4.80815"></trkpt>
      <trkpt lat="51.27242" lon="4.80808"></trkpt>
      <trkpt lat="51.27242" lon="4.80801"></trkpt>
      <trkpt lat="51.27243" lon="4.80794"></trkpt>
      <trkpt lat="51.27243" lon="4.80786"></trkpt>
      <trkpt lat="51.27242" lon="4.80779"></trkpt>
      <trkpt lat="51.27242" lon="4.80772"></trkpt>
      <trkpt lat="51.27243" lon="4.80764"></trkpt>
      <trkpt lat="51.27242" lon="4.80755"></trkpt>
      <trkpt lat="51.27241" lon="4.80747"></trkpt>
      <trkpt lat="51.27241" lon="4.80739"></trkpt>
      <trkpt lat="51.27241" lon="4.80734"></trkpt>
      <trkpt lat="51.27242" lon="4.80734"></trkpt>
      <trkpt lat="51.27242" lon="4.80734"></trkpt>
      <trkpt lat="51.27243" lon="4.80733"></trkpt>
      <trkpt lat="51.27243" lon="4.80733"></trkpt>
      <trkpt lat="51.27246" lon="4.80734"></trkpt>
      <trkpt lat="51.27252" lon="4.80737"></trkpt>
      <trkpt lat="51.27256" lon="4.80738"></trkpt>
      <trkpt lat="51.27260" lon="4.80737"></trkpt>
      <trkpt lat="51.27265" lon="4.80737"></trkpt>
      <trkpt lat="51.27270" lon="4.80734"></trkpt>
      <trkpt lat="51.27276" lon="4.80729"></trkpt>
      <trkpt lat="51.27283" lon="4.80724"></trkpt>
      <trkpt lat="51.27291" lon="4.80717"></trkpt>
      <trkpt lat="51.27298" lon="4.80712"></trkpt>
      <trkpt lat="51.27305" lon="4.80705"></trkpt>
      <trkpt lat="51.27313" lon="4.80701"></trkpt>
      <trkpt lat="51.27320" lon="4.80696"></trkpt>
      <trkpt lat="51.27327" lon="4.80691"></trkpt>
      <trkpt lat="51.27334" lon="4.80686"></trkpt>
      <trkpt lat="51.27341" lon="4.80681"></trkpt>
      <trkpt lat="51.27349" lon="4.80675"></trkpt>
      <trkpt lat="51.27357" lon="4.80671"></trkpt>
      <trkpt lat="51.27365" lon="4.80665"></trkpt>
      <trkpt lat="51.27373" lon="4.80660"></trkpt>
      <trkpt lat="51.27381" lon="4.80655"></trkpt>
      <trkpt lat="51.27388" lon="4.80650"></trkpt>
      <trkpt lat="51.27394" lon="4.80644"></trkpt>
      <trkpt lat="51.27403" lon="4.80640"></trkpt>
      <trkpt lat="51.27410" lon="4.80635"></trkpt>
      <trkpt lat="51.27418" lon="4.80629"></trkpt>
      <trkpt lat="51.27425" lon="4.80624"></trkpt>
      <trkpt lat="51.27433" lon="4.80619"></trkpt>
      <trkpt lat="51.27440" lon="4.80613"></trkpt>
      <trkpt lat="51.27447" lon="4.80609"></trkpt>
      <trkpt lat="51.27456" lon="4.80603"></trkpt>
      <trkpt lat="51.27463" lon="4.80599"></trkpt>
      <trkpt lat="51.27472" lon="4.80592"></trkpt>
      <trkpt lat="51.27479" lon="4.80588"></trkpt>
      <trkpt lat="51.27487" lon="4.80584"></trkpt>
      <trkpt lat="51.27494" lon="4.80579"></trkpt>
      <trkpt lat="51.27501" lon="4.80572"></trkpt>
      <trkpt lat="51.27509" lon="4.80568"></trkpt>
      <trkpt lat="51.27515" lon="4.80565"></trkpt>
      <trkpt lat="51.27522" lon="4.80559"></trkpt>
      <trkpt lat="51.27531" lon="4.80552"></trkpt>
      <trkpt lat="51.27539" lon="4.80548"></trkpt>
      <trkpt lat="51.27545" lon="4.80543"></trkpt>
      <trkpt lat="51.27551" lon="4.80538"></trkpt>
      <trkpt lat="51.27552" lon="4.80537"></trkpt>
      <trkpt lat="51.27552" lon="4.80536"></trkpt>
      <trkpt lat="51.27553" lon="4.80536"></trkpt>
      <trkpt lat="51.27553" lon="4.80536"></trkpt>
      <trkpt lat="51.27553" lon="4.80536"></trkpt>
      <trkpt lat="51.27554" lon="4.80536"></trkpt>
      <trkpt lat="51.27557" lon="4.80535"></trkpt>
      <trkpt lat="51.27567" lon="4.80532"></trkpt>
      <trkpt lat="51.27575" lon="4.80527"></trkpt>
      <trkpt lat="51.27583" lon="4.80522"></trkpt>
      <trkpt lat="51.27590" lon="4.80516"></trkpt>
      <trkpt lat="51.27597" lon="4.80510"></trkpt>
      <trkpt lat="51.27604" lon="4.80504"></trkpt>
      <trkpt lat="51.27611" lon="4.80499"></trkpt>
      <trkpt lat="51.27618" lon="4.80495"></trkpt>
      <trkpt lat="51.27626" lon="4.80490"></trkpt>
      <trkpt lat="51.27634" lon="4.80484"></trkpt>
      <trkpt lat="51.27642" lon="4.80477"></trkpt>
      <trkpt lat="51.27650" lon="4.80472"></trkpt>
      <trkpt lat="51.27658" lon="4.80466"></trkpt>
      <trkpt lat="51.27666" lon="4.80459"></trkpt>
      <trkpt lat="51.27673" lon="4.80454"></trkpt>
      <trkpt lat="51.27681" lon="4.80451"></trkpt>
      <trkpt lat="51.27690" lon="4.80447"></trkpt>
      <trkpt lat="51.27697" lon="4.80441"></trkpt>
      <trkpt lat="51.27705" lon="4.80438"></trkpt>
      <trkpt lat="51.27712" lon="4.80433"></trkpt>
      <trkpt lat="51.27720" lon="4.80429"></trkpt>
      <trkpt lat="51.27727" lon="4.80426"></trkpt>
      <trkpt lat="51.27735" lon="4.80424"></trkpt>
      <trkpt lat="51.27743" lon="4.80422"></trkpt>
      <trkpt lat="51.27751" lon="4.80420"></trkpt>
      <trkpt lat="51.27759" lon="4.80420"></trkpt>
      <trkpt lat="51.27768" lon="4.80422"></trkpt>
      <trkpt lat="51.27776" lon="4.80422"></trkpt>
      <trkpt lat="51.27786" lon="4.80418"></trkpt>
      <trkpt lat="51.27794" lon="4.80415"></trkpt>
      <trkpt lat="51.27800" lon="4.80410"></trkpt>
      <trkpt lat="51.27807" lon="4.80405"></trkpt>
      <trkpt lat="51.27814" lon="4.80402"></trkpt>
      <trkpt lat="51.27822" lon="4.80397"></trkpt>
      <trkpt lat="51.27830" lon="4.80394"></trkpt>
      <trkpt lat="51.27838" lon="4.80390"></trkpt>
      <trkpt lat="51.27845" lon="4.80386"></trkpt>
      <trkpt lat="51.27852" lon="4.80382"></trkpt>
      <trkpt lat="51.27859" lon="4.80378"></trkpt>
      <trkpt lat="51.27867" lon="4.80373"></trkpt>
      <trkpt lat="51.27875" lon="4.80367"></trkpt>
      <trkpt lat="51.27881" lon="4.80359"></trkpt>
      <trkpt lat="51.27887" lon="4.80350"></trkpt>
      <trkpt lat="51.27892" lon="4.80341"></trkpt>
      <trkpt lat="51.27898" lon="4.80332"></trkpt>
      <trkpt lat="51.27904" lon="4.80322"></trkpt>
      <trkpt lat="51.27909" lon="4.80313"></trkpt>
      <trkpt lat="51.27913" lon="4.80301"></trkpt>
      <trkpt lat="51.27916" lon="4.80289"></trkpt>
      <trkpt lat="51.27918" lon="4.80277"></trkpt>
      <trkpt lat="51.27919" lon="4.80263"></trkpt>
      <trkpt lat="51.27920" lon="4.80249"></trkpt>
      <trkpt lat="51.27921" lon="4.80234"></trkpt>
      <trkpt lat="51.27923" lon="4.80221"></trkpt>
      <trkpt lat="51.27926" lon="4.80209"></trkpt>
      <trkpt lat="51.27930" lon="4.80198"></trkpt>
      <trkpt lat="51.27936" lon="4.80189"></trkpt>
      <trkpt lat="51.27943" lon="4.80186"></trkpt>
      <trkpt lat="51.27952" lon="4.80184"></trkpt>
      <trkpt lat="51.27961" lon="4.80182"></trkpt>
      <trkpt lat="51.27969" lon="4.80180"></trkpt>
      <trkpt lat="51.27977" lon="4.80177"></trkpt>
      <trkpt lat="51.27986" lon="4.80175"></trkpt>
      <trkpt lat="51.27994" lon="4.80174"></trkpt>
      <trkpt lat="51.28002" lon="4.80173"></trkpt>
      <trkpt lat="51.28010" lon="4.80172"></trkpt>
      <trkpt lat="51.28017" lon="4.80170"></trkpt>
      <trkpt lat="51.28026" lon="4.80168"></trkpt>
      <trkpt lat="51.28033" lon="4.80167"></trkpt>
      <trkpt lat="51.28041" lon="4.80165"></trkpt>
      <trkpt lat="51.28049" lon="4.80163"></trkpt>
      <trkpt lat="51.28057" lon="4.80161"></trkpt>
      <trkpt lat="51.28065" lon="4.80159"></trkpt>
      <trkpt lat="51.28074" lon="4.80157"></trkpt>
      <trkpt lat="51.28082" lon="4.80156"></trkpt>
      <trkpt lat="51.28090" lon="4.80154"></trkpt>
      <trkpt lat="51.28099" lon="4.80151"></trkpt>
      <trkpt lat="51.28107" lon="4.80149"></trkpt>
      <trkpt lat="51.28115" lon="4.80150"></trkpt>
      <trkpt lat="51.28122" lon="4.80148"></trkpt>
      <trkpt lat="51.28131" lon="4.80147"></trkpt>
      <trkpt lat="51.28138" lon="4.80145"></trkpt>
      <trkpt lat="51.28146" lon="4.80144"></trkpt>
      <trkpt lat="51.28155" lon="4.80140"></trkpt>
      <trkpt lat="51.28163" lon="4.80137"></trkpt>
      <trkpt lat="51.28171" lon="4.80136"></trkpt>
      <trkpt lat="51.28179" lon="4.80134"></trkpt>
      <trkpt lat="51.28187" lon="4.80133"></trkpt>
      <trkpt lat="51.28195" lon="4.80136"></trkpt>
      <trkpt lat="51.28203" lon="4.80139"></trkpt>
      <trkpt lat="51.28211" lon="4.80141"></trkpt>
      <trkpt lat="51.28220" lon="4.80141"></trkpt>
      <trkpt lat="51.28228" lon="4.80137"></trkpt>
      <trkpt lat="51.28235" lon="4.80129"></trkpt>
      <trkpt lat="51.28241" lon="4.80120"></trkpt>
      <trkpt lat="51.28249" lon="4.80116"></trkpt>
      <trkpt lat="51.28258" lon="4.80115"></trkpt>
      <trkpt lat="51.28266" lon="4.80114"></trkpt>
      <trkpt lat="51.28273" lon="4.80113"></trkpt>
      <trkpt lat="51.28280" lon="4.80108"></trkpt>
      <trkpt lat="51.28285" lon="4.80100"></trkpt>
      <trkpt lat="51.28290" lon="4.80091"></trkpt>
      <trkpt lat="51.28295" lon="4.80081"></trkpt>
      <trkpt lat="51.28298" lon="4.80068"></trkpt>
      <trkpt lat="51.28296" lon="4.80055"></trkpt>
      <trkpt lat="51.28292" lon="4.80045"></trkpt>
      <trkpt lat="51.28288" lon="4.80034"></trkpt>
      <trkpt lat="51.28284" lon="4.80023"></trkpt>
      <trkpt lat="51.28279" lon="4.80012"></trkpt>
      <trkpt lat="51.28274" lon="4.80002"></trkpt>
      <trkpt lat="51.28270" lon="4.79990"></trkpt>
      <trkpt lat="51.28265" lon="4.79979"></trkpt>
      <trkpt lat="51.28261" lon="4.79967"></trkpt>
      <trkpt lat="51.28257" lon="4.79955"></trkpt>
      <trkpt lat="51.28252" lon="4.79943"></trkpt>
      <trkpt lat="51.28247" lon="4.79932"></trkpt>
      <trkpt lat="51.28242" lon="4.79923"></trkpt>
      <trkpt lat="51.28238" lon="4.79911"></trkpt>
      <trkpt lat="51.28233" lon="4.79900"></trkpt>
      <trkpt lat="51.28229" lon="4.79889"></trkpt>
      <trkpt lat="51.28224" lon="4.79878"></trkpt>
      <trkpt lat="51.28220" lon="4.79868"></trkpt>
      <trkpt lat="51.28216" lon="4.79856"></trkpt>
      <trkpt lat="51.28212" lon="4.79845"></trkpt>
      <trkpt lat="51.28208" lon="4.79835"></trkpt>
      <trkpt lat="51.28204" lon="4.79824"></trkpt>
      <trkpt lat="51.28199" lon="4.79813"></trkpt>
      <trkpt lat="51.28194" lon="4.79802"></trkpt>
      <trkpt lat="51.28190" lon="4.79792"></trkpt>
      <trkpt lat="51.28187" lon="4.79780"></trkpt>
      <trkpt lat="51.28183" lon="4.79769"></trkpt>
      <trkpt lat="51.28187" lon="4.79757"></trkpt>
      <trkpt lat="51.28194" lon="4.79751"></trkpt>
      <trkpt lat="51.28202" lon="4.79747"></trkpt>
      <trkpt lat="51.28211" lon="4.79744"></trkpt>
      <trkpt lat="51.28220" lon="4.79740"></trkpt>
      <trkpt lat="51.28228" lon="4.79735"></trkpt>
      <trkpt lat="51.28236" lon="4.79729"></trkpt>
      <trkpt lat="51.28244" lon="4.79723"></trkpt>
      <trkpt lat="51.28251" lon="4.79718"></trkpt>
      <trkpt lat="51.28260" lon="4.79713"></trkpt>
      <trkpt lat="51.28268" lon="4.79708"></trkpt>
      <trkpt lat="51.28277" lon="4.79704"></trkpt>
      <trkpt lat="51.28285" lon="4.79701"></trkpt>
      <trkpt lat="51.28293" lon="4.79699"></trkpt>
      <trkpt lat="51.28301" lon="4.79699"></trkpt>
      <trkpt lat="51.28310" lon="4.79704"></trkpt>
      <trkpt lat="51.28317" lon="4.79715"></trkpt>
      <trkpt lat="51.28322" lon="4.79726"></trkpt>
      <trkpt lat="51.28327" lon="4.79737"></trkpt>
      <trkpt lat="51.28331" lon="4.79748"></trkpt>
      <trkpt lat="51.28336" lon="4.79758"></trkpt>
      <trkpt lat="51.28341" lon="4.79769"></trkpt>
      <trkpt lat="51.28346" lon="4.79779"></trkpt>
      <trkpt lat="51.28351" lon="4.79788"></trkpt>
      <trkpt lat="51.28356" lon="4.79799"></trkpt>
      <trkpt lat="51.28361" lon="4.79810"></trkpt>
      <trkpt lat="51.28365" lon="4.79819"></trkpt>
      <trkpt lat="51.28370" lon="4.79829"></trkpt>
      <trkpt lat="51.28376" lon="4.79838"></trkpt>
      <trkpt lat="51.28383" lon="4.79843"></trkpt>
      <trkpt lat="51.28390" lon="4.79845"></trkpt>
      <trkpt lat="51.28397" lon="4.79845"></trkpt>
      <trkpt lat="51.28405" lon="4.79845"></trkpt>
      <trkpt lat="51.28413" lon="4.79844"></trkpt>
      <trkpt lat="51.28422" lon="4.79843"></trkpt>
      <trkpt lat="51.28430" lon="4.79843"></trkpt>
      <trkpt lat="51.28438" lon="4.79841"></trkpt>
      <trkpt lat="51.28447" lon="4.79839"></trkpt>
      <trkpt lat="51.28454" lon="4.79836"></trkpt>
      <trkpt lat="51.28462" lon="4.79831"></trkpt>
      <trkpt lat="51.28470" lon="4.79827"></trkpt>
      <trkpt lat="51.28478" lon="4.79822"></trkpt>
      <trkpt lat="51.28486" lon="4.79818"></trkpt>
      <trkpt lat="51.28494" lon="4.79817"></trkpt>
      <trkpt lat="51.28501" lon="4.79821"></trkpt>
      <trkpt lat="51.28506" lon="4.79829"></trkpt>
      <trkpt lat="51.28509" lon="4.79836"></trkpt>
      <trkpt lat="51.28511" lon="4.79843"></trkpt>
      <trkpt lat="51.28514" lon="4.79853"></trkpt>
      <trkpt lat="51.28517" lon="4.79864"></trkpt>
      <trkpt lat="51.28522" lon="4.79874"></trkpt>
      <trkpt lat="51.28526" lon="4.79885"></trkpt>
      <trkpt lat="51.28530" lon="4.79896"></trkpt>
      <trkpt lat="51.28533" lon="4.79908"></trkpt>
      <trkpt lat="51.28537" lon="4.79920"></trkpt>
      <trkpt lat="51.28540" lon="4.79932"></trkpt>
      <trkpt lat="51.28543" lon="4.79943"></trkpt>
      <trkpt lat="51.28548" lon="4.79954"></trkpt>
      <trkpt lat="51.28552" lon="4.79965"></trkpt>
      <trkpt lat="51.28555" lon="4.79976"></trkpt>
      <trkpt lat="51.28558" lon="4.79987"></trkpt>
      <trkpt lat="51.28561" lon="4.79999"></trkpt>
      <trkpt lat="51.28564" lon="4.80011"></trkpt>
      <trkpt lat="51.28568" lon="4.80022"></trkpt>
      <trkpt lat="51.28571" lon="4.80033"></trkpt>
      <trkpt lat="51.28576" lon="4.80044"></trkpt>
      <trkpt lat="51.28579" lon="4.80057"></trkpt>
      <trkpt lat="51.28583" lon="4.80068"></trkpt>
      <trkpt lat="51.28586" lon="4.80079"></trkpt>
      <trkpt lat="51.28589" lon="4.80090"></trkpt>
      <trkpt lat="51.28594" lon="4.80100"></trkpt>
      <trkpt lat="51.28598" lon="4.80111"></trkpt>
      <trkpt lat="51.28603" lon="4.80123"></trkpt>
      <trkpt lat="51.28607" lon="4.80136"></trkpt>
      <trkpt lat="51.28612" lon="4.80147"></trkpt>
      <trkpt lat="51.28615" lon="4.80159"></trkpt>
      <trkpt lat="51.28619" lon="4.80170"></trkpt>
      <trkpt lat="51.28622" lon="4.80183"></trkpt>
      <trkpt lat="51.28625" lon="4.80195"></trkpt>
      <trkpt lat="51.28626" lon="4.80207"></trkpt>
      <trkpt lat="51.28627" lon="4.80220"></trkpt>
      <trkpt lat="51.28629" lon="4.80231"></trkpt>
      <trkpt lat="51.28631" lon="4.80242"></trkpt>
      <trkpt lat="51.28634" lon="4.80254"></trkpt>
      <trkpt lat="51.28636" lon="4.80267"></trkpt>
      <trkpt lat="51.28637" lon="4.80279"></trkpt>
      <trkpt lat="51.28639" lon="4.80293"></trkpt>
      <trkpt lat="51.28641" lon="4.80306"></trkpt>
      <trkpt lat="51.28642" lon="4.80317"></trkpt>
      <trkpt lat="51.28644" lon="4.80330"></trkpt>
      <trkpt lat="51.28646" lon="4.80343"></trkpt>
      <trkpt lat="51.28648" lon="4.80356"></trkpt>
      <trkpt lat="51.28651" lon="4.80369"></trkpt>
      <trkpt lat="51.28653" lon="4.80382"></trkpt>
      <trkpt lat="51.28655" lon="4.80395"></trkpt>
      <trkpt lat="51.28657" lon="4.80407"></trkpt>
      <trkpt lat="51.28658" lon="4.80420"></trkpt>
      <trkpt lat="51.28660" lon="4.80433"></trkpt>
      <trkpt lat="51.28663" lon="4.80446"></trkpt>
      <trkpt lat="51.28665" lon="4.80459"></trkpt>
      <trkpt lat="51.28668" lon="4.80473"></trkpt>
      <trkpt lat="51.28671" lon="4.80485"></trkpt>
      <trkpt lat="51.28675" lon="4.80498"></trkpt>
      <trkpt lat="51.28678" lon="4.80510"></trkpt>
      <trkpt lat="51.28682" lon="4.80523"></trkpt>
      <trkpt lat="51.28685" lon="4.80536"></trkpt>
      <trkpt lat="51.28688" lon="4.80548"></trkpt>
      <trkpt lat="51.28691" lon="4.80561"></trkpt>
      <trkpt lat="51.28694" lon="4.80573"></trkpt>
      <trkpt lat="51.28698" lon="4.80585"></trkpt>
      <trkpt lat="51.28701" lon="4.80597"></trkpt>
      <trkpt lat="51.28705" lon="4.80609"></trkpt>
      <trkpt lat="51.28709" lon="4.80621"></trkpt>
      <trkpt lat="51.28713" lon="4.80633"></trkpt>
      <trkpt lat="51.28716" lon="4.80645"></trkpt>
      <trkpt lat="51.28720" lon="4.80657"></trkpt>
      <trkpt lat="51.28725" lon="4.80669"></trkpt>
      <trkpt lat="51.28728" lon="4.80681"></trkpt>
      <trkpt lat="51.28729" lon="4.80694"></trkpt>
      <trkpt lat="51.28732" lon="4.80706"></trkpt>
      <trkpt lat="51.28736" lon="4.80718"></trkpt>
      <trkpt lat="51.28740" lon="4.80730"></trkpt>
      <trkpt lat="51.28744" lon="4.80743"></trkpt>
      <trkpt lat="51.28747" lon="4.80756"></trkpt>
      <trkpt lat="51.28751" lon="4.80769"></trkpt>
      <trkpt lat="51.28755" lon="4.80781"></trkpt>
      <trkpt lat="51.28758" lon="4.80794"></trkpt>
      <trkpt lat="51.28761" lon="4.80806"></trkpt>
      <trkpt lat="51.28764" lon="4.80818"></trkpt>
      <trkpt lat="51.28768" lon="4.80830"></trkpt>
      <trkpt lat="51.28771" lon="4.80842"></trkpt>
      <trkpt lat="51.28773" lon="4.80854"></trkpt>
      <trkpt lat="51.28776" lon="4.80867"></trkpt>
      <trkpt lat="51.28778" lon="4.80879"></trkpt>
      <trkpt lat="51.28781" lon="4.80891"></trkpt>
      <trkpt lat="51.28786" lon="4.80897"></trkpt>
      <trkpt lat="51.28794" lon="4.80900"></trkpt>
      <trkpt lat="51.28802" lon="4.80903"></trkpt>
      <trkpt lat="51.28810" lon="4.80906"></trkpt>
      <trkpt lat="51.28819" lon="4.80909"></trkpt>
      <trkpt lat="51.28827" lon="4.80911"></trkpt>
      <trkpt lat="51.28835" lon="4.80913"></trkpt>
      <trkpt lat="51.28840" lon="4.80915"></trkpt>
      <trkpt lat="51.28844" lon="4.80914"></trkpt>
      <trkpt lat="51.28848" lon="4.80910"></trkpt>
      <trkpt lat="51.28850" lon="4.80901"></trkpt>
      <trkpt lat="51.28851" lon="4.80887"></trkpt>
      <trkpt lat="51.28852" lon="4.80872"></trkpt>
      <trkpt lat="51.28853" lon="4.80857"></trkpt>
      <trkpt lat="51.28854" lon="4.80844"></trkpt>
      <trkpt lat="51.28856" lon="4.80831"></trkpt>
      <trkpt lat="51.28857" lon="4.80817"></trkpt>
      <trkpt lat="51.28859" lon="4.80804"></trkpt>
      <trkpt lat="51.28861" lon="4.80790"></trkpt>
      <trkpt lat="51.28862" lon="4.80777"></trkpt>
      <trkpt lat="51.28864" lon="4.80763"></trkpt>
      <trkpt lat="51.28865" lon="4.80749"></trkpt>
      <trkpt lat="51.28867" lon="4.80736"></trkpt>
      <trkpt lat="51.28868" lon="4.80723"></trkpt>
      <trkpt lat="51.28869" lon="4.80710"></trkpt>
      <trkpt lat="51.28870" lon="4.80697"></trkpt>
      <trkpt lat="51.28871" lon="4.80685"></trkpt>
      <trkpt lat="51.28873" lon="4.80673"></trkpt>
      <trkpt lat="51.28874" lon="4.80660"></trkpt>
      <trkpt lat="51.28876" lon="4.80646"></trkpt>
      <trkpt lat="51.28878" lon="4.80633"></trkpt>
      <trkpt lat="51.28879" lon="4.80620"></trkpt>
      <trkpt lat="51.28881" lon="4.80607"></trkpt>
      <trkpt lat="51.28883" lon="4.80595"></trkpt>
      <trkpt lat="51.28884" lon="4.80582"></trkpt>
      <trkpt lat="51.28885" lon="4.80569"></trkpt>
      <trkpt lat="51.28887" lon="4.80556"></trkpt>
      <trkpt lat="51.28889" lon="4.80543"></trkpt>
      <trkpt lat="51.28890" lon="4.80530"></trkpt>
      <trkpt lat="51.28891" lon="4.80517"></trkpt>
      <trkpt lat="51.28892" lon="4.80505"></trkpt>
      <trkpt lat="51.28894" lon="4.80491"></trkpt>
      <trkpt lat="51.28896" lon="4.80478"></trkpt>
      <trkpt lat="51.28898" lon="4.80465"></trkpt>
      <trkpt lat="51.28900" lon="4.80451"></trkpt>
      <trkpt lat="51.28901" lon="4.80438"></trkpt>
      <trkpt lat="51.28902" lon="4.80425"></trkpt>
      <trkpt lat="51.28904" lon="4.80413"></trkpt>
      <trkpt lat="51.28905" lon="4.80400"></trkpt>
      <trkpt lat="51.28909" lon="4.80388"></trkpt>
      <trkpt lat="51.28912" lon="4.80376"></trkpt>
      <trkpt lat="51.28918" lon="4.80376"></trkpt>
      <trkpt lat="51.28922" lon="4.80387"></trkpt>
      <trkpt lat="51.28925" lon="4.80399"></trkpt>
      <trkpt lat="51.28929" lon="4.80412"></trkpt>
      <trkpt lat="51.28933" lon="4.80425"></trkpt>
      <trkpt lat="51.28936" lon="4.80437"></trkpt>
      <trkpt lat="51.28939" lon="4.80450"></trkpt>
      <trkpt lat="51.28943" lon="4.80462"></trkpt>
      <trkpt lat="51.28946" lon="4.80474"></trkpt>
      <trkpt lat="51.28949" lon="4.80485"></trkpt>
      <trkpt lat="51.28951" lon="4.80497"></trkpt>
      <trkpt lat="51.28955" lon="4.80509"></trkpt>
      <trkpt lat="51.28958" lon="4.80521"></trkpt>
      <trkpt lat="51.28961" lon="4.80533"></trkpt>
      <trkpt lat="51.28964" lon="4.80545"></trkpt>
      <trkpt lat="51.28968" lon="4.80557"></trkpt>
      <trkpt lat="51.28970" lon="4.80570"></trkpt>
      <trkpt lat="51.28972" lon="4.80582"></trkpt>
      <trkpt lat="51.28975" lon="4.80595"></trkpt>
      <trkpt lat="51.28979" lon="4.80606"></trkpt>
      <trkpt lat="51.28981" lon="4.80619"></trkpt>
      <trkpt lat="51.28985" lon="4.80631"></trkpt>
      <trkpt lat="51.28989" lon="4.80643"></trkpt>
      <trkpt lat="51.28991" lon="4.80656"></trkpt>
      <trkpt lat="51.28994" lon="4.80667"></trkpt>
      <trkpt lat="51.28997" lon="4.80679"></trkpt>
      <trkpt lat="51.29000" lon="4.80691"></trkpt>
      <trkpt lat="51.29003" lon="4.80704"></trkpt>
      <trkpt lat="51.29006" lon="4.80716"></trkpt>
      <trkpt lat="51.29010" lon="4.80729"></trkpt>
      <trkpt lat="51.29013" lon="4.80741"></trkpt>
      <trkpt lat="51.29016" lon="4.80752"></trkpt>
      <trkpt lat="51.29020" lon="4.80763"></trkpt>
      <trkpt lat="51.29023" lon="4.80775"></trkpt>
      <trkpt lat="51.29027" lon="4.80787"></trkpt>
      <trkpt lat="51.29029" lon="4.80798"></trkpt>
      <trkpt lat="51.29032" lon="4.80810"></trkpt>
      <trkpt lat="51.29036" lon="4.80823"></trkpt>
      <trkpt lat="51.29040" lon="4.80835"></trkpt>
      <trkpt lat="51.29044" lon="4.80848"></trkpt>
      <trkpt lat="51.29048" lon="4.80860"></trkpt>
      <trkpt lat="51.29052" lon="4.80872"></trkpt>
      <trkpt lat="51.29056" lon="4.80884"></trkpt>
      <trkpt lat="51.29059" lon="4.80896"></trkpt>
      <trkpt lat="51.29063" lon="4.80908"></trkpt>
      <trkpt lat="51.29069" lon="4.80917"></trkpt>
      <trkpt lat="51.29076" lon="4.80918"></trkpt>
      <trkpt lat="51.29082" lon="4.80915"></trkpt>
      <trkpt lat="51.29089" lon="4.80912"></trkpt>
      <trkpt lat="51.29097" lon="4.80908"></trkpt>
      <trkpt lat="51.29105" lon="4.80905"></trkpt>
      <trkpt lat="51.29113" lon="4.80903"></trkpt>
      <trkpt lat="51.29120" lon="4.80904"></trkpt>
      <trkpt lat="51.29128" lon="4.80901"></trkpt>
      <trkpt lat="51.29136" lon="4.80898"></trkpt>
      <trkpt lat="51.29145" lon="4.80896"></trkpt>
      <trkpt lat="51.29154" lon="4.80893"></trkpt>
      <trkpt lat="51.29162" lon="4.80890"></trkpt>
      <trkpt lat="51.29170" lon="4.80887"></trkpt>
      <trkpt lat="51.29178" lon="4.80885"></trkpt>
      <trkpt lat="51.29186" lon="4.80883"></trkpt>
      <trkpt lat="51.29194" lon="4.80881"></trkpt>
      <trkpt lat="51.29203" lon="4.80878"></trkpt>
      <trkpt lat="51.29210" lon="4.80874"></trkpt>
      <trkpt lat="51.29219" lon="4.80872"></trkpt>
      <trkpt lat="51.29227" lon="4.80869"></trkpt>
      <trkpt lat="51.29235" lon="4.80866"></trkpt>
      <trkpt lat="51.29243" lon="4.80863"></trkpt>
      <trkpt lat="51.29251" lon="4.80859"></trkpt>
      <trkpt lat="51.29259" lon="4.80857"></trkpt>
      <trkpt lat="51.29267" lon="4.80854"></trkpt>
      <trkpt lat="51.29275" lon="4.80851"></trkpt>
      <trkpt lat="51.29283" lon="4.80848"></trkpt>
      <trkpt lat="51.29291" lon="4.80845"></trkpt>
      <trkpt lat="51.29300" lon="4.80844"></trkpt>
      <trkpt lat="51.29308" lon="4.80840"></trkpt>
      <trkpt lat="51.29315" lon="4.80837"></trkpt>
      <trkpt lat="51.29323" lon="4.80834"></trkpt>
      <trkpt lat="51.29331" lon="4.80831"></trkpt>
      <trkpt lat="51.29339" lon="4.80826"></trkpt>
      <trkpt lat="51.29348" lon="4.80823"></trkpt>
      <trkpt lat="51.29356" lon="4.80821"></trkpt>
      <trkpt lat="51.29365" lon="4.80819"></trkpt>
      <trkpt lat="51.29374" lon="4.80817"></trkpt>
      <trkpt lat="51.29383" lon="4.80815"></trkpt>
      <trkpt lat="51.29391" lon="4.80818"></trkpt>
      <trkpt lat="51.29397" lon="4.80829"></trkpt>
      <trkpt lat="51.29402" lon="4.80841"></trkpt>
      <trkpt lat="51.29406" lon="4.80853"></trkpt>
      <trkpt lat="51.29410" lon="4.80864"></trkpt>
      <trkpt lat="51.29414" lon="4.80876"></trkpt>
      <trkpt lat="51.29419" lon="4.80888"></trkpt>
      <trkpt lat="51.29423" lon="4.80899"></trkpt>
      <trkpt lat="51.29427" lon="4.80911"></trkpt>
      <trkpt lat="51.29432" lon="4.80921"></trkpt>
      <trkpt lat="51.29439" lon="4.80925"></trkpt>
      <trkpt lat="51.29447" lon="4.80924"></trkpt>
      <trkpt lat="51.29456" lon="4.80924"></trkpt>
      <trkpt lat="51.29463" lon="4.80929"></trkpt>
      <trkpt lat="51.29467" lon="4.80939"></trkpt>
      <trkpt lat="51.29471" lon="4.80951"></trkpt>
      <trkpt lat="51.29474" lon="4.80962"></trkpt>
      <trkpt lat="51.29478" lon="4.80974"></trkpt>
      <trkpt lat="51.29482" lon="4.80986"></trkpt>
      <trkpt lat="51.29487" lon="4.80998"></trkpt>
      <trkpt lat="51.29491" lon="4.81010"></trkpt>
      <trkpt lat="51.29496" lon="4.81020"></trkpt>
      <trkpt lat="51.29500" lon="4.81031"></trkpt>
      <trkpt lat="51.29505" lon="4.81040"></trkpt>
      <trkpt lat="51.29508" lon="4.81044"></trkpt>
      <trkpt lat="51.29512" lon="4.81044"></trkpt>
      <trkpt lat="51.29517" lon="4.81041"></trkpt>
      <trkpt lat="51.29517" lon="4.81040"></trkpt>
      <trkpt lat="51.29516" lon="4.81040"></trkpt>
      <trkpt lat="51.29514" lon="4.81042"></trkpt>
      <trkpt lat="51.29511" lon="4.81045"></trkpt>
      <trkpt lat="51.29510" lon="4.81057"></trkpt>
      <trkpt lat="51.29513" lon="4.81070"></trkpt>
      <trkpt lat="51.29516" lon="4.81081"></trkpt>
      <trkpt lat="51.29519" lon="4.81091"></trkpt>
      <trkpt lat="51.29523" lon="4.81102"></trkpt>
      <trkpt lat="51.29528" lon="4.81115"></trkpt>
      <trkpt lat="51.29532" lon="4.81127"></trkpt>
      <trkpt lat="51.29536" lon="4.81138"></trkpt>
      <trkpt lat="51.29541" lon="4.81150"></trkpt>
      <trkpt lat="51.29544" lon="4.81162"></trkpt>
      <trkpt lat="51.29548" lon="4.81174"></trkpt>
      <trkpt lat="51.29552" lon="4.81186"></trkpt>
      <trkpt lat="51.29557" lon="4.81197"></trkpt>
      <trkpt lat="51.29562" lon="4.81209"></trkpt>
      <trkpt lat="51.29566" lon="4.81219"></trkpt>
      <trkpt lat="51.29570" lon="4.81232"></trkpt>
      <trkpt lat="51.29573" lon="4.81244"></trkpt>
      <trkpt lat="51.29577" lon="4.81256"></trkpt>
      <trkpt lat="51.29581" lon="4.81268"></trkpt>
      <trkpt lat="51.29583" lon="4.81281"></trkpt>
      <trkpt lat="51.29581" lon="4.81293"></trkpt>
      <trkpt lat="51.29572" lon="4.81297"></trkpt>
      <trkpt lat="51.29564" lon="4.81299"></trkpt>
      <trkpt lat="51.29555" lon="4.81300"></trkpt>
      <trkpt lat="51.29546" lon="4.81300"></trkpt>
      <trkpt lat="51.29538" lon="4.81300"></trkpt>
      <trkpt lat="51.29530" lon="4.81300"></trkpt>
      <trkpt lat="51.29523" lon="4.81300"></trkpt>
      <trkpt lat="51.29521" lon="4.81302"></trkpt>
      <trkpt lat="51.29518" lon="4.81306"></trkpt>
      <trkpt lat="51.29513" lon="4.81315"></trkpt>
      <trkpt lat="51.29508" lon="4.81326"></trkpt>
      <trkpt lat="51.29503" lon="4.81338"></trkpt>
      <trkpt lat="51.29497" lon="4.81350"></trkpt>
      <trkpt lat="51.29491" lon="4.81363"></trkpt>
      <trkpt lat="51.29486" lon="4.81375"></trkpt>
      <trkpt lat="51.29480" lon="4.81385"></trkpt>
      <trkpt lat="51.29475" lon="4.81395"></trkpt>
      <trkpt lat="51.29470" lon="4.81405"></trkpt>
      <trkpt lat="51.29465" lon="4.81416"></trkpt>
      <trkpt lat="51.29459" lon="4.81427"></trkpt>
      <trkpt lat="51.29452" lon="4.81437"></trkpt>
      <trkpt lat="51.29447" lon="4.81446"></trkpt>
      <trkpt lat="51.29445" lon="4.81454"></trkpt>
      <trkpt lat="51.29449" lon="4.81462"></trkpt>
      <trkpt lat="51.29457" lon="4.81465"></trkpt>
      <trkpt lat="51.29465" lon="4.81469"></trkpt>
      <trkpt lat="51.29472" lon="4.81477"></trkpt>
      <trkpt lat="51.29478" lon="4.81486"></trkpt>
      <trkpt lat="51.29483" lon="4.81495"></trkpt>
      <trkpt lat="51.29489" lon="4.81505"></trkpt>
      <trkpt lat="51.29493" lon="4.81518"></trkpt>
      <trkpt lat="51.29496" lon="4.81531"></trkpt>
      <trkpt lat="51.29496" lon="4.81542"></trkpt>
      <trkpt lat="51.29497" lon="4.81549"></trkpt>
      <trkpt lat="51.29497" lon="4.81555"></trkpt>
      <trkpt lat="51.29498" lon="4.81562"></trkpt>
      <trkpt lat="51.29498" lon="4.81569"></trkpt>
      <trkpt lat="51.29498" lon="4.81576"></trkpt>
      <trkpt lat="51.29497" lon="4.81582"></trkpt>
      <trkpt lat="51.29497" lon="4.81589"></trkpt>
      <trkpt lat="51.29497" lon="4.81595"></trkpt>
      <trkpt lat="51.29496" lon="4.81602"></trkpt>
      <trkpt lat="51.29495" lon="4.81608"></trkpt>
      <trkpt lat="51.29494" lon="4.81615"></trkpt>
      <trkpt lat="51.29494" lon="4.81622"></trkpt>
      <trkpt lat="51.29493" lon="4.81629"></trkpt>
      <trkpt lat="51.29492" lon="4.81635"></trkpt>
      <trkpt lat="51.29491" lon="4.81641"></trkpt>
      <trkpt lat="51.29490" lon="4.81648"></trkpt>
      <trkpt lat="51.29489" lon="4.81655"></trkpt>
      <trkpt lat="51.29488" lon="4.81662"></trkpt>
      <trkpt lat="51.29487" lon="4.81670"></trkpt>
      <trkpt lat="51.29486" lon="4.81676"></trkpt>
      <trkpt lat="51.29485" lon="4.81682"></trkpt>
      <trkpt lat="51.29484" lon="4.81688"></trkpt>
      <trkpt lat="51.29483" lon="4.81695"></trkpt>
      <trkpt lat="51.29482" lon="4.81702"></trkpt>
      <trkpt lat="51.29481" lon="4.81712"></trkpt>
      <trkpt lat="51.29479" lon="4.81724"></trkpt>
      <trkpt lat="51.29476" lon="4.81737"></trkpt>
      <trkpt lat="51.29473" lon="4.81749"></trkpt>
      <trkpt lat="51.29471" lon="4.81763"></trkpt>
      <trkpt lat="51.29470" lon="4.81775"></trkpt>
      <trkpt lat="51.29465" lon="4.81786"></trkpt>
      <trkpt lat="51.29459" lon="4.81795"></trkpt>
      <trkpt lat="51.29452" lon="4.81805"></trkpt>
      <trkpt lat="51.29446" lon="4.81814"></trkpt>
      <trkpt lat="51.29440" lon="4.81822"></trkpt>
      <trkpt lat="51.29433" lon="4.81832"></trkpt>
      <trkpt lat="51.29426" lon="4.81840"></trkpt>
      <trkpt lat="51.29418" lon="4.81846"></trkpt>
      <trkpt lat="51.29409" lon="4.81846"></trkpt>
      <trkpt lat="51.29401" lon="4.81843"></trkpt>
      <trkpt lat="51.29392" lon="4.81839"></trkpt>
      <trkpt lat="51.29384" lon="4.81836"></trkpt>
      <trkpt lat="51.29376" lon="4.81834"></trkpt>
      <trkpt lat="51.29369" lon="4.81834"></trkpt>
      <trkpt lat="51.29361" lon="4.81832"></trkpt>
      <trkpt lat="51.29352" lon="4.81830"></trkpt>
      <trkpt lat="51.29344" lon="4.81827"></trkpt>
      <trkpt lat="51.29335" lon="4.81824"></trkpt>
      <trkpt lat="51.29327" lon="4.81823"></trkpt>
      <trkpt lat="51.29318" lon="4.81820"></trkpt>
      <trkpt lat="51.29310" lon="4.81818"></trkpt>
      <trkpt lat="51.29302" lon="4.81816"></trkpt>
      <trkpt lat="51.29293" lon="4.81815"></trkpt>
      <trkpt lat="51.29284" lon="4.81813"></trkpt>
      <trkpt lat="51.29275" lon="4.81810"></trkpt>
      <trkpt lat="51.29267" lon="4.81809"></trkpt>
      <trkpt lat="51.29258" lon="4.81808"></trkpt>
      <trkpt lat="51.29250" lon="4.81806"></trkpt>
      <trkpt lat="51.29241" lon="4.81804"></trkpt>
      <trkpt lat="51.29232" lon="4.81802"></trkpt>
      <trkpt lat="51.29223" lon="4.81801"></trkpt>
      <trkpt lat="51.29215" lon="4.81799"></trkpt>
      <trkpt lat="51.29206" lon="4.81798"></trkpt>
      <trkpt lat="51.29198" lon="4.81796"></trkpt>
      <trkpt lat="51.29190" lon="4.81795"></trkpt>
      <trkpt lat="51.29182" lon="4.81792"></trkpt>
      <trkpt lat="51.29174" lon="4.81790"></trkpt>
      <trkpt lat="51.29165" lon="4.81788"></trkpt>
      <trkpt lat="51.29156" lon="4.81786"></trkpt>
      <trkpt lat="51.29148" lon="4.81785"></trkpt>
      <trkpt lat="51.29139" lon="4.81782"></trkpt>
      <trkpt lat="51.29131" lon="4.81780"></trkpt>
      <trkpt lat="51.29122" lon="4.81778"></trkpt>
      <trkpt lat="51.29114" lon="4.81775"></trkpt>
      <trkpt lat="51.29105" lon="4.81772"></trkpt>
      <trkpt lat="51.29097" lon="4.81768"></trkpt>
      <trkpt lat="51.29089" lon="4.81765"></trkpt>
      <trkpt lat="51.29081" lon="4.81764"></trkpt>
      <trkpt lat="51.29073" lon="4.81763"></trkpt>
      <trkpt lat="51.29065" lon="4.81761"></trkpt>
      <trkpt lat="51.29056" lon="4.81760"></trkpt>
      <trkpt lat="51.29048" lon="4.81759"></trkpt>
      <trkpt lat="51.29039" lon="4.81757"></trkpt>
      <trkpt lat="51.29030" lon="4.81753"></trkpt>
      <trkpt lat="51.29022" lon="4.81750"></trkpt>
      <trkpt lat="51.29014" lon="4.81748"></trkpt>
      <trkpt lat="51.29007" lon="4.81746"></trkpt>
      <trkpt lat="51.29002" lon="4.81745"></trkpt>
      <trkpt lat="51.29001" lon="4.81744"></trkpt>
      <trkpt lat="51.28997" lon="4.81743"></trkpt>
      <trkpt lat="51.28988" lon="4.81741"></trkpt>
      <trkpt lat="51.28980" lon="4.81739"></trkpt>
      <trkpt lat="51.28971" lon="4.81738"></trkpt>
      <trkpt lat="51.28963" lon="4.81736"></trkpt>
      <trkpt lat="51.28954" lon="4.81733"></trkpt>
      <trkpt lat="51.28945" lon="4.81731"></trkpt>
      <trkpt lat="51.28937" lon="4.81729"></trkpt>
      <trkpt lat="51.28928" lon="4.81728"></trkpt>
      <trkpt lat="51.28919" lon="4.81727"></trkpt>
      <trkpt lat="51.28911" lon="4.81725"></trkpt>
      <trkpt lat="51.28902" lon="4.81721"></trkpt>
      <trkpt lat="51.28893" lon="4.81719"></trkpt>
      <trkpt lat="51.28885" lon="4.81716"></trkpt>
      <trkpt lat="51.28876" lon="4.81713"></trkpt>
      <trkpt lat="51.28867" lon="4.81711"></trkpt>
      <trkpt lat="51.28859" lon="4.81709"></trkpt>
      <trkpt lat="51.28850" lon="4.81707"></trkpt>
      <trkpt lat="51.28841" lon="4.81705"></trkpt>
      <trkpt lat="51.28833" lon="4.81704"></trkpt>
      <trkpt lat="51.28825" lon="4.81701"></trkpt>
      <trkpt lat="51.28817" lon="4.81699"></trkpt>
      <trkpt lat="51.28810" lon="4.81697"></trkpt>
      <trkpt lat="51.28801" lon="4.81694"></trkpt>
      <trkpt lat="51.28795" lon="4.81693"></trkpt>
      <trkpt lat="51.28791" lon="4.81693"></trkpt>
      <trkpt lat="51.28786" lon="4.81693"></trkpt>
      <trkpt lat="51.28779" lon="4.81692"></trkpt>
      <trkpt lat="51.28770" lon="4.81691"></trkpt>
      <trkpt lat="51.28761" lon="4.81688"></trkpt>
      <trkpt lat="51.28752" lon="4.81686"></trkpt>
      <trkpt lat="51.28744" lon="4.81684"></trkpt>
      <trkpt lat="51.28735" lon="4.81681"></trkpt>
      <trkpt lat="51.28726" lon="4.81679"></trkpt>
      <trkpt lat="51.28717" lon="4.81677"></trkpt>
      <trkpt lat="51.28708" lon="4.81676"></trkpt>
      <trkpt lat="51.28700" lon="4.81674"></trkpt>
      <trkpt lat="51.28691" lon="4.81672"></trkpt>
      <trkpt lat="51.28683" lon="4.81671"></trkpt>
      <trkpt lat="51.28676" lon="4.81669"></trkpt>
      <trkpt lat="51.28668" lon="4.81668"></trkpt>
      <trkpt lat="51.28660" lon="4.81666"></trkpt>
      <trkpt lat="51.28652" lon="4.81664"></trkpt>
      <trkpt lat="51.28643" lon="4.81663"></trkpt>
      <trkpt lat="51.28636" lon="4.81660"></trkpt>
      <trkpt lat="51.28628" lon="4.81657"></trkpt>
      <trkpt lat="51.28618" lon="4.81655"></trkpt>
      <trkpt lat="51.28609" lon="4.81655"></trkpt>
      <trkpt lat="51.28603" lon="4.81652"></trkpt>
      <trkpt lat="51.28600" lon="4.81648"></trkpt>
      <trkpt lat="51.28598" lon="4.81647"></trkpt>
      <trkpt lat="51.28598" lon="4.81649"></trkpt>
      <trkpt lat="51.28596" lon="4.81659"></trkpt>
      <trkpt lat="51.28594" lon="4.81672"></trkpt>
      <trkpt lat="51.28592" lon="4.81685"></trkpt>
      <trkpt lat="51.28590" lon="4.81698"></trkpt>
      <trkpt lat="51.28587" lon="4.81710"></trkpt>
      <trkpt lat="51.28584" lon="4.81723"></trkpt>
      <trkpt lat="51.28582" lon="4.81736"></trkpt>
      <trkpt lat="51.28579" lon="4.81748"></trkpt>
      <trkpt lat="51.28577" lon="4.81761"></trkpt>
      <trkpt lat="51.28575" lon="4.81773"></trkpt>
      <trkpt lat="51.28573" lon="4.81786"></trkpt>
      <trkpt lat="51.28570" lon="4.81799"></trkpt>
      <trkpt lat="51.28568" lon="4.81813"></trkpt>
      <trkpt lat="51.28566" lon="4.81826"></trkpt>
      <trkpt lat="51.28563" lon="4.81839"></trkpt>
      <trkpt lat="51.28561" lon="4.81851"></trkpt>
      <trkpt lat="51.28558" lon="4.81863"></trkpt>
      <trkpt lat="51.28556" lon="4.81874"></trkpt>
      <trkpt lat="51.28553" lon="4.81887"></trkpt>
      <trkpt lat="51.28551" lon="4.81900"></trkpt>
      <trkpt lat="51.28549" lon="4.81913"></trkpt>
      <trkpt lat="51.28547" lon="4.81927"></trkpt>
      <trkpt lat="51.28544" lon="4.81939"></trkpt>
      <trkpt lat="51.28542" lon="4.81952"></trkpt>
      <trkpt lat="51.28540" lon="4.81964"></trkpt>
      <trkpt lat="51.28538" lon="4.81976"></trkpt>
      <trkpt lat="51.28535" lon="4.81988"></trkpt>
      <trkpt lat="51.28532" lon="4.82001"></trkpt>
      <trkpt lat="51.28530" lon="4.82013"></trkpt>
      <trkpt lat="51.28527" lon="4.82025"></trkpt>
      <trkpt lat="51.28524" lon="4.82038"></trkpt>
      <trkpt lat="51.28521" lon="4.82052"></trkpt>
      <trkpt lat="51.28517" lon="4.82065"></trkpt>
      <trkpt lat="51.28515" lon="4.82078"></trkpt>
      <trkpt lat="51.28513" lon="4.82090"></trkpt>
      <trkpt lat="51.28510" lon="4.82104"></trkpt>
      <trkpt lat="51.28507" lon="4.82116"></trkpt>
      <trkpt lat="51.28504" lon="4.82128"></trkpt>
      <trkpt lat="51.28501" lon="4.82141"></trkpt>
      <trkpt lat="51.28499" lon="4.82153"></trkpt>
      <trkpt lat="51.28496" lon="4.82165"></trkpt>
      <trkpt lat="51.28494" lon="4.82177"></trkpt>
      <trkpt lat="51.28493" lon="4.82190"></trkpt>
      <trkpt lat="51.28490" lon="4.82201"></trkpt>
      <trkpt lat="51.28488" lon="4.82212"></trkpt>
      <trkpt lat="51.28485" lon="4.82223"></trkpt>
      <trkpt lat="51.28483" lon="4.82234"></trkpt>
      <trkpt lat="51.28480" lon="4.82245"></trkpt>
      <trkpt lat="51.28478" lon="4.82254"></trkpt>
      <trkpt lat="51.28477" lon="4.82261"></trkpt>
      <trkpt lat="51.28476" lon="4.82267"></trkpt>
      <trkpt lat="51.28474" lon="4.82274"></trkpt>
      <trkpt lat="51.28474" lon="4.82281"></trkpt>
      <trkpt lat="51.28473" lon="4.82287"></trkpt>
      <trkpt lat="51.28472" lon="4.82293"></trkpt>
      <trkpt lat="51.28471" lon="4.82300"></trkpt>
      <trkpt lat="51.28470" lon="4.82307"></trkpt>
      <trkpt lat="51.28469" lon="4.82315"></trkpt>
      <trkpt lat="51.28468" lon="4.82322"></trkpt>
      <trkpt lat="51.28467" lon="4.82329"></trkpt>
      <trkpt lat="51.28464" lon="4.82336"></trkpt>
      <trkpt lat="51.28462" lon="4.82343"></trkpt>
      <trkpt lat="51.28460" lon="4.82350"></trkpt>
      <trkpt lat="51.28457" lon="4.82356"></trkpt>
      <trkpt lat="51.28455" lon="4.82363"></trkpt>
      <trkpt lat="51.28452" lon="4.82369"></trkpt>
      <trkpt lat="51.28448" lon="4.82377"></trkpt>
      <trkpt lat="51.28443" lon="4.82388"></trkpt>
      <trkpt lat="51.28438" lon="4.82401"></trkpt>
      <trkpt lat="51.28433" lon="4.82414"></trkpt>
      <trkpt lat="51.28428" lon="4.82425"></trkpt>
      <trkpt lat="51.28423" lon="4.82437"></trkpt>
      <trkpt lat="51.28420" lon="4.82450"></trkpt>
      <trkpt lat="51.28416" lon="4.82463"></trkpt>
      <trkpt lat="51.28414" lon="4.82476"></trkpt>
      <trkpt lat="51.28410" lon="4.82488"></trkpt>
      <trkpt lat="51.28407" lon="4.82500"></trkpt>
      <trkpt lat="51.28403" lon="4.82513"></trkpt>
      <trkpt lat="51.28399" lon="4.82525"></trkpt>
      <trkpt lat="51.28397" lon="4.82537"></trkpt>
      <trkpt lat="51.28393" lon="4.82549"></trkpt>
      <trkpt lat="51.28390" lon="4.82562"></trkpt>
      <trkpt lat="51.28386" lon="4.82575"></trkpt>
      <trkpt lat="51.28383" lon="4.82588"></trkpt>
      <trkpt lat="51.28380" lon="4.82601"></trkpt>
      <trkpt lat="51.28378" lon="4.82615"></trkpt>
      <trkpt lat="51.28375" lon="4.82627"></trkpt>
      <trkpt lat="51.28370" lon="4.82639"></trkpt>
      <trkpt lat="51.28366" lon="4.82649"></trkpt>
      <trkpt lat="51.28362" lon="4.82660"></trkpt>
      <trkpt lat="51.28358" lon="4.82673"></trkpt>
      <trkpt lat="51.28356" lon="4.82687"></trkpt>
      <trkpt lat="51.28353" lon="4.82699"></trkpt>
      <trkpt lat="51.28351" lon="4.82713"></trkpt>
      <trkpt lat="51.28350" lon="4.82726"></trkpt>
      <trkpt lat="51.28347" lon="4.82739"></trkpt>
      <trkpt lat="51.28343" lon="4.82753"></trkpt>
      <trkpt lat="51.28339" lon="4.82766"></trkpt>
      <trkpt lat="51.28335" lon="4.82778"></trkpt>
      <trkpt lat="51.28331" lon="4.82790"></trkpt>
      <trkpt lat="51.28327" lon="4.82802"></trkpt>
      <trkpt lat="51.28323" lon="4.82815"></trkpt>
      <trkpt lat="51.28318" lon="4.82827"></trkpt>
      <trkpt lat="51.28313" lon="4.82838"></trkpt>
      <trkpt lat="51.28309" lon="4.82848"></trkpt>
      <trkpt lat="51.28305" lon="4.82858"></trkpt>
      <trkpt lat="51.28301" lon="4.82868"></trkpt>
      <trkpt lat="51.28298" lon="4.82875"></trkpt>
      <trkpt lat="51.28296" lon="4.82880"></trkpt>
      <trkpt lat="51.28297" lon="4.82889"></trkpt>
      <trkpt lat="51.28300" lon="4.82902"></trkpt>
      <trkpt lat="51.28303" lon="4.82915"></trkpt>
      <trkpt lat="51.28308" lon="4.82927"></trkpt>
      <trkpt lat="51.28311" lon="4.82940"></trkpt>
      <trkpt lat="51.28314" lon="4.82954"></trkpt>
      <trkpt lat="51.28317" lon="4.82966"></trkpt>
      <trkpt lat="51.28321" lon="4.82979"></trkpt>
      <trkpt lat="51.28324" lon="4.82992"></trkpt>
      <trkpt lat="51.28327" lon="4.83005"></trkpt>
      <trkpt lat="51.28331" lon="4.83019"></trkpt>
      <trkpt lat="51.28333" lon="4.83032"></trkpt>
      <trkpt lat="51.28335" lon="4.83044"></trkpt>
      <trkpt lat="51.28338" lon="4.83057"></trkpt>
      <trkpt lat="51.28339" lon="4.83071"></trkpt>
      <trkpt lat="51.28340" lon="4.83086"></trkpt>
      <trkpt lat="51.28337" lon="4.83100"></trkpt>
      <trkpt lat="51.28331" lon="4.83112"></trkpt>
      <trkpt lat="51.28326" lon="4.83123"></trkpt>
      <trkpt lat="51.28319" lon="4.83132"></trkpt>
      <trkpt lat="51.28313" lon="4.83142"></trkpt>
      <trkpt lat="51.28307" lon="4.83153"></trkpt>
      <trkpt lat="51.28301" lon="4.83163"></trkpt>
      <trkpt lat="51.28294" lon="4.83173"></trkpt>
      <trkpt lat="51.28289" lon="4.83183"></trkpt>
      <trkpt lat="51.28282" lon="4.83193"></trkpt>
      <trkpt lat="51.28276" lon="4.83203"></trkpt>
      <trkpt lat="51.28271" lon="4.83214"></trkpt>
      <trkpt lat="51.28264" lon="4.83225"></trkpt>
      <trkpt lat="51.28259" lon="4.83235"></trkpt>
      <trkpt lat="51.28254" lon="4.83246"></trkpt>
      <trkpt lat="51.28247" lon="4.83257"></trkpt>
      <trkpt lat="51.28241" lon="4.83268"></trkpt>
      <trkpt lat="51.28242" lon="4.83280"></trkpt>
      <trkpt lat="51.28249" lon="4.83290"></trkpt>
      <trkpt lat="51.28255" lon="4.83300"></trkpt>
      <trkpt lat="51.28260" lon="4.83311"></trkpt>
      <trkpt lat="51.28265" lon="4.83322"></trkpt>
      <trkpt lat="51.28270" lon="4.83334"></trkpt>
      <trkpt lat="51.28275" lon="4.83346"></trkpt>
      <trkpt lat="51.28280" lon="4.83357"></trkpt>
      <trkpt lat="51.28284" lon="4.83368"></trkpt>
      <trkpt lat="51.28289" lon="4.83378"></trkpt>
      <trkpt lat="51.28294" lon="4.83389"></trkpt>
      <trkpt lat="51.28299" lon="4.83399"></trkpt>
      <trkpt lat="51.28304" lon="4.83410"></trkpt>
      <trkpt lat="51.28308" lon="4.83421"></trkpt>
      <trkpt lat="51.28313" lon="4.83433"></trkpt>
      <trkpt lat="51.28320" lon="4.83444"></trkpt>
      <trkpt lat="51.28326" lon="4.83455"></trkpt>
      <trkpt lat="51.28330" lon="4.83465"></trkpt>
      <trkpt lat="51.28336" lon="4.83475"></trkpt>
      <trkpt lat="51.28344" lon="4.83482"></trkpt>
      <trkpt lat="51.28352" lon="4.83489"></trkpt>
      <trkpt lat="51.28359" lon="4.83498"></trkpt>
      <trkpt lat="51.28366" lon="4.83507"></trkpt>
      <trkpt lat="51.28374" lon="4.83516"></trkpt>
      <trkpt lat="51.28381" lon="4.83525"></trkpt>
      <trkpt lat="51.28388" lon="4.83533"></trkpt>
      <trkpt lat="51.28394" lon="4.83541"></trkpt>
      <trkpt lat="51.28401" lon="4.83550"></trkpt>
      <trkpt lat="51.28409" lon="4.83558"></trkpt>
      <trkpt lat="51.28416" lon="4.83565"></trkpt>
      <trkpt lat="51.28422" lon="4.83572"></trkpt>
      <trkpt lat="51.28428" lon="4.83579"></trkpt>
      <trkpt lat="51.28435" lon="4.83584"></trkpt>
      <trkpt lat="51.28444" lon="4.83584"></trkpt>
      <trkpt lat="51.28453" lon="4.83588"></trkpt>
      <trkpt lat="51.28461" lon="4.83594"></trkpt>
      <trkpt lat="51.28469" lon="4.83600"></trkpt>
      <trkpt lat="51.28477" lon="4.83605"></trkpt>
      <trkpt lat="51.28485" lon="4.83609"></trkpt>
      <trkpt lat="51.28492" lon="4.83613"></trkpt>
      <trkpt lat="51.28500" lon="4.83618"></trkpt>
      <trkpt lat="51.28508" lon="4.83623"></trkpt>
      <trkpt lat="51.28516" lon="4.83627"></trkpt>
      <trkpt lat="51.28524" lon="4.83631"></trkpt>
      <trkpt lat="51.28532" lon="4.83636"></trkpt>
      <trkpt lat="51.28539" lon="4.83641"></trkpt>
      <trkpt lat="51.28547" lon="4.83646"></trkpt>
      <trkpt lat="51.28555" lon="4.83650"></trkpt>
      <trkpt lat="51.28563" lon="4.83655"></trkpt>
      <trkpt lat="51.28571" lon="4.83661"></trkpt>
      <trkpt lat="51.28579" lon="4.83666"></trkpt>
      <trkpt lat="51.28587" lon="4.83670"></trkpt>
      <trkpt lat="51.28595" lon="4.83674"></trkpt>
      <trkpt lat="51.28603" lon="4.83677"></trkpt>
      <trkpt lat="51.28611" lon="4.83681"></trkpt>
      <trkpt lat="51.28619" lon="4.83687"></trkpt>
      <trkpt lat="51.28627" lon="4.83693"></trkpt>
      <trkpt lat="51.28635" lon="4.83698"></trkpt>
      <trkpt lat="51.28643" lon="4.83702"></trkpt>
      <trkpt lat="51.28651" lon="4.83707"></trkpt>
      <trkpt lat="51.28659" lon="4.83712"></trkpt>
      <trkpt lat="51.28667" lon="4.83717"></trkpt>
      <trkpt lat="51.28675" lon="4.83721"></trkpt>
      <trkpt lat="51.28684" lon="4.83725"></trkpt>
      <trkpt lat="51.28692" lon="4.83729"></trkpt>
      <trkpt lat="51.28699" lon="4.83735"></trkpt>
      <trkpt lat="51.28707" lon="4.83739"></trkpt>
      <trkpt lat="51.28714" lon="4.83744"></trkpt>
      <trkpt lat="51.28722" lon="4.83749"></trkpt>
      <trkpt lat="51.28729" lon="4.83753"></trkpt>
      <trkpt lat="51.28737" lon="4.83758"></trkpt>
      <trkpt lat="51.28745" lon="4.83763"></trkpt>
      <trkpt lat="51.28753" lon="4.83767"></trkpt>
      <trkpt lat="51.28760" lon="4.83771"></trkpt>
      <trkpt lat="51.28768" lon="4.83774"></trkpt>
      <trkpt lat="51.28775" lon="4.83778"></trkpt>
      <trkpt lat="51.28783" lon="4.83784"></trkpt>
      <trkpt lat="51.28791" lon="4.83788"></trkpt>
      <trkpt lat="51.28798" lon="4.83792"></trkpt>
      <trkpt lat="51.28806" lon="4.83796"></trkpt>
      <trkpt lat="51.28814" lon="4.83801"></trkpt>
      <trkpt lat="51.28822" lon="4.83807"></trkpt>
      <trkpt lat="51.28831" lon="4.83809"></trkpt>
      <trkpt lat="51.28839" lon="4.83806"></trkpt>
      <trkpt lat="51.28846" lon="4.83797"></trkpt>
      <trkpt lat="51.28853" lon="4.83790"></trkpt>
      <trkpt lat="51.28862" lon="4.83789"></trkpt>
      <trkpt lat="51.28870" lon="4.83792"></trkpt>
      <trkpt lat="51.28877" lon="4.83800"></trkpt>
      <trkpt lat="51.28884" lon="4.83811"></trkpt>
      <trkpt lat="51.28889" lon="4.83822"></trkpt>
      <trkpt lat="51.28895" lon="4.83833"></trkpt>
      <trkpt lat="51.28900" lon="4.83845"></trkpt>
      <trkpt lat="51.28905" lon="4.83856"></trkpt>
      <trkpt lat="51.28910" lon="4.83867"></trkpt>
      <trkpt lat="51.28914" lon="4.83879"></trkpt>
      <trkpt lat="51.28920" lon="4.83890"></trkpt>
      <trkpt lat="51.28927" lon="4.83900"></trkpt>
      <trkpt lat="51.28933" lon="4.83911"></trkpt>
      <trkpt lat="51.28938" lon="4.83921"></trkpt>
      <trkpt lat="51.28944" lon="4.83931"></trkpt>
      <trkpt lat="51.28950" lon="4.83942"></trkpt>
      <trkpt lat="51.28955" lon="4.83953"></trkpt>
      <trkpt lat="51.28959" lon="4.83965"></trkpt>
      <trkpt lat="51.28961" lon="4.83970"></trkpt>
      <trkpt lat="51.28959" lon="4.83966"></trkpt>
      <trkpt lat="51.28956" lon="4.83960"></trkpt>
      <trkpt lat="51.28951" lon="4.83952"></trkpt>
      <trkpt lat="51.28947" lon="4.83946"></trkpt>
    </trkseg>
  </trk>
</gpx>