<?xml version="1.0" encoding="UTF-8"?>
<gpx version="1.1" creator="jeffry.running" xmlns="http://www.topografix.com/GPX/1/1">
  <metadata><time>2026-09-08T11:08:02.123Z</time></metadata>
  <trk>
    <trkseg>
      <trkpt lat="51.19999" lon="4.45805"></trkpt>
      <trkpt lat="51.20000" lon="4.45809"></trkpt>
      <trkpt lat="51.20000" lon="4.45812"></trkpt>
      <trkpt lat="51.20000" lon="4.45815"></trkpt>
      <trkpt lat="51.20001" lon="4.45819"></trkpt>
      <trkpt lat="51.20001" lon="4.45822"></trkpt>
      <trkpt lat="51.20002" lon="4.45825"></trkpt>
      <trkpt lat="51.20002" lon="4.45828"></trkpt>
      <trkpt lat="51.20002" lon="4.45831"></trkpt>
      <trkpt lat="51.20003" lon="4.45834"></trkpt>
      <trkpt lat="51.20003" lon="4.45837"></trkpt>
      <trkpt lat="51.20004" lon="4.45841"></trkpt>
      <trkpt lat="51.20004" lon="4.45844"></trkpt>
      <trkpt lat="51.20005" lon="4.45848"></trkpt>
      <trkpt lat="51.20005" lon="4.45851"></trkpt>
      <trkpt lat="51.20005" lon="4.45854"></trkpt>
      <trkpt lat="51.20006" lon="4.45857"></trkpt>
      <trkpt lat="51.20007" lon="4.45860"></trkpt>
      <trkpt lat="51.20007" lon="4.45863"></trkpt>
      <trkpt lat="51.20007" lon="4.45867"></trkpt>
      <trkpt lat="51.20007" lon="4.45870"></trkpt>
      <trkpt lat="51.20008" lon="4.45874"></trkpt>
      <trkpt lat="51.20008" lon="4.45877"></trkpt>
      <trkpt lat="51.20008" lon="4.45880"></trkpt>
      <trkpt lat="51.20009" lon="4.45884"></trkpt>
      <trkpt lat="51.20009" lon="4.45887"></trkpt>
      <trkpt lat="51.20009" lon="4.45891"></trkpt>
      <trkpt lat="51.20009" lon="4.45894"></trkpt>
      <trkpt lat="51.20010" lon="4.45898"></trkpt>
      <trkpt lat="51.20010" lon="4.45901"></trkpt>
      <trkpt lat="51.20011" lon="4.45904"></trkpt>
      <trkpt lat="51.20011" lon="4.45908"></trkpt>
      <trkpt lat="51.20012" lon="4.45912"></trkpt>
      <trkpt lat="51.20013" lon="4.45915"></trkpt>
      <trkpt lat="51.20013" lon="4.45918"></trkpt>
      <trkpt lat="51.20013" lon="4.45922"></trkpt>
      <trkpt lat="51.20014" lon="4.45925"></trkpt>
      <trkpt lat="51.20014" lon="4.45928"></trkpt>
      <trkpt lat="51.20014" lon="4.45932"></trkpt>
      <trkpt lat="51.20015" lon="4.45935"></trkpt>
      <trkpt lat="51.20015" lon="4.45938"></trkpt>
      <trkpt lat="51.20016" lon="4.45942"></trkpt>
      <trkpt lat="51.20017" lon="4.45945"></trkpt>
      <trkpt lat="51.20017" lon="4.45949"></trkpt>
      <trkpt lat="51.20018" lon="4.45952"></trkpt>
      <trkpt lat="51.20017" lon="4.45956"></trkpt>
      <trkpt lat="51.20017" lon="4.45959"></trkpt>
      <trkpt lat="51.20017" lon="4.45962"></trkpt>
      <trkpt lat="51.20017" lon="4.45965"></trkpt>
      <trkpt lat="51.20017" lon="4.45967"></trkpt>
      <trkpt lat="51.20016" lon="4.45969"></trkpt>
      <trkpt lat="51.20016" lon="4.45970"></trkpt>
      <trkpt lat="51.20016" lon="4.45971"></trkpt>
      <trkpt lat="51.20016" lon="4.45972"></trkpt>
      <trkpt lat="51.20016" lon="4.45972"></trkpt>
      <trkpt lat="51.20016" lon="4.45973"></trkpt>
      <trkpt lat="51.20016" lon="4.45974"></trkpt>
      <trkpt lat="51.20016" lon="4.45974"></trkpt>
      <trkpt lat="51.20016" lon="4.45975"></trkpt>
      <trkpt lat="51.20016" lon="4.45975"></trkpt>
      <trkpt lat="51.20016" lon="4.45976"></trkpt>
      <trkpt lat="51.20016" lon="4.45977"></trkpt>
      <trkpt lat="51.20016" lon="4.45977"></trkpt>
      <trkpt lat="51.20015" lon="4.45978"></trkpt>
      <trkpt lat="51.20015" lon="4.45978"></trkpt>
      <trkpt lat="51.20014" lon="4.45982"></trkpt>
      <trkpt lat="51.20013" lon="4.45986"></trkpt>
      <trkpt lat="51.20012" lon="4.45991"></trkpt>
      <trkpt lat="51.20011" lon="4.45996"></trkpt>
      <trkpt lat="51.20010" lon="4.46000"></trkpt>
      <trkpt lat="51.20009" lon="4.46005"></trkpt>
      <trkpt lat="51.20008" lon="4.46009"></trkpt>
      <trkpt lat="51.20008" lon="4.46013"></trkpt>
      <trkpt lat="51.20008" lon="4.46017"></trkpt>
      <trkpt lat="51.20008" lon="4.46021"></trkpt>
      <trkpt lat="51.20009" lon="4.46024"></trkpt>
      <trkpt lat="51.20010" lon="4.46028"></trkpt>
      <trkpt lat="51.20011" lon="4.46031"></trkpt>
      <trkpt lat="51.20012" lon="4.46035"></trkpt>
      <trkpt lat="51.20013" lon="4.46039"></trkpt>
      <trkpt lat="51.20013" lon="4.46042"></trkpt>
      <trkpt lat="51.20013" lon="4.46046"></trkpt>
      <trkpt lat="51.20013" lon="4.46050"></trkpt>
      <trkpt lat="51.20014" lon="4.46053"></trkpt>
      <trkpt lat="51.20014" lon="4.46056"></trkpt>
      <trkpt lat="51.20015" lon="4.46060"></trkpt>
      <trkpt lat="51.20015" lon="4.46063"></trkpt>
      <trkpt lat="51.20015" lon="4.46067"></trkpt>
      <trkpt lat="51.20016" lon="4.46070"></trkpt>
      <trkpt lat="51.20016" lon="4.46073"></trkpt>
      <trkpt lat="51.20016" lon="4.46076"></trkpt>
      <trkpt lat="51.20017" lon="4.46079"></trkpt>
      <trkpt lat="51.20017" lon="4.46083"></trkpt>
      <trkpt lat="51.20017" lon="4.46086"></trkpt>
      <trkpt lat="51.20017" lon="4.46090"></trkpt>
      <trkpt lat="51.20017" lon="4.46093"></trkpt>
      <trkpt lat="51.20017" lon="4.46097"></trkpt>
      <trkpt lat="51.20017" lon="4.46100"></trkpt>
      <trkpt lat="51.20018" lon="4.46103"></trkpt>
      <trkpt lat="51.20018" lon="4.46106"></trkpt>
      <trkpt lat="51.20019" lon="4.46109"></trkpt>
      <trkpt lat="51.20019" lon="4.46112"></trkpt>
      <trkpt lat="51.20020" lon="4.46116"></trkpt>
      <trkpt lat="51.20020" lon="4.46119"></trkpt>
      <trkpt lat="51.20020" lon="4.46122"></trkpt>
      <trkpt lat="51.20020" lon="4.46125"></trkpt>
      <trkpt lat="51.20021" lon="4.46128"></trkpt>
      <trkpt lat="51.20021" lon="4.46131"></trkpt>
      <trkpt lat="51.20022" lon="4.46135"></trkpt>
      <trkpt lat="51.20022" lon="4.46138"></trkpt>
      <trkpt lat="51.20022" lon="4.46142"></trkpt>
      <trkpt lat="51.20023" lon="4.46145"></trkpt>
      <trkpt lat="51.20023" lon="4.46149"></trkpt>
      <trkpt lat="51.20023" lon="4.46152"></trkpt>
      <trkpt lat="51.20024" lon="4.46155"></trkpt>
      <trkpt lat="51.20024" lon="4.46158"></trkpt>
      <trkpt lat="51.20024" lon="4.46162"></trkpt>
      <trkpt lat="51.20025" lon="4.46165"></trkpt>
      <trkpt lat="51.20025" lon="4.46168"></trkpt>
      <trkpt lat="51.20025" lon="4.46172"></trkpt>
      <trkpt lat="51.20025" lon="4.46175"></trkpt>
      <trkpt lat="51.20025" lon="4.46179"></trkpt>
      <trkpt lat="51.20025" lon="4.46182"></trkpt>
      <trkpt lat="51.20026" lon="4.46185"></trkpt>
      <trkpt lat="51.20026" lon="4.46189"></trkpt>
      <trkpt lat="51.20026" lon="4.46192"></trkpt>
      <trkpt lat="51.20026" lon="4.46195"></trkpt>
      <trkpt lat="51.20027" lon="4.46199"></trkpt>
      <trkpt lat="51.20027" lon="4.46201"></trkpt>
      <trkpt lat="51.20027" lon="4.46205"></trkpt>
      <trkpt lat="51.20028" lon="4.46208"></trkpt>
      <trkpt lat="51.20028" lon="4.46211"></trkpt>
      <trkpt lat="51.20029" lon="4.46214"></trkpt>
      <trkpt lat="51.20029" lon="4.46218"></trkpt>
      <trkpt lat="51.20029" lon="4.46222"></trkpt>
      <trkpt lat="51.20030" lon="4.46225"></trkpt>
      <trkpt lat="51.20030" lon="4.46228"></trkpt>
      <trkpt lat="51.20031" lon="4.46232"></trkpt>
      <trkpt lat="51.20031" lon="4.46235"></trkpt>
      <trkpt lat="51.20031" lon="4.46238"></trkpt>
      <trkpt lat="51.20032" lon="4.46241"></trkpt>
      <trkpt lat="51.20032" lon="4.46245"></trkpt>
      <trkpt lat="51.20033" lon="4.46248"></trkpt>
      <trkpt lat="51.20033" lon="4.46251"></trkpt>
      <trkpt lat="51.20033" lon="4.46255"></trkpt>
      <trkpt lat="51.20034" lon="4.46258"></trkpt>
      <trkpt lat="51.20034" lon="4.46261"></trkpt>
      <trkpt lat="51.20034" lon="4.46265"></trkpt>
      <trkpt lat="51.20035" lon="4.46268"></trkpt>
      <trkpt lat="51.20035" lon="4.46272"></trkpt>
      <trkpt lat="51.20036" lon="4.46275"></trkpt>
      <trkpt lat="51.20036" lon="4.46279"></trkpt>
      <trkpt lat="51.20037" lon="4.46282"></trkpt>
      <trkpt lat="51.20037" lon="4.46285"></trkpt>
      <trkpt lat="51.20038" lon="4.46289"></trkpt>
      <trkpt lat="51.20038" lon="4.46292"></trkpt>
      <trkpt lat="51.20038" lon="4.46295"></trkpt>
      <trkpt lat="51.20038" lon="4.46299"></trkpt>
      <trkpt lat="51.20038" lon="4.46302"></trkpt>
      <trkpt lat="51.20039" lon="4.46306"></trkpt>
      <trkpt lat="51.20039" lon="4.46309"></trkpt>
      <trkpt lat="51.20039" lon="4.46312"></trkpt>
      <trkpt lat="51.20040" lon="4.46316"></trkpt>
      <trkpt lat="51.20040" lon="4.46319"></trkpt>
      <trkpt lat="51.20040" lon="4.46322"></trkpt>
      <trkpt lat="51.20040" lon="4.46326"></trkpt>
      <trkpt lat="51.20041" lon="4.46330"></trkpt>
      <trkpt lat="51.20041" lon="4.46333"></trkpt>
      <trkpt lat="51.20042" lon="4.46337"></trkpt>
      <trkpt lat="51.20042" lon="4.46340"></trkpt>
      <trkpt lat="51.20043" lon="4.46343"></trkpt>
      <trkpt lat="51.20043" lon="4.46347"></trkpt>
      <trkpt lat="51.20043" lon="4.46350"></trkpt>
      <trkpt lat="51.20044" lon="4.46353"></trkpt>
      <trkpt lat="51.20044" lon="4.46357"></trkpt>
      <trkpt lat="51.20044" lon="4.46360"></trkpt>
      <trkpt lat="51.20044" lon="4.46364"></trkpt>
      <trkpt lat="51.20044" lon="4.46367"></trkpt>
      <trkpt lat="51.20045" lon="4.46371"></trkpt>
      <trkpt lat="51.20046" lon="4.46374"></trkpt>
      <trkpt lat="51.20046" lon="4.46377"></trkpt>
      <trkpt lat="51.20047" lon="4.46381"></trkpt>
      <trkpt lat="51.20047" lon="4.46384"></trkpt>
      <trkpt lat="51.20047" lon="4.46387"></trkpt>
      <trkpt lat="51.20047" lon="4.46391"></trkpt>
      <trkpt lat="51.20048" lon="4.46394"></trkpt>
      <trkpt lat="51.20048" lon="4.46397"></trkpt>
      <trkpt lat="51.20048" lon="4.46401"></trkpt>
      <trkpt lat="51.20048" lon="4.46404"></trkpt>
      <trkpt lat="51.20048" lon="4.46408"></trkpt>
      <trkpt lat="51.20048" lon="4.46411"></trkpt>
      <trkpt lat="51.20049" lon="4.46414"></trkpt>
      <trkpt lat="51.20049" lon="4.46417"></trkpt>
      <trkpt lat="51.20049" lon="4.46421"></trkpt>
      <trkpt lat="51.20049" lon="4.46424"></trkpt>
      <trkpt lat="51.20050" lon="4.46428"></trkpt>
      <trkpt lat="51.20050" lon="4.46431"></trkpt>
      <trkpt lat="51.20050" lon="4.46434"></trkpt>
      <trkpt lat="51.20051" lon="4.46438"></trkpt>
      <trkpt lat="51.20051" lon="4.46441"></trkpt>
      <trkpt lat="51.20051" lon="4.46444"></trkpt>
      <trkpt lat="51.20051" lon="4.46448"></trkpt>
      <trkpt lat="51.20052" lon="4.46451"></trkpt>
      <trkpt lat="51.20052" lon="4.46454"></trkpt>
      <trkpt lat="51.20052" lon="4.46457"></trkpt>
      <trkpt lat="51.20053" lon="4.46461"></trkpt>
      <trkpt lat="51.20053" lon="4.46464"></trkpt>
      <trkpt lat="51.20053" lon="4.46466"></trkpt>
      <trkpt lat="51.20053" lon="4.46468"></trkpt>
      <trkpt lat="51.20051" lon="4.46468"></trkpt>
      <trkpt lat="51.20050" lon="4.46468"></trkpt>
      <trkpt lat="51.20048" lon="4.46467"></trkpt>
      <trkpt lat="51.20046" lon="4.46466"></trkpt>
      <trkpt lat="51.20043" lon="4.46466"></trkpt>
      <trkpt lat="51.20041" lon="4.46465"></trkpt>
      <trkpt lat="51.20039" lon="4.46464"></trkpt>
      <trkpt lat="51.20037" lon="4.46464"></trkpt>
      <trkpt lat="51.20034" lon="4.46463"></trkpt>
      <trkpt lat="51.20032" lon="4.46463"></trkpt>
      <trkpt lat="51.20030" lon="4.46462"></trkpt>
      <trkpt lat="51.20028" lon="4.46462"></trkpt>
      <trkpt lat="51.20025" lon="4.46462"></trkpt>
      <trkpt lat="51.20023" lon="4.46461"></trkpt>
      <trkpt lat="51.20021" lon="4.46460"></trkpt>
      <trkpt lat="51.20018" lon="4.46460"></trkpt>
      <trkpt lat="51.20017" lon="4.46460"></trkpt>
      <trkpt lat="51.20015" lon="4.46460"></trkpt>
      <trkpt lat="51.20013" lon="4.46459"></trkpt>
      <trkpt lat="51.20012" lon="4.46459"></trkpt>
      <trkpt lat="51.20012" lon="4.46459"></trkpt>
      <trkpt lat="51.20011" lon="4.46458"></trkpt>
      <trkpt lat="51.20010" lon="4.46458"></trkpt>
      <trkpt lat="51.20010" lon="4.46458"></trkpt>
      <trkpt lat="51.20009" lon="4.46458"></trkpt>
      <trkpt lat="51.20008" lon="4.46458"></trkpt>
      <trkpt lat="51.20007" lon="4.46459"></trkpt>
      <trkpt lat="51.20006" lon="4.46459"></trkpt>
      <trkpt lat="51.20005" lon="4.46460"></trkpt>
      <trkpt lat="51.20004" lon="4.46462"></trkpt>
      <trkpt lat="51.20003" lon="4.46464"></trkpt>
      <trkpt lat="51.20002" lon="4.46465"></trkpt>
      <trkpt lat="51.20001" lon="4.46467"></trkpt>
      <trkpt lat="51.19999" lon="4.46468"></trkpt>
      <trkpt lat="51.19997" lon="4.46469"></trkpt>
      <trkpt lat="51.19995" lon="4.46470"></trkpt>
      <trkpt lat="51.19993" lon="4.46470"></trkpt>
      <trkpt lat="51.19991" lon="4.46471"></trkpt>
      <trkpt lat="51.19989" lon="4.46470"></trkpt>
      <trkpt lat="51.19987" lon="4.46469"></trkpt>
      <trkpt lat="51.19985" lon="4.46469"></trkpt>
      <trkpt lat="51.19982" lon="4.46469"></trkpt>
      <trkpt lat="51.19980" lon="4.46468"></trkpt>
      <trkpt lat="51.19978" lon="4.46468"></trkpt>
      <trkpt lat="51.19976" lon="4.46467"></trkpt>
      <trkpt lat="51.19974" lon="4.46466"></trkpt>
      <trkpt lat="51.19972" lon="4.46465"></trkpt>
      <trkpt lat="51.19970" lon="4.46465"></trkpt>
      <trkpt lat="51.19968" lon="4.46464"></trkpt>
      <trkpt lat="51.19966" lon="4.46463"></trkpt>
      <trkpt lat="51.19964" lon="4.46463"></trkpt>
      <trkpt lat="51.19961" lon="4.46463"></trkpt>
      <trkpt lat="51.19959" lon="4.46465"></trkpt>
      <trkpt lat="51.19958" lon="4.46467"></trkpt>
      <trkpt lat="51.19956" lon="4.46469"></trkpt>
      <trkpt lat="51.19955" lon="4.46471"></trkpt>
      <trkpt lat="51.19953" lon="4.46473"></trkpt>
      <trkpt lat="51.19952" lon="4.46476"></trkpt>
      <trkpt lat="51.19950" lon="4.46477"></trkpt>
      <trkpt lat="51.19948" lon="4.46478"></trkpt>
      <trkpt lat="51.19946" lon="4.46479"></trkpt>
      <trkpt lat="51.19944" lon="4.46480"></trkpt>
      <trkpt lat="51.19942" lon="4.46480"></trkpt>
      <trkpt lat="51.19939" lon="4.46481"></trkpt>
      <trkpt lat="51.19937" lon="4.46481"></trkpt>
      <trkpt lat="51.19935" lon="4.46480"></trkpt>
      <trkpt lat="51.19933" lon="4.46480"></trkpt>
      <trkpt lat="51.19931" lon="4.46480"></trkpt>
      <trkpt lat="51.19929" lon="4.46479"></trkpt>
      <trkpt lat="51.19927" lon="4.46479"></trkpt>
      <trkpt lat="51.19924" lon="4.46479"></trkpt>
      <trkpt lat="51.19922" lon="4.46480"></trkpt>
      <trkpt lat="51.19920" lon="4.46479"></trkpt>
      <trkpt lat="51.19918" lon="4.46479"></trkpt>
      <trkpt lat="51.19916" lon="4.46479"></trkpt>
      <trkpt lat="51.19913" lon="4.46479"></trkpt>
      <trkpt lat="51.19911" lon="4.46479"></trkpt>
      <trkpt lat="51.19909" lon="4.46478"></trkpt>
      <trkpt lat="51.19907" lon="4.46478"></trkpt>
      <trkpt lat="51.19905" lon="4.46477"></trkpt>
      <trkpt lat="51.19902" lon="4.46477"></trkpt>
      <trkpt lat="51.19900" lon="4.46476"></trkpt>
      <trkpt lat="51.19898" lon="4.46476"></trkpt>
      <trkpt lat="51.19896" lon="4.46475"></trkpt>
      <trkpt lat="51.19894" lon="4.46475"></trkpt>
      <trkpt lat="51.19892" lon="4.46474"></trkpt>
      <trkpt lat="51.19889" lon="4.46473"></trkpt>
      <trkpt lat="51.19887" lon="4.46473"></trkpt>
      <trkpt lat="51.19885" lon="4.46472"></trkpt>
      <trkpt lat="51.19883" lon="4.46472"></trkpt>
      <trkpt lat="51.19880" lon="4.46472"></trkpt>
      <trkpt lat="51.19878" lon="4.46471"></trkpt>
      <trkpt lat="51.19876" lon="4.46470"></trkpt>
      <trkpt lat="51.19874" lon="4.46470"></trkpt>
      <trkpt lat="51.19872" lon="4.46469"></trkpt>
      <trkpt lat="51.19870" lon="4.46469"></trkpt>
      <trkpt lat="51.19868" lon="4.46468"></trkpt>
      <trkpt lat="51.19866" lon="4.46467"></trkpt>
      <trkpt lat="51.19864" lon="4.46466"></trkpt>
      <trkpt lat="51.19862" lon="4.46466"></trkpt>
      <trkpt lat="51.19860" lon="4.46465"></trkpt>
      <trkpt lat="51.19858" lon="4.46465"></trkpt>
      <trkpt lat="51.19856" lon="4.46465"></trkpt>
      <trkpt lat="51.19854" lon="4.46464"></trkpt>
      <trkpt lat="51.19852" lon="4.46463"></trkpt>
      <trkpt lat="51.19850" lon="4.46463"></trkpt>
      <trkpt lat="51.19848" lon="4.46462"></trkpt>
      <trkpt lat="51.19846" lon="4.46461"></trkpt>
      <trkpt lat="51.19844" lon="4.46460"></trkpt>
      <trkpt lat="51.19842" lon="4.46460"></trkpt>
      <trkpt lat="51.19840" lon="4.46459"></trkpt>
      <trkpt lat="51.19838" lon="4.46458"></trkpt>
      <trkpt lat="51.19836" lon="4.46457"></trkpt>
      <trkpt lat="51.19834" lon="4.46457"></trkpt>
      <trkpt lat="51.19832" lon="4.46457"></trkpt>
      <trkpt lat="51.19830" lon="4.46457"></trkpt>
      <trkpt lat="51.19828" lon="4.46457"></trkpt>
      <trkpt lat="51.19826" lon="4.46457"></trkpt>
      <trkpt lat="51.19824" lon="4.46456"></trkpt>
      <trkpt lat="51.19822" lon="4.46456"></trkpt>
      <trkpt lat="51.19820" lon="4.46455"></trkpt>
      <trkpt lat="51.19818" lon="4.46454"></trkpt>
      <trkpt lat="51.19815" lon="4.46454"></trkpt>
      <trkpt lat="51.19812" lon="4.46455"></trkpt>
      <trkpt lat="51.19810" lon="4.46454"></trkpt>
      <trkpt lat="51.19808" lon="4.46453"></trkpt>
      <trkpt lat="51.19805" lon="4.46452"></trkpt>
      <trkpt lat="51.19803" lon="4.46451"></trkpt>
      <trkpt lat="51.19801" lon="4.46450"></trkpt>
      <trkpt lat="51.19799" lon="4.46449"></trkpt>
      <trkpt lat="51.19797" lon="4.46447"></trkpt>
      <trkpt lat="51.19796" lon="4.46445"></trkpt>
      <trkpt lat="51.19794" lon="4.46444"></trkpt>
      <trkpt lat="51.19792" lon="4.46443"></trkpt>
      <trkpt lat="51.19790" lon="4.46442"></trkpt>
      <trkpt lat="51.19788" lon="4.46441"></trkpt>
      <trkpt lat="51.19786" lon="4.46440"></trkpt>
      <trkpt lat="51.19784" lon="4.46439"></trkpt>
      <trkpt lat="51.19782" lon="4.46438"></trkpt>
      <trkpt lat="51.19780" lon="4.46437"></trkpt>
      <trkpt lat="51.19778" lon="4.46436"></trkpt>
      <trkpt lat="51.19775" lon="4.46435"></trkpt>
      <trkpt lat="51.19774" lon="4.46433"></trkpt>
      <trkpt lat="51.19772" lon="4.46431"></trkpt>
      <trkpt lat="51.19770" lon="4.46429"></trkpt>
      <trkpt lat="51.19768" lon="4.46427"></trkpt>
      <trkpt lat="51.19766" lon="4.46426"></trkpt>
      <trkpt lat="51.19764" lon="4.46425"></trkpt>
      <trkpt lat="51.19762" lon="4.46425"></trkpt>
      <trkpt lat="51.19760" lon="4.46424"></trkpt>
      <trkpt lat="51.19758" lon="4.46424"></trkpt>
      <trkpt lat="51.19756" lon="4.46423"></trkpt>
      <trkpt lat="51.19754" lon="4.46423"></trkpt>
      <trkpt lat="51.19751" lon="4.46423"></trkpt>
      <trkpt lat="51.19749" lon="4.46423"></trkpt>
      <trkpt lat="51.19748" lon="4.46423"></trkpt>
      <trkpt lat="51.19746" lon="4.46423"></trkpt>
      <trkpt lat="51.19744" lon="4.46424"></trkpt>
      <trkpt lat="51.19742" lon="4.46424"></trkpt>
      <trkpt lat="51.19740" lon="4.46425"></trkpt>
      <trkpt lat="51.19738" lon="4.46426"></trkpt>
      <trkpt lat="51.19736" lon="4.46428"></trkpt>
      <trkpt lat="51.19734" lon="4.46429"></trkpt>
      <trkpt lat="51.19732" lon="4.46431"></trkpt>
      <trkpt lat="51.19730" lon="4.46433"></trkpt>
      <trkpt lat="51.19728" lon="4.46434"></trkpt>
      <trkpt lat="51.19726" lon="4.46435"></trkpt>
      <trkpt lat="51.19725" lon="4.46437"></trkpt>
      <trkpt lat="51.19723" lon="4.46438"></trkpt>
      <trkpt lat="51.19721" lon="4.46440"></trkpt>
      <trkpt lat="51.19719" lon="4.46441"></trkpt>
      <trkpt lat="51.19718" lon="4.46441"></trkpt>
      <trkpt lat="51.19715" lon="4.46442"></trkpt>
      <trkpt lat="51.19713" lon="4.46443"></trkpt>
      <trkpt lat="51.19711" lon="4.46443"></trkpt>
      <trkpt lat="51.19709" lon="4.46442"></trkpt>
      <trkpt lat="51.19707" lon="4.46441"></trkpt>
      <trkpt lat="51.19705" lon="4.46440"></trkpt>
      <trkpt lat="51.19703" lon="4.46438"></trkpt>
      <trkpt lat="51.19702" lon="4.46436"></trkpt>
      <trkpt lat="51.19700" lon="4.46435"></trkpt>
      <trkpt lat="51.19699" lon="4.46432"></trkpt>
      <trkpt lat="51.19697" lon="4.46430"></trkpt>
      <trkpt lat="51.19696" lon="4.46428"></trkpt>
      <trkpt lat="51.19695" lon="4.46425"></trkpt>
      <trkpt lat="51.19694" lon="4.46423"></trkpt>
      <trkpt lat="51.19693" lon="4.46420"></trkpt>
      <trkpt lat="51.19692" lon="4.46416"></trkpt>
      <trkpt lat="51.19691" lon="4.46413"></trkpt>
      <trkpt lat="51.19691" lon="4.46410"></trkpt>
      <trkpt lat="51.19689" lon="4.46407"></trkpt>
      <trkpt lat="51.19689" lon="4.46404"></trkpt>
      <trkpt lat="51.19688" lon="4.46401"></trkpt>
      <trkpt lat="51.19687" lon="4.46398"></trkpt>
      <trkpt lat="51.19686" lon="4.46395"></trkpt>
      <trkpt lat="51.19685" lon="4.46391"></trkpt>
      <trkpt lat="51.19685" lon="4.46388"></trkpt>
      <trkpt lat="51.19684" lon="4.46386"></trkpt>
      <trkpt lat="51.19684" lon="4.46383"></trkpt>
      <trkpt lat="51.19684" lon="4.46380"></trkpt>
      <trkpt lat="51.19684" lon="4.46377"></trkpt>
      <trkpt lat="51.19684" lon="4.46374"></trkpt>
      <trkpt lat="51.19685" lon="4.46370"></trkpt>
      <trkpt lat="51.19685" lon="4.46367"></trkpt>
      <trkpt lat="51.19686" lon="4.46364"></trkpt>
      <trkpt lat="51.19686" lon="4.46360"></trkpt>
      <trkpt lat="51.19687" lon="4.46357"></trkpt>
      <trkpt lat="51.19688" lon="4.46353"></trkpt>
      <trkpt lat="51.19689" lon="4.46350"></trkpt>
      <trkpt lat="51.19689" lon="4.46346"></trkpt>
      <trkpt lat="51.19689" lon="4.46343"></trkpt>
      <trkpt lat="51.19689" lon="4.46340"></trkpt>
      <trkpt lat="51.19689" lon="4.46337"></trkpt>
      <trkpt lat="51.19688" lon="4.46333"></trkpt>
      <trkpt lat="51.19688" lon="4.46331"></trkpt>
      <trkpt lat="51.19687" lon="4.46327"></trkpt>
      <trkpt lat="51.19686" lon="4.46324"></trkpt>
      <trkpt lat="51.19686" lon="4.46321"></trkpt>
      <trkpt lat="51.19685" lon="4.46318"></trkpt>
      <trkpt lat="51.19685" lon="4.46315"></trkpt>
      <trkpt lat="51.19685" lon="4.46312"></trkpt>
      <trkpt lat="51.19684" lon="4.46308"></trkpt>
      <trkpt lat="51.19684" lon="4.46305"></trkpt>
      <trkpt lat="51.19684" lon="4.46302"></trkpt>
      <trkpt lat="51.19684" lon="4.46298"></trkpt>
      <trkpt lat="51.19683" lon="4.46295"></trkpt>
      <trkpt lat="51.19683" lon="4.46292"></trkpt>
      <trkpt lat="51.19683" lon="4.46288"></trkpt>
      <trkpt lat="51.19683" lon="4.46285"></trkpt>
      <trkpt lat="51.19683" lon="4.46281"></trkpt>
      <trkpt lat="51.19682" lon="4.46277"></trkpt>
      <trkpt lat="51.19682" lon="4.46274"></trkpt>
      <trkpt lat="51.19682" lon="4.46270"></trkpt>
      <trkpt lat="51.19683" lon="4.46267"></trkpt>
      <trkpt lat="51.19685" lon="4.46264"></trkpt>
      <trkpt lat="51.19687" lon="4.46262"></trkpt>
      <trkpt lat="51.19688" lon="4.46259"></trkpt>
      <trkpt lat="51.19690" lon="4.46257"></trkpt>
      <trkpt lat="51.19692" lon="4.46255"></trkpt>
      <trkpt lat="51.19693" lon="4.46253"></trkpt>
      <trkpt lat="51.19695" lon="4.46252"></trkpt>
      <trkpt lat="51.19697" lon="4.46252"></trkpt>
      <trkpt lat="51.19697" lon="4.46251"></trkpt>
      <trkpt lat="51.19697" lon="4.46251"></trkpt>
      <trkpt lat="51.19696" lon="4.46250"></trkpt>
      <trkpt lat="51.19696" lon="4.46250"></trkpt>
      <trkpt lat="51.19696" lon="4.46249"></trkpt>
      <trkpt lat="51.19695" lon="4.46248"></trkpt>
      <trkpt lat="51.19695" lon="4.46246"></trkpt>
      <trkpt lat="51.19695" lon="4.46246"></trkpt>
      <trkpt lat="51.19695" lon="4.46245"></trkpt>
      <trkpt lat="51.19695" lon="4.46244"></trkpt>
      <trkpt lat="51.19695" lon="4.46243"></trkpt>
      <trkpt lat="51.19696" lon="4.46243"></trkpt>
      <trkpt lat="51.19697" lon="4.46242"></trkpt>
      <trkpt lat="51.19697" lon="4.46242"></trkpt>
      <trkpt lat="51.19698" lon="4.46241"></trkpt>
      <trkpt lat="51.19699" lon="4.46241"></trkpt>
      <trkpt lat="51.19700" lon="4.46240"></trkpt>
      <trkpt lat="51.19701" lon="4.46240"></trkpt>
      <trkpt lat="51.19702" lon="4.46239"></trkpt>
      <trkpt lat="51.19703" lon="4.46238"></trkpt>
      <trkpt lat="51.19703" lon="4.46238"></trkpt>
      <trkpt lat="51.19704" lon="4.46237"></trkpt>
      <trkpt lat="51.19705" lon="4.46237"></trkpt>
      <trkpt lat="51.19706" lon="4.46236"></trkpt>
      <trkpt lat="51.19707" lon="4.46236"></trkpt>
      <trkpt lat="51.19708" lon="4.46235"></trkpt>
      <trkpt lat="51.19709" lon="4.46235"></trkpt>
      <trkpt lat="51.19709" lon="4.46234"></trkpt>
      <trkpt lat="51.19710" lon="4.46234"></trkpt>
      <trkpt lat="51.19711" lon="4.46233"></trkpt>
      <trkpt lat="51.19712" lon="4.46233"></trkpt>
      <trkpt lat="51.19713" lon="4.46232"></trkpt>
      <trkpt lat="51.19714" lon="4.46231"></trkpt>
      <trkpt lat="51.19715" lon="4.46231"></trkpt>
      <trkpt lat="51.19715" lon="4.46230"></trkpt>
      <trkpt lat="51.19716" lon="4.46230"></trkpt>
      <trkpt lat="51.19717" lon="4.46229"></trkpt>
      <trkpt lat="51.19718" lon="4.46229"></trkpt>
      <trkpt lat="51.19719" lon="4.46228"></trkpt>
      <trkpt lat="51.19720" lon="4.46228"></trkpt>
      <trkpt lat="51.19721" lon="4.46227"></trkpt>
      <trkpt lat="51.19721" lon="4.46227"></trkpt>
      <trkpt lat="51.19722" lon="4.46226"></trkpt>
      <trkpt lat="51.19723" lon="4.46226"></trkpt>
      <trkpt lat="51.19724" lon="4.46225"></trkpt>
      <trkpt lat="51.19725" lon="4.46225"></trkpt>
      <trkpt lat="51.19726" lon="4.46224"></trkpt>
      <trkpt lat="51.19727" lon="4.46223"></trkpt>
      <trkpt lat="51.19727" lon="4.46223"></trkpt>
      <trkpt lat="51.19728" lon="4.46222"></trkpt>
      <trkpt lat="51.19729" lon="4.46222"></trkpt>
      <trkpt lat="51.19730" lon="4.46221"></trkpt>
      <trkpt lat="51.19731" lon="4.46221"></trkpt>
      <trkpt lat="51.19732" lon="4.46220"></trkpt>
      <trkpt lat="51.19733" lon="4.46220"></trkpt>
      <trkpt lat="51.19733" lon="4.46219"></trkpt>
      <trkpt lat="51.19734" lon="4.46219"></trkpt>
      <trkpt lat="51.19735" lon="4.46218"></trkpt>
      <trkpt lat="51.19736" lon="4.46218"></trkpt>
      <trkpt lat="51.19737" lon="4.46217"></trkpt>
      <trkpt lat="51.19738" lon="4.46216"></trkpt>
      <trkpt lat="51.19739" lon="4.46216"></trkpt>
      <trkpt lat="51.19739" lon="4.46215"></trkpt>
      <trkpt lat="51.19740" lon="4.46215"></trkpt>
      <trkpt lat="51.19741" lon="4.46214"></trkpt>
      <trkpt lat="51.19742" lon="4.46214"></trkpt>
      <trkpt lat="51.19743" lon="4.46213"></trkpt>
      <trkpt lat="51.19744" lon="4.46213"></trkpt>
      <trkpt lat="51.19745" lon="4.46212"></trkpt>
      <trkpt lat="51.19745" lon="4.46212"></trkpt>
      <trkpt lat="51.19746" lon="4.46211"></trkpt>
      <trkpt lat="51.19747" lon="4.46211"></trkpt>
      <trkpt lat="51.19748" lon="4.46210"></trkpt>
      <trkpt lat="51.19749" lon="4.46209"></trkpt>
      <trkpt lat="51.19750" lon="4.46209"></trkpt>
      <trkpt lat="51.19751" lon="4.46208"></trkpt>
      <trkpt lat="51.19751" lon="4.46208"></trkpt>
      <trkpt lat="51.19752" lon="4.46207"></trkpt>
      <trkpt lat="51.19753" lon="4.46207"></trkpt>
      <trkpt lat="51.19754" lon="4.46206"></trkpt>
      <trkpt lat="51.19755" lon="4.46206"></trkpt>
      <trkpt lat="51.19756" lon="4.46205"></trkpt>
      <trkpt lat="51.19757" lon="4.46205"></trkpt>
      <trkpt lat="51.19757" lon="4.46204"></trkpt>
      <trkpt lat="51.19758" lon="4.46204"></trkpt>
      <trkpt lat="51.19759" lon="4.46203"></trkpt>
      <trkpt lat="51.19760" lon="4.46202"></trkpt>
      <trkpt lat="51.19761" lon="4.46202"></trkpt>
      <trkpt lat="51.19762" lon="4.46201"></trkpt>
      <trkpt lat="51.19762" lon="4.46201"></trkpt>
      <trkpt lat="51.19765" lon="4.46200"></trkpt>
      <trkpt lat="51.19767" lon="4.46199"></trkpt>
      <trkpt lat="51.19768" lon="4.46198"></trkpt>
      <trkpt lat="51.19771" lon="4.46197"></trkpt>
      <trkpt lat="51.19772" lon="4.46196"></trkpt>
      <trkpt lat="51.19774" lon="4.46195"></trkpt>
      <trkpt lat="51.19776" lon="4.46194"></trkpt>
      <trkpt lat="51.19778" lon="4.46193"></trkpt>
      <trkpt lat="51.19781" lon="4.46193"></trkpt>
      <trkpt lat="51.19783" lon="4.46192"></trkpt>
      <trkpt lat="51.19785" lon="4.46192"></trkpt>
      <trkpt lat="51.19787" lon="4.46190"></trkpt>
      <trkpt lat="51.19789" lon="4.46190"></trkpt>
      <trkpt lat="51.19791" lon="4.46188"></trkpt>
      <trkpt lat="51.19794" lon="4.46187"></trkpt>
      <trkpt lat="51.19796" lon="4.46186"></trkpt>
      <trkpt lat="51.19798" lon="4.46184"></trkpt>
      <trkpt lat="51.19800" lon="4.46184"></trkpt>
      <trkpt lat="51.19803" lon="4.46183"></trkpt>
      <trkpt lat="51.19805" lon="4.46182"></trkpt>
      <trkpt lat="51.19806" lon="4.46181"></trkpt>
      <trkpt lat="51.19808" lon="4.46181"></trkpt>
      <trkpt lat="51.19810" lon="4.46180"></trkpt>
      <trkpt lat="51.19812" lon="4.46179"></trkpt>
      <trkpt lat="51.19814" lon="4.46179"></trkpt>
      <trkpt lat="51.19817" lon="4.46178"></trkpt>
      <trkpt lat="51.19819" lon="4.46177"></trkpt>
      <trkpt lat="51.19821" lon="4.46177"></trkpt>
      <trkpt lat="51.19823" lon="4.46176"></trkpt>
      <trkpt lat="51.19826" lon="4.46176"></trkpt>
      <trkpt lat="51.19828" lon="4.46175"></trkpt>
      <trkpt lat="51.19830" lon="4.46175"></trkpt>
      <trkpt lat="51.19832" lon="4.46174"></trkpt>
      <trkpt lat="51.19834" lon="4.46173"></trkpt>
      <trkpt lat="51.19836" lon="4.46171"></trkpt>
      <trkpt lat="51.19837" lon="4.46169"></trkpt>
      <trkpt lat="51.19839" lon="4.46167"></trkpt>
      <trkpt lat="51.19841" lon="4.46164"></trkpt>
      <trkpt lat="51.19843" lon="4.46161"></trkpt>
      <trkpt lat="51.19845" lon="4.46159"></trkpt>
      <trkpt lat="51.19847" lon="4.46156"></trkpt>
      <trkpt lat="51.19848" lon="4.46154"></trkpt>
      <trkpt lat="51.19850" lon="4.46151"></trkpt>
      <trkpt lat="51.19851" lon="4.46148"></trkpt>
      <trkpt lat="51.19853" lon="4.46145"></trkpt>
      <trkpt lat="51.19855" lon="4.46144"></trkpt>
      <trkpt lat="51.19857" lon="4.46141"></trkpt>
      <trkpt lat="51.19860" lon="4.46140"></trkpt>
      <trkpt lat="51.19862" lon="4.46138"></trkpt>
      <trkpt lat="51.19865" lon="4.46137"></trkpt>
      <trkpt lat="51.19867" lon="4.46136"></trkpt>
      <trkpt lat="51.19869" lon="4.46135"></trkpt>
      <trkpt lat="51.19871" lon="4.46133"></trkpt>
      <trkpt lat="51.19873" lon="4.46131"></trkpt>
      <trkpt lat="51.19875" lon="4.46129"></trkpt>
      <trkpt lat="51.19876" lon="4.46127"></trkpt>
      <trkpt lat="51.19876" lon="4.46122"></trkpt>
      <trkpt lat="51.19876" lon="4.46118"></trkpt>
      <trkpt lat="51.19876" lon="4.46115"></trkpt>
      <trkpt lat="51.19875" lon="4.46111"></trkpt>
      <trkpt lat="51.19876" lon="4.46107"></trkpt>
      <trkpt lat="51.19877" lon="4.46104"></trkpt>
      <trkpt lat="51.19878" lon="4.46099"></trkpt>
      <trkpt lat="51.19879" lon="4.46095"></trkpt>
      <trkpt lat="51.19879" lon="4.46091"></trkpt>
      <trkpt lat="51.19880" lon="4.46087"></trkpt>
      <trkpt lat="51.19881" lon="4.46083"></trkpt>
      <trkpt lat="51.19882" lon="4.46080"></trkpt>
      <trkpt lat="51.19882" lon="4.46076"></trkpt>
      <trkpt lat="51.19883" lon="4.46072"></trkpt>
      <trkpt lat="51.19883" lon="4.46068"></trkpt>
      <trkpt lat="51.19883" lon="4.46064"></trkpt>
      <trkpt lat="51.19883" lon="4.46061"></trkpt>
      <trkpt lat="51.19884" lon="4.46057"></trkpt>
      <trkpt lat="51.19884" lon="4.46053"></trkpt>
      <trkpt lat="51.19885" lon="4.46050"></trkpt>
      <trkpt lat="51.19886" lon="4.46047"></trkpt>
      <trkpt lat="51.19887" lon="4.46043"></trkpt>
      <trkpt lat="51.19888" lon="4.46039"></trkpt>
      <trkpt lat="51.19889" lon="4.46036"></trkpt>
      <trkpt lat="51.19890" lon="4.46032"></trkpt>
      <trkpt lat="51.19891" lon="4.46029"></trkpt>
      <trkpt lat="51.19892" lon="4.46026"></trkpt>
      <trkpt lat="51.19892" lon="4.46023"></trkpt>
      <trkpt lat="51.19891" lon="4.46019"></trkpt>
      <trkpt lat="51.19889" lon="4.46015"></trkpt>
      <trkpt lat="51.19888" lon="4.46013"></trkpt>
      <trkpt lat="51.19886" lon="4.46011"></trkpt>
      <trkpt lat="51.19885" lon="4.46008"></trkpt>
      <trkpt lat="51.19884" lon="4.46004"></trkpt>
      <trkpt lat="51.19884" lon="4.46001"></trkpt>
      <trkpt lat="51.19884" lon="4.45997"></trkpt>
      <trkpt lat="51.19884" lon="4.45993"></trkpt>
      <trkpt lat="51.19885" lon="4.45989"></trkpt>
      <trkpt lat="51.19885" lon="4.45985"></trkpt>
      <trkpt lat="51.19885" lon="4.45981"></trkpt>
      <trkpt lat="51.19885" lon="4.45978"></trkpt>
      <trkpt lat="51.19886" lon="4.45974"></trkpt>
      <trkpt lat="51.19886" lon="4.45971"></trkpt>
      <trkpt lat="51.19886" lon="4.45967"></trkpt>
      <trkpt lat="51.19887" lon="4.45963"></trkpt>
      <trkpt lat="51.19887" lon="4.45959"></trkpt>
      <trkpt lat="51.19887" lon="4.45955"></trkpt>
      <trkpt lat="51.19887" lon="4.45951"></trkpt>
      <trkpt lat="51.19887" lon="4.45947"></trkpt>
      <trkpt lat="51.19887" lon="4.45944"></trkpt>
      <trkpt lat="51.19887" lon="4.45940"></trkpt>
      <trkpt lat="51.19887" lon="4.45935"></trkpt>
      <trkpt lat="51.19886" lon="4.45930"></trkpt>
      <trkpt lat="51.19886" lon="4.45926"></trkpt>
      <trkpt lat="51.19886" lon="4.45923"></trkpt>
      <trkpt lat="51.19885" lon="4.45919"></trkpt>
      <trkpt lat="51.19885" lon="4.45915"></trkpt>
      <trkpt lat="51.19885" lon="4.45912"></trkpt>
      <trkpt lat="51.19885" lon="4.45908"></trkpt>
      <trkpt lat="51.19885" lon="4.45904"></trkpt>
      <trkpt lat="51.19885" lon="4.45901"></trkpt>
      <trkpt lat="51.19885" lon="4.45897"></trkpt>
      <trkpt lat="51.19885" lon="4.45894"></trkpt>
      <trkpt lat="51.19885" lon="4.45890"></trkpt>
      <trkpt lat="51.19885" lon="4.45886"></trkpt>
      <trkpt lat="51.19885" lon="4.45883"></trkpt>
      <trkpt lat="51.19884" lon="4.45879"></trkpt>
      <trkpt lat="51.19884" lon="4.45875"></trkpt>
      <trkpt lat="51.19884" lon="4.45872"></trkpt>
      <trkpt lat="51.19884" lon="4.45868"></trkpt>
      <trkpt lat="51.19884" lon="4.45865"></trkpt>
      <trkpt lat="51.19883" lon="4.45861"></trkpt>
      <trkpt lat="51.19883" lon="4.45858"></trkpt>
      <trkpt lat="51.19883" lon="4.45855"></trkpt>
      <trkpt lat="51.19883" lon="4.45852"></trkpt>
      <trkpt lat="51.19883" lon="4.45848"></trkpt>
      <trkpt lat="51.19883" lon="4.45845"></trkpt>
      <trkpt lat="51.19883" lon="4.45842"></trkpt>
      <trkpt lat="51.19883" lon="4.45839"></trkpt>
      <trkpt lat="51.19883" lon="4.45835"></trkpt>
      <trkpt lat="51.19883" lon="4.45832"></trkpt>
      <trkpt lat="51.19883" lon="4.45828"></trkpt>
      <trkpt lat="51.19883" lon="4.45825"></trkpt>
      <trkpt lat="51.19883" lon="4.45822"></trkpt>
      <trkpt lat="51.19882" lon="4.45818"></trkpt>
      <trkpt lat="51.19883" lon="4.45813"></trkpt>
      <trkpt lat="51.19883" lon="4.45809"></trkpt>
      <trkpt lat="51.19882" lon="4.45806"></trkpt>
      <trkpt lat="51.19882" lon="4.45802"></trkpt>
      <trkpt lat="51.19882" lon="4.45799"></trkpt>
      <trkpt lat="51.19882" lon="4.45795"></trkpt>
      <trkpt lat="51.19884" lon="4.45792"></trkpt>
      <trkpt lat="51.19886" lon="4.45790"></trkpt>
      <trkpt lat="51.19888" lon="4.45788"></trkpt>
      <trkpt lat="51.19890" lon="4.45787"></trkpt>
      <trkpt lat="51.19892" lon="4.45786"></trkpt>
      <trkpt lat="51.19894" lon="4.45784"></trkpt>
      <trkpt lat="51.19896" lon="4.45784"></trkpt>
      <trkpt lat="51.19899" lon="4.45783"></trkpt>
      <trkpt lat="51.19901" lon="4.45782"></trkpt>
      <trkpt lat="51.19903" lon="4.45782"></trkpt>
      <trkpt lat="51.19905" lon="4.45783"></trkpt>
      <trkpt lat="51.19906" lon="4.45783"></trkpt>
      <trkpt lat="51.19908" lon="4.45784"></trkpt>
      <trkpt lat="51.19909" lon="4.45784"></trkpt>
      <trkpt lat="51.19911" lon="4.45785"></trkpt>
      <trkpt lat="51.19913" lon="4.45785"></trkpt>
      <trkpt lat="51.19915" lon="4.45786"></trkpt>
      <trkpt lat="51.19917" lon="4.45786"></trkpt>
      <trkpt lat="51.19919" lon="4.45786"></trkpt>
      <trkpt lat="51.19922" lon="4.45786"></trkpt>
      <trkpt lat="51.19924" lon="4.45786"></trkpt>
      <trkpt lat="51.19926" lon="4.45786"></trkpt>
      <trkpt lat="51.19928" lon="4.45786"></trkpt>
      <trkpt lat="51.19930" lon="4.45786"></trkpt>
      <trkpt lat="51.19933" lon="4.45786"></trkpt>
      <trkpt lat="51.19935" lon="4.45786"></trkpt>
      <trkpt lat="51.19937" lon="4.45785"></trkpt>
      <trkpt lat="51.19939" lon="4.45785"></trkpt>
      <trkpt lat="51.19942" lon="4.45785"></trkpt>
      <trkpt lat="51.19944" lon="4.45784"></trkpt>
      <trkpt lat="51.19946" lon="4.45785"></trkpt>
      <trkpt lat="51.19948" lon="4.45786"></trkpt>
      <trkpt lat="51.19950" lon="4.45786"></trkpt>
      <trkpt lat="51.19952" lon="4.45785"></trkpt>
      <trkpt lat="51.19954" lon="4.45786"></trkpt>
      <trkpt lat="51.19956" lon="4.45786"></trkpt>
      <trkpt lat="51.19958" lon="4.45786"></trkpt>
      <trkpt lat="51.19960" lon="4.45786"></trkpt>
      <trkpt lat="51.19961" lon="4.45787"></trkpt>
      <trkpt lat="51.19963" lon="4.45787"></trkpt>
      <trkpt lat="51.19966" lon="4.45787"></trkpt>
      <trkpt lat="51.19968" lon="4.45788"></trkpt>
      <trkpt lat="51.19971" lon="4.45789"></trkpt>
      <trkpt lat="51.19974" lon="4.45789"></trkpt>
      <trkpt lat="51.19976" lon="4.45789"></trkpt>
      <trkpt lat="51.19978" lon="4.45789"></trkpt>
      <trkpt lat="51.19981" lon="4.45790"></trkpt>
      <trkpt lat="51.19982" lon="4.45789"></trkpt>
      <trkpt lat="51.19985" lon="4.45788"></trkpt>
      <trkpt lat="51.19987" lon="4.45787"></trkpt>
      <trkpt lat="51.19990" lon="4.45786"></trkpt>
      <trkpt lat="51.19992" lon="4.45786"></trkpt>
      <trkpt lat="51.19995" lon="4.45784"></trkpt>
      <trkpt lat="51.19998" lon="4.45784"></trkpt>
      <trkpt lat="51.20000" lon="4.45783"></trkpt>
      <trkpt lat="51.20003" lon="4.45782"></trkpt>
      <trkpt lat="51.20005" lon="4.45780"></trkpt>
      <trkpt lat="51.20008" lon="4.45779"></trkpt>
      <trkpt lat="51.20009" lon="4.45778"></trkpt>
      <trkpt lat="51.20011" lon="4.45776"></trkpt>
      <trkpt lat="51.20014" lon="4.45773"></trkpt>
      <trkpt lat="51.20015" lon="4.45772"></trkpt>
      <trkpt lat="51.20017" lon="4.45770"></trkpt>
      <trkpt lat="51.20018" lon="4.45768"></trkpt>
      <trkpt lat="51.20020" lon="4.45767"></trkpt>
      <trkpt lat="51.20022" lon="4.45766"></trkpt>
      <trkpt lat="51.20024" lon="4.45764"></trkpt>
      <trkpt lat="51.20025" lon="4.45763"></trkpt>
      <trkpt lat="51.20027" lon="4.45764"></trkpt>
      <trkpt lat="51.20029" lon="4.45764"></trkpt>
      <trkpt lat="51.20031" lon="4.45764"></trkpt>
      <trkpt lat="51.20033" lon="4.45765"></trkpt>
      <trkpt lat="51.20034" lon="4.45766"></trkpt>
      <trkpt lat="51.20036" lon="4.45767"></trkpt>
      <trkpt lat="51.20038" lon="4.45768"></trkpt>
      <trkpt lat="51.20040" lon="4.45769"></trkpt>
      <trkpt lat="51.20042" lon="4.45769"></trkpt>
      <trkpt lat="51.20045" lon="4.45769"></trkpt>
      <trkpt lat="51.20046" lon="4.45768"></trkpt>
      <trkpt lat="51.20048" lon="4.45767"></trkpt>
      <trkpt lat="51.20049" lon="4.45766"></trkpt>
      <trkpt lat="51.20051" lon="4.45765"></trkpt>
      <trkpt lat="51.20053" lon="4.45763"></trkpt>
      <trkpt lat="51.20054" lon="4.45760"></trkpt>
      <trkpt lat="51.20056" lon="4.45758"></trkpt>
      <trkpt lat="51.20057" lon="4.45756"></trkpt>
      <trkpt lat="51.20059" lon="4.45753"></trkpt>
      <trkpt lat="51.20060" lon="4.45749"></trkpt>
      <trkpt lat="51.20061" lon="4.45746"></trkpt>
      <trkpt lat="51.20063" lon="4.45743"></trkpt>
      <trkpt lat="51.20064" lon="4.45742"></trkpt>
      <trkpt lat="51.20066" lon="4.45740"></trkpt>
      <trkpt lat="51.20068" lon="4.45737"></trkpt>
      <trkpt lat="51.20070" lon="4.45735"></trkpt>
      <trkpt lat="51.20072" lon="4.45733"></trkpt>
      <trkpt lat="51.20074" lon="4.45730"></trkpt>
      <trkpt lat="51.20075" lon="4.45729"></trkpt>
      <trkpt lat="51.20077" lon="4.45727"></trkpt>
      <trkpt lat="51.20079" lon="4.45725"></trkpt>
      <trkpt lat="51.20080" lon="4.45723"></trkpt>
      <trkpt lat="51.20082" lon="4.45721"></trkpt>
      <trkpt lat="51.20084" lon="4.45718"></trkpt>
      <trkpt lat="51.20086" lon="4.45716"></trkpt>
      <trkpt lat="51.20087" lon="4.45714"></trkpt>
      <trkpt lat="51.20089" lon="4.45711"></trkpt>
      <trkpt lat="51.20090" lon="4.45709"></trkpt>
      <trkpt lat="51.20092" lon="4.45707"></trkpt>
      <trkpt lat="51.20094" lon="4.45704"></trkpt>
      <trkpt lat="51.20096" lon="4.45702"></trkpt>
      <trkpt lat="51.20098" lon="4.45701"></trkpt>
      <trkpt lat="51.20099" lon="4.45698"></trkpt>
      <trkpt lat="51.20102" lon="4.45696"></trkpt>
      <trkpt lat="51.20104" lon="4.45694"></trkpt>
      <trkpt lat="51.20106" lon="4.45693"></trkpt>
      <trkpt lat="51.20108" lon="4.45691"></trkpt>
      <trkpt lat="51.20110" lon="4.45690"></trkpt>
      <trkpt lat="51.20111" lon="4.45688"></trkpt>
      <trkpt lat="51.20114" lon="4.45685"></trkpt>
      <trkpt lat="51.20115" lon="4.45683"></trkpt>
      <trkpt lat="51.20116" lon="4.45680"></trkpt>
      <trkpt lat="51.20117" lon="4.45676"></trkpt>
      <trkpt lat="51.20118" lon="4.45672"></trkpt>
      <trkpt lat="51.20119" lon="4.45669"></trkpt>
      <trkpt lat="51.20119" lon="4.45666"></trkpt>
      <trkpt lat="51.20119" lon="4.45663"></trkpt>
      <trkpt lat="51.20119" lon="4.45659"></trkpt>
      <trkpt lat="51.20119" lon="4.45653"></trkpt>
      <trkpt lat="51.20118" lon="4.45649"></trkpt>
      <trkpt lat="51.20118" lon="4.45645"></trkpt>
      <trkpt lat="51.20118" lon="4.45641"></trkpt>
      <trkpt lat="51.20118" lon="4.45637"></trkpt>
      <trkpt lat="51.20117" lon="4.45632"></trkpt>
      <trkpt lat="51.20117" lon="4.45629"></trkpt>
      <trkpt lat="51.20116" lon="4.45625"></trkpt>
      <trkpt lat="51.20116" lon="4.45622"></trkpt>
      <trkpt lat="51.20116" lon="4.45619"></trkpt>
      <trkpt lat="51.20115" lon="4.45615"></trkpt>
      <trkpt lat="51.20115" lon="4.45612"></trkpt>
      <trkpt lat="51.20114" lon="4.45609"></trkpt>
      <trkpt lat="51.20114" lon="4.45606"></trkpt>
      <trkpt lat="51.20114" lon="4.45602"></trkpt>
      <trkpt lat="51.20113" lon="4.45599"></trkpt>
      <trkpt lat="51.20113" lon="4.45595"></trkpt>
      <trkpt lat="51.20113" lon="4.45591"></trkpt>
      <trkpt lat="51.20112" lon="4.45587"></trkpt>
      <trkpt lat="51.20112" lon="4.45584"></trkpt>
      <trkpt lat="51.20112" lon="4.45580"></trkpt>
      <trkpt lat="51.20112" lon="4.45576"></trkpt>
      <trkpt lat="51.20113" lon="4.45573"></trkpt>
      <trkpt lat="51.20113" lon="4.45570"></trkpt>
      <trkpt lat="51.20113" lon="4.45566"></trkpt>
      <trkpt lat="51.20113" lon="4.45560"></trkpt>
      <trkpt lat="51.20113" lon="4.45557"></trkpt>
      <trkpt lat="51.20113" lon="4.45554"></trkpt>
      <trkpt lat="51.20114" lon="4.45551"></trkpt>
      <trkpt lat="51.20114" lon="4.45546"></trkpt>
      <trkpt lat="51.20115" lon="4.45541"></trkpt>
      <trkpt lat="51.20115" lon="4.45536"></trkpt>
      <trkpt lat="51.20116" lon="4.45531"></trkpt>
      <trkpt lat="51.20116" lon="4.45527"></trkpt>
      <trkpt lat="51.20116" lon="4.45522"></trkpt>
      <trkpt lat="51.20117" lon="4.45518"></trkpt>
      <trkpt lat="51.20118" lon="4.45514"></trkpt>
      <trkpt lat="51.20119" lon="4.45511"></trkpt>
      <trkpt lat="51.20120" lon="4.45507"></trkpt>
      <trkpt lat="51.20121" lon="4.45504"></trkpt>
      <trkpt lat="51.20122" lon="4.45500"></trkpt>
      <trkpt lat="51.20123" lon="4.45497"></trkpt>
      <trkpt lat="51.20124" lon="4.45493"></trkpt>
      <trkpt lat="51.20125" lon="4.45490"></trkpt>
      <trkpt lat="51.20125" lon="4.45487"></trkpt>
      <trkpt lat="51.20126" lon="4.45484"></trkpt>
      <trkpt lat="51.20127" lon="4.45481"></trkpt>
      <trkpt lat="51.20128" lon="4.45479"></trkpt>
      <trkpt lat="51.20128" lon="4.45476"></trkpt>
      <trkpt lat="51.20129" lon="4.45473"></trkpt>
      <trkpt lat="51.20130" lon="4.45470"></trkpt>
      <trkpt lat="51.20130" lon="4.45466"></trkpt>
      <trkpt lat="51.20131" lon="4.45463"></trkpt>
      <trkpt lat="51.20131" lon="4.45460"></trkpt>
      <trkpt lat="51.20132" lon="4.45456"></trkpt>
      <trkpt lat="51.20133" lon="4.45453"></trkpt>
      <trkpt lat="51.20134" lon="4.45448"></trkpt>
      <trkpt lat="51.20134" lon="4.45445"></trkpt>
      <trkpt lat="51.20135" lon="4.45442"></trkpt>
      <trkpt lat="51.20136" lon="4.45438"></trkpt>
      <trkpt lat="51.20136" lon="4.45434"></trkpt>
      <trkpt lat="51.20138" lon="4.45431"></trkpt>
      <trkpt lat="51.20139" lon="4.45428"></trkpt>
      <trkpt lat="51.20139" lon="4.45425"></trkpt>
      <trkpt lat="51.20139" lon="4.45422"></trkpt>
      <trkpt lat="51.20140" lon="4.45419"></trkpt>
      <trkpt lat="51.20140" lon="4.45415"></trkpt>
      <trkpt lat="51.20140" lon="4.45412"></trkpt>
      <trkpt lat="51.20140" lon="4.45409"></trkpt>
      <trkpt lat="51.20139" lon="4.45406"></trkpt>
      <trkpt lat="51.20139" lon="4.45402"></trkpt>
      <trkpt lat="51.20139" lon="4.45399"></trkpt>
      <trkpt lat="51.20139" lon="4.45396"></trkpt>
      <trkpt lat="51.20139" lon="4.45393"></trkpt>
      <trkpt lat="51.20139" lon="4.45390"></trkpt>
      <trkpt lat="51.20139" lon="4.45387"></trkpt>
      <trkpt lat="51.20139" lon="4.45385"></trkpt>
      <trkpt lat="51.20139" lon="4.45382"></trkpt>
      <trkpt lat="51.20140" lon="4.45379"></trkpt>
      <trkpt lat="51.20140" lon="4.45378"></trkpt>
      <trkpt lat="51.20141" lon="4.45376"></trkpt>
      <trkpt lat="51.20141" lon="4.45374"></trkpt>
      <trkpt lat="51.20141" lon="4.45372"></trkpt>
      <trkpt lat="51.20141" lon="4.45370"></trkpt>
      <trkpt lat="51.20141" lon="4.45368"></trkpt>
      <trkpt lat="51.20141" lon="4.45367"></trkpt>
      <trkpt lat="51.20142" lon="4.45365"></trkpt>
      <trkpt lat="51.20142" lon="4.45363"></trkpt>
      <trkpt lat="51.20142" lon="4.45362"></trkpt>
      <trkpt lat="51.20143" lon="4.45360"></trkpt>
      <trkpt lat="51.20143" lon="4.45359"></trkpt>
      <trkpt lat="51.20143" lon="4.45358"></trkpt>
      <trkpt lat="51.20143" lon="4.45358"></trkpt>
      <trkpt lat="51.20143" lon="4.45357"></trkpt>
      <trkpt lat="51.20144" lon="4.45357"></trkpt>
      <trkpt lat="51.20144" lon="4.45357"></trkpt>
      <trkpt lat="51.20144" lon="4.45356"></trkpt>
      <trkpt lat="51.20144" lon="4.45356"></trkpt>
      <trkpt lat="51.20144" lon="4.45356"></trkpt>
      <trkpt lat="51.20144" lon="4.45355"></trkpt>
      <trkpt lat="51.20144" lon="4.45354"></trkpt>
      <trkpt lat="51.20145" lon="4.45352"></trkpt>
      <trkpt lat="51.20145" lon="4.45351"></trkpt>
      <trkpt lat="51.20146" lon="4.45348"></trkpt>
      <trkpt lat="51.20147" lon="4.45344"></trkpt>
      <trkpt lat="51.20147" lon="4.45341"></trkpt>
      <trkpt lat="51.20148" lon="4.45338"></trkpt>
      <trkpt lat="51.20149" lon="4.45334"></trkpt>
      <trkpt lat="51.20150" lon="4.45331"></trkpt>
      <trkpt lat="51.20152" lon="4.45328"></trkpt>
      <trkpt lat="51.20153" lon="4.45325"></trkpt>
      <trkpt lat="51.20154" lon="4.45322"></trkpt>
      <trkpt lat="51.20155" lon="4.45319"></trkpt>
      <trkpt lat="51.20156" lon="4.45316"></trkpt>
      <trkpt lat="51.20158" lon="4.45312"></trkpt>
      <trkpt lat="51.20159" lon="4.45308"></trkpt>
      <trkpt lat="51.20160" lon="4.45305"></trkpt>
      <trkpt lat="51.20161" lon="4.45302"></trkpt>
      <trkpt lat="51.20162" lon="4.45298"></trkpt>
      <trkpt lat="51.20163" lon="4.45295"></trkpt>
      <trkpt lat="51.20164" lon="4.45291"></trkpt>
      <trkpt lat="51.20165" lon="4.45289"></trkpt>
      <trkpt lat="51.20166" lon="4.45286"></trkpt>
      <trkpt lat="51.20167" lon="4.45283"></trkpt>
      <trkpt lat="51.20168" lon="4.45281"></trkpt>
      <trkpt lat="51.20170" lon="4.45278"></trkpt>
      <trkpt lat="51.20172" lon="4.45275"></trkpt>
      <trkpt lat="51.20173" lon="4.45274"></trkpt>
      <trkpt lat="51.20175" lon="4.45272"></trkpt>
      <trkpt lat="51.20176" lon="4.45270"></trkpt>
      <trkpt lat="51.20178" lon="4.45268"></trkpt>
      <trkpt lat="51.20179" lon="4.45267"></trkpt>
      <trkpt lat="51.20180" lon="4.45264"></trkpt>
      <trkpt lat="51.20181" lon="4.45262"></trkpt>
      <trkpt lat="51.20183" lon="4.45259"></trkpt>
      <trkpt lat="51.20184" lon="4.45256"></trkpt>
      <trkpt lat="51.20185" lon="4.45253"></trkpt>
      <trkpt lat="51.20186" lon="4.45250"></trkpt>
      <trkpt lat="51.20187" lon="4.45247"></trkpt>
      <trkpt lat="51.20187" lon="4.45242"></trkpt>
      <trkpt lat="51.20188" lon="4.45238"></trkpt>
      <trkpt lat="51.20189" lon="4.45235"></trkpt>
      <trkpt lat="51.20189" lon="4.45231"></trkpt>
      <trkpt lat="51.20190" lon="4.45227"></trkpt>
      <trkpt lat="51.20191" lon="4.45224"></trkpt>
      <trkpt lat="51.20192" lon="4.45220"></trkpt>
      <trkpt lat="51.20193" lon="4.45217"></trkpt>
      <trkpt lat="51.20194" lon="4.45214"></trkpt>
      <trkpt lat="51.20195" lon="4.45210"></trkpt>
      <trkpt lat="51.20196" lon="4.45207"></trkpt>
      <trkpt lat="51.20197" lon="4.45204"></trkpt>
      <trkpt lat="51.20198" lon="4.45201"></trkpt>
      <trkpt lat="51.20199" lon="4.45197"></trkpt>
      <trkpt lat="51.20200" lon="4.45194"></trkpt>
      <trkpt lat="51.20201" lon="4.45191"></trkpt>
      <trkpt lat="51.20201" lon="4.45187"></trkpt>
      <trkpt lat="51.20202" lon="4.45184"></trkpt>
      <trkpt lat="51.20203" lon="4.45181"></trkpt>
      <trkpt lat="51.20204" lon="4.45178"></trkpt>
      <trkpt lat="51.20205" lon="4.45175"></trkpt>
      <trkpt lat="51.20207" lon="4.45172"></trkpt>
      <trkpt lat="51.20208" lon="4.45170"></trkpt>
      <trkpt lat="51.20211" lon="4.45168"></trkpt>
      <trkpt lat="51.20213" lon="4.45167"></trkpt>
      <trkpt lat="51.20215" lon="4.45167"></trkpt>
      <trkpt lat="51.20218" lon="4.45166"></trkpt>
      <trkpt lat="51.20220" lon="4.45167"></trkpt>
      <trkpt lat="51.20222" lon="4.45167"></trkpt>
      <trkpt lat="51.20224" lon="4.45167"></trkpt>
      <trkpt lat="51.20227" lon="4.45167"></trkpt>
      <trkpt lat="51.20229" lon="4.45167"></trkpt>
      <trkpt lat="51.20231" lon="4.45167"></trkpt>
      <trkpt lat="51.20233" lon="4.45168"></trkpt>
      <trkpt lat="51.20235" lon="4.45168"></trkpt>
      <trkpt lat="51.20237" lon="4.45168"></trkpt>
      <trkpt lat="51.20239" lon="4.45169"></trkpt>
      <trkpt lat="51.20241" lon="4.45169"></trkpt>
      <trkpt lat="51.20243" lon="4.45169"></trkpt>
      <trkpt lat="51.20245" lon="4.45169"></trkpt>
      <trkpt lat="51.20247" lon="4.45169"></trkpt>
      <trkpt lat="51.20250" lon="4.45169"></trkpt>
      <trkpt lat="51.20252" lon="4.45170"></trkpt>
      <trkpt lat="51.20254" lon="4.45171"></trkpt>
      <trkpt lat="51.20256" lon="4.45171"></trkpt>
      <trkpt lat="51.20258" lon="4.45172"></trkpt>
      <trkpt lat="51.20261" lon="4.45172"></trkpt>
      <trkpt lat="51.20263" lon="4.45173"></trkpt>
      <trkpt lat="51.20265" lon="4.45174"></trkpt>
      <trkpt lat="51.20267" lon="4.45174"></trkpt>
      <trkpt lat="51.20269" lon="4.45175"></trkpt>
      <trkpt lat="51.20271" lon="4.45176"></trkpt>
      <trkpt lat="51.20273" lon="4.45176"></trkpt>
      <trkpt lat="51.20276" lon="4.45177"></trkpt>
      <trkpt lat="51.20278" lon="4.45178"></trkpt>
      <trkpt lat="51.20280" lon="4.45179"></trkpt>
      <trkpt lat="51.20282" lon="4.45179"></trkpt>
      <trkpt lat="51.20284" lon="4.45180"></trkpt>
      <trkpt lat="51.20287" lon="4.45181"></trkpt>
      <trkpt lat="51.20289" lon="4.45182"></trkpt>
      <trkpt lat="51.20291" lon="4.45182"></trkpt>
      <trkpt lat="51.20293" lon="4.45183"></trkpt>
      <trkpt lat="51.20295" lon="4.45184"></trkpt>
      <trkpt lat="51.20296" lon="4.45185"></trkpt>
      <trkpt lat="51.20298" lon="4.45185"></trkpt>
      <trkpt lat="51.20299" lon="4.45186"></trkpt>
      <trkpt lat="51.20301" lon="4.45186"></trkpt>
      <trkpt lat="51.20302" lon="4.45186"></trkpt>
      <trkpt lat="51.20303" lon="4.45187"></trkpt>
      <trkpt lat="51.20304" lon="4.45187"></trkpt>
      <trkpt lat="51.20305" lon="4.45187"></trkpt>
      <trkpt lat="51.20306" lon="4.45188"></trkpt>
      <trkpt lat="51.20308" lon="4.45188"></trkpt>
      <trkpt lat="51.20309" lon="4.45189"></trkpt>
      <trkpt lat="51.20310" lon="4.45189"></trkpt>
      <trkpt lat="51.20311" lon="4.45190"></trkpt>
      <trkpt lat="51.20312" lon="4.45190"></trkpt>
      <trkpt lat="51.20314" lon="4.45190"></trkpt>
      <trkpt lat="51.20315" lon="4.45191"></trkpt>
      <trkpt lat="51.20315" lon="4.45191"></trkpt>
      <trkpt lat="51.20316" lon="4.45192"></trkpt>
      <trkpt lat="51.20317" lon="4.45192"></trkpt>
      <trkpt lat="51.20318" lon="4.45193"></trkpt>
      <trkpt lat="51.20319" lon="4.45193"></trkpt>
      <trkpt lat="51.20320" lon="4.45193"></trkpt>
      <trkpt lat="51.20321" lon="4.45193"></trkpt>
      <trkpt lat="51.20323" lon="4.45193"></trkpt>
      <trkpt lat="51.20324" lon="4.45193"></trkpt>
      <trkpt lat="51.20325" lon="4.45193"></trkpt>
      <trkpt lat="51.20325" lon="4.45192"></trkpt>
      <trkpt lat="51.20326" lon="4.45192"></trkpt>
      <trkpt lat="51.20327" lon="4.45190"></trkpt>
      <trkpt lat="51.20328" lon="4.45189"></trkpt>
      <trkpt lat="51.20328" lon="4.45187"></trkpt>
      <trkpt lat="51.20329" lon="4.45186"></trkpt>
      <trkpt lat="51.20329" lon="4.45184"></trkpt>
      <trkpt lat="51.20330" lon="4.45182"></trkpt>
      <trkpt lat="51.20330" lon="4.45180"></trkpt>
      <trkpt lat="51.20330" lon="4.45178"></trkpt>
      <trkpt lat="51.20331" lon="4.45177"></trkpt>
      <trkpt lat="51.20331" lon="4.45175"></trkpt>
      <trkpt lat="51.20332" lon="4.45174"></trkpt>
      <trkpt lat="51.20332" lon="4.45172"></trkpt>
      <trkpt lat="51.20333" lon="4.45170"></trkpt>
      <trkpt lat="51.20333" lon="4.45169"></trkpt>
      <trkpt lat="51.20334" lon="4.45167"></trkpt>
      <trkpt lat="51.20335" lon="4.45166"></trkpt>
      <trkpt lat="51.20335" lon="4.45164"></trkpt>
      <trkpt lat="51.20336" lon="4.45163"></trkpt>
      <trkpt lat="51.20336" lon="4.45161"></trkpt>
      <trkpt lat="51.20336" lon="4.45159"></trkpt>
      <trkpt lat="51.20336" lon="4.45157"></trkpt>
      <trkpt lat="51.20336" lon="4.45156"></trkpt>
      <trkpt lat="51.20335" lon="4.45154"></trkpt>
      <trkpt lat="51.20335" lon="4.45153"></trkpt>
      <trkpt lat="51.20334" lon="4.45151"></trkpt>
      <trkpt lat="51.20334" lon="4.45149"></trkpt>
      <trkpt lat="51.20334" lon="4.45147"></trkpt>
      <trkpt lat="51.20333" lon="4.45145"></trkpt>
      <trkpt lat="51.20333" lon="4.45144"></trkpt>
      <trkpt lat="51.20333" lon="4.45142"></trkpt>
      <trkpt lat="51.20333" lon="4.45140"></trkpt>
      <trkpt lat="51.20333" lon="4.45139"></trkpt>
      <trkpt lat="51.20332" lon="4.45137"></trkpt>
      <trkpt lat="51.20332" lon="4.45135"></trkpt>
      <trkpt lat="51.20331" lon="4.45134"></trkpt>
      <trkpt lat="51.20331" lon="4.45132"></trkpt>
      <trkpt lat="51.20330" lon="4.45130"></trkpt>
      <trkpt lat="51.20330" lon="4.45129"></trkpt>
      <trkpt lat="51.20329" lon="4.45127"></trkpt>
      <trkpt lat="51.20329" lon="4.45125"></trkpt>
      <trkpt lat="51.20329" lon="4.45124"></trkpt>
      <trkpt lat="51.20329" lon="4.45122"></trkpt>
      <trkpt lat="51.20329" lon="4.45120"></trkpt>
      <trkpt lat="51.20328" lon="4.45118"></trkpt>
      <trkpt lat="51.20328" lon="4.45116"></trkpt>
      <trkpt lat="51.20328" lon="4.45114"></trkpt>
      <trkpt lat="51.20328" lon="4.45112"></trkpt>
      <trkpt lat="51.20328" lon="4.45110"></trkpt>
      <trkpt lat="51.20329" lon="4.45108"></trkpt>
      <trkpt lat="51.20329" lon="4.45107"></trkpt>
      <trkpt lat="51.20329" lon="4.45104"></trkpt>
      <trkpt lat="51.20330" lon="4.45102"></trkpt>
      <trkpt lat="51.20330" lon="4.45100"></trkpt>
      <trkpt lat="51.20331" lon="4.45099"></trkpt>
      <trkpt lat="51.20331" lon="4.45097"></trkpt>
      <trkpt lat="51.20332" lon="4.45095"></trkpt>
      <trkpt lat="51.20332" lon="4.45093"></trkpt>
      <trkpt lat="51.20332" lon="4.45091"></trkpt>
      <trkpt lat="51.20333" lon="4.45089"></trkpt>
      <trkpt lat="51.20333" lon="4.45087"></trkpt>
      <trkpt lat="51.20334" lon="4.45085"></trkpt>
      <trkpt lat="51.20335" lon="4.45083"></trkpt>
      <trkpt lat="51.20335" lon="4.45081"></trkpt>
      <trkpt lat="51.20336" lon="4.45079"></trkpt>
      <trkpt lat="51.20337" lon="4.45077"></trkpt>
      <trkpt lat="51.20338" lon="4.45075"></trkpt>
      <trkpt lat="51.20338" lon="4.45074"></trkpt>
      <trkpt lat="51.20339" lon="4.45072"></trkpt>
      <trkpt lat="51.20340" lon="4.45071"></trkpt>
      <trkpt lat="51.20341" lon="4.45070"></trkpt>
      <trkpt lat="51.20342" lon="4.45068"></trkpt>
      <trkpt lat="51.20343" lon="4.45067"></trkpt>
      <trkpt lat="51.20344" lon="4.45065"></trkpt>
      <trkpt lat="51.20345" lon="4.45063"></trkpt>
      <trkpt lat="51.20346" lon="4.45061"></trkpt>
      <trkpt lat="51.20347" lon="4.45060"></trkpt>
      <trkpt lat="51.20348" lon="4.45058"></trkpt>
      <trkpt lat="51.20349" lon="4.45056"></trkpt>
      <trkpt lat="51.20350" lon="4.45054"></trkpt>
      <trkpt lat="51.20351" lon="4.45053"></trkpt>
      <trkpt lat="51.20352" lon="4.45051"></trkpt>
      <trkpt lat="51.20352" lon="4.45049"></trkpt>
      <trkpt lat="51.20353" lon="4.45048"></trkpt>
      <trkpt lat="51.20354" lon="4.45046"></trkpt>
      <trkpt lat="51.20355" lon="4.45044"></trkpt>
      <trkpt lat="51.20356" lon="4.45043"></trkpt>
      <trkpt lat="51.20357" lon="4.45041"></trkpt>
      <trkpt lat="51.20358" lon="4.45040"></trkpt>
      <trkpt lat="51.20358" lon="4.45039"></trkpt>
      <trkpt lat="51.20359" lon="4.45037"></trkpt>
      <trkpt lat="51.20360" lon="4.45036"></trkpt>
      <trkpt lat="51.20361" lon="4.45035"></trkpt>
      <trkpt lat="51.20361" lon="4.45033"></trkpt>
      <trkpt lat="51.20362" lon="4.45031"></trkpt>
      <trkpt lat="51.20363" lon="4.45030"></trkpt>
      <trkpt lat="51.20364" lon="4.45028"></trkpt>
      <trkpt lat="51.20364" lon="4.45027"></trkpt>
      <trkpt lat="51.20365" lon="4.45025"></trkpt>
      <trkpt lat="51.20366" lon="4.45024"></trkpt>
      <trkpt lat="51.20367" lon="4.45022"></trkpt>
      <trkpt lat="51.20368" lon="4.45021"></trkpt>
      <trkpt lat="51.20369" lon="4.45020"></trkpt>
      <trkpt lat="51.20369" lon="4.45018"></trkpt>
      <trkpt lat="51.20370" lon="4.45017"></trkpt>
      <trkpt lat="51.20372" lon="4.45016"></trkpt>
      <trkpt lat="51.20373" lon="4.45015"></trkpt>
      <trkpt lat="51.20374" lon="4.45015"></trkpt>
      <trkpt lat="51.20376" lon="4.45014"></trkpt>
      <trkpt lat="51.20377" lon="4.45013"></trkpt>
      <trkpt lat="51.20378" lon="4.45013"></trkpt>
      <trkpt lat="51.20380" lon="4.45013"></trkpt>
      <trkpt lat="51.20381" lon="4.45013"></trkpt>
      <trkpt lat="51.20383" lon="4.45013"></trkpt>
      <trkpt lat="51.20384" lon="4.45013"></trkpt>
      <trkpt lat="51.20385" lon="4.45013"></trkpt>
      <trkpt lat="51.20387" lon="4.45013"></trkpt>
      <trkpt lat="51.20388" lon="4.45013"></trkpt>
      <trkpt lat="51.20389" lon="4.45014"></trkpt>
      <trkpt lat="51.20391" lon="4.45014"></trkpt>
      <trkpt lat="51.20392" lon="4.45014"></trkpt>
      <trkpt lat="51.20394" lon="4.45013"></trkpt>
      <trkpt lat="51.20395" lon="4.45013"></trkpt>
      <trkpt lat="51.20397" lon="4.45013"></trkpt>
      <trkpt lat="51.20398" lon="4.45013"></trkpt>
      <trkpt lat="51.20400" lon="4.45013"></trkpt>
      <trkpt lat="51.20401" lon="4.45013"></trkpt>
      <trkpt lat="51.20402" lon="4.45013"></trkpt>
      <trkpt lat="51.20404" lon="4.45012"></trkpt>
      <trkpt lat="51.20405" lon="4.45013"></trkpt>
      <trkpt lat="51.20406" lon="4.45013"></trkpt>
    </trkseg>
  </trk>
</gpx>