<?xml version="1.0" encoding="UTF-8"?>
<gpx version="1.1" creator="jeffry.running" xmlns="http://www.topografix.com/GPX/1/1">
  <metadata><time>2026-09-23T16:05:38.245Z</time></metadata>
  <trk>
    <trkseg>
      <trkpt lat="51.20281" lon="4.45072"></trkpt>
      <trkpt lat="51.20278" lon="4.45070"></trkpt>
      <trkpt lat="51.20274" lon="4.45068"></trkpt>
      <trkpt lat="51.20270" lon="4.45067"></trkpt>
      <trkpt lat="51.20266" lon="4.45065"></trkpt>
      <trkpt lat="51.20261" lon="4.45064"></trkpt>
      <trkpt lat="51.20256" lon="4.45064"></trkpt>
      <trkpt lat="51.20252" lon="4.45063"></trkpt>
      <trkpt lat="51.20247" lon="4.45062"></trkpt>
      <trkpt lat="51.20243" lon="4.45062"></trkpt>
      <trkpt lat="51.20239" lon="4.45062"></trkpt>
      <trkpt lat="51.20235" lon="4.45061"></trkpt>
      <trkpt lat="51.20230" lon="4.45061"></trkpt>
      <trkpt lat="51.20226" lon="4.45062"></trkpt>
      <trkpt lat="51.20222" lon="4.45061"></trkpt>
      <trkpt lat="51.20218" lon="4.45061"></trkpt>
      <trkpt lat="51.20213" lon="4.45061"></trkpt>
      <trkpt lat="51.20209" lon="4.45061"></trkpt>
      <trkpt lat="51.20205" lon="4.45061"></trkpt>
      <trkpt lat="51.20200" lon="4.45060"></trkpt>
      <trkpt lat="51.20196" lon="4.45060"></trkpt>
      <trkpt lat="51.20193" lon="4.45060"></trkpt>
      <trkpt lat="51.20189" lon="4.45060"></trkpt>
      <trkpt lat="51.20185" lon="4.45060"></trkpt>
      <trkpt lat="51.20180" lon="4.45060"></trkpt>
      <trkpt lat="51.20176" lon="4.45060"></trkpt>
      <trkpt lat="51.20172" lon="4.45058"></trkpt>
      <trkpt lat="51.20169" lon="4.45058"></trkpt>
      <trkpt lat="51.20165" lon="4.45057"></trkpt>
      <trkpt lat="51.20161" lon="4.45057"></trkpt>
      <trkpt lat="51.20157" lon="4.45057"></trkpt>
      <trkpt lat="51.20153" lon="4.45057"></trkpt>
      <trkpt lat="51.20149" lon="4.45056"></trkpt>
      <trkpt lat="51.20145" lon="4.45055"></trkpt>
      <trkpt lat="51.20142" lon="4.45055"></trkpt>
      <trkpt lat="51.20138" lon="4.45054"></trkpt>
      <trkpt lat="51.20134" lon="4.45053"></trkpt>
      <trkpt lat="51.20131" lon="4.45052"></trkpt>
      <trkpt lat="51.20128" lon="4.45050"></trkpt>
      <trkpt lat="51.20125" lon="4.45049"></trkpt>
      <trkpt lat="51.20121" lon="4.45049"></trkpt>
      <trkpt lat="51.20117" lon="4.45048"></trkpt>
      <trkpt lat="51.20113" lon="4.45046"></trkpt>
      <trkpt lat="51.20109" lon="4.45046"></trkpt>
      <trkpt lat="51.20105" lon="4.45046"></trkpt>
      <trkpt lat="51.20101" lon="4.45046"></trkpt>
      <trkpt lat="51.20097" lon="4.45047"></trkpt>
      <trkpt lat="51.20093" lon="4.45048"></trkpt>
      <trkpt lat="51.20089" lon="4.45049"></trkpt>
      <trkpt lat="51.20085" lon="4.45050"></trkpt>
      <trkpt lat="51.20081" lon="4.45052"></trkpt>
      <trkpt lat="51.20078" lon="4.45054"></trkpt>
      <trkpt lat="51.20075" lon="4.45056"></trkpt>
      <trkpt lat="51.20071" lon="4.45058"></trkpt>
      <trkpt lat="51.20068" lon="4.45061"></trkpt>
      <trkpt lat="51.20065" lon="4.45064"></trkpt>
      <trkpt lat="51.20061" lon="4.45066"></trkpt>
      <trkpt lat="51.20057" lon="4.45069"></trkpt>
      <trkpt lat="51.20053" lon="4.45074"></trkpt>
      <trkpt lat="51.20049" lon="4.45078"></trkpt>
      <trkpt lat="51.20046" lon="4.45081"></trkpt>
      <trkpt lat="51.20043" lon="4.45085"></trkpt>
      <trkpt lat="51.20039" lon="4.45087"></trkpt>
      <trkpt lat="51.20035" lon="4.45091"></trkpt>
      <trkpt lat="51.20031" lon="4.45094"></trkpt>
      <trkpt lat="51.20027" lon="4.45096"></trkpt>
      <trkpt lat="51.20024" lon="4.45099"></trkpt>
      <trkpt lat="51.20021" lon="4.45104"></trkpt>
      <trkpt lat="51.20017" lon="4.45107"></trkpt>
      <trkpt lat="51.20014" lon="4.45110"></trkpt>
      <trkpt lat="51.20010" lon="4.45113"></trkpt>
      <trkpt lat="51.20006" lon="4.45117"></trkpt>
      <trkpt lat="51.20003" lon="4.45120"></trkpt>
      <trkpt lat="51.19999" lon="4.45125"></trkpt>
      <trkpt lat="51.19996" lon="4.45130"></trkpt>
      <trkpt lat="51.19992" lon="4.45134"></trkpt>
      <trkpt lat="51.19988" lon="4.45137"></trkpt>
      <trkpt lat="51.19985" lon="4.45141"></trkpt>
      <trkpt lat="51.19981" lon="4.45146"></trkpt>
      <trkpt lat="51.19978" lon="4.45151"></trkpt>
      <trkpt lat="51.19974" lon="4.45154"></trkpt>
      <trkpt lat="51.19971" lon="4.45159"></trkpt>
      <trkpt lat="51.19968" lon="4.45161"></trkpt>
      <trkpt lat="51.19964" lon="4.45164"></trkpt>
      <trkpt lat="51.19961" lon="4.45166"></trkpt>
      <trkpt lat="51.19959" lon="4.45169"></trkpt>
      <trkpt lat="51.19956" lon="4.45173"></trkpt>
      <trkpt lat="51.19954" lon="4.45177"></trkpt>
      <trkpt lat="51.19951" lon="4.45180"></trkpt>
      <trkpt lat="51.19949" lon="4.45185"></trkpt>
      <trkpt lat="51.19948" lon="4.45187"></trkpt>
      <trkpt lat="51.19945" lon="4.45191"></trkpt>
      <trkpt lat="51.19943" lon="4.45196"></trkpt>
      <trkpt lat="51.19941" lon="4.45202"></trkpt>
      <trkpt lat="51.19939" lon="4.45207"></trkpt>
      <trkpt lat="51.19936" lon="4.45212"></trkpt>
      <trkpt lat="51.19935" lon="4.45217"></trkpt>
      <trkpt lat="51.19933" lon="4.45223"></trkpt>
      <trkpt lat="51.19932" lon="4.45230"></trkpt>
      <trkpt lat="51.19931" lon="4.45237"></trkpt>
      <trkpt lat="51.19929" lon="4.45243"></trkpt>
      <trkpt lat="51.19928" lon="4.45248"></trkpt>
      <trkpt lat="51.19927" lon="4.45254"></trkpt>
      <trkpt lat="51.19925" lon="4.45259"></trkpt>
      <trkpt lat="51.19924" lon="4.45265"></trkpt>
      <trkpt lat="51.19923" lon="4.45270"></trkpt>
      <trkpt lat="51.19922" lon="4.45276"></trkpt>
      <trkpt lat="51.19922" lon="4.45281"></trkpt>
      <trkpt lat="51.19921" lon="4.45287"></trkpt>
      <trkpt lat="51.19920" lon="4.45294"></trkpt>
      <trkpt lat="51.19919" lon="4.45300"></trkpt>
      <trkpt lat="51.19917" lon="4.45306"></trkpt>
      <trkpt lat="51.19916" lon="4.45312"></trkpt>
      <trkpt lat="51.19913" lon="4.45317"></trkpt>
      <trkpt lat="51.19911" lon="4.45323"></trkpt>
      <trkpt lat="51.19910" lon="4.45328"></trkpt>
      <trkpt lat="51.19908" lon="4.45334"></trkpt>
      <trkpt lat="51.19907" lon="4.45340"></trkpt>
      <trkpt lat="51.19905" lon="4.45346"></trkpt>
      <trkpt lat="51.19902" lon="4.45351"></trkpt>
      <trkpt lat="51.19900" lon="4.45356"></trkpt>
      <trkpt lat="51.19899" lon="4.45363"></trkpt>
      <trkpt lat="51.19897" lon="4.45369"></trkpt>
      <trkpt lat="51.19896" lon="4.45376"></trkpt>
      <trkpt lat="51.19896" lon="4.45383"></trkpt>
      <trkpt lat="51.19895" lon="4.45389"></trkpt>
      <trkpt lat="51.19895" lon="4.45396"></trkpt>
      <trkpt lat="51.19896" lon="4.45403"></trkpt>
      <trkpt lat="51.19896" lon="4.45409"></trkpt>
      <trkpt lat="51.19898" lon="4.45415"></trkpt>
      <trkpt lat="51.19900" lon="4.45420"></trkpt>
      <trkpt lat="51.19901" lon="4.45426"></trkpt>
      <trkpt lat="51.19904" lon="4.45430"></trkpt>
      <trkpt lat="51.19907" lon="4.45435"></trkpt>
      <trkpt lat="51.19910" lon="4.45440"></trkpt>
      <trkpt lat="51.19914" lon="4.45444"></trkpt>
      <trkpt lat="51.19918" lon="4.45448"></trkpt>
      <trkpt lat="51.19922" lon="4.45451"></trkpt>
      <trkpt lat="51.19927" lon="4.45455"></trkpt>
      <trkpt lat="51.19930" lon="4.45459"></trkpt>
      <trkpt lat="51.19934" lon="4.45461"></trkpt>
      <trkpt lat="51.19938" lon="4.45462"></trkpt>
      <trkpt lat="51.19941" lon="4.45464"></trkpt>
      <trkpt lat="51.19944" lon="4.45465"></trkpt>
      <trkpt lat="51.19949" lon="4.45466"></trkpt>
      <trkpt lat="51.19953" lon="4.45465"></trkpt>
      <trkpt lat="51.19957" lon="4.45464"></trkpt>
      <trkpt lat="51.19961" lon="4.45463"></trkpt>
      <trkpt lat="51.19966" lon="4.45462"></trkpt>
      <trkpt lat="51.19970" lon="4.45460"></trkpt>
      <trkpt lat="51.19974" lon="4.45457"></trkpt>
      <trkpt lat="51.19978" lon="4.45454"></trkpt>
      <trkpt lat="51.19982" lon="4.45452"></trkpt>
      <trkpt lat="51.19986" lon="4.45454"></trkpt>
      <trkpt lat="51.19991" lon="4.45456"></trkpt>
      <trkpt lat="51.19995" lon="4.45460"></trkpt>
      <trkpt lat="51.20000" lon="4.45463"></trkpt>
      <trkpt lat="51.20004" lon="4.45466"></trkpt>
      <trkpt lat="51.20008" lon="4.45469"></trkpt>
      <trkpt lat="51.20012" lon="4.45471"></trkpt>
      <trkpt lat="51.20016" lon="4.45474"></trkpt>
      <trkpt lat="51.20020" lon="4.45477"></trkpt>
      <trkpt lat="51.20023" lon="4.45479"></trkpt>
      <trkpt lat="51.20027" lon="4.45480"></trkpt>
      <trkpt lat="51.20032" lon="4.45482"></trkpt>
      <trkpt lat="51.20036" lon="4.45485"></trkpt>
      <trkpt lat="51.20040" lon="4.45488"></trkpt>
      <trkpt lat="51.20044" lon="4.45491"></trkpt>
      <trkpt lat="51.20048" lon="4.45494"></trkpt>
      <trkpt lat="51.20051" lon="4.45499"></trkpt>
      <trkpt lat="51.20050" lon="4.45506"></trkpt>
      <trkpt lat="51.20048" lon="4.45514"></trkpt>
      <trkpt lat="51.20047" lon="4.45521"></trkpt>
      <trkpt lat="51.20045" lon="4.45528"></trkpt>
      <trkpt lat="51.20044" lon="4.45536"></trkpt>
      <trkpt lat="51.20043" lon="4.45543"></trkpt>
      <trkpt lat="51.20043" lon="4.45549"></trkpt>
      <trkpt lat="51.20045" lon="4.45554"></trkpt>
      <trkpt lat="51.20047" lon="4.45560"></trkpt>
      <trkpt lat="51.20049" lon="4.45565"></trkpt>
      <trkpt lat="51.20051" lon="4.45573"></trkpt>
      <trkpt lat="51.20052" lon="4.45579"></trkpt>
      <trkpt lat="51.20052" lon="4.45586"></trkpt>
      <trkpt lat="51.20052" lon="4.45593"></trkpt>
      <trkpt lat="51.20052" lon="4.45601"></trkpt>
      <trkpt lat="51.20052" lon="4.45607"></trkpt>
      <trkpt lat="51.20052" lon="4.45615"></trkpt>
      <trkpt lat="51.20052" lon="4.45621"></trkpt>
      <trkpt lat="51.20051" lon="4.45627"></trkpt>
      <trkpt lat="51.20050" lon="4.45634"></trkpt>
      <trkpt lat="51.20048" lon="4.45642"></trkpt>
      <trkpt lat="51.20047" lon="4.45649"></trkpt>
      <trkpt lat="51.20046" lon="4.45656"></trkpt>
      <trkpt lat="51.20045" lon="4.45662"></trkpt>
      <trkpt lat="51.20043" lon="4.45667"></trkpt>
      <trkpt lat="51.20041" lon="4.45673"></trkpt>
      <trkpt lat="51.20039" lon="4.45680"></trkpt>
      <trkpt lat="51.20036" lon="4.45686"></trkpt>
      <trkpt lat="51.20033" lon="4.45691"></trkpt>
      <trkpt lat="51.20031" lon="4.45696"></trkpt>
      <trkpt lat="51.20029" lon="4.45702"></trkpt>
      <trkpt lat="51.20027" lon="4.45708"></trkpt>
      <trkpt lat="51.20025" lon="4.45713"></trkpt>
      <trkpt lat="51.20024" lon="4.45719"></trkpt>
      <trkpt lat="51.20022" lon="4.45724"></trkpt>
      <trkpt lat="51.20020" lon="4.45730"></trkpt>
      <trkpt lat="51.20019" lon="4.45736"></trkpt>
      <trkpt lat="51.20020" lon="4.45742"></trkpt>
      <trkpt lat="51.20022" lon="4.45748"></trkpt>
      <trkpt lat="51.20026" lon="4.45752"></trkpt>
      <trkpt lat="51.20030" lon="4.45756"></trkpt>
      <trkpt lat="51.20034" lon="4.45757"></trkpt>
      <trkpt lat="51.20038" lon="4.45758"></trkpt>
      <trkpt lat="51.20042" lon="4.45757"></trkpt>
      <trkpt lat="51.20047" lon="4.45753"></trkpt>
      <trkpt lat="51.20051" lon="4.45749"></trkpt>
      <trkpt lat="51.20054" lon="4.45744"></trkpt>
      <trkpt lat="51.20057" lon="4.45739"></trkpt>
      <trkpt lat="51.20060" lon="4.45734"></trkpt>
      <trkpt lat="51.20063" lon="4.45729"></trkpt>
      <trkpt lat="51.20067" lon="4.45725"></trkpt>
      <trkpt lat="51.20069" lon="4.45721"></trkpt>
      <trkpt lat="51.20072" lon="4.45717"></trkpt>
      <trkpt lat="51.20074" lon="4.45713"></trkpt>
      <trkpt lat="51.20076" lon="4.45708"></trkpt>
      <trkpt lat="51.20079" lon="4.45703"></trkpt>
      <trkpt lat="51.20082" lon="4.45698"></trkpt>
      <trkpt lat="51.20085" lon="4.45693"></trkpt>
      <trkpt lat="51.20088" lon="4.45687"></trkpt>
      <trkpt lat="51.20092" lon="4.45681"></trkpt>
      <trkpt lat="51.20094" lon="4.45677"></trkpt>
      <trkpt lat="51.20098" lon="4.45673"></trkpt>
      <trkpt lat="51.20102" lon="4.45670"></trkpt>
      <trkpt lat="51.20105" lon="4.45666"></trkpt>
      <trkpt lat="51.20108" lon="4.45662"></trkpt>
      <trkpt lat="51.20111" lon="4.45656"></trkpt>
      <trkpt lat="51.20112" lon="4.45651"></trkpt>
      <trkpt lat="51.20113" lon="4.45645"></trkpt>
      <trkpt lat="51.20114" lon="4.45637"></trkpt>
      <trkpt lat="51.20114" lon="4.45631"></trkpt>
      <trkpt lat="51.20115" lon="4.45624"></trkpt>
      <trkpt lat="51.20115" lon="4.45618"></trkpt>
      <trkpt lat="51.20114" lon="4.45612"></trkpt>
      <trkpt lat="51.20114" lon="4.45605"></trkpt>
      <trkpt lat="51.20114" lon="4.45599"></trkpt>
      <trkpt lat="51.20113" lon="4.45592"></trkpt>
      <trkpt lat="51.20112" lon="4.45585"></trkpt>
      <trkpt lat="51.20111" lon="4.45578"></trkpt>
      <trkpt lat="51.20110" lon="4.45571"></trkpt>
      <trkpt lat="51.20110" lon="4.45565"></trkpt>
      <trkpt lat="51.20111" lon="4.45559"></trkpt>
      <trkpt lat="51.20111" lon="4.45552"></trkpt>
      <trkpt lat="51.20112" lon="4.45547"></trkpt>
      <trkpt lat="51.20113" lon="4.45542"></trkpt>
      <trkpt lat="51.20115" lon="4.45536"></trkpt>
      <trkpt lat="51.20117" lon="4.45529"></trkpt>
      <trkpt lat="51.20118" lon="4.45523"></trkpt>
      <trkpt lat="51.20120" lon="4.45517"></trkpt>
      <trkpt lat="51.20122" lon="4.45512"></trkpt>
      <trkpt lat="51.20123" lon="4.45505"></trkpt>
      <trkpt lat="51.20124" lon="4.45500"></trkpt>
      <trkpt lat="51.20125" lon="4.45493"></trkpt>
      <trkpt lat="51.20127" lon="4.45487"></trkpt>
      <trkpt lat="51.20128" lon="4.45481"></trkpt>
      <trkpt lat="51.20130" lon="4.45476"></trkpt>
      <trkpt lat="51.20131" lon="4.45469"></trkpt>
      <trkpt lat="51.20132" lon="4.45463"></trkpt>
      <trkpt lat="51.20133" lon="4.45456"></trkpt>
      <trkpt lat="51.20134" lon="4.45449"></trkpt>
      <trkpt lat="51.20136" lon="4.45443"></trkpt>
      <trkpt lat="51.20137" lon="4.45437"></trkpt>
      <trkpt lat="51.20138" lon="4.45432"></trkpt>
      <trkpt lat="51.20139" lon="4.45426"></trkpt>
      <trkpt lat="51.20140" lon="4.45420"></trkpt>
      <trkpt lat="51.20140" lon="4.45413"></trkpt>
      <trkpt lat="51.20140" lon="4.45408"></trkpt>
      <trkpt lat="51.20140" lon="4.45401"></trkpt>
      <trkpt lat="51.20140" lon="4.45395"></trkpt>
      <trkpt lat="51.20139" lon="4.45388"></trkpt>
      <trkpt lat="51.20140" lon="4.45381"></trkpt>
      <trkpt lat="51.20140" lon="4.45374"></trkpt>
      <trkpt lat="51.20142" lon="4.45369"></trkpt>
      <trkpt lat="51.20143" lon="4.45363"></trkpt>
      <trkpt lat="51.20144" lon="4.45356"></trkpt>
      <trkpt lat="51.20145" lon="4.45348"></trkpt>
      <trkpt lat="51.20147" lon="4.45342"></trkpt>
      <trkpt lat="51.20148" lon="4.45336"></trkpt>
      <trkpt lat="51.20149" lon="4.45330"></trkpt>
      <trkpt lat="51.20151" lon="4.45324"></trkpt>
      <trkpt lat="51.20153" lon="4.45319"></trkpt>
      <trkpt lat="51.20155" lon="4.45313"></trkpt>
      <trkpt lat="51.20157" lon="4.45307"></trkpt>
      <trkpt lat="51.20159" lon="4.45301"></trkpt>
      <trkpt lat="51.20162" lon="4.45294"></trkpt>
      <trkpt lat="51.20164" lon="4.45288"></trkpt>
      <trkpt lat="51.20166" lon="4.45282"></trkpt>
      <trkpt lat="51.20169" lon="4.45276"></trkpt>
      <trkpt lat="51.20172" lon="4.45270"></trkpt>
      <trkpt lat="51.20175" lon="4.45267"></trkpt>
      <trkpt lat="51.20177" lon="4.45263"></trkpt>
      <trkpt lat="51.20181" lon="4.45261"></trkpt>
      <trkpt lat="51.20184" lon="4.45258"></trkpt>
      <trkpt lat="51.20186" lon="4.45254"></trkpt>
      <trkpt lat="51.20187" lon="4.45250"></trkpt>
      <trkpt lat="51.20189" lon="4.45244"></trkpt>
      <trkpt lat="51.20190" lon="4.45237"></trkpt>
      <trkpt lat="51.20192" lon="4.45231"></trkpt>
      <trkpt lat="51.20193" lon="4.45225"></trkpt>
      <trkpt lat="51.20195" lon="4.45220"></trkpt>
      <trkpt lat="51.20196" lon="4.45214"></trkpt>
      <trkpt lat="51.20197" lon="4.45207"></trkpt>
      <trkpt lat="51.20198" lon="4.45201"></trkpt>
      <trkpt lat="51.20199" lon="4.45195"></trkpt>
      <trkpt lat="51.20200" lon="4.45190"></trkpt>
      <trkpt lat="51.20201" lon="4.45184"></trkpt>
      <trkpt lat="51.20203" lon="4.45178"></trkpt>
      <trkpt lat="51.20205" lon="4.45170"></trkpt>
      <trkpt lat="51.20207" lon="4.45166"></trkpt>
      <trkpt lat="51.20211" lon="4.45163"></trkpt>
      <trkpt lat="51.20215" lon="4.45162"></trkpt>
      <trkpt lat="51.20219" lon="4.45163"></trkpt>
      <trkpt lat="51.20223" lon="4.45164"></trkpt>
      <trkpt lat="51.20227" lon="4.45165"></trkpt>
      <trkpt lat="51.20232" lon="4.45166"></trkpt>
      <trkpt lat="51.20236" lon="4.45167"></trkpt>
      <trkpt lat="51.20240" lon="4.45168"></trkpt>
      <trkpt lat="51.20244" lon="4.45168"></trkpt>
      <trkpt lat="51.20248" lon="4.45168"></trkpt>
      <trkpt lat="51.20252" lon="4.45169"></trkpt>
      <trkpt lat="51.20255" lon="4.45171"></trkpt>
      <trkpt lat="51.20259" lon="4.45172"></trkpt>
      <trkpt lat="51.20262" lon="4.45173"></trkpt>
      <trkpt lat="51.20266" lon="4.45175"></trkpt>
      <trkpt lat="51.20270" lon="4.45176"></trkpt>
      <trkpt lat="51.20274" lon="4.45177"></trkpt>
      <trkpt lat="51.20277" lon="4.45179"></trkpt>
      <trkpt lat="51.20281" lon="4.45180"></trkpt>
      <trkpt lat="51.20285" lon="4.45182"></trkpt>
      <trkpt lat="51.20288" lon="4.45183"></trkpt>
      <trkpt lat="51.20293" lon="4.45185"></trkpt>
      <trkpt lat="51.20297" lon="4.45186"></trkpt>
      <trkpt lat="51.20301" lon="4.45186"></trkpt>
      <trkpt lat="51.20304" lon="4.45187"></trkpt>
      <trkpt lat="51.20308" lon="4.45190"></trkpt>
      <trkpt lat="51.20312" lon="4.45192"></trkpt>
      <trkpt lat="51.20315" lon="4.45193"></trkpt>
      <trkpt lat="51.20319" lon="4.45195"></trkpt>
      <trkpt lat="51.20322" lon="4.45195"></trkpt>
      <trkpt lat="51.20324" lon="4.45192"></trkpt>
      <trkpt lat="51.20327" lon="4.45187"></trkpt>
      <trkpt lat="51.20330" lon="4.45182"></trkpt>
      <trkpt lat="51.20332" lon="4.45176"></trkpt>
      <trkpt lat="51.20333" lon="4.45170"></trkpt>
      <trkpt lat="51.20334" lon="4.45164"></trkpt>
      <trkpt lat="51.20335" lon="4.45157"></trkpt>
      <trkpt lat="51.20335" lon="4.45151"></trkpt>
      <trkpt lat="51.20334" lon="4.45144"></trkpt>
      <trkpt lat="51.20332" lon="4.45138"></trkpt>
      <trkpt lat="51.20331" lon="4.45133"></trkpt>
      <trkpt lat="51.20330" lon="4.45126"></trkpt>
      <trkpt lat="51.20328" lon="4.45120"></trkpt>
      <trkpt lat="51.20326" lon="4.45115"></trkpt>
      <trkpt lat="51.20324" lon="4.45109"></trkpt>
      <trkpt lat="51.20322" lon="4.45103"></trkpt>
      <trkpt lat="51.20319" lon="4.45098"></trkpt>
      <trkpt lat="51.20317" lon="4.45093"></trkpt>
      <trkpt lat="51.20314" lon="4.45089"></trkpt>
      <trkpt lat="51.20311" lon="4.45085"></trkpt>
      <trkpt lat="51.20307" lon="4.45081"></trkpt>
      <trkpt lat="51.20303" lon="4.45077"></trkpt>
      <trkpt lat="51.20298" lon="4.45076"></trkpt>
      <trkpt lat="51.20293" lon="4.45074"></trkpt>
      <trkpt lat="51.20289" lon="4.45072"></trkpt>
      <trkpt lat="51.20285" lon="4.45070"></trkpt>
      <trkpt lat="51.20281" lon="4.45067"></trkpt>
      <trkpt lat="51.20276" lon="4.45066"></trkpt>
      <trkpt lat="51.20272" lon="4.45066"></trkpt>
      <trkpt lat="51.20268" lon="4.45065"></trkpt>
      <trkpt lat="51.20264" lon="4.45063"></trkpt>
      <trkpt lat="51.20260" lon="4.45061"></trkpt>
      <trkpt lat="51.20255" lon="4.45059"></trkpt>
      <trkpt lat="51.20252" lon="4.45059"></trkpt>
      <trkpt lat="51.20248" lon="4.45057"></trkpt>
      <trkpt lat="51.20244" lon="4.45056"></trkpt>
      <trkpt lat="51.20240" lon="4.45055"></trkpt>
      <trkpt lat="51.20238" lon="4.45054"></trkpt>
      <trkpt lat="51.20234" lon="4.45054"></trkpt>
      <trkpt lat="51.20229" lon="4.45054"></trkpt>
      <trkpt lat="51.20225" lon="4.45055"></trkpt>
      <trkpt lat="51.20222" lon="4.45056"></trkpt>
      <trkpt lat="51.20218" lon="4.45057"></trkpt>
      <trkpt lat="51.20214" lon="4.45057"></trkpt>
      <trkpt lat="51.20211" lon="4.45056"></trkpt>
      <trkpt lat="51.20207" lon="4.45057"></trkpt>
      <trkpt lat="51.20203" lon="4.45057"></trkpt>
      <trkpt lat="51.20200" lon="4.45057"></trkpt>
      <trkpt lat="51.20196" lon="4.45057"></trkpt>
      <trkpt lat="51.20191" lon="4.45057"></trkpt>
      <trkpt lat="51.20188" lon="4.45057"></trkpt>
      <trkpt lat="51.20184" lon="4.45056"></trkpt>
      <trkpt lat="51.20180" lon="4.45055"></trkpt>
      <trkpt lat="51.20176" lon="4.45054"></trkpt>
      <trkpt lat="51.20171" lon="4.45053"></trkpt>
      <trkpt lat="51.20167" lon="4.45053"></trkpt>
      <trkpt lat="51.20163" lon="4.45053"></trkpt>
      <trkpt lat="51.20159" lon="4.45054"></trkpt>
      <trkpt lat="51.20155" lon="4.45053"></trkpt>
      <trkpt lat="51.20151" lon="4.45051"></trkpt>
      <trkpt lat="51.20146" lon="4.45051"></trkpt>
      <trkpt lat="51.20142" lon="4.45050"></trkpt>
      <trkpt lat="51.20139" lon="4.45048"></trkpt>
      <trkpt lat="51.20134" lon="4.45048"></trkpt>
      <trkpt lat="51.20130" lon="4.45048"></trkpt>
      <trkpt lat="51.20126" lon="4.45047"></trkpt>
      <trkpt lat="51.20122" lon="4.45045"></trkpt>
      <trkpt lat="51.20118" lon="4.45045"></trkpt>
      <trkpt lat="51.20114" lon="4.45044"></trkpt>
      <trkpt lat="51.20110" lon="4.45043"></trkpt>
      <trkpt lat="51.20106" lon="4.45042"></trkpt>
      <trkpt lat="51.20102" lon="4.45043"></trkpt>
      <trkpt lat="51.20098" lon="4.45043"></trkpt>
      <trkpt lat="51.20095" lon="4.45043"></trkpt>
      <trkpt lat="51.20092" lon="4.45044"></trkpt>
      <trkpt lat="51.20088" lon="4.45045"></trkpt>
      <trkpt lat="51.20085" lon="4.45047"></trkpt>
      <trkpt lat="51.20082" lon="4.45050"></trkpt>
      <trkpt lat="51.20078" lon="4.45052"></trkpt>
      <trkpt lat="51.20073" lon="4.45054"></trkpt>
      <trkpt lat="51.20069" lon="4.45057"></trkpt>
      <trkpt lat="51.20065" lon="4.45060"></trkpt>
      <trkpt lat="51.20061" lon="4.45063"></trkpt>
      <trkpt lat="51.20057" lon="4.45066"></trkpt>
      <trkpt lat="51.20054" lon="4.45069"></trkpt>
      <trkpt lat="51.20050" lon="4.45070"></trkpt>
      <trkpt lat="51.20047" lon="4.45073"></trkpt>
      <trkpt lat="51.20043" lon="4.45076"></trkpt>
      <trkpt lat="51.20040" lon="4.45079"></trkpt>
      <trkpt lat="51.20037" lon="4.45083"></trkpt>
      <trkpt lat="51.20034" lon="4.45086"></trkpt>
      <trkpt lat="51.20031" lon="4.45089"></trkpt>
      <trkpt lat="51.20028" lon="4.45092"></trkpt>
      <trkpt lat="51.20025" lon="4.45095"></trkpt>
      <trkpt lat="51.20022" lon="4.45097"></trkpt>
      <trkpt lat="51.20019" lon="4.45100"></trkpt>
      <trkpt lat="51.20015" lon="4.45104"></trkpt>
      <trkpt lat="51.20012" lon="4.45108"></trkpt>
      <trkpt lat="51.20008" lon="4.45111"></trkpt>
      <trkpt lat="51.20005" lon="4.45113"></trkpt>
      <trkpt lat="51.20002" lon="4.45116"></trkpt>
      <trkpt lat="51.19998" lon="4.45120"></trkpt>
      <trkpt lat="51.19995" lon="4.45124"></trkpt>
      <trkpt lat="51.19992" lon="4.45128"></trkpt>
      <trkpt lat="51.19989" lon="4.45132"></trkpt>
      <trkpt lat="51.19985" lon="4.45136"></trkpt>
      <trkpt lat="51.19982" lon="4.45139"></trkpt>
      <trkpt lat="51.19979" lon="4.45143"></trkpt>
      <trkpt lat="51.19975" lon="4.45148"></trkpt>
      <trkpt lat="51.19972" lon="4.45152"></trkpt>
      <trkpt lat="51.19968" lon="4.45156"></trkpt>
      <trkpt lat="51.19966" lon="4.45161"></trkpt>
      <trkpt lat="51.19962" lon="4.45166"></trkpt>
      <trkpt lat="51.19959" lon="4.45171"></trkpt>
      <trkpt lat="51.19956" lon="4.45175"></trkpt>
      <trkpt lat="51.19953" lon="4.45180"></trkpt>
      <trkpt lat="51.19951" lon="4.45185"></trkpt>
      <trkpt lat="51.19948" lon="4.45190"></trkpt>
      <trkpt lat="51.19945" lon="4.45195"></trkpt>
      <trkpt lat="51.19943" lon="4.45199"></trkpt>
      <trkpt lat="51.19940" lon="4.45205"></trkpt>
      <trkpt lat="51.19938" lon="4.45211"></trkpt>
      <trkpt lat="51.19935" lon="4.45217"></trkpt>
      <trkpt lat="51.19934" lon="4.45224"></trkpt>
      <trkpt lat="51.19931" lon="4.45230"></trkpt>
      <trkpt lat="51.19929" lon="4.45234"></trkpt>
      <trkpt lat="51.19928" lon="4.45239"></trkpt>
      <trkpt lat="51.19926" lon="4.45245"></trkpt>
      <trkpt lat="51.19925" lon="4.45251"></trkpt>
      <trkpt lat="51.19923" lon="4.45256"></trkpt>
      <trkpt lat="51.19922" lon="4.45262"></trkpt>
      <trkpt lat="51.19921" lon="4.45268"></trkpt>
      <trkpt lat="51.19920" lon="4.45275"></trkpt>
      <trkpt lat="51.19919" lon="4.45281"></trkpt>
      <trkpt lat="51.19919" lon="4.45287"></trkpt>
      <trkpt lat="51.19918" lon="4.45294"></trkpt>
      <trkpt lat="51.19917" lon="4.45299"></trkpt>
      <trkpt lat="51.19916" lon="4.45305"></trkpt>
      <trkpt lat="51.19915" lon="4.45310"></trkpt>
      <trkpt lat="51.19913" lon="4.45316"></trkpt>
      <trkpt lat="51.19911" lon="4.45321"></trkpt>
      <trkpt lat="51.19910" lon="4.45326"></trkpt>
      <trkpt lat="51.19908" lon="4.45331"></trkpt>
      <trkpt lat="51.19907" lon="4.45336"></trkpt>
      <trkpt lat="51.19904" lon="4.45342"></trkpt>
      <trkpt lat="51.19902" lon="4.45348"></trkpt>
      <trkpt lat="51.19901" lon="4.45354"></trkpt>
      <trkpt lat="51.19901" lon="4.45360"></trkpt>
      <trkpt lat="51.19900" lon="4.45367"></trkpt>
      <trkpt lat="51.19900" lon="4.45374"></trkpt>
      <trkpt lat="51.19899" lon="4.45381"></trkpt>
      <trkpt lat="51.19899" lon="4.45387"></trkpt>
      <trkpt lat="51.19900" lon="4.45394"></trkpt>
      <trkpt lat="51.19901" lon="4.45401"></trkpt>
      <trkpt lat="51.19902" lon="4.45407"></trkpt>
      <trkpt lat="51.19903" lon="4.45413"></trkpt>
      <trkpt lat="51.19904" lon="4.45418"></trkpt>
      <trkpt lat="51.19905" lon="4.45423"></trkpt>
      <trkpt lat="51.19907" lon="4.45428"></trkpt>
      <trkpt lat="51.19910" lon="4.45433"></trkpt>
      <trkpt lat="51.19913" lon="4.45437"></trkpt>
      <trkpt lat="51.19915" lon="4.45441"></trkpt>
      <trkpt lat="51.19918" lon="4.45444"></trkpt>
      <trkpt lat="51.19921" lon="4.45447"></trkpt>
      <trkpt lat="51.19924" lon="4.45450"></trkpt>
      <trkpt lat="51.19927" lon="4.45453"></trkpt>
      <trkpt lat="51.19931" lon="4.45455"></trkpt>
      <trkpt lat="51.19935" lon="4.45458"></trkpt>
      <trkpt lat="51.19940" lon="4.45460"></trkpt>
      <trkpt lat="51.19944" lon="4.45461"></trkpt>
      <trkpt lat="51.19948" lon="4.45462"></trkpt>
      <trkpt lat="51.19952" lon="4.45463"></trkpt>
      <trkpt lat="51.19956" lon="4.45463"></trkpt>
      <trkpt lat="51.19960" lon="4.45463"></trkpt>
      <trkpt lat="51.19964" lon="4.45463"></trkpt>
      <trkpt lat="51.19968" lon="4.45461"></trkpt>
      <trkpt lat="51.19972" lon="4.45460"></trkpt>
      <trkpt lat="51.19975" lon="4.45458"></trkpt>
      <trkpt lat="51.19979" lon="4.45456"></trkpt>
      <trkpt lat="51.19982" lon="4.45455"></trkpt>
      <trkpt lat="51.19986" lon="4.45456"></trkpt>
      <trkpt lat="51.19990" lon="4.45457"></trkpt>
      <trkpt lat="51.19994" lon="4.45458"></trkpt>
      <trkpt lat="51.19998" lon="4.45460"></trkpt>
      <trkpt lat="51.20001" lon="4.45462"></trkpt>
      <trkpt lat="51.20005" lon="4.45465"></trkpt>
      <trkpt lat="51.20008" lon="4.45468"></trkpt>
      <trkpt lat="51.20012" lon="4.45470"></trkpt>
      <trkpt lat="51.20015" lon="4.45473"></trkpt>
      <trkpt lat="51.20018" lon="4.45476"></trkpt>
      <trkpt lat="51.20022" lon="4.45479"></trkpt>
      <trkpt lat="51.20026" lon="4.45482"></trkpt>
      <trkpt lat="51.20030" lon="4.45484"></trkpt>
      <trkpt lat="51.20034" lon="4.45488"></trkpt>
      <trkpt lat="51.20037" lon="4.45491"></trkpt>
      <trkpt lat="51.20041" lon="4.45494"></trkpt>
      <trkpt lat="51.20045" lon="4.45498"></trkpt>
      <trkpt lat="51.20048" lon="4.45503"></trkpt>
      <trkpt lat="51.20048" lon="4.45509"></trkpt>
      <trkpt lat="51.20047" lon="4.45515"></trkpt>
      <trkpt lat="51.20044" lon="4.45521"></trkpt>
      <trkpt lat="51.20042" lon="4.45528"></trkpt>
      <trkpt lat="51.20039" lon="4.45534"></trkpt>
      <trkpt lat="51.20038" lon="4.45539"></trkpt>
      <trkpt lat="51.20039" lon="4.45544"></trkpt>
      <trkpt lat="51.20042" lon="4.45550"></trkpt>
      <trkpt lat="51.20044" lon="4.45556"></trkpt>
      <trkpt lat="51.20047" lon="4.45562"></trkpt>
      <trkpt lat="51.20049" lon="4.45568"></trkpt>
      <trkpt lat="51.20050" lon="4.45574"></trkpt>
      <trkpt lat="51.20051" lon="4.45581"></trkpt>
      <trkpt lat="51.20052" lon="4.45587"></trkpt>
      <trkpt lat="51.20053" lon="4.45593"></trkpt>
      <trkpt lat="51.20053" lon="4.45599"></trkpt>
      <trkpt lat="51.20053" lon="4.45606"></trkpt>
      <trkpt lat="51.20053" lon="4.45612"></trkpt>
      <trkpt lat="51.20053" lon="4.45619"></trkpt>
      <trkpt lat="51.20052" lon="4.45626"></trkpt>
      <trkpt lat="51.20051" lon="4.45632"></trkpt>
      <trkpt lat="51.20050" lon="4.45639"></trkpt>
      <trkpt lat="51.20049" lon="4.45645"></trkpt>
      <trkpt lat="51.20048" lon="4.45652"></trkpt>
      <trkpt lat="51.20046" lon="4.45658"></trkpt>
      <trkpt lat="51.20045" lon="4.45665"></trkpt>
      <trkpt lat="51.20043" lon="4.45670"></trkpt>
      <trkpt lat="51.20042" lon="4.45675"></trkpt>
      <trkpt lat="51.20040" lon="4.45680"></trkpt>
      <trkpt lat="51.20039" lon="4.45684"></trkpt>
      <trkpt lat="51.20038" lon="4.45689"></trkpt>
      <trkpt lat="51.20036" lon="4.45694"></trkpt>
      <trkpt lat="51.20034" lon="4.45701"></trkpt>
      <trkpt lat="51.20032" lon="4.45707"></trkpt>
      <trkpt lat="51.20030" lon="4.45712"></trkpt>
      <trkpt lat="51.20029" lon="4.45719"></trkpt>
      <trkpt lat="51.20027" lon="4.45725"></trkpt>
      <trkpt lat="51.20026" lon="4.45732"></trkpt>
      <trkpt lat="51.20024" lon="4.45737"></trkpt>
      <trkpt lat="51.20022" lon="4.45742"></trkpt>
      <trkpt lat="51.20019" lon="4.45747"></trkpt>
      <trkpt lat="51.20016" lon="4.45752"></trkpt>
      <trkpt lat="51.20013" lon="4.45756"></trkpt>
      <trkpt lat="51.20010" lon="4.45760"></trkpt>
      <trkpt lat="51.20006" lon="4.45764"></trkpt>
      <trkpt lat="51.20003" lon="4.45768"></trkpt>
      <trkpt lat="51.20001" lon="4.45772"></trkpt>
      <trkpt lat="51.19999" lon="4.45779"></trkpt>
      <trkpt lat="51.19999" lon="4.45786"></trkpt>
      <trkpt lat="51.19999" lon="4.45792"></trkpt>
      <trkpt lat="51.19999" lon="4.45799"></trkpt>
      <trkpt lat="51.19999" lon="4.45805"></trkpt>
      <trkpt lat="51.20000" lon="4.45812"></trkpt>
      <trkpt lat="51.20000" lon="4.45818"></trkpt>
      <trkpt lat="51.20001" lon="4.45824"></trkpt>
      <trkpt lat="51.20001" lon="4.45831"></trkpt>
      <trkpt lat="51.20002" lon="4.45837"></trkpt>
      <trkpt lat="51.20002" lon="4.45844"></trkpt>
      <trkpt lat="51.20003" lon="4.45850"></trkpt>
      <trkpt lat="51.20003" lon="4.45857"></trkpt>
      <trkpt lat="51.20004" lon="4.45864"></trkpt>
      <trkpt lat="51.20004" lon="4.45870"></trkpt>
      <trkpt lat="51.20005" lon="4.45877"></trkpt>
      <trkpt lat="51.20006" lon="4.45883"></trkpt>
      <trkpt lat="51.20006" lon="4.45890"></trkpt>
      <trkpt lat="51.20006" lon="4.45896"></trkpt>
      <trkpt lat="51.20007" lon="4.45903"></trkpt>
      <trkpt lat="51.20008" lon="4.45909"></trkpt>
      <trkpt lat="51.20009" lon="4.45915"></trkpt>
      <trkpt lat="51.20010" lon="4.45922"></trkpt>
      <trkpt lat="51.20010" lon="4.45928"></trkpt>
      <trkpt lat="51.20011" lon="4.45935"></trkpt>
      <trkpt lat="51.20011" lon="4.45941"></trkpt>
      <trkpt lat="51.20011" lon="4.45947"></trkpt>
      <trkpt lat="51.20011" lon="4.45954"></trkpt>
      <trkpt lat="51.20012" lon="4.45960"></trkpt>
      <trkpt lat="51.20013" lon="4.45965"></trkpt>
      <trkpt lat="51.20013" lon="4.45969"></trkpt>
      <trkpt lat="51.20013" lon="4.45974"></trkpt>
      <trkpt lat="51.20012" lon="4.45980"></trkpt>
      <trkpt lat="51.20012" lon="4.45986"></trkpt>
      <trkpt lat="51.20011" lon="4.45992"></trkpt>
      <trkpt lat="51.20010" lon="4.45999"></trkpt>
      <trkpt lat="51.20007" lon="4.46005"></trkpt>
      <trkpt lat="51.20006" lon="4.46011"></trkpt>
      <trkpt lat="51.20006" lon="4.46018"></trkpt>
      <trkpt lat="51.20007" lon="4.46024"></trkpt>
      <trkpt lat="51.20010" lon="4.46029"></trkpt>
      <trkpt lat="51.20012" lon="4.46036"></trkpt>
      <trkpt lat="51.20013" lon="4.46043"></trkpt>
      <trkpt lat="51.20014" lon="4.46050"></trkpt>
      <trkpt lat="51.20015" lon="4.46057"></trkpt>
      <trkpt lat="51.20015" lon="4.46063"></trkpt>
      <trkpt lat="51.20015" lon="4.46070"></trkpt>
      <trkpt lat="51.20016" lon="4.46076"></trkpt>
      <trkpt lat="51.20017" lon="4.46083"></trkpt>
      <trkpt lat="51.20018" lon="4.46089"></trkpt>
      <trkpt lat="51.20019" lon="4.46096"></trkpt>
      <trkpt lat="51.20019" lon="4.46102"></trkpt>
      <trkpt lat="51.20020" lon="4.46109"></trkpt>
      <trkpt lat="51.20021" lon="4.46116"></trkpt>
      <trkpt lat="51.20021" lon="4.46123"></trkpt>
      <trkpt lat="51.20022" lon="4.46129"></trkpt>
      <trkpt lat="51.20023" lon="4.46135"></trkpt>
      <trkpt lat="51.20023" lon="4.46142"></trkpt>
      <trkpt lat="51.20024" lon="4.46148"></trkpt>
      <trkpt lat="51.20024" lon="4.46154"></trkpt>
      <trkpt lat="51.20026" lon="4.46160"></trkpt>
      <trkpt lat="51.20026" lon="4.46167"></trkpt>
      <trkpt lat="51.20027" lon="4.46173"></trkpt>
      <trkpt lat="51.20028" lon="4.46180"></trkpt>
      <trkpt lat="51.20029" lon="4.46186"></trkpt>
      <trkpt lat="51.20030" lon="4.46193"></trkpt>
      <trkpt lat="51.20030" lon="4.46199"></trkpt>
      <trkpt lat="51.20031" lon="4.46206"></trkpt>
      <trkpt lat="51.20031" lon="4.46212"></trkpt>
      <trkpt lat="51.20028" lon="4.46216"></trkpt>
      <trkpt lat="51.20025" lon="4.46216"></trkpt>
      <trkpt lat="51.20021" lon="4.46216"></trkpt>
      <trkpt lat="51.20016" lon="4.46217"></trkpt>
      <trkpt lat="51.20012" lon="4.46218"></trkpt>
      <trkpt lat="51.20008" lon="4.46218"></trkpt>
      <trkpt lat="51.20004" lon="4.46218"></trkpt>
      <trkpt lat="51.20000" lon="4.46218"></trkpt>
      <trkpt lat="51.19996" lon="4.46218"></trkpt>
      <trkpt lat="51.19991" lon="4.46219"></trkpt>
      <trkpt lat="51.19988" lon="4.46219"></trkpt>
      <trkpt lat="51.19983" lon="4.46220"></trkpt>
      <trkpt lat="51.19979" lon="4.46221"></trkpt>
      <trkpt lat="51.19975" lon="4.46221"></trkpt>
      <trkpt lat="51.19970" lon="4.46221"></trkpt>
      <trkpt lat="51.19966" lon="4.46223"></trkpt>
      <trkpt lat="51.19962" lon="4.46223"></trkpt>
      <trkpt lat="51.19958" lon="4.46224"></trkpt>
      <trkpt lat="51.19953" lon="4.46224"></trkpt>
      <trkpt lat="51.19949" lon="4.46226"></trkpt>
      <trkpt lat="51.19946" lon="4.46229"></trkpt>
      <trkpt lat="51.19942" lon="4.46233"></trkpt>
      <trkpt lat="51.19938" lon="4.46237"></trkpt>
      <trkpt lat="51.19935" lon="4.46240"></trkpt>
      <trkpt lat="51.19931" lon="4.46243"></trkpt>
      <trkpt lat="51.19927" lon="4.46243"></trkpt>
      <trkpt lat="51.19925" lon="4.46245"></trkpt>
      <trkpt lat="51.19924" lon="4.46251"></trkpt>
      <trkpt lat="51.19924" lon="4.46257"></trkpt>
      <trkpt lat="51.19926" lon="4.46262"></trkpt>
      <trkpt lat="51.19928" lon="4.46267"></trkpt>
      <trkpt lat="51.19931" lon="4.46271"></trkpt>
      <trkpt lat="51.19934" lon="4.46276"></trkpt>
      <trkpt lat="51.19937" lon="4.46280"></trkpt>
      <trkpt lat="51.19941" lon="4.46284"></trkpt>
      <trkpt lat="51.19944" lon="4.46289"></trkpt>
      <trkpt lat="51.19947" lon="4.46293"></trkpt>
      <trkpt lat="51.19951" lon="4.46298"></trkpt>
      <trkpt lat="51.19954" lon="4.46302"></trkpt>
      <trkpt lat="51.19957" lon="4.46307"></trkpt>
      <trkpt lat="51.19961" lon="4.46311"></trkpt>
      <trkpt lat="51.19964" lon="4.46315"></trkpt>
      <trkpt lat="51.19967" lon="4.46319"></trkpt>
      <trkpt lat="51.19970" lon="4.46324"></trkpt>
      <trkpt lat="51.19973" lon="4.46328"></trkpt>
      <trkpt lat="51.19977" lon="4.46333"></trkpt>
      <trkpt lat="51.19979" lon="4.46338"></trkpt>
      <trkpt lat="51.19983" lon="4.46342"></trkpt>
      <trkpt lat="51.19986" lon="4.46346"></trkpt>
      <trkpt lat="51.19989" lon="4.46350"></trkpt>
      <trkpt lat="51.19993" lon="4.46354"></trkpt>
      <trkpt lat="51.19996" lon="4.46357"></trkpt>
      <trkpt lat="51.19999" lon="4.46362"></trkpt>
      <trkpt lat="51.20002" lon="4.46366"></trkpt>
      <trkpt lat="51.20006" lon="4.46370"></trkpt>
      <trkpt lat="51.20009" lon="4.46374"></trkpt>
      <trkpt lat="51.20011" lon="4.46379"></trkpt>
      <trkpt lat="51.20015" lon="4.46382"></trkpt>
      <trkpt lat="51.20018" lon="4.46388"></trkpt>
      <trkpt lat="51.20021" lon="4.46395"></trkpt>
      <trkpt lat="51.20022" lon="4.46402"></trkpt>
      <trkpt lat="51.20022" lon="4.46410"></trkpt>
      <trkpt lat="51.20022" lon="4.46417"></trkpt>
      <trkpt lat="51.20022" lon="4.46424"></trkpt>
      <trkpt lat="51.20022" lon="4.46431"></trkpt>
      <trkpt lat="51.20022" lon="4.46438"></trkpt>
      <trkpt lat="51.20022" lon="4.46445"></trkpt>
      <trkpt lat="51.20022" lon="4.46452"></trkpt>
      <trkpt lat="51.20021" lon="4.46456"></trkpt>
      <trkpt lat="51.20018" lon="4.46457"></trkpt>
      <trkpt lat="51.20014" lon="4.46456"></trkpt>
      <trkpt lat="51.20010" lon="4.46456"></trkpt>
      <trkpt lat="51.20007" lon="4.46458"></trkpt>
      <trkpt lat="51.20005" lon="4.46463"></trkpt>
      <trkpt lat="51.20001" lon="4.46466"></trkpt>
      <trkpt lat="51.19998" lon="4.46468"></trkpt>
      <trkpt lat="51.19993" lon="4.46468"></trkpt>
      <trkpt lat="51.19989" lon="4.46467"></trkpt>
      <trkpt lat="51.19984" lon="4.46465"></trkpt>
      <trkpt lat="51.19980" lon="4.46464"></trkpt>
      <trkpt lat="51.19976" lon="4.46464"></trkpt>
      <trkpt lat="51.19971" lon="4.46463"></trkpt>
      <trkpt lat="51.19967" lon="4.46461"></trkpt>
      <trkpt lat="51.19963" lon="4.46459"></trkpt>
      <trkpt lat="51.19959" lon="4.46461"></trkpt>
      <trkpt lat="51.19956" lon="4.46465"></trkpt>
      <trkpt lat="51.19953" lon="4.46470"></trkpt>
      <trkpt lat="51.19950" lon="4.46474"></trkpt>
      <trkpt lat="51.19945" lon="4.46477"></trkpt>
      <trkpt lat="51.19941" lon="4.46478"></trkpt>
      <trkpt lat="51.19937" lon="4.46478"></trkpt>
      <trkpt lat="51.19933" lon="4.46478"></trkpt>
      <trkpt lat="51.19929" lon="4.46477"></trkpt>
      <trkpt lat="51.19924" lon="4.46477"></trkpt>
      <trkpt lat="51.19920" lon="4.46478"></trkpt>
      <trkpt lat="51.19915" lon="4.46479"></trkpt>
      <trkpt lat="51.19911" lon="4.46478"></trkpt>
      <trkpt lat="51.19906" lon="4.46478"></trkpt>
      <trkpt lat="51.19901" lon="4.46476"></trkpt>
      <trkpt lat="51.19896" lon="4.46474"></trkpt>
      <trkpt lat="51.19892" lon="4.46473"></trkpt>
      <trkpt lat="51.19887" lon="4.46472"></trkpt>
      <trkpt lat="51.19883" lon="4.46471"></trkpt>
      <trkpt lat="51.19878" lon="4.46470"></trkpt>
      <trkpt lat="51.19874" lon="4.46468"></trkpt>
      <trkpt lat="51.19870" lon="4.46466"></trkpt>
      <trkpt lat="51.19866" lon="4.46464"></trkpt>
      <trkpt lat="51.19862" lon="4.46463"></trkpt>
      <trkpt lat="51.19858" lon="4.46462"></trkpt>
      <trkpt lat="51.19854" lon="4.46461"></trkpt>
      <trkpt lat="51.19850" lon="4.46459"></trkpt>
      <trkpt lat="51.19846" lon="4.46456"></trkpt>
      <trkpt lat="51.19842" lon="4.46454"></trkpt>
      <trkpt lat="51.19837" lon="4.46454"></trkpt>
      <trkpt lat="51.19832" lon="4.46454"></trkpt>
      <trkpt lat="51.19827" lon="4.46454"></trkpt>
      <trkpt lat="51.19823" lon="4.46454"></trkpt>
      <trkpt lat="51.19819" lon="4.46452"></trkpt>
      <trkpt lat="51.19815" lon="4.46451"></trkpt>
      <trkpt lat="51.19811" lon="4.46449"></trkpt>
      <trkpt lat="51.19806" lon="4.46448"></trkpt>
      <trkpt lat="51.19802" lon="4.46445"></trkpt>
      <trkpt lat="51.19798" lon="4.46442"></trkpt>
      <trkpt lat="51.19794" lon="4.46440"></trkpt>
      <trkpt lat="51.19789" lon="4.46437"></trkpt>
      <trkpt lat="51.19785" lon="4.46434"></trkpt>
      <trkpt lat="51.19781" lon="4.46432"></trkpt>
      <trkpt lat="51.19777" lon="4.46430"></trkpt>
      <trkpt lat="51.19773" lon="4.46426"></trkpt>
      <trkpt lat="51.19768" lon="4.46423"></trkpt>
      <trkpt lat="51.19764" lon="4.46421"></trkpt>
      <trkpt lat="51.19760" lon="4.46421"></trkpt>
      <trkpt lat="51.19755" lon="4.46420"></trkpt>
      <trkpt lat="51.19750" lon="4.46421"></trkpt>
      <trkpt lat="51.19745" lon="4.46422"></trkpt>
      <trkpt lat="51.19740" lon="4.46422"></trkpt>
      <trkpt lat="51.19736" lon="4.46423"></trkpt>
      <trkpt lat="51.19732" lon="4.46426"></trkpt>
      <trkpt lat="51.19728" lon="4.46430"></trkpt>
      <trkpt lat="51.19724" lon="4.46433"></trkpt>
      <trkpt lat="51.19720" lon="4.46437"></trkpt>
      <trkpt lat="51.19717" lon="4.46439"></trkpt>
      <trkpt lat="51.19713" lon="4.46441"></trkpt>
      <trkpt lat="51.19709" lon="4.46440"></trkpt>
      <trkpt lat="51.19705" lon="4.46439"></trkpt>
      <trkpt lat="51.19701" lon="4.46436"></trkpt>
      <trkpt lat="51.19697" lon="4.46431"></trkpt>
      <trkpt lat="51.19694" lon="4.46426"></trkpt>
      <trkpt lat="51.19692" lon="4.46420"></trkpt>
      <trkpt lat="51.19690" lon="4.46414"></trkpt>
      <trkpt lat="51.19689" lon="4.46408"></trkpt>
      <trkpt lat="51.19687" lon="4.46401"></trkpt>
      <trkpt lat="51.19686" lon="4.46394"></trkpt>
      <trkpt lat="51.19684" lon="4.46387"></trkpt>
      <trkpt lat="51.19682" lon="4.46381"></trkpt>
      <trkpt lat="51.19682" lon="4.46374"></trkpt>
      <trkpt lat="51.19682" lon="4.46368"></trkpt>
      <trkpt lat="51.19683" lon="4.46360"></trkpt>
      <trkpt lat="51.19683" lon="4.46352"></trkpt>
      <trkpt lat="51.19684" lon="4.46345"></trkpt>
      <trkpt lat="51.19685" lon="4.46338"></trkpt>
      <trkpt lat="51.19685" lon="4.46332"></trkpt>
      <trkpt lat="51.19684" lon="4.46326"></trkpt>
      <trkpt lat="51.19684" lon="4.46319"></trkpt>
      <trkpt lat="51.19683" lon="4.46312"></trkpt>
      <trkpt lat="51.19682" lon="4.46306"></trkpt>
      <trkpt lat="51.19682" lon="4.46300"></trkpt>
      <trkpt lat="51.19681" lon="4.46293"></trkpt>
      <trkpt lat="51.19680" lon="4.46286"></trkpt>
      <trkpt lat="51.19680" lon="4.46279"></trkpt>
      <trkpt lat="51.19679" lon="4.46272"></trkpt>
      <trkpt lat="51.19679" lon="4.46266"></trkpt>
      <trkpt lat="51.19682" lon="4.46261"></trkpt>
      <trkpt lat="51.19686" lon="4.46257"></trkpt>
      <trkpt lat="51.19688" lon="4.46253"></trkpt>
      <trkpt lat="51.19692" lon="4.46251"></trkpt>
      <trkpt lat="51.19696" lon="4.46250"></trkpt>
      <trkpt lat="51.19700" lon="4.46249"></trkpt>
      <trkpt lat="51.19704" lon="4.46247"></trkpt>
      <trkpt lat="51.19707" lon="4.46244"></trkpt>
      <trkpt lat="51.19711" lon="4.46241"></trkpt>
      <trkpt lat="51.19715" lon="4.46239"></trkpt>
      <trkpt lat="51.19719" lon="4.46235"></trkpt>
      <trkpt lat="51.19723" lon="4.46231"></trkpt>
      <trkpt lat="51.19726" lon="4.46227"></trkpt>
      <trkpt lat="51.19730" lon="4.46223"></trkpt>
      <trkpt lat="51.19733" lon="4.46219"></trkpt>
      <trkpt lat="51.19736" lon="4.46214"></trkpt>
      <trkpt lat="51.19739" lon="4.46208"></trkpt>
      <trkpt lat="51.19742" lon="4.46203"></trkpt>
      <trkpt lat="51.19745" lon="4.46197"></trkpt>
      <trkpt lat="51.19748" lon="4.46192"></trkpt>
      <trkpt lat="51.19751" lon="4.46189"></trkpt>
      <trkpt lat="51.19754" lon="4.46185"></trkpt>
      <trkpt lat="51.19758" lon="4.46182"></trkpt>
      <trkpt lat="51.19762" lon="4.46180"></trkpt>
      <trkpt lat="51.19766" lon="4.46178"></trkpt>
      <trkpt lat="51.19770" lon="4.46178"></trkpt>
      <trkpt lat="51.19774" lon="4.46176"></trkpt>
      <trkpt lat="51.19778" lon="4.46174"></trkpt>
      <trkpt lat="51.19782" lon="4.46172"></trkpt>
      <trkpt lat="51.19786" lon="4.46170"></trkpt>
      <trkpt lat="51.19790" lon="4.46168"></trkpt>
      <trkpt lat="51.19794" lon="4.46167"></trkpt>
      <trkpt lat="51.19798" lon="4.46166"></trkpt>
      <trkpt lat="51.19802" lon="4.46164"></trkpt>
      <trkpt lat="51.19805" lon="4.46162"></trkpt>
      <trkpt lat="51.19809" lon="4.46160"></trkpt>
      <trkpt lat="51.19813" lon="4.46159"></trkpt>
      <trkpt lat="51.19817" lon="4.46158"></trkpt>
      <trkpt lat="51.19821" lon="4.46156"></trkpt>
      <trkpt lat="51.19825" lon="4.46155"></trkpt>
      <trkpt lat="51.19829" lon="4.46155"></trkpt>
      <trkpt lat="51.19832" lon="4.46153"></trkpt>
      <trkpt lat="51.19835" lon="4.46149"></trkpt>
      <trkpt lat="51.19839" lon="4.46144"></trkpt>
      <trkpt lat="51.19842" lon="4.46139"></trkpt>
      <trkpt lat="51.19846" lon="4.46133"></trkpt>
      <trkpt lat="51.19849" lon="4.46128"></trkpt>
      <trkpt lat="51.19852" lon="4.46123"></trkpt>
      <trkpt lat="51.19856" lon="4.46118"></trkpt>
      <trkpt lat="51.19860" lon="4.46116"></trkpt>
      <trkpt lat="51.19865" lon="4.46114"></trkpt>
      <trkpt lat="51.19869" lon="4.46112"></trkpt>
      <trkpt lat="51.19873" lon="4.46109"></trkpt>
      <trkpt lat="51.19873" lon="4.46104"></trkpt>
      <trkpt lat="51.19872" lon="4.46097"></trkpt>
      <trkpt lat="51.19872" lon="4.46089"></trkpt>
      <trkpt lat="51.19873" lon="4.46082"></trkpt>
      <trkpt lat="51.19875" lon="4.46075"></trkpt>
      <trkpt lat="51.19877" lon="4.46068"></trkpt>
      <trkpt lat="51.19878" lon="4.46062"></trkpt>
      <trkpt lat="51.19879" lon="4.46055"></trkpt>
      <trkpt lat="51.19879" lon="4.46048"></trkpt>
      <trkpt lat="51.19879" lon="4.46042"></trkpt>
      <trkpt lat="51.19878" lon="4.46037"></trkpt>
      <trkpt lat="51.19875" lon="4.46034"></trkpt>
      <trkpt lat="51.19873" lon="4.46032"></trkpt>
      <trkpt lat="51.19873" lon="4.46030"></trkpt>
      <trkpt lat="51.19877" lon="4.46030"></trkpt>
      <trkpt lat="51.19881" lon="4.46032"></trkpt>
      <trkpt lat="51.19885" lon="4.46035"></trkpt>
      <trkpt lat="51.19887" lon="4.46035"></trkpt>
      <trkpt lat="51.19889" lon="4.46034"></trkpt>
      <trkpt lat="51.19889" lon="4.46034"></trkpt>
      <trkpt lat="51.19889" lon="4.46033"></trkpt>
      <trkpt lat="51.19888" lon="4.46033"></trkpt>
      <trkpt lat="51.19888" lon="4.46033"></trkpt>
      <trkpt lat="51.19888" lon="4.46033"></trkpt>
      <trkpt lat="51.19888" lon="4.46033"></trkpt>
      <trkpt lat="51.19888" lon="4.46032"></trkpt>
      <trkpt lat="51.19888" lon="4.46032"></trkpt>
      <trkpt lat="51.19888" lon="4.46032"></trkpt>
      <trkpt lat="51.19888" lon="4.46032"></trkpt>
      <trkpt lat="51.19888" lon="4.46032"></trkpt>
      <trkpt lat="51.19888" lon="4.46032"></trkpt>
      <trkpt lat="51.19888" lon="4.46031"></trkpt>
      <trkpt lat="51.19888" lon="4.46031"></trkpt>
      <trkpt lat="51.19886" lon="4.46026"></trkpt>
      <trkpt lat="51.19887" lon="4.46016"></trkpt>
      <trkpt lat="51.19887" lon="4.46008"></trkpt>
      <trkpt lat="51.19886" lon="4.46003"></trkpt>
      <trkpt lat="51.19884" lon="4.46000"></trkpt>
      <trkpt lat="51.19882" lon="4.45998"></trkpt>
      <trkpt lat="51.19881" lon="4.45994"></trkpt>
      <trkpt lat="51.19881" lon="4.45988"></trkpt>
      <trkpt lat="51.19880" lon="4.45980"></trkpt>
      <trkpt lat="51.19880" lon="4.45972"></trkpt>
      <trkpt lat="51.19880" lon="4.45966"></trkpt>
      <trkpt lat="51.19879" lon="4.45959"></trkpt>
      <trkpt lat="51.19880" lon="4.45953"></trkpt>
      <trkpt lat="51.19880" lon="4.45946"></trkpt>
      <trkpt lat="51.19880" lon="4.45940"></trkpt>
      <trkpt lat="51.19880" lon="4.45933"></trkpt>
      <trkpt lat="51.19880" lon="4.45926"></trkpt>
      <trkpt lat="51.19880" lon="4.45919"></trkpt>
      <trkpt lat="51.19880" lon="4.45913"></trkpt>
      <trkpt lat="51.19880" lon="4.45906"></trkpt>
      <trkpt lat="51.19880" lon="4.45900"></trkpt>
      <trkpt lat="51.19880" lon="4.45894"></trkpt>
      <trkpt lat="51.19879" lon="4.45888"></trkpt>
      <trkpt lat="51.19879" lon="4.45881"></trkpt>
      <trkpt lat="51.19879" lon="4.45875"></trkpt>
      <trkpt lat="51.19879" lon="4.45868"></trkpt>
      <trkpt lat="51.19878" lon="4.45862"></trkpt>
      <trkpt lat="51.19877" lon="4.45855"></trkpt>
      <trkpt lat="51.19877" lon="4.45848"></trkpt>
      <trkpt lat="51.19877" lon="4.45841"></trkpt>
      <trkpt lat="51.19877" lon="4.45834"></trkpt>
      <trkpt lat="51.19877" lon="4.45827"></trkpt>
      <trkpt lat="51.19877" lon="4.45820"></trkpt>
      <trkpt lat="51.19877" lon="4.45813"></trkpt>
      <trkpt lat="51.19877" lon="4.45806"></trkpt>
      <trkpt lat="51.19877" lon="4.45800"></trkpt>
      <trkpt lat="51.19877" lon="4.45795"></trkpt>
      <trkpt lat="51.19878" lon="4.45793"></trkpt>
      <trkpt lat="51.19880" lon="4.45793"></trkpt>
      <trkpt lat="51.19884" lon="4.45791"></trkpt>
      <trkpt lat="51.19890" lon="4.45791"></trkpt>
      <trkpt lat="51.19895" lon="4.45791"></trkpt>
      <trkpt lat="51.19899" lon="4.45791"></trkpt>
      <trkpt lat="51.19904" lon="4.45790"></trkpt>
      <trkpt lat="51.19907" lon="4.45791"></trkpt>
      <trkpt lat="51.19912" lon="4.45791"></trkpt>
      <trkpt lat="51.19916" lon="4.45791"></trkpt>
      <trkpt lat="51.19920" lon="4.45791"></trkpt>
      <trkpt lat="51.19924" lon="4.45790"></trkpt>
      <trkpt lat="51.19929" lon="4.45790"></trkpt>
      <trkpt lat="51.19933" lon="4.45791"></trkpt>
      <trkpt lat="51.19937" lon="4.45791"></trkpt>
      <trkpt lat="51.19941" lon="4.45792"></trkpt>
      <trkpt lat="51.19945" lon="4.45792"></trkpt>
      <trkpt lat="51.19949" lon="4.45793"></trkpt>
      <trkpt lat="51.19953" lon="4.45792"></trkpt>
      <trkpt lat="51.19957" lon="4.45792"></trkpt>
      <trkpt lat="51.19961" lon="4.45792"></trkpt>
      <trkpt lat="51.19966" lon="4.45793"></trkpt>
      <trkpt lat="51.19970" lon="4.45793"></trkpt>
      <trkpt lat="51.19974" lon="4.45794"></trkpt>
      <trkpt lat="51.19978" lon="4.45792"></trkpt>
      <trkpt lat="51.19981" lon="4.45787"></trkpt>
      <trkpt lat="51.19984" lon="4.45783"></trkpt>
      <trkpt lat="51.19988" lon="4.45780"></trkpt>
      <trkpt lat="51.19992" lon="4.45777"></trkpt>
      <trkpt lat="51.19996" lon="4.45775"></trkpt>
      <trkpt lat="51.20000" lon="4.45771"></trkpt>
      <trkpt lat="51.20004" lon="4.45767"></trkpt>
      <trkpt lat="51.20008" lon="4.45764"></trkpt>
      <trkpt lat="51.20011" lon="4.45761"></trkpt>
      <trkpt lat="51.20015" lon="4.45756"></trkpt>
      <trkpt lat="51.20018" lon="4.45753"></trkpt>
      <trkpt lat="51.20023" lon="4.45751"></trkpt>
      <trkpt lat="51.20027" lon="4.45752"></trkpt>
      <trkpt lat="51.20030" lon="4.45755"></trkpt>
      <trkpt lat="51.20034" lon="4.45757"></trkpt>
      <trkpt lat="51.20039" lon="4.45758"></trkpt>
      <trkpt lat="51.20043" lon="4.45757"></trkpt>
      <trkpt lat="51.20047" lon="4.45754"></trkpt>
      <trkpt lat="51.20051" lon="4.45750"></trkpt>
      <trkpt lat="51.20055" lon="4.45744"></trkpt>
      <trkpt lat="51.20058" lon="4.45738"></trkpt>
      <trkpt lat="51.20062" lon="4.45732"></trkpt>
      <trkpt lat="51.20065" lon="4.45726"></trkpt>
      <trkpt lat="51.20068" lon="4.45720"></trkpt>
      <trkpt lat="51.20072" lon="4.45714"></trkpt>
      <trkpt lat="51.20075" lon="4.45709"></trkpt>
      <trkpt lat="51.20078" lon="4.45706"></trkpt>
      <trkpt lat="51.20081" lon="4.45702"></trkpt>
      <trkpt lat="51.20085" lon="4.45698"></trkpt>
      <trkpt lat="51.20089" lon="4.45692"></trkpt>
      <trkpt lat="51.20093" lon="4.45687"></trkpt>
      <trkpt lat="51.20097" lon="4.45683"></trkpt>
      <trkpt lat="51.20101" lon="4.45678"></trkpt>
      <trkpt lat="51.20105" lon="4.45673"></trkpt>
      <trkpt lat="51.20109" lon="4.45668"></trkpt>
      <trkpt lat="51.20113" lon="4.45662"></trkpt>
      <trkpt lat="51.20116" lon="4.45655"></trkpt>
      <trkpt lat="51.20118" lon="4.45648"></trkpt>
      <trkpt lat="51.20119" lon="4.45640"></trkpt>
      <trkpt lat="51.20119" lon="4.45633"></trkpt>
      <trkpt lat="51.20118" lon="4.45626"></trkpt>
      <trkpt lat="51.20117" lon="4.45619"></trkpt>
      <trkpt lat="51.20116" lon="4.45612"></trkpt>
      <trkpt lat="51.20115" lon="4.45603"></trkpt>
      <trkpt lat="51.20114" lon="4.45596"></trkpt>
      <trkpt lat="51.20113" lon="4.45589"></trkpt>
      <trkpt lat="51.20113" lon="4.45581"></trkpt>
      <trkpt lat="51.20113" lon="4.45573"></trkpt>
      <trkpt lat="51.20113" lon="4.45566"></trkpt>
      <trkpt lat="51.20114" lon="4.45559"></trkpt>
      <trkpt lat="51.20115" lon="4.45553"></trkpt>
      <trkpt lat="51.20117" lon="4.45546"></trkpt>
      <trkpt lat="51.20118" lon="4.45540"></trkpt>
      <trkpt lat="51.20119" lon="4.45534"></trkpt>
      <trkpt lat="51.20120" lon="4.45528"></trkpt>
      <trkpt lat="51.20121" lon="4.45521"></trkpt>
      <trkpt lat="51.20122" lon="4.45515"></trkpt>
      <trkpt lat="51.20124" lon="4.45507"></trkpt>
      <trkpt lat="51.20126" lon="4.45500"></trkpt>
      <trkpt lat="51.20128" lon="4.45493"></trkpt>
      <trkpt lat="51.20130" lon="4.45486"></trkpt>
      <trkpt lat="51.20131" lon="4.45480"></trkpt>
      <trkpt lat="51.20132" lon="4.45472"></trkpt>
      <trkpt lat="51.20134" lon="4.45465"></trkpt>
      <trkpt lat="51.20135" lon="4.45458"></trkpt>
      <trkpt lat="51.20136" lon="4.45452"></trkpt>
      <trkpt lat="51.20137" lon="4.45445"></trkpt>
      <trkpt lat="51.20139" lon="4.45438"></trkpt>
      <trkpt lat="51.20141" lon="4.45430"></trkpt>
      <trkpt lat="51.20143" lon="4.45423"></trkpt>
      <trkpt lat="51.20144" lon="4.45416"></trkpt>
      <trkpt lat="51.20144" lon="4.45409"></trkpt>
      <trkpt lat="51.20143" lon="4.45403"></trkpt>
      <trkpt lat="51.20143" lon="4.45397"></trkpt>
      <trkpt lat="51.20144" lon="4.45391"></trkpt>
      <trkpt lat="51.20144" lon="4.45385"></trkpt>
      <trkpt lat="51.20145" lon="4.45379"></trkpt>
      <trkpt lat="51.20146" lon="4.45372"></trkpt>
      <trkpt lat="51.20147" lon="4.45365"></trkpt>
      <trkpt lat="51.20149" lon="4.45359"></trkpt>
      <trkpt lat="51.20151" lon="4.45352"></trkpt>
      <trkpt lat="51.20151" lon="4.45344"></trkpt>
      <trkpt lat="51.20152" lon="4.45338"></trkpt>
      <trkpt lat="51.20154" lon="4.45332"></trkpt>
      <trkpt lat="51.20157" lon="4.45326"></trkpt>
      <trkpt lat="51.20159" lon="4.45319"></trkpt>
      <trkpt lat="51.20161" lon="4.45312"></trkpt>
      <trkpt lat="51.20162" lon="4.45305"></trkpt>
      <trkpt lat="51.20164" lon="4.45298"></trkpt>
      <trkpt lat="51.20167" lon="4.45292"></trkpt>
      <trkpt lat="51.20169" lon="4.45287"></trkpt>
      <trkpt lat="51.20171" lon="4.45281"></trkpt>
      <trkpt lat="51.20175" lon="4.45276"></trkpt>
      <trkpt lat="51.20179" lon="4.45271"></trkpt>
      <trkpt lat="51.20183" lon="4.45265"></trkpt>
      <trkpt lat="51.20185" lon="4.45259"></trkpt>
      <trkpt lat="51.20187" lon="4.45251"></trkpt>
      <trkpt lat="51.20189" lon="4.45242"></trkpt>
      <trkpt lat="51.20192" lon="4.45234"></trkpt>
      <trkpt lat="51.20194" lon="4.45226"></trkpt>
      <trkpt lat="51.20195" lon="4.45218"></trkpt>
      <trkpt lat="51.20197" lon="4.45211"></trkpt>
      <trkpt lat="51.20199" lon="4.45204"></trkpt>
      <trkpt lat="51.20200" lon="4.45197"></trkpt>
      <trkpt lat="51.20201" lon="4.45190"></trkpt>
      <trkpt lat="51.20203" lon="4.45182"></trkpt>
      <trkpt lat="51.20205" lon="4.45174"></trkpt>
      <trkpt lat="51.20208" lon="4.45168"></trkpt>
      <trkpt lat="51.20213" lon="4.45164"></trkpt>
      <trkpt lat="51.20218" lon="4.45163"></trkpt>
      <trkpt lat="51.20223" lon="4.45163"></trkpt>
      <trkpt lat="51.20229" lon="4.45164"></trkpt>
      <trkpt lat="51.20234" lon="4.45164"></trkpt>
      <trkpt lat="51.20239" lon="4.45166"></trkpt>
      <trkpt lat="51.20244" lon="4.45167"></trkpt>
      <trkpt lat="51.20249" lon="4.45168"></trkpt>
      <trkpt lat="51.20254" lon="4.45170"></trkpt>
      <trkpt lat="51.20259" lon="4.45172"></trkpt>
      <trkpt lat="51.20264" lon="4.45173"></trkpt>
      <trkpt lat="51.20268" lon="4.45175"></trkpt>
      <trkpt lat="51.20273" lon="4.45176"></trkpt>
      <trkpt lat="51.20278" lon="4.45178"></trkpt>
      <trkpt lat="51.20283" lon="4.45180"></trkpt>
      <trkpt lat="51.20288" lon="4.45182"></trkpt>
      <trkpt lat="51.20294" lon="4.45184"></trkpt>
      <trkpt lat="51.20299" lon="4.45186"></trkpt>
      <trkpt lat="51.20304" lon="4.45189"></trkpt>
      <trkpt lat="51.20309" lon="4.45191"></trkpt>
      <trkpt lat="51.20314" lon="4.45192"></trkpt>
      <trkpt lat="51.20319" lon="4.45194"></trkpt>
      <trkpt lat="51.20324" lon="4.45191"></trkpt>
      <trkpt lat="51.20328" lon="4.45186"></trkpt>
      <trkpt lat="51.20331" lon="4.45178"></trkpt>
      <trkpt lat="51.20333" lon="4.45169"></trkpt>
      <trkpt lat="51.20335" lon="4.45160"></trkpt>
      <trkpt lat="51.20335" lon="4.45150"></trkpt>
      <trkpt lat="51.20334" lon="4.45142"></trkpt>
      <trkpt lat="51.20333" lon="4.45136"></trkpt>
    </trkseg>
  </trk>
</gpx>