<?xml version="1.0" encoding="UTF-8"?>
<gpx version="1.1" creator="jeffry.running" xmlns="http://www.topografix.com/GPX/1/1">
  <metadata><time>2026-08-11T15:06:29.398Z</time></metadata>
  <trk>
    <trkseg>
      <trkpt lat="51.29342" lon="4.84831"></trkpt>
      <trkpt lat="51.29338" lon="4.84836"></trkpt>
      <trkpt lat="51.29332" lon="4.84842"></trkpt>
      <trkpt lat="51.29327" lon="4.84848"></trkpt>
      <trkpt lat="51.29321" lon="4.84854"></trkpt>
      <trkpt lat="51.29317" lon="4.84859"></trkpt>
      <trkpt lat="51.29312" lon="4.84865"></trkpt>
      <trkpt lat="51.29307" lon="4.84871"></trkpt>
      <trkpt lat="51.29302" lon="4.84876"></trkpt>
      <trkpt lat="51.29297" lon="4.84881"></trkpt>
      <trkpt lat="51.29292" lon="4.84886"></trkpt>
      <trkpt lat="51.29287" lon="4.84891"></trkpt>
      <trkpt lat="51.29282" lon="4.84897"></trkpt>
      <trkpt lat="51.29277" lon="4.84903"></trkpt>
      <trkpt lat="51.29272" lon="4.84910"></trkpt>
      <trkpt lat="51.29267" lon="4.84916"></trkpt>
      <trkpt lat="51.29262" lon="4.84922"></trkpt>
      <trkpt lat="51.29257" lon="4.84928"></trkpt>
      <trkpt lat="51.29252" lon="4.84932"></trkpt>
      <trkpt lat="51.29247" lon="4.84936"></trkpt>
      <trkpt lat="51.29242" lon="4.84942"></trkpt>
      <trkpt lat="51.29238" lon="4.84948"></trkpt>
      <trkpt lat="51.29233" lon="4.84953"></trkpt>
      <trkpt lat="51.29229" lon="4.84957"></trkpt>
      <trkpt lat="51.29224" lon="4.84963"></trkpt>
      <trkpt lat="51.29220" lon="4.84970"></trkpt>
      <trkpt lat="51.29214" lon="4.84977"></trkpt>
      <trkpt lat="51.29209" lon="4.84982"></trkpt>
      <trkpt lat="51.29204" lon="4.84987"></trkpt>
      <trkpt lat="51.29199" lon="4.84992"></trkpt>
      <trkpt lat="51.29195" lon="4.84997"></trkpt>
      <trkpt lat="51.29189" lon="4.85003"></trkpt>
      <trkpt lat="51.29184" lon="4.85008"></trkpt>
      <trkpt lat="51.29179" lon="4.85014"></trkpt>
      <trkpt lat="51.29173" lon="4.85019"></trkpt>
      <trkpt lat="51.29169" lon="4.85024"></trkpt>
      <trkpt lat="51.29163" lon="4.85029"></trkpt>
      <trkpt lat="51.29158" lon="4.85035"></trkpt>
      <trkpt lat="51.29152" lon="4.85040"></trkpt>
      <trkpt lat="51.29148" lon="4.85045"></trkpt>
      <trkpt lat="51.29143" lon="4.85049"></trkpt>
      <trkpt lat="51.29139" lon="4.85055"></trkpt>
      <trkpt lat="51.29134" lon="4.85060"></trkpt>
      <trkpt lat="51.29130" lon="4.85066"></trkpt>
      <trkpt lat="51.29125" lon="4.85072"></trkpt>
      <trkpt lat="51.29121" lon="4.85077"></trkpt>
      <trkpt lat="51.29116" lon="4.85083"></trkpt>
      <trkpt lat="51.29111" lon="4.85088"></trkpt>
      <trkpt lat="51.29106" lon="4.85093"></trkpt>
      <trkpt lat="51.29102" lon="4.85099"></trkpt>
      <trkpt lat="51.29097" lon="4.85105"></trkpt>
      <trkpt lat="51.29092" lon="4.85108"></trkpt>
      <trkpt lat="51.29087" lon="4.85112"></trkpt>
      <trkpt lat="51.29082" lon="4.85117"></trkpt>
      <trkpt lat="51.29076" lon="4.85120"></trkpt>
      <trkpt lat="51.29071" lon="4.85125"></trkpt>
      <trkpt lat="51.29065" lon="4.85128"></trkpt>
      <trkpt lat="51.29059" lon="4.85128"></trkpt>
      <trkpt lat="51.29052" lon="4.85128"></trkpt>
      <trkpt lat="51.29046" lon="4.85129"></trkpt>
      <trkpt lat="51.29040" lon="4.85129"></trkpt>
      <trkpt lat="51.29034" lon="4.85128"></trkpt>
      <trkpt lat="51.29028" lon="4.85128"></trkpt>
      <trkpt lat="51.29021" lon="4.85127"></trkpt>
      <trkpt lat="51.29015" lon="4.85127"></trkpt>
      <trkpt lat="51.29009" lon="4.85127"></trkpt>
      <trkpt lat="51.29004" lon="4.85127"></trkpt>
      <trkpt lat="51.28998" lon="4.85127"></trkpt>
      <trkpt lat="51.28992" lon="4.85127"></trkpt>
      <trkpt lat="51.28985" lon="4.85127"></trkpt>
      <trkpt lat="51.28979" lon="4.85128"></trkpt>
      <trkpt lat="51.28973" lon="4.85129"></trkpt>
      <trkpt lat="51.28967" lon="4.85129"></trkpt>
      <trkpt lat="51.28960" lon="4.85128"></trkpt>
      <trkpt lat="51.28954" lon="4.85128"></trkpt>
      <trkpt lat="51.28948" lon="4.85129"></trkpt>
      <trkpt lat="51.28943" lon="4.85129"></trkpt>
      <trkpt lat="51.28937" lon="4.85129"></trkpt>
      <trkpt lat="51.28931" lon="4.85129"></trkpt>
      <trkpt lat="51.28925" lon="4.85129"></trkpt>
      <trkpt lat="51.28919" lon="4.85129"></trkpt>
      <trkpt lat="51.28914" lon="4.85130"></trkpt>
      <trkpt lat="51.28908" lon="4.85136"></trkpt>
      <trkpt lat="51.28904" lon="4.85144"></trkpt>
      <trkpt lat="51.28900" lon="4.85152"></trkpt>
      <trkpt lat="51.28896" lon="4.85160"></trkpt>
      <trkpt lat="51.28893" lon="4.85167"></trkpt>
      <trkpt lat="51.28889" lon="4.85174"></trkpt>
      <trkpt lat="51.28885" lon="4.85182"></trkpt>
      <trkpt lat="51.28881" lon="4.85190"></trkpt>
      <trkpt lat="51.28876" lon="4.85197"></trkpt>
      <trkpt lat="51.28872" lon="4.85204"></trkpt>
      <trkpt lat="51.28868" lon="4.85212"></trkpt>
      <trkpt lat="51.28864" lon="4.85220"></trkpt>
      <trkpt lat="51.28860" lon="4.85228"></trkpt>
      <trkpt lat="51.28856" lon="4.85236"></trkpt>
      <trkpt lat="51.28852" lon="4.85243"></trkpt>
      <trkpt lat="51.28849" lon="4.85251"></trkpt>
      <trkpt lat="51.28845" lon="4.85258"></trkpt>
      <trkpt lat="51.28840" lon="4.85266"></trkpt>
      <trkpt lat="51.28837" lon="4.85273"></trkpt>
      <trkpt lat="51.28833" lon="4.85281"></trkpt>
      <trkpt lat="51.28828" lon="4.85289"></trkpt>
      <trkpt lat="51.28824" lon="4.85296"></trkpt>
      <trkpt lat="51.28820" lon="4.85303"></trkpt>
      <trkpt lat="51.28815" lon="4.85310"></trkpt>
      <trkpt lat="51.28811" lon="4.85318"></trkpt>
      <trkpt lat="51.28807" lon="4.85326"></trkpt>
      <trkpt lat="51.28803" lon="4.85334"></trkpt>
      <trkpt lat="51.28798" lon="4.85341"></trkpt>
      <trkpt lat="51.28794" lon="4.85346"></trkpt>
      <trkpt lat="51.28790" lon="4.85354"></trkpt>
      <trkpt lat="51.28786" lon="4.85363"></trkpt>
      <trkpt lat="51.28783" lon="4.85370"></trkpt>
      <trkpt lat="51.28778" lon="4.85376"></trkpt>
      <trkpt lat="51.28774" lon="4.85384"></trkpt>
      <trkpt lat="51.28771" lon="4.85391"></trkpt>
      <trkpt lat="51.28769" lon="4.85398"></trkpt>
      <trkpt lat="51.28766" lon="4.85405"></trkpt>
      <trkpt lat="51.28761" lon="4.85408"></trkpt>
      <trkpt lat="51.28755" lon="4.85406"></trkpt>
      <trkpt lat="51.28749" lon="4.85403"></trkpt>
      <trkpt lat="51.28744" lon="4.85397"></trkpt>
      <trkpt lat="51.28740" lon="4.85390"></trkpt>
      <trkpt lat="51.28735" lon="4.85382"></trkpt>
      <trkpt lat="51.28731" lon="4.85376"></trkpt>
      <trkpt lat="51.28727" lon="4.85370"></trkpt>
      <trkpt lat="51.28723" lon="4.85364"></trkpt>
      <trkpt lat="51.28718" lon="4.85358"></trkpt>
      <trkpt lat="51.28714" lon="4.85351"></trkpt>
      <trkpt lat="51.28711" lon="4.85343"></trkpt>
      <trkpt lat="51.28708" lon="4.85335"></trkpt>
      <trkpt lat="51.28704" lon="4.85326"></trkpt>
      <trkpt lat="51.28700" lon="4.85317"></trkpt>
      <trkpt lat="51.28697" lon="4.85309"></trkpt>
      <trkpt lat="51.28693" lon="4.85302"></trkpt>
      <trkpt lat="51.28688" lon="4.85296"></trkpt>
      <trkpt lat="51.28682" lon="4.85290"></trkpt>
      <trkpt lat="51.28678" lon="4.85284"></trkpt>
      <trkpt lat="51.28674" lon="4.85278"></trkpt>
      <trkpt lat="51.28669" lon="4.85273"></trkpt>
      <trkpt lat="51.28664" lon="4.85267"></trkpt>
      <trkpt lat="51.28659" lon="4.85261"></trkpt>
      <trkpt lat="51.28654" lon="4.85255"></trkpt>
      <trkpt lat="51.28649" lon="4.85249"></trkpt>
      <trkpt lat="51.28644" lon="4.85244"></trkpt>
      <trkpt lat="51.28639" lon="4.85238"></trkpt>
      <trkpt lat="51.28635" lon="4.85232"></trkpt>
      <trkpt lat="51.28631" lon="4.85225"></trkpt>
      <trkpt lat="51.28626" lon="4.85219"></trkpt>
      <trkpt lat="51.28621" lon="4.85213"></trkpt>
      <trkpt lat="51.28617" lon="4.85208"></trkpt>
      <trkpt lat="51.28612" lon="4.85203"></trkpt>
      <trkpt lat="51.28608" lon="4.85197"></trkpt>
      <trkpt lat="51.28604" lon="4.85191"></trkpt>
      <trkpt lat="51.28599" lon="4.85186"></trkpt>
      <trkpt lat="51.28594" lon="4.85181"></trkpt>
      <trkpt lat="51.28588" lon="4.85177"></trkpt>
      <trkpt lat="51.28583" lon="4.85174"></trkpt>
      <trkpt lat="51.28578" lon="4.85172"></trkpt>
      <trkpt lat="51.28572" lon="4.85174"></trkpt>
      <trkpt lat="51.28566" lon="4.85177"></trkpt>
      <trkpt lat="51.28559" lon="4.85182"></trkpt>
      <trkpt lat="51.28554" lon="4.85185"></trkpt>
      <trkpt lat="51.28548" lon="4.85186"></trkpt>
      <trkpt lat="51.28542" lon="4.85183"></trkpt>
      <trkpt lat="51.28537" lon="4.85178"></trkpt>
      <trkpt lat="51.28532" lon="4.85172"></trkpt>
      <trkpt lat="51.28528" lon="4.85166"></trkpt>
      <trkpt lat="51.28524" lon="4.85159"></trkpt>
      <trkpt lat="51.28520" lon="4.85153"></trkpt>
      <trkpt lat="51.28516" lon="4.85146"></trkpt>
      <trkpt lat="51.28512" lon="4.85138"></trkpt>
      <trkpt lat="51.28509" lon="4.85131"></trkpt>
      <trkpt lat="51.28506" lon="4.85124"></trkpt>
      <trkpt lat="51.28503" lon="4.85117"></trkpt>
      <trkpt lat="51.28499" lon="4.85109"></trkpt>
      <trkpt lat="51.28495" lon="4.85100"></trkpt>
      <trkpt lat="51.28491" lon="4.85093"></trkpt>
      <trkpt lat="51.28489" lon="4.85086"></trkpt>
      <trkpt lat="51.28486" lon="4.85078"></trkpt>
      <trkpt lat="51.28483" lon="4.85070"></trkpt>
      <trkpt lat="51.28479" lon="4.85062"></trkpt>
      <trkpt lat="51.28474" lon="4.85055"></trkpt>
      <trkpt lat="51.28470" lon="4.85048"></trkpt>
      <trkpt lat="51.28466" lon="4.85041"></trkpt>
      <trkpt lat="51.28461" lon="4.85034"></trkpt>
      <trkpt lat="51.28457" lon="4.85028"></trkpt>
      <trkpt lat="51.28453" lon="4.85021"></trkpt>
      <trkpt lat="51.28449" lon="4.85016"></trkpt>
      <trkpt lat="51.28446" lon="4.85010"></trkpt>
      <trkpt lat="51.28442" lon="4.85003"></trkpt>
      <trkpt lat="51.28438" lon="4.84997"></trkpt>
      <trkpt lat="51.28434" lon="4.84990"></trkpt>
      <trkpt lat="51.28430" lon="4.84983"></trkpt>
      <trkpt lat="51.28426" lon="4.84976"></trkpt>
      <trkpt lat="51.28421" lon="4.84969"></trkpt>
      <trkpt lat="51.28417" lon="4.84962"></trkpt>
      <trkpt lat="51.28413" lon="4.84955"></trkpt>
      <trkpt lat="51.28409" lon="4.84949"></trkpt>
      <trkpt lat="51.28405" lon="4.84943"></trkpt>
      <trkpt lat="51.28401" lon="4.84937"></trkpt>
      <trkpt lat="51.28397" lon="4.84930"></trkpt>
      <trkpt lat="51.28393" lon="4.84924"></trkpt>
      <trkpt lat="51.28390" lon="4.84918"></trkpt>
      <trkpt lat="51.28386" lon="4.84911"></trkpt>
      <trkpt lat="51.28381" lon="4.84905"></trkpt>
      <trkpt lat="51.28377" lon="4.84898"></trkpt>
      <trkpt lat="51.28372" lon="4.84892"></trkpt>
      <trkpt lat="51.28368" lon="4.84885"></trkpt>
      <trkpt lat="51.28364" lon="4.84878"></trkpt>
      <trkpt lat="51.28360" lon="4.84872"></trkpt>
      <trkpt lat="51.28357" lon="4.84866"></trkpt>
      <trkpt lat="51.28354" lon="4.84858"></trkpt>
      <trkpt lat="51.28351" lon="4.84851"></trkpt>
      <trkpt lat="51.28347" lon="4.84844"></trkpt>
      <trkpt lat="51.28343" lon="4.84837"></trkpt>
      <trkpt lat="51.28339" lon="4.84831"></trkpt>
      <trkpt lat="51.28335" lon="4.84825"></trkpt>
      <trkpt lat="51.28330" lon="4.84818"></trkpt>
      <trkpt lat="51.28325" lon="4.84812"></trkpt>
      <trkpt lat="51.28320" lon="4.84808"></trkpt>
      <trkpt lat="51.28315" lon="4.84803"></trkpt>
      <trkpt lat="51.28311" lon="4.84799"></trkpt>
      <trkpt lat="51.28305" lon="4.84795"></trkpt>
      <trkpt lat="51.28300" lon="4.84791"></trkpt>
      <trkpt lat="51.28295" lon="4.84785"></trkpt>
      <trkpt lat="51.28290" lon="4.84778"></trkpt>
      <trkpt lat="51.28285" lon="4.84770"></trkpt>
      <trkpt lat="51.28281" lon="4.84763"></trkpt>
      <trkpt lat="51.28277" lon="4.84756"></trkpt>
      <trkpt lat="51.28273" lon="4.84748"></trkpt>
      <trkpt lat="51.28269" lon="4.84740"></trkpt>
      <trkpt lat="51.28266" lon="4.84733"></trkpt>
      <trkpt lat="51.28263" lon="4.84726"></trkpt>
      <trkpt lat="51.28260" lon="4.84719"></trkpt>
      <trkpt lat="51.28258" lon="4.84712"></trkpt>
      <trkpt lat="51.28255" lon="4.84705"></trkpt>
      <trkpt lat="51.28251" lon="4.84697"></trkpt>
      <trkpt lat="51.28247" lon="4.84691"></trkpt>
      <trkpt lat="51.28241" lon="4.84688"></trkpt>
      <trkpt lat="51.28236" lon="4.84687"></trkpt>
      <trkpt lat="51.28231" lon="4.84687"></trkpt>
      <trkpt lat="51.28225" lon="4.84683"></trkpt>
      <trkpt lat="51.28219" lon="4.84678"></trkpt>
      <trkpt lat="51.28215" lon="4.84674"></trkpt>
      <trkpt lat="51.28210" lon="4.84671"></trkpt>
      <trkpt lat="51.28205" lon="4.84668"></trkpt>
      <trkpt lat="51.28199" lon="4.84664"></trkpt>
      <trkpt lat="51.28193" lon="4.84659"></trkpt>
      <trkpt lat="51.28188" lon="4.84652"></trkpt>
      <trkpt lat="51.28183" lon="4.84646"></trkpt>
      <trkpt lat="51.28179" lon="4.84638"></trkpt>
      <trkpt lat="51.28174" lon="4.84631"></trkpt>
      <trkpt lat="51.28169" lon="4.84624"></trkpt>
      <trkpt lat="51.28165" lon="4.84617"></trkpt>
      <trkpt lat="51.28159" lon="4.84610"></trkpt>
      <trkpt lat="51.28157" lon="4.84602"></trkpt>
      <trkpt lat="51.28158" lon="4.84591"></trkpt>
      <trkpt lat="51.28158" lon="4.84582"></trkpt>
      <trkpt lat="51.28154" lon="4.84575"></trkpt>
      <trkpt lat="51.28149" lon="4.84568"></trkpt>
      <trkpt lat="51.28145" lon="4.84562"></trkpt>
      <trkpt lat="51.28140" lon="4.84556"></trkpt>
      <trkpt lat="51.28135" lon="4.84550"></trkpt>
      <trkpt lat="51.28130" lon="4.84544"></trkpt>
      <trkpt lat="51.28126" lon="4.84537"></trkpt>
      <trkpt lat="51.28122" lon="4.84531"></trkpt>
      <trkpt lat="51.28118" lon="4.84525"></trkpt>
      <trkpt lat="51.28114" lon="4.84519"></trkpt>
      <trkpt lat="51.28110" lon="4.84513"></trkpt>
      <trkpt lat="51.28105" lon="4.84505"></trkpt>
      <trkpt lat="51.28102" lon="4.84498"></trkpt>
      <trkpt lat="51.28098" lon="4.84493"></trkpt>
      <trkpt lat="51.28094" lon="4.84490"></trkpt>
      <trkpt lat="51.28088" lon="4.84489"></trkpt>
      <trkpt lat="51.28083" lon="4.84488"></trkpt>
      <trkpt lat="51.28078" lon="4.84485"></trkpt>
      <trkpt lat="51.28074" lon="4.84478"></trkpt>
      <trkpt lat="51.28072" lon="4.84467"></trkpt>
      <trkpt lat="51.28073" lon="4.84458"></trkpt>
      <trkpt lat="51.28079" lon="4.84452"></trkpt>
      <trkpt lat="51.28084" lon="4.84447"></trkpt>
      <trkpt lat="51.28089" lon="4.84441"></trkpt>
      <trkpt lat="51.28093" lon="4.84434"></trkpt>
      <trkpt lat="51.28093" lon="4.84425"></trkpt>
      <trkpt lat="51.28093" lon="4.84416"></trkpt>
      <trkpt lat="51.28093" lon="4.84408"></trkpt>
      <trkpt lat="51.28093" lon="4.84399"></trkpt>
      <trkpt lat="51.28094" lon="4.84390"></trkpt>
      <trkpt lat="51.28095" lon="4.84381"></trkpt>
      <trkpt lat="51.28098" lon="4.84372"></trkpt>
      <trkpt lat="51.28100" lon="4.84363"></trkpt>
      <trkpt lat="51.28103" lon="4.84355"></trkpt>
      <trkpt lat="51.28106" lon="4.84346"></trkpt>
      <trkpt lat="51.28107" lon="4.84337"></trkpt>
      <trkpt lat="51.28106" lon="4.84328"></trkpt>
      <trkpt lat="51.28104" lon="4.84321"></trkpt>
      <trkpt lat="51.28102" lon="4.84315"></trkpt>
      <trkpt lat="51.28103" lon="4.84305"></trkpt>
      <trkpt lat="51.28105" lon="4.84295"></trkpt>
      <trkpt lat="51.28106" lon="4.84285"></trkpt>
      <trkpt lat="51.28105" lon="4.84276"></trkpt>
      <trkpt lat="51.28103" lon="4.84267"></trkpt>
      <trkpt lat="51.28100" lon="4.84261"></trkpt>
      <trkpt lat="51.28095" lon="4.84254"></trkpt>
      <trkpt lat="51.28091" lon="4.84248"></trkpt>
      <trkpt lat="51.28088" lon="4.84241"></trkpt>
      <trkpt lat="51.28084" lon="4.84233"></trkpt>
      <trkpt lat="51.28079" lon="4.84225"></trkpt>
      <trkpt lat="51.28076" lon="4.84218"></trkpt>
      <trkpt lat="51.28071" lon="4.84211"></trkpt>
      <trkpt lat="51.28068" lon="4.84204"></trkpt>
      <trkpt lat="51.28064" lon="4.84197"></trkpt>
      <trkpt lat="51.28061" lon="4.84189"></trkpt>
      <trkpt lat="51.28058" lon="4.84182"></trkpt>
      <trkpt lat="51.28054" lon="4.84174"></trkpt>
      <trkpt lat="51.28051" lon="4.84168"></trkpt>
      <trkpt lat="51.28046" lon="4.84161"></trkpt>
      <trkpt lat="51.28042" lon="4.84152"></trkpt>
      <trkpt lat="51.28038" lon="4.84144"></trkpt>
      <trkpt lat="51.28034" lon="4.84137"></trkpt>
      <trkpt lat="51.28031" lon="4.84129"></trkpt>
      <trkpt lat="51.28026" lon="4.84121"></trkpt>
      <trkpt lat="51.28022" lon="4.84115"></trkpt>
      <trkpt lat="51.28016" lon="4.84113"></trkpt>
      <trkpt lat="51.28010" lon="4.84117"></trkpt>
      <trkpt lat="51.28004" lon="4.84121"></trkpt>
      <trkpt lat="51.27999" lon="4.84125"></trkpt>
      <trkpt lat="51.27993" lon="4.84129"></trkpt>
      <trkpt lat="51.27987" lon="4.84133"></trkpt>
      <trkpt lat="51.27982" lon="4.84137"></trkpt>
      <trkpt lat="51.27976" lon="4.84140"></trkpt>
      <trkpt lat="51.27970" lon="4.84145"></trkpt>
      <trkpt lat="51.27964" lon="4.84150"></trkpt>
      <trkpt lat="51.27959" lon="4.84153"></trkpt>
      <trkpt lat="51.27954" lon="4.84157"></trkpt>
      <trkpt lat="51.27948" lon="4.84161"></trkpt>
      <trkpt lat="51.27943" lon="4.84164"></trkpt>
      <trkpt lat="51.27938" lon="4.84167"></trkpt>
      <trkpt lat="51.27934" lon="4.84171"></trkpt>
      <trkpt lat="51.27928" lon="4.84175"></trkpt>
      <trkpt lat="51.27923" lon="4.84179"></trkpt>
      <trkpt lat="51.27919" lon="4.84181"></trkpt>
      <trkpt lat="51.27915" lon="4.84185"></trkpt>
      <trkpt lat="51.27910" lon="4.84189"></trkpt>
      <trkpt lat="51.27905" lon="4.84191"></trkpt>
      <trkpt lat="51.27902" lon="4.84193"></trkpt>
      <trkpt lat="51.27899" lon="4.84196"></trkpt>
      <trkpt lat="51.27896" lon="4.84198"></trkpt>
      <trkpt lat="51.27891" lon="4.84200"></trkpt>
      <trkpt lat="51.27884" lon="4.84200"></trkpt>
      <trkpt lat="51.27877" lon="4.84196"></trkpt>
      <trkpt lat="51.27872" lon="4.84191"></trkpt>
      <trkpt lat="51.27867" lon="4.84183"></trkpt>
      <trkpt lat="51.27863" lon="4.84176"></trkpt>
      <trkpt lat="51.27858" lon="4.84168"></trkpt>
      <trkpt lat="51.27854" lon="4.84161"></trkpt>
      <trkpt lat="51.27850" lon="4.84154"></trkpt>
      <trkpt lat="51.27846" lon="4.84146"></trkpt>
      <trkpt lat="51.27842" lon="4.84137"></trkpt>
      <trkpt lat="51.27840" lon="4.84127"></trkpt>
      <trkpt lat="51.27838" lon="4.84118"></trkpt>
      <trkpt lat="51.27835" lon="4.84108"></trkpt>
      <trkpt lat="51.27833" lon="4.84098"></trkpt>
      <trkpt lat="51.27830" lon="4.84089"></trkpt>
      <trkpt lat="51.27827" lon="4.84079"></trkpt>
      <trkpt lat="51.27825" lon="4.84070"></trkpt>
      <trkpt lat="51.27822" lon="4.84061"></trkpt>
      <trkpt lat="51.27820" lon="4.84052"></trkpt>
      <trkpt lat="51.27818" lon="4.84043"></trkpt>
      <trkpt lat="51.27815" lon="4.84034"></trkpt>
      <trkpt lat="51.27813" lon="4.84025"></trkpt>
      <trkpt lat="51.27811" lon="4.84016"></trkpt>
      <trkpt lat="51.27809" lon="4.84006"></trkpt>
      <trkpt lat="51.27807" lon="4.83997"></trkpt>
      <trkpt lat="51.27805" lon="4.83988"></trkpt>
      <trkpt lat="51.27805" lon="4.83978"></trkpt>
      <trkpt lat="51.27805" lon="4.83968"></trkpt>
      <trkpt lat="51.27806" lon="4.83957"></trkpt>
      <trkpt lat="51.27808" lon="4.83948"></trkpt>
      <trkpt lat="51.27809" lon="4.83938"></trkpt>
      <trkpt lat="51.27811" lon="4.83929"></trkpt>
      <trkpt lat="51.27812" lon="4.83920"></trkpt>
      <trkpt lat="51.27811" lon="4.83912"></trkpt>
      <trkpt lat="51.27809" lon="4.83904"></trkpt>
      <trkpt lat="51.27806" lon="4.83896"></trkpt>
      <trkpt lat="51.27804" lon="4.83887"></trkpt>
      <trkpt lat="51.27801" lon="4.83877"></trkpt>
      <trkpt lat="51.27800" lon="4.83867"></trkpt>
      <trkpt lat="51.27798" lon="4.83858"></trkpt>
      <trkpt lat="51.27796" lon="4.83848"></trkpt>
      <trkpt lat="51.27794" lon="4.83838"></trkpt>
      <trkpt lat="51.27793" lon="4.83828"></trkpt>
      <trkpt lat="51.27792" lon="4.83819"></trkpt>
      <trkpt lat="51.27789" lon="4.83809"></trkpt>
      <trkpt lat="51.27787" lon="4.83800"></trkpt>
      <trkpt lat="51.27785" lon="4.83791"></trkpt>
      <trkpt lat="51.27782" lon="4.83781"></trkpt>
      <trkpt lat="51.27781" lon="4.83771"></trkpt>
      <trkpt lat="51.27779" lon="4.83762"></trkpt>
      <trkpt lat="51.27775" lon="4.83755"></trkpt>
      <trkpt lat="51.27769" lon="4.83753"></trkpt>
      <trkpt lat="51.27763" lon="4.83757"></trkpt>
      <trkpt lat="51.27757" lon="4.83760"></trkpt>
      <trkpt lat="51.27751" lon="4.83765"></trkpt>
      <trkpt lat="51.27744" lon="4.83768"></trkpt>
      <trkpt lat="51.27738" lon="4.83768"></trkpt>
      <trkpt lat="51.27732" lon="4.83767"></trkpt>
      <trkpt lat="51.27726" lon="4.83764"></trkpt>
      <trkpt lat="51.27720" lon="4.83761"></trkpt>
      <trkpt lat="51.27714" lon="4.83758"></trkpt>
      <trkpt lat="51.27708" lon="4.83756"></trkpt>
      <trkpt lat="51.27703" lon="4.83753"></trkpt>
      <trkpt lat="51.27698" lon="4.83750"></trkpt>
      <trkpt lat="51.27692" lon="4.83747"></trkpt>
      <trkpt lat="51.27686" lon="4.83742"></trkpt>
      <trkpt lat="51.27681" lon="4.83738"></trkpt>
      <trkpt lat="51.27675" lon="4.83735"></trkpt>
      <trkpt lat="51.27669" lon="4.83733"></trkpt>
      <trkpt lat="51.27663" lon="4.83730"></trkpt>
      <trkpt lat="51.27657" lon="4.83727"></trkpt>
      <trkpt lat="51.27651" lon="4.83726"></trkpt>
      <trkpt lat="51.27644" lon="4.83726"></trkpt>
      <trkpt lat="51.27638" lon="4.83725"></trkpt>
      <trkpt lat="51.27631" lon="4.83725"></trkpt>
      <trkpt lat="51.27625" lon="4.83725"></trkpt>
      <trkpt lat="51.27619" lon="4.83724"></trkpt>
      <trkpt lat="51.27614" lon="4.83723"></trkpt>
      <trkpt lat="51.27608" lon="4.83724"></trkpt>
      <trkpt lat="51.27601" lon="4.83724"></trkpt>
      <trkpt lat="51.27596" lon="4.83721"></trkpt>
      <trkpt lat="51.27592" lon="4.83716"></trkpt>
      <trkpt lat="51.27588" lon="4.83710"></trkpt>
      <trkpt lat="51.27585" lon="4.83703"></trkpt>
      <trkpt lat="51.27582" lon="4.83695"></trkpt>
      <trkpt lat="51.27579" lon="4.83687"></trkpt>
      <trkpt lat="51.27578" lon="4.83678"></trkpt>
      <trkpt lat="51.27577" lon="4.83668"></trkpt>
      <trkpt lat="51.27576" lon="4.83658"></trkpt>
      <trkpt lat="51.27575" lon="4.83647"></trkpt>
      <trkpt lat="51.27574" lon="4.83637"></trkpt>
      <trkpt lat="51.27572" lon="4.83627"></trkpt>
      <trkpt lat="51.27572" lon="4.83616"></trkpt>
      <trkpt lat="51.27571" lon="4.83607"></trkpt>
      <trkpt lat="51.27571" lon="4.83597"></trkpt>
      <trkpt lat="51.27571" lon="4.83586"></trkpt>
      <trkpt lat="51.27572" lon="4.83577"></trkpt>
      <trkpt lat="51.27572" lon="4.83568"></trkpt>
      <trkpt lat="51.27571" lon="4.83557"></trkpt>
      <trkpt lat="51.27571" lon="4.83548"></trkpt>
      <trkpt lat="51.27570" lon="4.83538"></trkpt>
      <trkpt lat="51.27569" lon="4.83528"></trkpt>
      <trkpt lat="51.27569" lon="4.83519"></trkpt>
      <trkpt lat="51.27568" lon="4.83510"></trkpt>
      <trkpt lat="51.27568" lon="4.83500"></trkpt>
      <trkpt lat="51.27568" lon="4.83491"></trkpt>
      <trkpt lat="51.27567" lon="4.83481"></trkpt>
      <trkpt lat="51.27566" lon="4.83471"></trkpt>
      <trkpt lat="51.27566" lon="4.83461"></trkpt>
      <trkpt lat="51.27565" lon="4.83451"></trkpt>
      <trkpt lat="51.27564" lon="4.83441"></trkpt>
      <trkpt lat="51.27563" lon="4.83431"></trkpt>
      <trkpt lat="51.27561" lon="4.83421"></trkpt>
      <trkpt lat="51.27557" lon="4.83413"></trkpt>
      <trkpt lat="51.27552" lon="4.83407"></trkpt>
      <trkpt lat="51.27547" lon="4.83406"></trkpt>
      <trkpt lat="51.27541" lon="4.83405"></trkpt>
      <trkpt lat="51.27535" lon="4.83406"></trkpt>
      <trkpt lat="51.27529" lon="4.83406"></trkpt>
      <trkpt lat="51.27523" lon="4.83405"></trkpt>
      <trkpt lat="51.27516" lon="4.83405"></trkpt>
      <trkpt lat="51.27511" lon="4.83405"></trkpt>
      <trkpt lat="51.27505" lon="4.83405"></trkpt>
      <trkpt lat="51.27499" lon="4.83404"></trkpt>
      <trkpt lat="51.27493" lon="4.83403"></trkpt>
      <trkpt lat="51.27487" lon="4.83403"></trkpt>
      <trkpt lat="51.27480" lon="4.83403"></trkpt>
      <trkpt lat="51.27475" lon="4.83403"></trkpt>
      <trkpt lat="51.27469" lon="4.83404"></trkpt>
      <trkpt lat="51.27463" lon="4.83403"></trkpt>
      <trkpt lat="51.27457" lon="4.83402"></trkpt>
      <trkpt lat="51.27452" lon="4.83400"></trkpt>
      <trkpt lat="51.27448" lon="4.83397"></trkpt>
      <trkpt lat="51.27442" lon="4.83394"></trkpt>
      <trkpt lat="51.27437" lon="4.83390"></trkpt>
      <trkpt lat="51.27430" lon="4.83387"></trkpt>
      <trkpt lat="51.27424" lon="4.83384"></trkpt>
      <trkpt lat="51.27418" lon="4.83382"></trkpt>
      <trkpt lat="51.27412" lon="4.83379"></trkpt>
      <trkpt lat="51.27407" lon="4.83378"></trkpt>
      <trkpt lat="51.27401" lon="4.83376"></trkpt>
      <trkpt lat="51.27395" lon="4.83373"></trkpt>
      <trkpt lat="51.27389" lon="4.83371"></trkpt>
      <trkpt lat="51.27383" lon="4.83368"></trkpt>
      <trkpt lat="51.27376" lon="4.83362"></trkpt>
      <trkpt lat="51.27370" lon="4.83355"></trkpt>
      <trkpt lat="51.27365" lon="4.83348"></trkpt>
      <trkpt lat="51.27360" lon="4.83341"></trkpt>
      <trkpt lat="51.27357" lon="4.83335"></trkpt>
      <trkpt lat="51.27353" lon="4.83328"></trkpt>
      <trkpt lat="51.27349" lon="4.83320"></trkpt>
      <trkpt lat="51.27345" lon="4.83313"></trkpt>
      <trkpt lat="51.27341" lon="4.83305"></trkpt>
      <trkpt lat="51.27337" lon="4.83298"></trkpt>
      <trkpt lat="51.27332" lon="4.83291"></trkpt>
      <trkpt lat="51.27328" lon="4.83285"></trkpt>
      <trkpt lat="51.27325" lon="4.83278"></trkpt>
      <trkpt lat="51.27321" lon="4.83270"></trkpt>
      <trkpt lat="51.27319" lon="4.83261"></trkpt>
      <trkpt lat="51.27319" lon="4.83251"></trkpt>
      <trkpt lat="51.27319" lon="4.83240"></trkpt>
      <trkpt lat="51.27320" lon="4.83230"></trkpt>
      <trkpt lat="51.27320" lon="4.83220"></trkpt>
      <trkpt lat="51.27321" lon="4.83210"></trkpt>
      <trkpt lat="51.27321" lon="4.83200"></trkpt>
      <trkpt lat="51.27320" lon="4.83190"></trkpt>
      <trkpt lat="51.27321" lon="4.83180"></trkpt>
      <trkpt lat="51.27321" lon="4.83171"></trkpt>
      <trkpt lat="51.27321" lon="4.83161"></trkpt>
      <trkpt lat="51.27321" lon="4.83152"></trkpt>
      <trkpt lat="51.27321" lon="4.83142"></trkpt>
      <trkpt lat="51.27321" lon="4.83133"></trkpt>
      <trkpt lat="51.27322" lon="4.83123"></trkpt>
      <trkpt lat="51.27323" lon="4.83114"></trkpt>
      <trkpt lat="51.27324" lon="4.83109"></trkpt>
      <trkpt lat="51.27326" lon="4.83103"></trkpt>
      <trkpt lat="51.27327" lon="4.83094"></trkpt>
      <trkpt lat="51.27328" lon="4.83085"></trkpt>
      <trkpt lat="51.27329" lon="4.83075"></trkpt>
      <trkpt lat="51.27331" lon="4.83067"></trkpt>
      <trkpt lat="51.27333" lon="4.83058"></trkpt>
      <trkpt lat="51.27335" lon="4.83048"></trkpt>
      <trkpt lat="51.27334" lon="4.83039"></trkpt>
      <trkpt lat="51.27333" lon="4.83030"></trkpt>
      <trkpt lat="51.27332" lon="4.83021"></trkpt>
      <trkpt lat="51.27333" lon="4.83012"></trkpt>
      <trkpt lat="51.27334" lon="4.83002"></trkpt>
      <trkpt lat="51.27336" lon="4.82994"></trkpt>
      <trkpt lat="51.27340" lon="4.82986"></trkpt>
      <trkpt lat="51.27344" lon="4.82979"></trkpt>
      <trkpt lat="51.27347" lon="4.82972"></trkpt>
      <trkpt lat="51.27350" lon="4.82965"></trkpt>
      <trkpt lat="51.27353" lon="4.82958"></trkpt>
      <trkpt lat="51.27356" lon="4.82952"></trkpt>
      <trkpt lat="51.27361" lon="4.82947"></trkpt>
      <trkpt lat="51.27366" lon="4.82942"></trkpt>
      <trkpt lat="51.27371" lon="4.82937"></trkpt>
      <trkpt lat="51.27375" lon="4.82929"></trkpt>
      <trkpt lat="51.27377" lon="4.82920"></trkpt>
      <trkpt lat="51.27379" lon="4.82911"></trkpt>
      <trkpt lat="51.27381" lon="4.82902"></trkpt>
      <trkpt lat="51.27383" lon="4.82893"></trkpt>
      <trkpt lat="51.27384" lon="4.82883"></trkpt>
      <trkpt lat="51.27385" lon="4.82874"></trkpt>
      <trkpt lat="51.27387" lon="4.82865"></trkpt>
      <trkpt lat="51.27389" lon="4.82856"></trkpt>
      <trkpt lat="51.27390" lon="4.82847"></trkpt>
      <trkpt lat="51.27393" lon="4.82838"></trkpt>
      <trkpt lat="51.27396" lon="4.82829"></trkpt>
      <trkpt lat="51.27398" lon="4.82825"></trkpt>
      <trkpt lat="51.27401" lon="4.82823"></trkpt>
      <trkpt lat="51.27405" lon="4.82816"></trkpt>
      <trkpt lat="51.27409" lon="4.82808"></trkpt>
      <trkpt lat="51.27411" lon="4.82800"></trkpt>
      <trkpt lat="51.27412" lon="4.82791"></trkpt>
      <trkpt lat="51.27412" lon="4.82782"></trkpt>
      <trkpt lat="51.27409" lon="4.82774"></trkpt>
      <trkpt lat="51.27405" lon="4.82767"></trkpt>
      <trkpt lat="51.27402" lon="4.82760"></trkpt>
      <trkpt lat="51.27399" lon="4.82751"></trkpt>
      <trkpt lat="51.27397" lon="4.82742"></trkpt>
      <trkpt lat="51.27396" lon="4.82734"></trkpt>
      <trkpt lat="51.27394" lon="4.82725"></trkpt>
      <trkpt lat="51.27391" lon="4.82716"></trkpt>
      <trkpt lat="51.27388" lon="4.82708"></trkpt>
      <trkpt lat="51.27385" lon="4.82700"></trkpt>
      <trkpt lat="51.27384" lon="4.82691"></trkpt>
      <trkpt lat="51.27382" lon="4.82681"></trkpt>
      <trkpt lat="51.27380" lon="4.82671"></trkpt>
      <trkpt lat="51.27377" lon="4.82662"></trkpt>
      <trkpt lat="51.27375" lon="4.82652"></trkpt>
      <trkpt lat="51.27374" lon="4.82642"></trkpt>
      <trkpt lat="51.27371" lon="4.82632"></trkpt>
      <trkpt lat="51.27369" lon="4.82622"></trkpt>
      <trkpt lat="51.27367" lon="4.82613"></trkpt>
      <trkpt lat="51.27364" lon="4.82603"></trkpt>
      <trkpt lat="51.27362" lon="4.82593"></trkpt>
      <trkpt lat="51.27360" lon="4.82584"></trkpt>
      <trkpt lat="51.27358" lon="4.82574"></trkpt>
      <trkpt lat="51.27356" lon="4.82565"></trkpt>
      <trkpt lat="51.27354" lon="4.82556"></trkpt>
      <trkpt lat="51.27353" lon="4.82547"></trkpt>
      <trkpt lat="51.27352" lon="4.82538"></trkpt>
      <trkpt lat="51.27351" lon="4.82529"></trkpt>
      <trkpt lat="51.27350" lon="4.82520"></trkpt>
      <trkpt lat="51.27348" lon="4.82511"></trkpt>
      <trkpt lat="51.27347" lon="4.82501"></trkpt>
      <trkpt lat="51.27346" lon="4.82491"></trkpt>
      <trkpt lat="51.27345" lon="4.82481"></trkpt>
      <trkpt lat="51.27345" lon="4.82472"></trkpt>
      <trkpt lat="51.27345" lon="4.82462"></trkpt>
      <trkpt lat="51.27345" lon="4.82453"></trkpt>
      <trkpt lat="51.27343" lon="4.82445"></trkpt>
      <trkpt lat="51.27343" lon="4.82435"></trkpt>
      <trkpt lat="51.27342" lon="4.82425"></trkpt>
      <trkpt lat="51.27341" lon="4.82415"></trkpt>
      <trkpt lat="51.27340" lon="4.82405"></trkpt>
      <trkpt lat="51.27339" lon="4.82395"></trkpt>
      <trkpt lat="51.27338" lon="4.82386"></trkpt>
      <trkpt lat="51.27336" lon="4.82376"></trkpt>
      <trkpt lat="51.27335" lon="4.82367"></trkpt>
      <trkpt lat="51.27335" lon="4.82358"></trkpt>
      <trkpt lat="51.27334" lon="4.82349"></trkpt>
      <trkpt lat="51.27333" lon="4.82340"></trkpt>
      <trkpt lat="51.27333" lon="4.82331"></trkpt>
      <trkpt lat="51.27333" lon="4.82321"></trkpt>
      <trkpt lat="51.27332" lon="4.82312"></trkpt>
      <trkpt lat="51.27332" lon="4.82302"></trkpt>
      <trkpt lat="51.27331" lon="4.82293"></trkpt>
      <trkpt lat="51.27330" lon="4.82283"></trkpt>
      <trkpt lat="51.27330" lon="4.82274"></trkpt>
      <trkpt lat="51.27328" lon="4.82264"></trkpt>
      <trkpt lat="51.27328" lon="4.82254"></trkpt>
      <trkpt lat="51.27327" lon="4.82244"></trkpt>
      <trkpt lat="51.27327" lon="4.82235"></trkpt>
      <trkpt lat="51.27326" lon="4.82225"></trkpt>
      <trkpt lat="51.27326" lon="4.82216"></trkpt>
      <trkpt lat="51.27325" lon="4.82207"></trkpt>
      <trkpt lat="51.27325" lon="4.82198"></trkpt>
      <trkpt lat="51.27324" lon="4.82188"></trkpt>
      <trkpt lat="51.27323" lon="4.82179"></trkpt>
      <trkpt lat="51.27322" lon="4.82170"></trkpt>
      <trkpt lat="51.27322" lon="4.82160"></trkpt>
      <trkpt lat="51.27321" lon="4.82150"></trkpt>
      <trkpt lat="51.27319" lon="4.82142"></trkpt>
      <trkpt lat="51.27319" lon="4.82133"></trkpt>
      <trkpt lat="51.27319" lon="4.82124"></trkpt>
      <trkpt lat="51.27318" lon="4.82115"></trkpt>
      <trkpt lat="51.27318" lon="4.82105"></trkpt>
      <trkpt lat="51.27317" lon="4.82095"></trkpt>
      <trkpt lat="51.27316" lon="4.82084"></trkpt>
      <trkpt lat="51.27315" lon="4.82075"></trkpt>
      <trkpt lat="51.27315" lon="4.82065"></trkpt>
      <trkpt lat="51.27314" lon="4.82055"></trkpt>
      <trkpt lat="51.27313" lon="4.82045"></trkpt>
      <trkpt lat="51.27312" lon="4.82036"></trkpt>
      <trkpt lat="51.27311" lon="4.82026"></trkpt>
      <trkpt lat="51.27311" lon="4.82016"></trkpt>
      <trkpt lat="51.27310" lon="4.82007"></trkpt>
      <trkpt lat="51.27309" lon="4.81997"></trkpt>
      <trkpt lat="51.27308" lon="4.81987"></trkpt>
      <trkpt lat="51.27307" lon="4.81978"></trkpt>
      <trkpt lat="51.27306" lon="4.81967"></trkpt>
      <trkpt lat="51.27305" lon="4.81957"></trkpt>
      <trkpt lat="51.27304" lon="4.81947"></trkpt>
      <trkpt lat="51.27303" lon="4.81937"></trkpt>
      <trkpt lat="51.27302" lon="4.81927"></trkpt>
      <trkpt lat="51.27302" lon="4.81917"></trkpt>
      <trkpt lat="51.27301" lon="4.81907"></trkpt>
      <trkpt lat="51.27300" lon="4.81897"></trkpt>
      <trkpt lat="51.27299" lon="4.81888"></trkpt>
      <trkpt lat="51.27298" lon="4.81878"></trkpt>
      <trkpt lat="51.27297" lon="4.81868"></trkpt>
      <trkpt lat="51.27296" lon="4.81858"></trkpt>
      <trkpt lat="51.27296" lon="4.81849"></trkpt>
      <trkpt lat="51.27295" lon="4.81840"></trkpt>
      <trkpt lat="51.27295" lon="4.81830"></trkpt>
      <trkpt lat="51.27295" lon="4.81819"></trkpt>
      <trkpt lat="51.27295" lon="4.81809"></trkpt>
      <trkpt lat="51.27295" lon="4.81799"></trkpt>
      <trkpt lat="51.27296" lon="4.81789"></trkpt>
      <trkpt lat="51.27296" lon="4.81779"></trkpt>
      <trkpt lat="51.27295" lon="4.81769"></trkpt>
      <trkpt lat="51.27295" lon="4.81759"></trkpt>
      <trkpt lat="51.27295" lon="4.81749"></trkpt>
      <trkpt lat="51.27295" lon="4.81739"></trkpt>
      <trkpt lat="51.27295" lon="4.81729"></trkpt>
      <trkpt lat="51.27296" lon="4.81719"></trkpt>
      <trkpt lat="51.27297" lon="4.81709"></trkpt>
      <trkpt lat="51.27297" lon="4.81699"></trkpt>
      <trkpt lat="51.27296" lon="4.81689"></trkpt>
      <trkpt lat="51.27296" lon="4.81679"></trkpt>
      <trkpt lat="51.27296" lon="4.81669"></trkpt>
      <trkpt lat="51.27295" lon="4.81659"></trkpt>
      <trkpt lat="51.27294" lon="4.81649"></trkpt>
      <trkpt lat="51.27293" lon="4.81640"></trkpt>
      <trkpt lat="51.27293" lon="4.81631"></trkpt>
      <trkpt lat="51.27292" lon="4.81621"></trkpt>
      <trkpt lat="51.27290" lon="4.81611"></trkpt>
      <trkpt lat="51.27289" lon="4.81601"></trkpt>
      <trkpt lat="51.27289" lon="4.81591"></trkpt>
      <trkpt lat="51.27288" lon="4.81581"></trkpt>
      <trkpt lat="51.27287" lon="4.81572"></trkpt>
      <trkpt lat="51.27286" lon="4.81562"></trkpt>
      <trkpt lat="51.27284" lon="4.81552"></trkpt>
      <trkpt lat="51.27283" lon="4.81542"></trkpt>
      <trkpt lat="51.27282" lon="4.81531"></trkpt>
      <trkpt lat="51.27280" lon="4.81521"></trkpt>
      <trkpt lat="51.27279" lon="4.81511"></trkpt>
      <trkpt lat="51.27278" lon="4.81501"></trkpt>
      <trkpt lat="51.27278" lon="4.81492"></trkpt>
      <trkpt lat="51.27279" lon="4.81482"></trkpt>
      <trkpt lat="51.27280" lon="4.81472"></trkpt>
      <trkpt lat="51.27284" lon="4.81465"></trkpt>
      <trkpt lat="51.27289" lon="4.81460"></trkpt>
      <trkpt lat="51.27294" lon="4.81455"></trkpt>
      <trkpt lat="51.27300" lon="4.81452"></trkpt>
      <trkpt lat="51.27306" lon="4.81449"></trkpt>
      <trkpt lat="51.27313" lon="4.81447"></trkpt>
      <trkpt lat="51.27318" lon="4.81446"></trkpt>
      <trkpt lat="51.27322" lon="4.81444"></trkpt>
      <trkpt lat="51.27327" lon="4.81443"></trkpt>
      <trkpt lat="51.27331" lon="4.81441"></trkpt>
      <trkpt lat="51.27334" lon="4.81440"></trkpt>
      <trkpt lat="51.27337" lon="4.81439"></trkpt>
      <trkpt lat="51.27341" lon="4.81438"></trkpt>
      <trkpt lat="51.27345" lon="4.81436"></trkpt>
      <trkpt lat="51.27348" lon="4.81434"></trkpt>
      <trkpt lat="51.27351" lon="4.81433"></trkpt>
      <trkpt lat="51.27355" lon="4.81430"></trkpt>
      <trkpt lat="51.27358" lon="4.81428"></trkpt>
      <trkpt lat="51.27361" lon="4.81426"></trkpt>
      <trkpt lat="51.27364" lon="4.81424"></trkpt>
      <trkpt lat="51.27367" lon="4.81422"></trkpt>
      <trkpt lat="51.27371" lon="4.81421"></trkpt>
      <trkpt lat="51.27374" lon="4.81418"></trkpt>
      <trkpt lat="51.27378" lon="4.81417"></trkpt>
      <trkpt lat="51.27381" lon="4.81415"></trkpt>
      <trkpt lat="51.27384" lon="4.81413"></trkpt>
      <trkpt lat="51.27388" lon="4.81412"></trkpt>
      <trkpt lat="51.27390" lon="4.81411"></trkpt>
      <trkpt lat="51.27390" lon="4.81412"></trkpt>
      <trkpt lat="51.27390" lon="4.81413"></trkpt>
      <trkpt lat="51.27390" lon="4.81414"></trkpt>
      <trkpt lat="51.27390" lon="4.81414"></trkpt>
      <trkpt lat="51.27391" lon="4.81413"></trkpt>
      <trkpt lat="51.27391" lon="4.81413"></trkpt>
      <trkpt lat="51.27392" lon="4.81413"></trkpt>
      <trkpt lat="51.27397" lon="4.81411"></trkpt>
      <trkpt lat="51.27401" lon="4.81408"></trkpt>
      <trkpt lat="51.27404" lon="4.81406"></trkpt>
      <trkpt lat="51.27407" lon="4.81405"></trkpt>
      <trkpt lat="51.27410" lon="4.81403"></trkpt>
      <trkpt lat="51.27413" lon="4.81401"></trkpt>
      <trkpt lat="51.27417" lon="4.81400"></trkpt>
      <trkpt lat="51.27421" lon="4.81398"></trkpt>
      <trkpt lat="51.27425" lon="4.81397"></trkpt>
      <trkpt lat="51.27428" lon="4.81395"></trkpt>
      <trkpt lat="51.27432" lon="4.81393"></trkpt>
      <trkpt lat="51.27435" lon="4.81392"></trkpt>
      <trkpt lat="51.27439" lon="4.81390"></trkpt>
      <trkpt lat="51.27442" lon="4.81388"></trkpt>
      <trkpt lat="51.27445" lon="4.81386"></trkpt>
      <trkpt lat="51.27449" lon="4.81385"></trkpt>
      <trkpt lat="51.27453" lon="4.81383"></trkpt>
      <trkpt lat="51.27456" lon="4.81381"></trkpt>
      <trkpt lat="51.27461" lon="4.81378"></trkpt>
      <trkpt lat="51.27466" lon="4.81372"></trkpt>
      <trkpt lat="51.27471" lon="4.81367"></trkpt>
      <trkpt lat="51.27477" lon="4.81361"></trkpt>
      <trkpt lat="51.27482" lon="4.81357"></trkpt>
      <trkpt lat="51.27485" lon="4.81356"></trkpt>
      <trkpt lat="51.27488" lon="4.81354"></trkpt>
      <trkpt lat="51.27492" lon="4.81352"></trkpt>
      <trkpt lat="51.27495" lon="4.81350"></trkpt>
      <trkpt lat="51.27495" lon="4.81350"></trkpt>
      <trkpt lat="51.27496" lon="4.81350"></trkpt>
      <trkpt lat="51.27496" lon="4.81350"></trkpt>
      <trkpt lat="51.27496" lon="4.81350"></trkpt>
      <trkpt lat="51.27496" lon="4.81349"></trkpt>
      <trkpt lat="51.27497" lon="4.81349"></trkpt>
      <trkpt lat="51.27497" lon="4.81349"></trkpt>
      <trkpt lat="51.27497" lon="4.81349"></trkpt>
      <trkpt lat="51.27498" lon="4.81348"></trkpt>
      <trkpt lat="51.27502" lon="4.81343"></trkpt>
      <trkpt lat="51.27509" lon="4.81338"></trkpt>
      <trkpt lat="51.27514" lon="4.81334"></trkpt>
      <trkpt lat="51.27520" lon="4.81328"></trkpt>
      <trkpt lat="51.27525" lon="4.81323"></trkpt>
      <trkpt lat="51.27531" lon="4.81318"></trkpt>
      <trkpt lat="51.27537" lon="4.81313"></trkpt>
      <trkpt lat="51.27542" lon="4.81308"></trkpt>
      <trkpt lat="51.27548" lon="4.81304"></trkpt>
      <trkpt lat="51.27553" lon="4.81298"></trkpt>
      <trkpt lat="51.27559" lon="4.81293"></trkpt>
      <trkpt lat="51.27565" lon="4.81289"></trkpt>
      <trkpt lat="51.27571" lon="4.81283"></trkpt>
      <trkpt lat="51.27577" lon="4.81278"></trkpt>
      <trkpt lat="51.27583" lon="4.81273"></trkpt>
      <trkpt lat="51.27588" lon="4.81268"></trkpt>
      <trkpt lat="51.27592" lon="4.81263"></trkpt>
      <trkpt lat="51.27595" lon="4.81260"></trkpt>
      <trkpt lat="51.27598" lon="4.81258"></trkpt>
      <trkpt lat="51.27600" lon="4.81255"></trkpt>
      <trkpt lat="51.27603" lon="4.81253"></trkpt>
      <trkpt lat="51.27606" lon="4.81250"></trkpt>
      <trkpt lat="51.27608" lon="4.81247"></trkpt>
      <trkpt lat="51.27610" lon="4.81244"></trkpt>
      <trkpt lat="51.27613" lon="4.81241"></trkpt>
      <trkpt lat="51.27616" lon="4.81239"></trkpt>
      <trkpt lat="51.27619" lon="4.81237"></trkpt>
      <trkpt lat="51.27622" lon="4.81235"></trkpt>
      <trkpt lat="51.27625" lon="4.81233"></trkpt>
      <trkpt lat="51.27628" lon="4.81231"></trkpt>
      <trkpt lat="51.27631" lon="4.81229"></trkpt>
      <trkpt lat="51.27634" lon="4.81226"></trkpt>
      <trkpt lat="51.27637" lon="4.81223"></trkpt>
      <trkpt lat="51.27640" lon="4.81221"></trkpt>
      <trkpt lat="51.27644" lon="4.81218"></trkpt>
      <trkpt lat="51.27647" lon="4.81216"></trkpt>
      <trkpt lat="51.27651" lon="4.81214"></trkpt>
      <trkpt lat="51.27654" lon="4.81211"></trkpt>
      <trkpt lat="51.27657" lon="4.81208"></trkpt>
      <trkpt lat="51.27660" lon="4.81206"></trkpt>
      <trkpt lat="51.27662" lon="4.81203"></trkpt>
      <trkpt lat="51.27665" lon="4.81201"></trkpt>
      <trkpt lat="51.27667" lon="4.81198"></trkpt>
      <trkpt lat="51.27668" lon="4.81194"></trkpt>
      <trkpt lat="51.27668" lon="4.81190"></trkpt>
      <trkpt lat="51.27668" lon="4.81188"></trkpt>
      <trkpt lat="51.27668" lon="4.81185"></trkpt>
      <trkpt lat="51.27669" lon="4.81177"></trkpt>
      <trkpt lat="51.27673" lon="4.81171"></trkpt>
      <trkpt lat="51.27680" lon="4.81174"></trkpt>
      <trkpt lat="51.27685" lon="4.81179"></trkpt>
      <trkpt lat="51.27691" lon="4.81184"></trkpt>
      <trkpt lat="51.27697" lon="4.81189"></trkpt>
      <trkpt lat="51.27702" lon="4.81195"></trkpt>
      <trkpt lat="51.27708" lon="4.81201"></trkpt>
      <trkpt lat="51.27714" lon="4.81205"></trkpt>
      <trkpt lat="51.27719" lon="4.81211"></trkpt>
      <trkpt lat="51.27725" lon="4.81217"></trkpt>
      <trkpt lat="51.27730" lon="4.81222"></trkpt>
      <trkpt lat="51.27735" lon="4.81227"></trkpt>
      <trkpt lat="51.27740" lon="4.81233"></trkpt>
      <trkpt lat="51.27745" lon="4.81238"></trkpt>
      <trkpt lat="51.27750" lon="4.81244"></trkpt>
      <trkpt lat="51.27755" lon="4.81248"></trkpt>
      <trkpt lat="51.27761" lon="4.81253"></trkpt>
      <trkpt lat="51.27766" lon="4.81259"></trkpt>
      <trkpt lat="51.27772" lon="4.81264"></trkpt>
      <trkpt lat="51.27778" lon="4.81270"></trkpt>
      <trkpt lat="51.27783" lon="4.81275"></trkpt>
      <trkpt lat="51.27789" lon="4.81280"></trkpt>
      <trkpt lat="51.27794" lon="4.81286"></trkpt>
      <trkpt lat="51.27800" lon="4.81290"></trkpt>
      <trkpt lat="51.27806" lon="4.81294"></trkpt>
      <trkpt lat="51.27812" lon="4.81298"></trkpt>
      <trkpt lat="51.27818" lon="4.81305"></trkpt>
      <trkpt lat="51.27824" lon="4.81310"></trkpt>
      <trkpt lat="51.27829" lon="4.81316"></trkpt>
      <trkpt lat="51.27834" lon="4.81321"></trkpt>
      <trkpt lat="51.27839" lon="4.81326"></trkpt>
      <trkpt lat="51.27845" lon="4.81331"></trkpt>
      <trkpt lat="51.27851" lon="4.81337"></trkpt>
      <trkpt lat="51.27856" lon="4.81342"></trkpt>
      <trkpt lat="51.27861" lon="4.81347"></trkpt>
      <trkpt lat="51.27867" lon="4.81352"></trkpt>
      <trkpt lat="51.27872" lon="4.81357"></trkpt>
      <trkpt lat="51.27876" lon="4.81361"></trkpt>
      <trkpt lat="51.27880" lon="4.81364"></trkpt>
      <trkpt lat="51.27882" lon="4.81367"></trkpt>
      <trkpt lat="51.27885" lon="4.81370"></trkpt>
      <trkpt lat="51.27888" lon="4.81373"></trkpt>
      <trkpt lat="51.27891" lon="4.81376"></trkpt>
      <trkpt lat="51.27893" lon="4.81378"></trkpt>
      <trkpt lat="51.27895" lon="4.81381"></trkpt>
      <trkpt lat="51.27898" lon="4.81383"></trkpt>
      <trkpt lat="51.27901" lon="4.81386"></trkpt>
      <trkpt lat="51.27906" lon="4.81390"></trkpt>
      <trkpt lat="51.27910" lon="4.81393"></trkpt>
      <trkpt lat="51.27913" lon="4.81397"></trkpt>
      <trkpt lat="51.27916" lon="4.81400"></trkpt>
      <trkpt lat="51.27920" lon="4.81404"></trkpt>
      <trkpt lat="51.27923" lon="4.81408"></trkpt>
      <trkpt lat="51.27927" lon="4.81411"></trkpt>
      <trkpt lat="51.27931" lon="4.81413"></trkpt>
      <trkpt lat="51.27935" lon="4.81416"></trkpt>
      <trkpt lat="51.27938" lon="4.81419"></trkpt>
      <trkpt lat="51.27942" lon="4.81423"></trkpt>
      <trkpt lat="51.27945" lon="4.81427"></trkpt>
      <trkpt lat="51.27949" lon="4.81431"></trkpt>
      <trkpt lat="51.27954" lon="4.81437"></trkpt>
      <trkpt lat="51.27959" lon="4.81442"></trkpt>
      <trkpt lat="51.27965" lon="4.81447"></trkpt>
      <trkpt lat="51.27971" lon="4.81452"></trkpt>
      <trkpt lat="51.27976" lon="4.81458"></trkpt>
      <trkpt lat="51.27982" lon="4.81463"></trkpt>
      <trkpt lat="51.27987" lon="4.81468"></trkpt>
      <trkpt lat="51.27993" lon="4.81474"></trkpt>
      <trkpt lat="51.27998" lon="4.81479"></trkpt>
      <trkpt lat="51.28004" lon="4.81484"></trkpt>
      <trkpt lat="51.28009" lon="4.81490"></trkpt>
      <trkpt lat="51.28014" lon="4.81495"></trkpt>
      <trkpt lat="51.28020" lon="4.81501"></trkpt>
      <trkpt lat="51.28025" lon="4.81506"></trkpt>
      <trkpt lat="51.28030" lon="4.81512"></trkpt>
      <trkpt lat="51.28036" lon="4.81518"></trkpt>
      <trkpt lat="51.28041" lon="4.81522"></trkpt>
      <trkpt lat="51.28047" lon="4.81527"></trkpt>
      <trkpt lat="51.28052" lon="4.81532"></trkpt>
      <trkpt lat="51.28058" lon="4.81537"></trkpt>
      <trkpt lat="51.28063" lon="4.81543"></trkpt>
      <trkpt lat="51.28069" lon="4.81548"></trkpt>
      <trkpt lat="51.28074" lon="4.81554"></trkpt>
      <trkpt lat="51.28080" lon="4.81559"></trkpt>
      <trkpt lat="51.28086" lon="4.81565"></trkpt>
      <trkpt lat="51.28091" lon="4.81570"></trkpt>
      <trkpt lat="51.28097" lon="4.81575"></trkpt>
      <trkpt lat="51.28102" lon="4.81580"></trkpt>
      <trkpt lat="51.28107" lon="4.81585"></trkpt>
      <trkpt lat="51.28113" lon="4.81590"></trkpt>
      <trkpt lat="51.28118" lon="4.81596"></trkpt>
      <trkpt lat="51.28124" lon="4.81602"></trkpt>
      <trkpt lat="51.28129" lon="4.81607"></trkpt>
      <trkpt lat="51.28134" lon="4.81612"></trkpt>
      <trkpt lat="51.28139" lon="4.81618"></trkpt>
      <trkpt lat="51.28144" lon="4.81623"></trkpt>
      <trkpt lat="51.28149" lon="4.81628"></trkpt>
      <trkpt lat="51.28154" lon="4.81633"></trkpt>
      <trkpt lat="51.28160" lon="4.81638"></trkpt>
      <trkpt lat="51.28166" lon="4.81644"></trkpt>
      <trkpt lat="51.28172" lon="4.81649"></trkpt>
      <trkpt lat="51.28177" lon="4.81655"></trkpt>
      <trkpt lat="51.28183" lon="4.81661"></trkpt>
      <trkpt lat="51.28188" lon="4.81666"></trkpt>
      <trkpt lat="51.28194" lon="4.81672"></trkpt>
      <trkpt lat="51.28200" lon="4.81677"></trkpt>
      <trkpt lat="51.28206" lon="4.81682"></trkpt>
      <trkpt lat="51.28211" lon="4.81688"></trkpt>
      <trkpt lat="51.28217" lon="4.81693"></trkpt>
      <trkpt lat="51.28221" lon="4.81698"></trkpt>
      <trkpt lat="51.28227" lon="4.81704"></trkpt>
      <trkpt lat="51.28232" lon="4.81709"></trkpt>
      <trkpt lat="51.28238" lon="4.81714"></trkpt>
      <trkpt lat="51.28244" lon="4.81719"></trkpt>
      <trkpt lat="51.28249" lon="4.81723"></trkpt>
      <trkpt lat="51.28254" lon="4.81729"></trkpt>
      <trkpt lat="51.28260" lon="4.81734"></trkpt>
      <trkpt lat="51.28265" lon="4.81738"></trkpt>
      <trkpt lat="51.28268" lon="4.81741"></trkpt>
      <trkpt lat="51.28270" lon="4.81744"></trkpt>
      <trkpt lat="51.28273" lon="4.81747"></trkpt>
      <trkpt lat="51.28276" lon="4.81750"></trkpt>
      <trkpt lat="51.28279" lon="4.81752"></trkpt>
      <trkpt lat="51.28282" lon="4.81753"></trkpt>
      <trkpt lat="51.28285" lon="4.81757"></trkpt>
      <trkpt lat="51.28291" lon="4.81761"></trkpt>
      <trkpt lat="51.28296" lon="4.81765"></trkpt>
      <trkpt lat="51.28302" lon="4.81770"></trkpt>
      <trkpt lat="51.28307" lon="4.81775"></trkpt>
      <trkpt lat="51.28312" lon="4.81780"></trkpt>
      <trkpt lat="51.28317" lon="4.81785"></trkpt>
      <trkpt lat="51.28323" lon="4.81791"></trkpt>
      <trkpt lat="51.28328" lon="4.81796"></trkpt>
      <trkpt lat="51.28333" lon="4.81801"></trkpt>
      <trkpt lat="51.28339" lon="4.81807"></trkpt>
      <trkpt lat="51.28344" lon="4.81812"></trkpt>
      <trkpt lat="51.28350" lon="4.81817"></trkpt>
      <trkpt lat="51.28351" lon="4.81819"></trkpt>
      <trkpt lat="51.28351" lon="4.81819"></trkpt>
      <trkpt lat="51.28350" lon="4.81819"></trkpt>
      <trkpt lat="51.28350" lon="4.81819"></trkpt>
      <trkpt lat="51.28351" lon="4.81819"></trkpt>
      <trkpt lat="51.28351" lon="4.81820"></trkpt>
      <trkpt lat="51.28354" lon="4.81822"></trkpt>
      <trkpt lat="51.28361" lon="4.81828"></trkpt>
      <trkpt lat="51.28367" lon="4.81834"></trkpt>
      <trkpt lat="51.28372" lon="4.81840"></trkpt>
      <trkpt lat="51.28378" lon="4.81845"></trkpt>
      <trkpt lat="51.28383" lon="4.81851"></trkpt>
      <trkpt lat="51.28389" lon="4.81856"></trkpt>
      <trkpt lat="51.28394" lon="4.81861"></trkpt>
      <trkpt lat="51.28399" lon="4.81867"></trkpt>
      <trkpt lat="51.28405" lon="4.81872"></trkpt>
      <trkpt lat="51.28410" lon="4.81877"></trkpt>
      <trkpt lat="51.28416" lon="4.81883"></trkpt>
      <trkpt lat="51.28422" lon="4.81889"></trkpt>
      <trkpt lat="51.28427" lon="4.81894"></trkpt>
      <trkpt lat="51.28433" lon="4.81901"></trkpt>
      <trkpt lat="51.28439" lon="4.81906"></trkpt>
      <trkpt lat="51.28445" lon="4.81912"></trkpt>
      <trkpt lat="51.28451" lon="4.81918"></trkpt>
      <trkpt lat="51.28457" lon="4.81923"></trkpt>
      <trkpt lat="51.28463" lon="4.81929"></trkpt>
      <trkpt lat="51.28469" lon="4.81935"></trkpt>
      <trkpt lat="51.28474" lon="4.81940"></trkpt>
      <trkpt lat="51.28481" lon="4.81946"></trkpt>
      <trkpt lat="51.28487" lon="4.81952"></trkpt>
      <trkpt lat="51.28493" lon="4.81957"></trkpt>
      <trkpt lat="51.28498" lon="4.81962"></trkpt>
      <trkpt lat="51.28504" lon="4.81968"></trkpt>
      <trkpt lat="51.28510" lon="4.81973"></trkpt>
      <trkpt lat="51.28516" lon="4.81978"></trkpt>
      <trkpt lat="51.28522" lon="4.81983"></trkpt>
      <trkpt lat="51.28528" lon="4.81988"></trkpt>
      <trkpt lat="51.28532" lon="4.81997"></trkpt>
      <trkpt lat="51.28533" lon="4.82008"></trkpt>
      <trkpt lat="51.28531" lon="4.82019"></trkpt>
      <trkpt lat="51.28527" lon="4.82031"></trkpt>
      <trkpt lat="51.28524" lon="4.82043"></trkpt>
      <trkpt lat="51.28523" lon="4.82050"></trkpt>
      <trkpt lat="51.28522" lon="4.82052"></trkpt>
      <trkpt lat="51.28521" lon="4.82053"></trkpt>
      <trkpt lat="51.28519" lon="4.82061"></trkpt>
      <trkpt lat="51.28517" lon="4.82075"></trkpt>
      <trkpt lat="51.28515" lon="4.82086"></trkpt>
      <trkpt lat="51.28512" lon="4.82097"></trkpt>
      <trkpt lat="51.28510" lon="4.82108"></trkpt>
      <trkpt lat="51.28507" lon="4.82119"></trkpt>
      <trkpt lat="51.28505" lon="4.82130"></trkpt>
      <trkpt lat="51.28503" lon="4.82141"></trkpt>
      <trkpt lat="51.28500" lon="4.82152"></trkpt>
      <trkpt lat="51.28498" lon="4.82162"></trkpt>
      <trkpt lat="51.28495" lon="4.82173"></trkpt>
      <trkpt lat="51.28493" lon="4.82184"></trkpt>
      <trkpt lat="51.28492" lon="4.82195"></trkpt>
      <trkpt lat="51.28490" lon="4.82205"></trkpt>
      <trkpt lat="51.28488" lon="4.82216"></trkpt>
      <trkpt lat="51.28486" lon="4.82226"></trkpt>
      <trkpt lat="51.28484" lon="4.82237"></trkpt>
      <trkpt lat="51.28481" lon="4.82248"></trkpt>
      <trkpt lat="51.28479" lon="4.82259"></trkpt>
      <trkpt lat="51.28476" lon="4.82270"></trkpt>
      <trkpt lat="51.28474" lon="4.82281"></trkpt>
      <trkpt lat="51.28472" lon="4.82291"></trkpt>
      <trkpt lat="51.28470" lon="4.82302"></trkpt>
      <trkpt lat="51.28468" lon="4.82314"></trkpt>
      <trkpt lat="51.28466" lon="4.82325"></trkpt>
      <trkpt lat="51.28463" lon="4.82336"></trkpt>
      <trkpt lat="51.28460" lon="4.82346"></trkpt>
      <trkpt lat="51.28457" lon="4.82355"></trkpt>
      <trkpt lat="51.28454" lon="4.82365"></trkpt>
      <trkpt lat="51.28450" lon="4.82374"></trkpt>
      <trkpt lat="51.28446" lon="4.82385"></trkpt>
      <trkpt lat="51.28442" lon="4.82396"></trkpt>
      <trkpt lat="51.28437" lon="4.82407"></trkpt>
      <trkpt lat="51.28433" lon="4.82418"></trkpt>
      <trkpt lat="51.28429" lon="4.82429"></trkpt>
      <trkpt lat="51.28425" lon="4.82440"></trkpt>
      <trkpt lat="51.28422" lon="4.82451"></trkpt>
      <trkpt lat="51.28418" lon="4.82462"></trkpt>
      <trkpt lat="51.28415" lon="4.82474"></trkpt>
      <trkpt lat="51.28412" lon="4.82485"></trkpt>
      <trkpt lat="51.28409" lon="4.82496"></trkpt>
      <trkpt lat="51.28405" lon="4.82508"></trkpt>
      <trkpt lat="51.28402" lon="4.82519"></trkpt>
      <trkpt lat="51.28399" lon="4.82530"></trkpt>
      <trkpt lat="51.28397" lon="4.82541"></trkpt>
      <trkpt lat="51.28394" lon="4.82553"></trkpt>
      <trkpt lat="51.28391" lon="4.82565"></trkpt>
      <trkpt lat="51.28388" lon="4.82576"></trkpt>
      <trkpt lat="51.28386" lon="4.82588"></trkpt>
      <trkpt lat="51.28383" lon="4.82599"></trkpt>
      <trkpt lat="51.28380" lon="4.82610"></trkpt>
      <trkpt lat="51.28378" lon="4.82622"></trkpt>
      <trkpt lat="51.28375" lon="4.82633"></trkpt>
      <trkpt lat="51.28372" lon="4.82644"></trkpt>
      <trkpt lat="51.28368" lon="4.82654"></trkpt>
      <trkpt lat="51.28365" lon="4.82665"></trkpt>
      <trkpt lat="51.28362" lon="4.82677"></trkpt>
      <trkpt lat="51.28359" lon="4.82688"></trkpt>
      <trkpt lat="51.28357" lon="4.82699"></trkpt>
      <trkpt lat="51.28355" lon="4.82711"></trkpt>
      <trkpt lat="51.28353" lon="4.82724"></trkpt>
      <trkpt lat="51.28350" lon="4.82736"></trkpt>
      <trkpt lat="51.28346" lon="4.82747"></trkpt>
      <trkpt lat="51.28343" lon="4.82758"></trkpt>
      <trkpt lat="51.28339" lon="4.82769"></trkpt>
      <trkpt lat="51.28334" lon="4.82780"></trkpt>
      <trkpt lat="51.28331" lon="4.82792"></trkpt>
      <trkpt lat="51.28326" lon="4.82804"></trkpt>
      <trkpt lat="51.28322" lon="4.82815"></trkpt>
      <trkpt lat="51.28318" lon="4.82825"></trkpt>
      <trkpt lat="51.28314" lon="4.82836"></trkpt>
      <trkpt lat="51.28309" lon="4.82848"></trkpt>
      <trkpt lat="51.28305" lon="4.82859"></trkpt>
      <trkpt lat="51.28301" lon="4.82870"></trkpt>
      <trkpt lat="51.28298" lon="4.82881"></trkpt>
      <trkpt lat="51.28298" lon="4.82894"></trkpt>
      <trkpt lat="51.28301" lon="4.82907"></trkpt>
      <trkpt lat="51.28305" lon="4.82920"></trkpt>
      <trkpt lat="51.28308" lon="4.82932"></trkpt>
      <trkpt lat="51.28311" lon="4.82944"></trkpt>
      <trkpt lat="51.28314" lon="4.82955"></trkpt>
      <trkpt lat="51.28316" lon="4.82967"></trkpt>
      <trkpt lat="51.28319" lon="4.82978"></trkpt>
      <trkpt lat="51.28322" lon="4.82989"></trkpt>
      <trkpt lat="51.28325" lon="4.82999"></trkpt>
      <trkpt lat="51.28328" lon="4.83011"></trkpt>
      <trkpt lat="51.28331" lon="4.83022"></trkpt>
      <trkpt lat="51.28333" lon="4.83033"></trkpt>
      <trkpt lat="51.28335" lon="4.83044"></trkpt>
      <trkpt lat="51.28337" lon="4.83055"></trkpt>
      <trkpt lat="51.28339" lon="4.83066"></trkpt>
      <trkpt lat="51.28341" lon="4.83077"></trkpt>
      <trkpt lat="51.28340" lon="4.83089"></trkpt>
      <trkpt lat="51.28337" lon="4.83100"></trkpt>
      <trkpt lat="51.28332" lon="4.83109"></trkpt>
      <trkpt lat="51.28326" lon="4.83118"></trkpt>
      <trkpt lat="51.28321" lon="4.83126"></trkpt>
      <trkpt lat="51.28315" lon="4.83133"></trkpt>
      <trkpt lat="51.28310" lon="4.83143"></trkpt>
      <trkpt lat="51.28304" lon="4.83152"></trkpt>
      <trkpt lat="51.28299" lon="4.83162"></trkpt>
      <trkpt lat="51.28293" lon="4.83171"></trkpt>
      <trkpt lat="51.28288" lon="4.83181"></trkpt>
      <trkpt lat="51.28282" lon="4.83190"></trkpt>
      <trkpt lat="51.28277" lon="4.83199"></trkpt>
      <trkpt lat="51.28272" lon="4.83208"></trkpt>
      <trkpt lat="51.28267" lon="4.83217"></trkpt>
      <trkpt lat="51.28262" lon="4.83227"></trkpt>
      <trkpt lat="51.28256" lon="4.83236"></trkpt>
      <trkpt lat="51.28251" lon="4.83245"></trkpt>
      <trkpt lat="51.28246" lon="4.83253"></trkpt>
      <trkpt lat="51.28241" lon="4.83262"></trkpt>
      <trkpt lat="51.28240" lon="4.83272"></trkpt>
      <trkpt lat="51.28244" lon="4.83282"></trkpt>
      <trkpt lat="51.28249" lon="4.83291"></trkpt>
      <trkpt lat="51.28252" lon="4.83302"></trkpt>
      <trkpt lat="51.28256" lon="4.83312"></trkpt>
      <trkpt lat="51.28262" lon="4.83323"></trkpt>
      <trkpt lat="51.28266" lon="4.83332"></trkpt>
      <trkpt lat="51.28271" lon="4.83341"></trkpt>
      <trkpt lat="51.28275" lon="4.83350"></trkpt>
      <trkpt lat="51.28279" lon="4.83360"></trkpt>
      <trkpt lat="51.28283" lon="4.83369"></trkpt>
      <trkpt lat="51.28288" lon="4.83377"></trkpt>
      <trkpt lat="51.28291" lon="4.83386"></trkpt>
      <trkpt lat="51.28295" lon="4.83395"></trkpt>
      <trkpt lat="51.28299" lon="4.83404"></trkpt>
      <trkpt lat="51.28302" lon="4.83412"></trkpt>
      <trkpt lat="51.28307" lon="4.83422"></trkpt>
      <trkpt lat="51.28310" lon="4.83432"></trkpt>
      <trkpt lat="51.28313" lon="4.83442"></trkpt>
      <trkpt lat="51.28318" lon="4.83450"></trkpt>
      <trkpt lat="51.28323" lon="4.83460"></trkpt>
      <trkpt lat="51.28328" lon="4.83469"></trkpt>
      <trkpt lat="51.28334" lon="4.83477"></trkpt>
      <trkpt lat="51.28341" lon="4.83482"></trkpt>
      <trkpt lat="51.28347" lon="4.83487"></trkpt>
      <trkpt lat="51.28353" lon="4.83494"></trkpt>
      <trkpt lat="51.28359" lon="4.83502"></trkpt>
      <trkpt lat="51.28366" lon="4.83508"></trkpt>
      <trkpt lat="51.28372" lon="4.83515"></trkpt>
      <trkpt lat="51.28377" lon="4.83522"></trkpt>
      <trkpt lat="51.28382" lon="4.83529"></trkpt>
      <trkpt lat="51.28389" lon="4.83536"></trkpt>
      <trkpt lat="51.28395" lon="4.83545"></trkpt>
      <trkpt lat="51.28401" lon="4.83552"></trkpt>
      <trkpt lat="51.28407" lon="4.83559"></trkpt>
      <trkpt lat="51.28413" lon="4.83567"></trkpt>
      <trkpt lat="51.28419" lon="4.83575"></trkpt>
      <trkpt lat="51.28425" lon="4.83582"></trkpt>
      <trkpt lat="51.28432" lon="4.83585"></trkpt>
      <trkpt lat="51.28440" lon="4.83585"></trkpt>
      <trkpt lat="51.28448" lon="4.83588"></trkpt>
      <trkpt lat="51.28455" lon="4.83593"></trkpt>
      <trkpt lat="51.28461" lon="4.83596"></trkpt>
      <trkpt lat="51.28467" lon="4.83601"></trkpt>
      <trkpt lat="51.28472" lon="4.83605"></trkpt>
      <trkpt lat="51.28479" lon="4.83608"></trkpt>
      <trkpt lat="51.28486" lon="4.83612"></trkpt>
      <trkpt lat="51.28492" lon="4.83616"></trkpt>
      <trkpt lat="51.28499" lon="4.83620"></trkpt>
      <trkpt lat="51.28506" lon="4.83624"></trkpt>
      <trkpt lat="51.28514" lon="4.83627"></trkpt>
      <trkpt lat="51.28521" lon="4.83631"></trkpt>
      <trkpt lat="51.28528" lon="4.83636"></trkpt>
      <trkpt lat="51.28535" lon="4.83640"></trkpt>
      <trkpt lat="51.28542" lon="4.83645"></trkpt>
      <trkpt lat="51.28550" lon="4.83648"></trkpt>
      <trkpt lat="51.28557" lon="4.83651"></trkpt>
      <trkpt lat="51.28564" lon="4.83655"></trkpt>
      <trkpt lat="51.28571" lon="4.83659"></trkpt>
      <trkpt lat="51.28578" lon="4.83664"></trkpt>
      <trkpt lat="51.28586" lon="4.83668"></trkpt>
      <trkpt lat="51.28593" lon="4.83672"></trkpt>
      <trkpt lat="51.28600" lon="4.83675"></trkpt>
      <trkpt lat="51.28607" lon="4.83678"></trkpt>
      <trkpt lat="51.28615" lon="4.83684"></trkpt>
      <trkpt lat="51.28622" lon="4.83690"></trkpt>
      <trkpt lat="51.28630" lon="4.83696"></trkpt>
      <trkpt lat="51.28637" lon="4.83699"></trkpt>
      <trkpt lat="51.28645" lon="4.83702"></trkpt>
      <trkpt lat="51.28653" lon="4.83706"></trkpt>
      <trkpt lat="51.28661" lon="4.83711"></trkpt>
      <trkpt lat="51.28669" lon="4.83715"></trkpt>
      <trkpt lat="51.28676" lon="4.83719"></trkpt>
      <trkpt lat="51.28684" lon="4.83724"></trkpt>
      <trkpt lat="51.28692" lon="4.83729"></trkpt>
      <trkpt lat="51.28700" lon="4.83733"></trkpt>
      <trkpt lat="51.28708" lon="4.83738"></trkpt>
      <trkpt lat="51.28716" lon="4.83743"></trkpt>
      <trkpt lat="51.28723" lon="4.83748"></trkpt>
      <trkpt lat="51.28731" lon="4.83753"></trkpt>
      <trkpt lat="51.28739" lon="4.83758"></trkpt>
      <trkpt lat="51.28747" lon="4.83763"></trkpt>
      <trkpt lat="51.28755" lon="4.83767"></trkpt>
      <trkpt lat="51.28763" lon="4.83772"></trkpt>
      <trkpt lat="51.28770" lon="4.83776"></trkpt>
      <trkpt lat="51.28778" lon="4.83780"></trkpt>
      <trkpt lat="51.28786" lon="4.83784"></trkpt>
      <trkpt lat="51.28795" lon="4.83788"></trkpt>
      <trkpt lat="51.28803" lon="4.83794"></trkpt>
      <trkpt lat="51.28812" lon="4.83800"></trkpt>
      <trkpt lat="51.28820" lon="4.83805"></trkpt>
      <trkpt lat="51.28829" lon="4.83806"></trkpt>
      <trkpt lat="51.28837" lon="4.83801"></trkpt>
      <trkpt lat="51.28843" lon="4.83795"></trkpt>
    </trkseg>
  </trk>
</gpx>