<?xml version="1.0" encoding="UTF-8"?>
<gpx version="1.1" creator="jeffry.running" xmlns="http://www.topografix.com/GPX/1/1">
  <metadata><time>2026-09-27T07:42:41.196Z</time></metadata>
  <trk>
    <trkseg>
      <trkpt lat="50.25823" lon="6.65773"></trkpt>
      <trkpt lat="50.25841" lon="6.65770"></trkpt>
      <trkpt lat="50.25862" lon="6.65770"></trkpt>
      <trkpt lat="50.25882" lon="6.65765"></trkpt>
      <trkpt lat="50.25901" lon="6.65761"></trkpt>
      <trkpt lat="50.25920" lon="6.65755"></trkpt>
      <trkpt lat="50.25939" lon="6.65747"></trkpt>
      <trkpt lat="50.25959" lon="6.65737"></trkpt>
      <trkpt lat="50.25978" lon="6.65724"></trkpt>
      <trkpt lat="50.25997" lon="6.65710"></trkpt>
      <trkpt lat="50.26015" lon="6.65694"></trkpt>
      <trkpt lat="50.26033" lon="6.65676"></trkpt>
      <trkpt lat="50.26053" lon="6.65660"></trkpt>
      <trkpt lat="50.26072" lon="6.65658"></trkpt>
      <trkpt lat="50.26089" lon="6.65672"></trkpt>
      <trkpt lat="50.26096" lon="6.65662"></trkpt>
      <trkpt lat="50.26089" lon="6.65633"></trkpt>
      <trkpt lat="50.26097" lon="6.65603"></trkpt>
      <trkpt lat="50.26111" lon="6.65584"></trkpt>
      <trkpt lat="50.26107" lon="6.65570"></trkpt>
      <trkpt lat="50.26094" lon="6.65568"></trkpt>
      <trkpt lat="50.26083" lon="6.65571"></trkpt>
      <trkpt lat="50.26065" lon="6.65576"></trkpt>
      <trkpt lat="50.26047" lon="6.65581"></trkpt>
      <trkpt lat="50.26029" lon="6.65590"></trkpt>
      <trkpt lat="50.26013" lon="6.65599"></trkpt>
      <trkpt lat="50.25998" lon="6.65605"></trkpt>
      <trkpt lat="50.25982" lon="6.65609"></trkpt>
      <trkpt lat="50.25966" lon="6.65611"></trkpt>
      <trkpt lat="50.25951" lon="6.65611"></trkpt>
      <trkpt lat="50.25936" lon="6.65607"></trkpt>
      <trkpt lat="50.25921" lon="6.65604"></trkpt>
      <trkpt lat="50.25907" lon="6.65609"></trkpt>
      <trkpt lat="50.25892" lon="6.65616"></trkpt>
      <trkpt lat="50.25877" lon="6.65615"></trkpt>
      <trkpt lat="50.25873" lon="6.65596"></trkpt>
      <trkpt lat="50.25884" lon="6.65584"></trkpt>
      <trkpt lat="50.25896" lon="6.65580"></trkpt>
      <trkpt lat="50.25908" lon="6.65568"></trkpt>
      <trkpt lat="50.25921" lon="6.65556"></trkpt>
      <trkpt lat="50.25935" lon="6.65546"></trkpt>
      <trkpt lat="50.25948" lon="6.65535"></trkpt>
      <trkpt lat="50.25959" lon="6.65525"></trkpt>
      <trkpt lat="50.25970" lon="6.65513"></trkpt>
      <trkpt lat="50.25983" lon="6.65502"></trkpt>
      <trkpt lat="50.25995" lon="6.65490"></trkpt>
      <trkpt lat="50.26008" lon="6.65480"></trkpt>
      <trkpt lat="50.26021" lon="6.65474"></trkpt>
      <trkpt lat="50.26035" lon="6.65464"></trkpt>
      <trkpt lat="50.26050" lon="6.65454"></trkpt>
      <trkpt lat="50.26062" lon="6.65442"></trkpt>
      <trkpt lat="50.26075" lon="6.65429"></trkpt>
      <trkpt lat="50.26086" lon="6.65414"></trkpt>
      <trkpt lat="50.26097" lon="6.65401"></trkpt>
      <trkpt lat="50.26108" lon="6.65388"></trkpt>
      <trkpt lat="50.26121" lon="6.65376"></trkpt>
      <trkpt lat="50.26134" lon="6.65361"></trkpt>
      <trkpt lat="50.26146" lon="6.65346"></trkpt>
      <trkpt lat="50.26156" lon="6.65334"></trkpt>
      <trkpt lat="50.26163" lon="6.65316"></trkpt>
      <trkpt lat="50.26169" lon="6.65295"></trkpt>
      <trkpt lat="50.26172" lon="6.65270"></trkpt>
      <trkpt lat="50.26173" lon="6.65246"></trkpt>
      <trkpt lat="50.26173" lon="6.65223"></trkpt>
      <trkpt lat="50.26175" lon="6.65197"></trkpt>
      <trkpt lat="50.26175" lon="6.65174"></trkpt>
      <trkpt lat="50.26175" lon="6.65150"></trkpt>
      <trkpt lat="50.26174" lon="6.65126"></trkpt>
      <trkpt lat="50.26168" lon="6.65105"></trkpt>
      <trkpt lat="50.26156" lon="6.65098"></trkpt>
      <trkpt lat="50.26142" lon="6.65099"></trkpt>
      <trkpt lat="50.26127" lon="6.65099"></trkpt>
      <trkpt lat="50.26112" lon="6.65095"></trkpt>
      <trkpt lat="50.26098" lon="6.65089"></trkpt>
      <trkpt lat="50.26083" lon="6.65083"></trkpt>
      <trkpt lat="50.26070" lon="6.65081"></trkpt>
      <trkpt lat="50.26057" lon="6.65081"></trkpt>
      <trkpt lat="50.26044" lon="6.65081"></trkpt>
      <trkpt lat="50.26030" lon="6.65076"></trkpt>
      <trkpt lat="50.26016" lon="6.65064"></trkpt>
      <trkpt lat="50.26000" lon="6.65041"></trkpt>
      <trkpt lat="50.25985" lon="6.65015"></trkpt>
      <trkpt lat="50.25970" lon="6.64987"></trkpt>
      <trkpt lat="50.25956" lon="6.64960"></trkpt>
      <trkpt lat="50.25944" lon="6.64931"></trkpt>
      <trkpt lat="50.25932" lon="6.64904"></trkpt>
      <trkpt lat="50.25924" lon="6.64875"></trkpt>
      <trkpt lat="50.25920" lon="6.64845"></trkpt>
      <trkpt lat="50.25916" lon="6.64816"></trkpt>
      <trkpt lat="50.25912" lon="6.64784"></trkpt>
      <trkpt lat="50.25906" lon="6.64753"></trkpt>
      <trkpt lat="50.25899" lon="6.64726"></trkpt>
      <trkpt lat="50.25893" lon="6.64696"></trkpt>
      <trkpt lat="50.25886" lon="6.64669"></trkpt>
      <trkpt lat="50.25879" lon="6.64641"></trkpt>
      <trkpt lat="50.25870" lon="6.64617"></trkpt>
      <trkpt lat="50.25859" lon="6.64595"></trkpt>
      <trkpt lat="50.25846" lon="6.64567"></trkpt>
      <trkpt lat="50.25832" lon="6.64543"></trkpt>
      <trkpt lat="50.25821" lon="6.64518"></trkpt>
      <trkpt lat="50.25818" lon="6.64501"></trkpt>
      <trkpt lat="50.25818" lon="6.64490"></trkpt>
      <trkpt lat="50.25822" lon="6.64476"></trkpt>
      <trkpt lat="50.25826" lon="6.64455"></trkpt>
      <trkpt lat="50.25829" lon="6.64432"></trkpt>
      <trkpt lat="50.25832" lon="6.64409"></trkpt>
      <trkpt lat="50.25832" lon="6.64386"></trkpt>
      <trkpt lat="50.25829" lon="6.64363"></trkpt>
      <trkpt lat="50.25828" lon="6.64342"></trkpt>
      <trkpt lat="50.25828" lon="6.64320"></trkpt>
      <trkpt lat="50.25827" lon="6.64299"></trkpt>
      <trkpt lat="50.25824" lon="6.64276"></trkpt>
      <trkpt lat="50.25824" lon="6.64252"></trkpt>
      <trkpt lat="50.25824" lon="6.64229"></trkpt>
      <trkpt lat="50.25824" lon="6.64208"></trkpt>
      <trkpt lat="50.25824" lon="6.64185"></trkpt>
      <trkpt lat="50.25825" lon="6.64163"></trkpt>
      <trkpt lat="50.25825" lon="6.64141"></trkpt>
      <trkpt lat="50.25826" lon="6.64118"></trkpt>
      <trkpt lat="50.25827" lon="6.64098"></trkpt>
      <trkpt lat="50.25826" lon="6.64076"></trkpt>
      <trkpt lat="50.25828" lon="6.64052"></trkpt>
      <trkpt lat="50.25832" lon="6.64032"></trkpt>
      <trkpt lat="50.25838" lon="6.64013"></trkpt>
      <trkpt lat="50.25845" lon="6.63993"></trkpt>
      <trkpt lat="50.25852" lon="6.63979"></trkpt>
      <trkpt lat="50.25862" lon="6.63966"></trkpt>
      <trkpt lat="50.25869" lon="6.63956"></trkpt>
      <trkpt lat="50.25879" lon="6.63945"></trkpt>
      <trkpt lat="50.25887" lon="6.63936"></trkpt>
      <trkpt lat="50.25895" lon="6.63924"></trkpt>
      <trkpt lat="50.25904" lon="6.63908"></trkpt>
      <trkpt lat="50.25914" lon="6.63893"></trkpt>
      <trkpt lat="50.25922" lon="6.63884"></trkpt>
      <trkpt lat="50.25932" lon="6.63872"></trkpt>
      <trkpt lat="50.25939" lon="6.63862"></trkpt>
      <trkpt lat="50.25943" lon="6.63850"></trkpt>
      <trkpt lat="50.25946" lon="6.63828"></trkpt>
      <trkpt lat="50.25958" lon="6.63820"></trkpt>
      <trkpt lat="50.25969" lon="6.63829"></trkpt>
      <trkpt lat="50.25969" lon="6.63833"></trkpt>
      <trkpt lat="50.25972" lon="6.63829"></trkpt>
      <trkpt lat="50.25972" lon="6.63821"></trkpt>
      <trkpt lat="50.25968" lon="6.63815"></trkpt>
      <trkpt lat="50.25964" lon="6.63811"></trkpt>
      <trkpt lat="50.25962" lon="6.63799"></trkpt>
      <trkpt lat="50.25965" lon="6.63780"></trkpt>
      <trkpt lat="50.25964" lon="6.63778"></trkpt>
      <trkpt lat="50.25955" lon="6.63797"></trkpt>
      <trkpt lat="50.25936" lon="6.63803"></trkpt>
      <trkpt lat="50.25923" lon="6.63800"></trkpt>
      <trkpt lat="50.25915" lon="6.63795"></trkpt>
      <trkpt lat="50.25909" lon="6.63785"></trkpt>
      <trkpt lat="50.25898" lon="6.63777"></trkpt>
      <trkpt lat="50.25881" lon="6.63776"></trkpt>
      <trkpt lat="50.25867" lon="6.63792"></trkpt>
      <trkpt lat="50.25850" lon="6.63808"></trkpt>
      <trkpt lat="50.25831" lon="6.63824"></trkpt>
      <trkpt lat="50.25821" lon="6.63843"></trkpt>
      <trkpt lat="50.25808" lon="6.63859"></trkpt>
      <trkpt lat="50.25793" lon="6.63875"></trkpt>
      <trkpt lat="50.25781" lon="6.63903"></trkpt>
      <trkpt lat="50.25775" lon="6.63921"></trkpt>
      <trkpt lat="50.25771" lon="6.63932"></trkpt>
      <trkpt lat="50.25768" lon="6.63938"></trkpt>
      <trkpt lat="50.25767" lon="6.63939"></trkpt>
      <trkpt lat="50.25767" lon="6.63939"></trkpt>
      <trkpt lat="50.25767" lon="6.63939"></trkpt>
      <trkpt lat="50.25767" lon="6.63939"></trkpt>
      <trkpt lat="50.25767" lon="6.63939"></trkpt>
      <trkpt lat="50.25766" lon="6.63940"></trkpt>
      <trkpt lat="50.25766" lon="6.63940"></trkpt>
      <trkpt lat="50.25760" lon="6.63954"></trkpt>
      <trkpt lat="50.25754" lon="6.63973"></trkpt>
      <trkpt lat="50.25750" lon="6.63981"></trkpt>
      <trkpt lat="50.25747" lon="6.63989"></trkpt>
      <trkpt lat="50.25734" lon="6.64016"></trkpt>
      <trkpt lat="50.25723" lon="6.64042"></trkpt>
      <trkpt lat="50.25712" lon="6.64066"></trkpt>
      <trkpt lat="50.25699" lon="6.64093"></trkpt>
      <trkpt lat="50.25685" lon="6.64120"></trkpt>
      <trkpt lat="50.25670" lon="6.64144"></trkpt>
      <trkpt lat="50.25651" lon="6.64145"></trkpt>
      <trkpt lat="50.25631" lon="6.64138"></trkpt>
      <trkpt lat="50.25611" lon="6.64132"></trkpt>
      <trkpt lat="50.25593" lon="6.64126"></trkpt>
      <trkpt lat="50.25575" lon="6.64119"></trkpt>
      <trkpt lat="50.25561" lon="6.64112"></trkpt>
      <trkpt lat="50.25559" lon="6.64111"></trkpt>
      <trkpt lat="50.25550" lon="6.64107"></trkpt>
      <trkpt lat="50.25532" lon="6.64087"></trkpt>
      <trkpt lat="50.25514" lon="6.64068"></trkpt>
      <trkpt lat="50.25497" lon="6.64047"></trkpt>
      <trkpt lat="50.25483" lon="6.64029"></trkpt>
      <trkpt lat="50.25482" lon="6.64017"></trkpt>
      <trkpt lat="50.25490" lon="6.63999"></trkpt>
      <trkpt lat="50.25498" lon="6.63982"></trkpt>
      <trkpt lat="50.25506" lon="6.63966"></trkpt>
      <trkpt lat="50.25513" lon="6.63950"></trkpt>
      <trkpt lat="50.25521" lon="6.63935"></trkpt>
      <trkpt lat="50.25528" lon="6.63919"></trkpt>
      <trkpt lat="50.25536" lon="6.63904"></trkpt>
      <trkpt lat="50.25543" lon="6.63889"></trkpt>
      <trkpt lat="50.25552" lon="6.63872"></trkpt>
      <trkpt lat="50.25564" lon="6.63847"></trkpt>
      <trkpt lat="50.25577" lon="6.63821"></trkpt>
      <trkpt lat="50.25590" lon="6.63795"></trkpt>
      <trkpt lat="50.25603" lon="6.63767"></trkpt>
      <trkpt lat="50.25613" lon="6.63739"></trkpt>
      <trkpt lat="50.25605" lon="6.63712"></trkpt>
      <trkpt lat="50.25594" lon="6.63685"></trkpt>
      <trkpt lat="50.25583" lon="6.63658"></trkpt>
      <trkpt lat="50.25571" lon="6.63631"></trkpt>
      <trkpt lat="50.25560" lon="6.63604"></trkpt>
      <trkpt lat="50.25549" lon="6.63576"></trkpt>
      <trkpt lat="50.25537" lon="6.63549"></trkpt>
      <trkpt lat="50.25527" lon="6.63521"></trkpt>
      <trkpt lat="50.25517" lon="6.63492"></trkpt>
      <trkpt lat="50.25511" lon="6.63461"></trkpt>
      <trkpt lat="50.25503" lon="6.63432"></trkpt>
      <trkpt lat="50.25493" lon="6.63404"></trkpt>
      <trkpt lat="50.25484" lon="6.63375"></trkpt>
      <trkpt lat="50.25476" lon="6.63346"></trkpt>
      <trkpt lat="50.25468" lon="6.63316"></trkpt>
      <trkpt lat="50.25457" lon="6.63289"></trkpt>
      <trkpt lat="50.25441" lon="6.63267"></trkpt>
      <trkpt lat="50.25425" lon="6.63244"></trkpt>
      <trkpt lat="50.25413" lon="6.63219"></trkpt>
      <trkpt lat="50.25397" lon="6.63197"></trkpt>
      <trkpt lat="50.25382" lon="6.63172"></trkpt>
      <trkpt lat="50.25371" lon="6.63144"></trkpt>
      <trkpt lat="50.25360" lon="6.63114"></trkpt>
      <trkpt lat="50.25351" lon="6.63084"></trkpt>
      <trkpt lat="50.25343" lon="6.63053"></trkpt>
      <trkpt lat="50.25336" lon="6.63021"></trkpt>
      <trkpt lat="50.25328" lon="6.62989"></trkpt>
      <trkpt lat="50.25321" lon="6.62959"></trkpt>
      <trkpt lat="50.25314" lon="6.62929"></trkpt>
      <trkpt lat="50.25307" lon="6.62899"></trkpt>
      <trkpt lat="50.25299" lon="6.62868"></trkpt>
      <trkpt lat="50.25286" lon="6.62843"></trkpt>
      <trkpt lat="50.25269" lon="6.62822"></trkpt>
      <trkpt lat="50.25251" lon="6.62801"></trkpt>
      <trkpt lat="50.25233" lon="6.62778"></trkpt>
      <trkpt lat="50.25216" lon="6.62755"></trkpt>
      <trkpt lat="50.25205" lon="6.62736"></trkpt>
      <trkpt lat="50.25210" lon="6.62709"></trkpt>
      <trkpt lat="50.25224" lon="6.62682"></trkpt>
      <trkpt lat="50.25238" lon="6.62655"></trkpt>
      <trkpt lat="50.25250" lon="6.62626"></trkpt>
      <trkpt lat="50.25255" lon="6.62600"></trkpt>
      <trkpt lat="50.25238" lon="6.62589"></trkpt>
      <trkpt lat="50.25217" lon="6.62584"></trkpt>
      <trkpt lat="50.25200" lon="6.62580"></trkpt>
      <trkpt lat="50.25185" lon="6.62576"></trkpt>
      <trkpt lat="50.25170" lon="6.62572"></trkpt>
      <trkpt lat="50.25156" lon="6.62568"></trkpt>
      <trkpt lat="50.25142" lon="6.62565"></trkpt>
      <trkpt lat="50.25128" lon="6.62562"></trkpt>
      <trkpt lat="50.25114" lon="6.62558"></trkpt>
      <trkpt lat="50.25100" lon="6.62554"></trkpt>
      <trkpt lat="50.25088" lon="6.62543"></trkpt>
      <trkpt lat="50.25078" lon="6.62527"></trkpt>
      <trkpt lat="50.25070" lon="6.62511"></trkpt>
      <trkpt lat="50.25060" lon="6.62495"></trkpt>
      <trkpt lat="50.25050" lon="6.62477"></trkpt>
      <trkpt lat="50.25040" lon="6.62458"></trkpt>
      <trkpt lat="50.25030" lon="6.62440"></trkpt>
      <trkpt lat="50.25020" lon="6.62423"></trkpt>
      <trkpt lat="50.25010" lon="6.62406"></trkpt>
      <trkpt lat="50.25000" lon="6.62389"></trkpt>
      <trkpt lat="50.24991" lon="6.62374"></trkpt>
      <trkpt lat="50.24984" lon="6.62355"></trkpt>
      <trkpt lat="50.24979" lon="6.62334"></trkpt>
      <trkpt lat="50.24970" lon="6.62317"></trkpt>
      <trkpt lat="50.24957" lon="6.62318"></trkpt>
      <trkpt lat="50.24943" lon="6.62325"></trkpt>
      <trkpt lat="50.24929" lon="6.62331"></trkpt>
      <trkpt lat="50.24916" lon="6.62338"></trkpt>
      <trkpt lat="50.24903" lon="6.62346"></trkpt>
      <trkpt lat="50.24891" lon="6.62353"></trkpt>
      <trkpt lat="50.24881" lon="6.62360"></trkpt>
      <trkpt lat="50.24877" lon="6.62364"></trkpt>
      <trkpt lat="50.24864" lon="6.62371"></trkpt>
      <trkpt lat="50.24852" lon="6.62377"></trkpt>
      <trkpt lat="50.24833" lon="6.62391"></trkpt>
      <trkpt lat="50.24814" lon="6.62407"></trkpt>
      <trkpt lat="50.24797" lon="6.62417"></trkpt>
      <trkpt lat="50.24792" lon="6.62414"></trkpt>
      <trkpt lat="50.24792" lon="6.62413"></trkpt>
      <trkpt lat="50.24792" lon="6.62413"></trkpt>
      <trkpt lat="50.24792" lon="6.62414"></trkpt>
      <trkpt lat="50.24792" lon="6.62414"></trkpt>
      <trkpt lat="50.24791" lon="6.62414"></trkpt>
      <trkpt lat="50.24791" lon="6.62414"></trkpt>
      <trkpt lat="50.24791" lon="6.62414"></trkpt>
      <trkpt lat="50.24791" lon="6.62414"></trkpt>
      <trkpt lat="50.24791" lon="6.62415"></trkpt>
      <trkpt lat="50.24787" lon="6.62413"></trkpt>
      <trkpt lat="50.24782" lon="6.62395"></trkpt>
      <trkpt lat="50.24784" lon="6.62372"></trkpt>
      <trkpt lat="50.24789" lon="6.62351"></trkpt>
      <trkpt lat="50.24792" lon="6.62328"></trkpt>
      <trkpt lat="50.24796" lon="6.62306"></trkpt>
      <trkpt lat="50.24799" lon="6.62289"></trkpt>
      <trkpt lat="50.24799" lon="6.62284"></trkpt>
      <trkpt lat="50.24800" lon="6.62275"></trkpt>
      <trkpt lat="50.24803" lon="6.62252"></trkpt>
      <trkpt lat="50.24806" lon="6.62231"></trkpt>
      <trkpt lat="50.24804" lon="6.62212"></trkpt>
      <trkpt lat="50.24796" lon="6.62200"></trkpt>
      <trkpt lat="50.24783" lon="6.62201"></trkpt>
      <trkpt lat="50.24769" lon="6.62200"></trkpt>
      <trkpt lat="50.24757" lon="6.62186"></trkpt>
      <trkpt lat="50.24751" lon="6.62168"></trkpt>
      <trkpt lat="50.24754" lon="6.62150"></trkpt>
      <trkpt lat="50.24761" lon="6.62138"></trkpt>
      <trkpt lat="50.24769" lon="6.62131"></trkpt>
      <trkpt lat="50.24781" lon="6.62124"></trkpt>
      <trkpt lat="50.24793" lon="6.62117"></trkpt>
      <trkpt lat="50.24806" lon="6.62113"></trkpt>
      <trkpt lat="50.24812" lon="6.62107"></trkpt>
      <trkpt lat="50.24804" lon="6.62110"></trkpt>
      <trkpt lat="50.24791" lon="6.62119"></trkpt>
      <trkpt lat="50.24769" lon="6.62120"></trkpt>
      <trkpt lat="50.24754" lon="6.62104"></trkpt>
      <trkpt lat="50.24753" lon="6.62099"></trkpt>
      <trkpt lat="50.24752" lon="6.62099"></trkpt>
      <trkpt lat="50.24756" lon="6.62093"></trkpt>
      <trkpt lat="50.24762" lon="6.62074"></trkpt>
      <trkpt lat="50.24761" lon="6.62061"></trkpt>
      <trkpt lat="50.24760" lon="6.62057"></trkpt>
      <trkpt lat="50.24759" lon="6.62055"></trkpt>
      <trkpt lat="50.24758" lon="6.62046"></trkpt>
      <trkpt lat="50.24758" lon="6.62042"></trkpt>
      <trkpt lat="50.24758" lon="6.62044"></trkpt>
      <trkpt lat="50.24758" lon="6.62047"></trkpt>
      <trkpt lat="50.24761" lon="6.62054"></trkpt>
      <trkpt lat="50.24768" lon="6.62045"></trkpt>
      <trkpt lat="50.24772" lon="6.62030"></trkpt>
      <trkpt lat="50.24777" lon="6.62023"></trkpt>
      <trkpt lat="50.24778" lon="6.62020"></trkpt>
      <trkpt lat="50.24777" lon="6.62022"></trkpt>
      <trkpt lat="50.24773" lon="6.62030"></trkpt>
      <trkpt lat="50.24772" lon="6.62030"></trkpt>
      <trkpt lat="50.24772" lon="6.62029"></trkpt>
      <trkpt lat="50.24773" lon="6.62028"></trkpt>
      <trkpt lat="50.24773" lon="6.62027"></trkpt>
      <trkpt lat="50.24773" lon="6.62026"></trkpt>
      <trkpt lat="50.24774" lon="6.62025"></trkpt>
      <trkpt lat="50.24774" lon="6.62024"></trkpt>
      <trkpt lat="50.24775" lon="6.62021"></trkpt>
      <trkpt lat="50.24782" lon="6.62011"></trkpt>
      <trkpt lat="50.24789" lon="6.61994"></trkpt>
      <trkpt lat="50.24798" lon="6.61969"></trkpt>
      <trkpt lat="50.24798" lon="6.61946"></trkpt>
      <trkpt lat="50.24779" lon="6.61940"></trkpt>
      <trkpt lat="50.24764" lon="6.61929"></trkpt>
      <trkpt lat="50.24744" lon="6.61923"></trkpt>
      <trkpt lat="50.24724" lon="6.61919"></trkpt>
      <trkpt lat="50.24707" lon="6.61914"></trkpt>
      <trkpt lat="50.24691" lon="6.61924"></trkpt>
      <trkpt lat="50.24678" lon="6.61949"></trkpt>
      <trkpt lat="50.24667" lon="6.61977"></trkpt>
      <trkpt lat="50.24655" lon="6.62001"></trkpt>
      <trkpt lat="50.24635" lon="6.62013"></trkpt>
      <trkpt lat="50.24617" lon="6.62003"></trkpt>
      <trkpt lat="50.24600" lon="6.62018"></trkpt>
      <trkpt lat="50.24587" lon="6.62049"></trkpt>
      <trkpt lat="50.24574" lon="6.62069"></trkpt>
      <trkpt lat="50.24561" lon="6.62089"></trkpt>
      <trkpt lat="50.24546" lon="6.62110"></trkpt>
      <trkpt lat="50.24535" lon="6.62121"></trkpt>
      <trkpt lat="50.24531" lon="6.62129"></trkpt>
      <trkpt lat="50.24533" lon="6.62134"></trkpt>
      <trkpt lat="50.24533" lon="6.62134"></trkpt>
      <trkpt lat="50.24533" lon="6.62133"></trkpt>
      <trkpt lat="50.24533" lon="6.62133"></trkpt>
      <trkpt lat="50.24533" lon="6.62132"></trkpt>
      <trkpt lat="50.24532" lon="6.62131"></trkpt>
      <trkpt lat="50.24532" lon="6.62125"></trkpt>
      <trkpt lat="50.24532" lon="6.62122"></trkpt>
      <trkpt lat="50.24531" lon="6.62121"></trkpt>
      <trkpt lat="50.24531" lon="6.62121"></trkpt>
      <trkpt lat="50.24530" lon="6.62121"></trkpt>
      <trkpt lat="50.24530" lon="6.62120"></trkpt>
      <trkpt lat="50.24526" lon="6.62122"></trkpt>
      <trkpt lat="50.24513" lon="6.62129"></trkpt>
      <trkpt lat="50.24510" lon="6.62129"></trkpt>
      <trkpt lat="50.24509" lon="6.62130"></trkpt>
      <trkpt lat="50.24507" lon="6.62131"></trkpt>
      <trkpt lat="50.24498" lon="6.62139"></trkpt>
      <trkpt lat="50.24490" lon="6.62148"></trkpt>
      <trkpt lat="50.24483" lon="6.62164"></trkpt>
      <trkpt lat="50.24476" lon="6.62187"></trkpt>
      <trkpt lat="50.24467" lon="6.62217"></trkpt>
      <trkpt lat="50.24457" lon="6.62249"></trkpt>
      <trkpt lat="50.24448" lon="6.62279"></trkpt>
      <trkpt lat="50.24442" lon="6.62312"></trkpt>
      <trkpt lat="50.24440" lon="6.62346"></trkpt>
      <trkpt lat="50.24441" lon="6.62377"></trkpt>
      <trkpt lat="50.24443" lon="6.62410"></trkpt>
      <trkpt lat="50.24443" lon="6.62436"></trkpt>
      <trkpt lat="50.24442" lon="6.62460"></trkpt>
      <trkpt lat="50.24442" lon="6.62488"></trkpt>
      <trkpt lat="50.24441" lon="6.62519"></trkpt>
      <trkpt lat="50.24441" lon="6.62547"></trkpt>
      <trkpt lat="50.24447" lon="6.62568"></trkpt>
      <trkpt lat="50.24445" lon="6.62597"></trkpt>
      <trkpt lat="50.24440" lon="6.62632"></trkpt>
      <trkpt lat="50.24435" lon="6.62668"></trkpt>
      <trkpt lat="50.24431" lon="6.62695"></trkpt>
      <trkpt lat="50.24417" lon="6.62712"></trkpt>
      <trkpt lat="50.24394" lon="6.62722"></trkpt>
      <trkpt lat="50.24371" lon="6.62730"></trkpt>
      <trkpt lat="50.24348" lon="6.62737"></trkpt>
      <trkpt lat="50.24324" lon="6.62742"></trkpt>
      <trkpt lat="50.24299" lon="6.62744"></trkpt>
      <trkpt lat="50.24275" lon="6.62744"></trkpt>
      <trkpt lat="50.24252" lon="6.62743"></trkpt>
      <trkpt lat="50.24231" lon="6.62746"></trkpt>
      <trkpt lat="50.24229" lon="6.62777"></trkpt>
      <trkpt lat="50.24233" lon="6.62814"></trkpt>
      <trkpt lat="50.24238" lon="6.62848"></trkpt>
      <trkpt lat="50.24240" lon="6.62880"></trkpt>
      <trkpt lat="50.24243" lon="6.62909"></trkpt>
      <trkpt lat="50.24238" lon="6.62931"></trkpt>
      <trkpt lat="50.24221" lon="6.62931"></trkpt>
      <trkpt lat="50.24218" lon="6.62930"></trkpt>
      <trkpt lat="50.24217" lon="6.62929"></trkpt>
      <trkpt lat="50.24217" lon="6.62929"></trkpt>
      <trkpt lat="50.24213" lon="6.62928"></trkpt>
      <trkpt lat="50.24196" lon="6.62923"></trkpt>
      <trkpt lat="50.24172" lon="6.62917"></trkpt>
      <trkpt lat="50.24149" lon="6.62911"></trkpt>
      <trkpt lat="50.24124" lon="6.62907"></trkpt>
      <trkpt lat="50.24100" lon="6.62906"></trkpt>
      <trkpt lat="50.24076" lon="6.62907"></trkpt>
      <trkpt lat="50.24056" lon="6.62910"></trkpt>
      <trkpt lat="50.24043" lon="6.62913"></trkpt>
      <trkpt lat="50.24029" lon="6.62916"></trkpt>
      <trkpt lat="50.24015" lon="6.62916"></trkpt>
      <trkpt lat="50.23995" lon="6.62914"></trkpt>
      <trkpt lat="50.23971" lon="6.62910"></trkpt>
      <trkpt lat="50.23949" lon="6.62915"></trkpt>
      <trkpt lat="50.23930" lon="6.62940"></trkpt>
      <trkpt lat="50.23912" lon="6.62962"></trkpt>
      <trkpt lat="50.23894" lon="6.62985"></trkpt>
      <trkpt lat="50.23876" lon="6.63007"></trkpt>
      <trkpt lat="50.23857" lon="6.63026"></trkpt>
      <trkpt lat="50.23840" lon="6.63043"></trkpt>
      <trkpt lat="50.23822" lon="6.63062"></trkpt>
      <trkpt lat="50.23807" lon="6.63084"></trkpt>
      <trkpt lat="50.23811" lon="6.63114"></trkpt>
      <trkpt lat="50.23827" lon="6.63141"></trkpt>
      <trkpt lat="50.23843" lon="6.63167"></trkpt>
      <trkpt lat="50.23851" lon="6.63198"></trkpt>
      <trkpt lat="50.23849" lon="6.63233"></trkpt>
      <trkpt lat="50.23845" lon="6.63266"></trkpt>
      <trkpt lat="50.23833" lon="6.63295"></trkpt>
      <trkpt lat="50.23820" lon="6.63324"></trkpt>
      <trkpt lat="50.23806" lon="6.63355"></trkpt>
      <trkpt lat="50.23793" lon="6.63386"></trkpt>
      <trkpt lat="50.23779" lon="6.63414"></trkpt>
      <trkpt lat="50.23766" lon="6.63442"></trkpt>
      <trkpt lat="50.23751" lon="6.63461"></trkpt>
      <trkpt lat="50.23737" lon="6.63449"></trkpt>
      <trkpt lat="50.23722" lon="6.63420"></trkpt>
      <trkpt lat="50.23707" lon="6.63392"></trkpt>
      <trkpt lat="50.23691" lon="6.63367"></trkpt>
      <trkpt lat="50.23676" lon="6.63341"></trkpt>
      <trkpt lat="50.23661" lon="6.63315"></trkpt>
      <trkpt lat="50.23646" lon="6.63287"></trkpt>
      <trkpt lat="50.23631" lon="6.63259"></trkpt>
      <trkpt lat="50.23617" lon="6.63232"></trkpt>
      <trkpt lat="50.23601" lon="6.63222"></trkpt>
      <trkpt lat="50.23588" lon="6.63246"></trkpt>
      <trkpt lat="50.23575" lon="6.63275"></trkpt>
      <trkpt lat="50.23563" lon="6.63304"></trkpt>
      <trkpt lat="50.23551" lon="6.63332"></trkpt>
      <trkpt lat="50.23538" lon="6.63361"></trkpt>
      <trkpt lat="50.23525" lon="6.63390"></trkpt>
      <trkpt lat="50.23507" lon="6.63406"></trkpt>
      <trkpt lat="50.23486" lon="6.63407"></trkpt>
      <trkpt lat="50.23466" lon="6.63404"></trkpt>
      <trkpt lat="50.23447" lon="6.63401"></trkpt>
      <trkpt lat="50.23431" lon="6.63408"></trkpt>
      <trkpt lat="50.23415" lon="6.63412"></trkpt>
      <trkpt lat="50.23404" lon="6.63417"></trkpt>
      <trkpt lat="50.23391" lon="6.63421"></trkpt>
      <trkpt lat="50.23373" lon="6.63428"></trkpt>
      <trkpt lat="50.23357" lon="6.63442"></trkpt>
      <trkpt lat="50.23339" lon="6.63452"></trkpt>
      <trkpt lat="50.23317" lon="6.63451"></trkpt>
      <trkpt lat="50.23295" lon="6.63454"></trkpt>
      <trkpt lat="50.23275" lon="6.63459"></trkpt>
      <trkpt lat="50.23255" lon="6.63468"></trkpt>
      <trkpt lat="50.23235" lon="6.63471"></trkpt>
      <trkpt lat="50.23214" lon="6.63473"></trkpt>
      <trkpt lat="50.23208" lon="6.63486"></trkpt>
      <trkpt lat="50.23229" lon="6.63490"></trkpt>
      <trkpt lat="50.23252" lon="6.63496"></trkpt>
      <trkpt lat="50.23274" lon="6.63513"></trkpt>
      <trkpt lat="50.23289" lon="6.63541"></trkpt>
      <trkpt lat="50.23299" lon="6.63572"></trkpt>
      <trkpt lat="50.23304" lon="6.63607"></trkpt>
      <trkpt lat="50.23299" lon="6.63626"></trkpt>
      <trkpt lat="50.23284" lon="6.63639"></trkpt>
      <trkpt lat="50.23275" lon="6.63648"></trkpt>
      <trkpt lat="50.23263" lon="6.63662"></trkpt>
      <trkpt lat="50.23251" lon="6.63679"></trkpt>
      <trkpt lat="50.23248" lon="6.63684"></trkpt>
      <trkpt lat="50.23244" lon="6.63687"></trkpt>
      <trkpt lat="50.23227" lon="6.63700"></trkpt>
      <trkpt lat="50.23214" lon="6.63717"></trkpt>
      <trkpt lat="50.23198" lon="6.63735"></trkpt>
      <trkpt lat="50.23182" lon="6.63754"></trkpt>
      <trkpt lat="50.23168" lon="6.63778"></trkpt>
      <trkpt lat="50.23160" lon="6.63806"></trkpt>
      <trkpt lat="50.23165" lon="6.63838"></trkpt>
      <trkpt lat="50.23171" lon="6.63870"></trkpt>
      <trkpt lat="50.23178" lon="6.63905"></trkpt>
      <trkpt lat="50.23184" lon="6.63941"></trkpt>
      <trkpt lat="50.23190" lon="6.63976"></trkpt>
      <trkpt lat="50.23191" lon="6.64009"></trkpt>
      <trkpt lat="50.23179" lon="6.64039"></trkpt>
      <trkpt lat="50.23166" lon="6.64067"></trkpt>
      <trkpt lat="50.23154" lon="6.64091"></trkpt>
      <trkpt lat="50.23143" lon="6.64117"></trkpt>
      <trkpt lat="50.23140" lon="6.64146"></trkpt>
      <trkpt lat="50.23132" lon="6.64169"></trkpt>
      <trkpt lat="50.23130" lon="6.64189"></trkpt>
      <trkpt lat="50.23122" lon="6.64202"></trkpt>
      <trkpt lat="50.23112" lon="6.64220"></trkpt>
      <trkpt lat="50.23105" lon="6.64241"></trkpt>
      <trkpt lat="50.23103" lon="6.64258"></trkpt>
      <trkpt lat="50.23103" lon="6.64259"></trkpt>
      <trkpt lat="50.23103" lon="6.64260"></trkpt>
      <trkpt lat="50.23103" lon="6.64260"></trkpt>
      <trkpt lat="50.23103" lon="6.64260"></trkpt>
      <trkpt lat="50.23103" lon="6.64260"></trkpt>
      <trkpt lat="50.23103" lon="6.64261"></trkpt>
      <trkpt lat="50.23103" lon="6.64261"></trkpt>
      <trkpt lat="50.23103" lon="6.64261"></trkpt>
      <trkpt lat="50.23103" lon="6.64261"></trkpt>
      <trkpt lat="50.23103" lon="6.64262"></trkpt>
      <trkpt lat="50.23104" lon="6.64272"></trkpt>
      <trkpt lat="50.23111" lon="6.64301"></trkpt>
      <trkpt lat="50.23120" lon="6.64325"></trkpt>
      <trkpt lat="50.23118" lon="6.64344"></trkpt>
      <trkpt lat="50.23109" lon="6.64347"></trkpt>
      <trkpt lat="50.23101" lon="6.64338"></trkpt>
      <trkpt lat="50.23092" lon="6.64338"></trkpt>
      <trkpt lat="50.23081" lon="6.64345"></trkpt>
      <trkpt lat="50.23071" lon="6.64358"></trkpt>
      <trkpt lat="50.23062" lon="6.64375"></trkpt>
      <trkpt lat="50.23065" lon="6.64394"></trkpt>
      <trkpt lat="50.23068" lon="6.64416"></trkpt>
      <trkpt lat="50.23070" lon="6.64439"></trkpt>
      <trkpt lat="50.23070" lon="6.64463"></trkpt>
      <trkpt lat="50.23070" lon="6.64487"></trkpt>
      <trkpt lat="50.23070" lon="6.64512"></trkpt>
      <trkpt lat="50.23068" lon="6.64530"></trkpt>
      <trkpt lat="50.23057" lon="6.64536"></trkpt>
      <trkpt lat="50.23042" lon="6.64536"></trkpt>
      <trkpt lat="50.23030" lon="6.64536"></trkpt>
      <trkpt lat="50.23028" lon="6.64535"></trkpt>
      <trkpt lat="50.23022" lon="6.64534"></trkpt>
      <trkpt lat="50.23007" lon="6.64531"></trkpt>
      <trkpt lat="50.22991" lon="6.64527"></trkpt>
      <trkpt lat="50.22976" lon="6.64522"></trkpt>
      <trkpt lat="50.22960" lon="6.64517"></trkpt>
      <trkpt lat="50.22945" lon="6.64512"></trkpt>
      <trkpt lat="50.22930" lon="6.64510"></trkpt>
      <trkpt lat="50.22915" lon="6.64510"></trkpt>
      <trkpt lat="50.22899" lon="6.64506"></trkpt>
      <trkpt lat="50.22884" lon="6.64493"></trkpt>
      <trkpt lat="50.22871" lon="6.64476"></trkpt>
      <trkpt lat="50.22862" lon="6.64461"></trkpt>
      <trkpt lat="50.22860" lon="6.64459"></trkpt>
      <trkpt lat="50.22858" lon="6.64461"></trkpt>
      <trkpt lat="50.22854" lon="6.64467"></trkpt>
      <trkpt lat="50.22854" lon="6.64468"></trkpt>
      <trkpt lat="50.22854" lon="6.64469"></trkpt>
      <trkpt lat="50.22851" lon="6.64478"></trkpt>
      <trkpt lat="50.22840" lon="6.64502"></trkpt>
      <trkpt lat="50.22829" lon="6.64526"></trkpt>
      <trkpt lat="50.22823" lon="6.64541"></trkpt>
      <trkpt lat="50.22809" lon="6.64571"></trkpt>
      <trkpt lat="50.22795" lon="6.64602"></trkpt>
      <trkpt lat="50.22780" lon="6.64633"></trkpt>
      <trkpt lat="50.22768" lon="6.64662"></trkpt>
      <trkpt lat="50.22756" lon="6.64691"></trkpt>
      <trkpt lat="50.22737" lon="6.64706"></trkpt>
      <trkpt lat="50.22722" lon="6.64726"></trkpt>
      <trkpt lat="50.22709" lon="6.64748"></trkpt>
      <trkpt lat="50.22708" lon="6.64777"></trkpt>
      <trkpt lat="50.22706" lon="6.64803"></trkpt>
      <trkpt lat="50.22699" lon="6.64815"></trkpt>
      <trkpt lat="50.22692" lon="6.64826"></trkpt>
      <trkpt lat="50.22689" lon="6.64837"></trkpt>
      <trkpt lat="50.22680" lon="6.64851"></trkpt>
      <trkpt lat="50.22676" lon="6.64849"></trkpt>
      <trkpt lat="50.22677" lon="6.64837"></trkpt>
      <trkpt lat="50.22677" lon="6.64824"></trkpt>
      <trkpt lat="50.22675" lon="6.64808"></trkpt>
      <trkpt lat="50.22666" lon="6.64800"></trkpt>
      <trkpt lat="50.22655" lon="6.64801"></trkpt>
      <trkpt lat="50.22645" lon="6.64811"></trkpt>
      <trkpt lat="50.22637" lon="6.64825"></trkpt>
      <trkpt lat="50.22632" lon="6.64839"></trkpt>
      <trkpt lat="50.22628" lon="6.64853"></trkpt>
      <trkpt lat="50.22627" lon="6.64871"></trkpt>
      <trkpt lat="50.22630" lon="6.64885"></trkpt>
      <trkpt lat="50.22634" lon="6.64896"></trkpt>
      <trkpt lat="50.22635" lon="6.64898"></trkpt>
      <trkpt lat="50.22634" lon="6.64899"></trkpt>
      <trkpt lat="50.22634" lon="6.64899"></trkpt>
      <trkpt lat="50.22634" lon="6.64900"></trkpt>
      <trkpt lat="50.22634" lon="6.64901"></trkpt>
      <trkpt lat="50.22636" lon="6.64907"></trkpt>
      <trkpt lat="50.22637" lon="6.64910"></trkpt>
      <trkpt lat="50.22635" lon="6.64909"></trkpt>
      <trkpt lat="50.22635" lon="6.64904"></trkpt>
      <trkpt lat="50.22634" lon="6.64901"></trkpt>
      <trkpt lat="50.22623" lon="6.64893"></trkpt>
      <trkpt lat="50.22621" lon="6.64901"></trkpt>
      <trkpt lat="50.22631" lon="6.64916"></trkpt>
      <trkpt lat="50.22644" lon="6.64922"></trkpt>
      <trkpt lat="50.22660" lon="6.64924"></trkpt>
      <trkpt lat="50.22676" lon="6.64923"></trkpt>
      <trkpt lat="50.22690" lon="6.64923"></trkpt>
      <trkpt lat="50.22706" lon="6.64926"></trkpt>
      <trkpt lat="50.22723" lon="6.64925"></trkpt>
      <trkpt lat="50.22739" lon="6.64917"></trkpt>
      <trkpt lat="50.22753" lon="6.64917"></trkpt>
      <trkpt lat="50.22760" lon="6.64941"></trkpt>
      <trkpt lat="50.22765" lon="6.64964"></trkpt>
      <trkpt lat="50.22777" lon="6.64976"></trkpt>
      <trkpt lat="50.22788" lon="6.64979"></trkpt>
      <trkpt lat="50.22808" lon="6.64980"></trkpt>
      <trkpt lat="50.22828" lon="6.64982"></trkpt>
      <trkpt lat="50.22845" lon="6.64982"></trkpt>
      <trkpt lat="50.22857" lon="6.65006"></trkpt>
      <trkpt lat="50.22861" lon="6.65037"></trkpt>
      <trkpt lat="50.22856" lon="6.65068"></trkpt>
      <trkpt lat="50.22845" lon="6.65096"></trkpt>
      <trkpt lat="50.22834" lon="6.65116"></trkpt>
      <trkpt lat="50.22832" lon="6.65121"></trkpt>
      <trkpt lat="50.22832" lon="6.65123"></trkpt>
      <trkpt lat="50.22832" lon="6.65123"></trkpt>
      <trkpt lat="50.22832" lon="6.65124"></trkpt>
      <trkpt lat="50.22832" lon="6.65125"></trkpt>
      <trkpt lat="50.22832" lon="6.65130"></trkpt>
      <trkpt lat="50.22831" lon="6.65138"></trkpt>
      <trkpt lat="50.22832" lon="6.65140"></trkpt>
      <trkpt lat="50.22830" lon="6.65152"></trkpt>
      <trkpt lat="50.22833" lon="6.65168"></trkpt>
      <trkpt lat="50.22842" lon="6.65179"></trkpt>
      <trkpt lat="50.22851" lon="6.65187"></trkpt>
      <trkpt lat="50.22858" lon="6.65198"></trkpt>
      <trkpt lat="50.22863" lon="6.65211"></trkpt>
      <trkpt lat="50.22870" lon="6.65226"></trkpt>
      <trkpt lat="50.22875" lon="6.65241"></trkpt>
      <trkpt lat="50.22879" lon="6.65258"></trkpt>
      <trkpt lat="50.22883" lon="6.65275"></trkpt>
      <trkpt lat="50.22887" lon="6.65291"></trkpt>
      <trkpt lat="50.22890" lon="6.65307"></trkpt>
      <trkpt lat="50.22895" lon="6.65323"></trkpt>
      <trkpt lat="50.22895" lon="6.65340"></trkpt>
      <trkpt lat="50.22892" lon="6.65346"></trkpt>
      <trkpt lat="50.22883" lon="6.65328"></trkpt>
      <trkpt lat="50.22872" lon="6.65302"></trkpt>
      <trkpt lat="50.22861" lon="6.65274"></trkpt>
      <trkpt lat="50.22849" lon="6.65255"></trkpt>
      <trkpt lat="50.22833" lon="6.65251"></trkpt>
      <trkpt lat="50.22819" lon="6.65261"></trkpt>
      <trkpt lat="50.22800" lon="6.65276"></trkpt>
      <trkpt lat="50.22782" lon="6.65289"></trkpt>
      <trkpt lat="50.22764" lon="6.65306"></trkpt>
      <trkpt lat="50.22746" lon="6.65319"></trkpt>
      <trkpt lat="50.22727" lon="6.65328"></trkpt>
      <trkpt lat="50.22713" lon="6.65339"></trkpt>
      <trkpt lat="50.22701" lon="6.65352"></trkpt>
      <trkpt lat="50.22698" lon="6.65357"></trkpt>
      <trkpt lat="50.22702" lon="6.65355"></trkpt>
      <trkpt lat="50.22713" lon="6.65351"></trkpt>
      <trkpt lat="50.22721" lon="6.65350"></trkpt>
      <trkpt lat="50.22729" lon="6.65350"></trkpt>
      <trkpt lat="50.22737" lon="6.65347"></trkpt>
      <trkpt lat="50.22745" lon="6.65343"></trkpt>
      <trkpt lat="50.22748" lon="6.65344"></trkpt>
      <trkpt lat="50.22752" lon="6.65345"></trkpt>
      <trkpt lat="50.22758" lon="6.65346"></trkpt>
      <trkpt lat="50.22758" lon="6.65347"></trkpt>
      <trkpt lat="50.22757" lon="6.65349"></trkpt>
      <trkpt lat="50.22747" lon="6.65355"></trkpt>
      <trkpt lat="50.22733" lon="6.65357"></trkpt>
      <trkpt lat="50.22716" lon="6.65354"></trkpt>
      <trkpt lat="50.22705" lon="6.65353"></trkpt>
      <trkpt lat="50.22692" lon="6.65354"></trkpt>
      <trkpt lat="50.22683" lon="6.65359"></trkpt>
      <trkpt lat="50.22672" lon="6.65370"></trkpt>
      <trkpt lat="50.22669" lon="6.65378"></trkpt>
      <trkpt lat="50.22667" lon="6.65383"></trkpt>
      <trkpt lat="50.22655" lon="6.65403"></trkpt>
      <trkpt lat="50.22642" lon="6.65429"></trkpt>
      <trkpt lat="50.22633" lon="6.65457"></trkpt>
      <trkpt lat="50.22628" lon="6.65477"></trkpt>
      <trkpt lat="50.22625" lon="6.65497"></trkpt>
      <trkpt lat="50.22625" lon="6.65524"></trkpt>
      <trkpt lat="50.22628" lon="6.65554"></trkpt>
      <trkpt lat="50.22630" lon="6.65579"></trkpt>
      <trkpt lat="50.22629" lon="6.65607"></trkpt>
      <trkpt lat="50.22632" lon="6.65636"></trkpt>
      <trkpt lat="50.22633" lon="6.65665"></trkpt>
      <trkpt lat="50.22635" lon="6.65697"></trkpt>
      <trkpt lat="50.22641" lon="6.65728"></trkpt>
      <trkpt lat="50.22647" lon="6.65758"></trkpt>
      <trkpt lat="50.22653" lon="6.65775"></trkpt>
      <trkpt lat="50.22659" lon="6.65790"></trkpt>
      <trkpt lat="50.22663" lon="6.65804"></trkpt>
      <trkpt lat="50.22670" lon="6.65816"></trkpt>
      <trkpt lat="50.22678" lon="6.65830"></trkpt>
      <trkpt lat="50.22682" lon="6.65847"></trkpt>
      <trkpt lat="50.22684" lon="6.65863"></trkpt>
      <trkpt lat="50.22691" lon="6.65871"></trkpt>
      <trkpt lat="50.22698" lon="6.65873"></trkpt>
      <trkpt lat="50.22705" lon="6.65875"></trkpt>
      <trkpt lat="50.22711" lon="6.65883"></trkpt>
      <trkpt lat="50.22719" lon="6.65884"></trkpt>
      <trkpt lat="50.22721" lon="6.65895"></trkpt>
      <trkpt lat="50.22729" lon="6.65893"></trkpt>
      <trkpt lat="50.22732" lon="6.65885"></trkpt>
      <trkpt lat="50.22731" lon="6.65874"></trkpt>
      <trkpt lat="50.22725" lon="6.65862"></trkpt>
      <trkpt lat="50.22725" lon="6.65854"></trkpt>
      <trkpt lat="50.22726" lon="6.65843"></trkpt>
      <trkpt lat="50.22730" lon="6.65829"></trkpt>
      <trkpt lat="50.22735" lon="6.65814"></trkpt>
      <trkpt lat="50.22737" lon="6.65793"></trkpt>
      <trkpt lat="50.22737" lon="6.65773"></trkpt>
      <trkpt lat="50.22730" lon="6.65754"></trkpt>
      <trkpt lat="50.22723" lon="6.65732"></trkpt>
      <trkpt lat="50.22717" lon="6.65712"></trkpt>
      <trkpt lat="50.22710" lon="6.65694"></trkpt>
      <trkpt lat="50.22701" lon="6.65676"></trkpt>
      <trkpt lat="50.22698" lon="6.65653"></trkpt>
      <trkpt lat="50.22693" lon="6.65632"></trkpt>
      <trkpt lat="50.22686" lon="6.65612"></trkpt>
      <trkpt lat="50.22680" lon="6.65589"></trkpt>
      <trkpt lat="50.22672" lon="6.65569"></trkpt>
      <trkpt lat="50.22663" lon="6.65550"></trkpt>
      <trkpt lat="50.22658" lon="6.65537"></trkpt>
      <trkpt lat="50.22657" lon="6.65535"></trkpt>
      <trkpt lat="50.22657" lon="6.65534"></trkpt>
      <trkpt lat="50.22656" lon="6.65532"></trkpt>
      <trkpt lat="50.22651" lon="6.65520"></trkpt>
      <trkpt lat="50.22650" lon="6.65518"></trkpt>
      <trkpt lat="50.22653" lon="6.65523"></trkpt>
      <trkpt lat="50.22657" lon="6.65535"></trkpt>
      <trkpt lat="50.22654" lon="6.65525"></trkpt>
      <trkpt lat="50.22652" lon="6.65521"></trkpt>
      <trkpt lat="50.22652" lon="6.65520"></trkpt>
      <trkpt lat="50.22652" lon="6.65520"></trkpt>
      <trkpt lat="50.22652" lon="6.65520"></trkpt>
      <trkpt lat="50.22652" lon="6.65520"></trkpt>
      <trkpt lat="50.22653" lon="6.65520"></trkpt>
      <trkpt lat="50.22653" lon="6.65519"></trkpt>
      <trkpt lat="50.22653" lon="6.65519"></trkpt>
      <trkpt lat="50.22653" lon="6.65519"></trkpt>
      <trkpt lat="50.22653" lon="6.65519"></trkpt>
      <trkpt lat="50.22654" lon="6.65518"></trkpt>
      <trkpt lat="50.22656" lon="6.65517"></trkpt>
      <trkpt lat="50.22658" lon="6.65516"></trkpt>
      <trkpt lat="50.22659" lon="6.65515"></trkpt>
      <trkpt lat="50.22660" lon="6.65513"></trkpt>
      <trkpt lat="50.22663" lon="6.65509"></trkpt>
      <trkpt lat="50.22666" lon="6.65505"></trkpt>
      <trkpt lat="50.22666" lon="6.65506"></trkpt>
      <trkpt lat="50.22665" lon="6.65507"></trkpt>
      <trkpt lat="50.22665" lon="6.65507"></trkpt>
      <trkpt lat="50.22665" lon="6.65507"></trkpt>
      <trkpt lat="50.22665" lon="6.65507"></trkpt>
      <trkpt lat="50.22665" lon="6.65508"></trkpt>
      <trkpt lat="50.22665" lon="6.65508"></trkpt>
      <trkpt lat="50.22665" lon="6.65508"></trkpt>
      <trkpt lat="50.22664" lon="6.65508"></trkpt>
      <trkpt lat="50.22664" lon="6.65509"></trkpt>
      <trkpt lat="50.22664" lon="6.65509"></trkpt>
      <trkpt lat="50.22664" lon="6.65509"></trkpt>
      <trkpt lat="50.22664" lon="6.65509"></trkpt>
      <trkpt lat="50.22664" lon="6.65509"></trkpt>
      <trkpt lat="50.22664" lon="6.65510"></trkpt>
      <trkpt lat="50.22664" lon="6.65510"></trkpt>
      <trkpt lat="50.22664" lon="6.65510"></trkpt>
      <trkpt lat="50.22663" lon="6.65510"></trkpt>
      <trkpt lat="50.22663" lon="6.65510"></trkpt>
      <trkpt lat="50.22663" lon="6.65511"></trkpt>
      <trkpt lat="50.22663" lon="6.65511"></trkpt>
      <trkpt lat="50.22663" lon="6.65511"></trkpt>
      <trkpt lat="50.22662" lon="6.65513"></trkpt>
      <trkpt lat="50.22670" lon="6.65521"></trkpt>
      <trkpt lat="50.22688" lon="6.65523"></trkpt>
      <trkpt lat="50.22706" lon="6.65540"></trkpt>
      <trkpt lat="50.22724" lon="6.65564"></trkpt>
      <trkpt lat="50.22741" lon="6.65588"></trkpt>
      <trkpt lat="50.22757" lon="6.65612"></trkpt>
      <trkpt lat="50.22773" lon="6.65635"></trkpt>
      <trkpt lat="50.22788" lon="6.65657"></trkpt>
      <trkpt lat="50.22798" lon="6.65671"></trkpt>
      <trkpt lat="50.22806" lon="6.65682"></trkpt>
      <trkpt lat="50.22818" lon="6.65697"></trkpt>
      <trkpt lat="50.22829" lon="6.65712"></trkpt>
      <trkpt lat="50.22838" lon="6.65726"></trkpt>
      <trkpt lat="50.22849" lon="6.65741"></trkpt>
      <trkpt lat="50.22860" lon="6.65755"></trkpt>
      <trkpt lat="50.22869" lon="6.65767"></trkpt>
      <trkpt lat="50.22877" lon="6.65777"></trkpt>
      <trkpt lat="50.22887" lon="6.65790"></trkpt>
      <trkpt lat="50.22896" lon="6.65805"></trkpt>
      <trkpt lat="50.22903" lon="6.65814"></trkpt>
      <trkpt lat="50.22909" lon="6.65824"></trkpt>
      <trkpt lat="50.22913" lon="6.65822"></trkpt>
      <trkpt lat="50.22911" lon="6.65811"></trkpt>
      <trkpt lat="50.22913" lon="6.65803"></trkpt>
      <trkpt lat="50.22921" lon="6.65803"></trkpt>
      <trkpt lat="50.22923" lon="6.65793"></trkpt>
      <trkpt lat="50.22927" lon="6.65789"></trkpt>
      <trkpt lat="50.22936" lon="6.65808"></trkpt>
      <trkpt lat="50.22945" lon="6.65825"></trkpt>
      <trkpt lat="50.22957" lon="6.65835"></trkpt>
      <trkpt lat="50.22963" lon="6.65833"></trkpt>
      <trkpt lat="50.22969" lon="6.65810"></trkpt>
      <trkpt lat="50.22982" lon="6.65793"></trkpt>
      <trkpt lat="50.22994" lon="6.65783"></trkpt>
      <trkpt lat="50.23004" lon="6.65771"></trkpt>
      <trkpt lat="50.23014" lon="6.65761"></trkpt>
      <trkpt lat="50.23021" lon="6.65759"></trkpt>
      <trkpt lat="50.23024" lon="6.65757"></trkpt>
      <trkpt lat="50.23023" lon="6.65760"></trkpt>
      <trkpt lat="50.23016" lon="6.65766"></trkpt>
      <trkpt lat="50.23009" lon="6.65780"></trkpt>
      <trkpt lat="50.23013" lon="6.65812"></trkpt>
      <trkpt lat="50.23025" lon="6.65839"></trkpt>
      <trkpt lat="50.23040" lon="6.65867"></trkpt>
      <trkpt lat="50.23056" lon="6.65893"></trkpt>
      <trkpt lat="50.23073" lon="6.65911"></trkpt>
      <trkpt lat="50.23081" lon="6.65921"></trkpt>
      <trkpt lat="50.23090" lon="6.65921"></trkpt>
      <trkpt lat="50.23095" lon="6.65921"></trkpt>
      <trkpt lat="50.23097" lon="6.65920"></trkpt>
      <trkpt lat="50.23099" lon="6.65921"></trkpt>
      <trkpt lat="50.23114" lon="6.65926"></trkpt>
      <trkpt lat="50.23131" lon="6.65936"></trkpt>
      <trkpt lat="50.23145" lon="6.65957"></trkpt>
      <trkpt lat="50.23158" lon="6.65964"></trkpt>
      <trkpt lat="50.23177" lon="6.65962"></trkpt>
      <trkpt lat="50.23195" lon="6.65960"></trkpt>
      <trkpt lat="50.23213" lon="6.65958"></trkpt>
      <trkpt lat="50.23231" lon="6.65955"></trkpt>
      <trkpt lat="50.23249" lon="6.65953"></trkpt>
      <trkpt lat="50.23267" lon="6.65951"></trkpt>
      <trkpt lat="50.23285" lon="6.65949"></trkpt>
      <trkpt lat="50.23303" lon="6.65946"></trkpt>
      <trkpt lat="50.23321" lon="6.65944"></trkpt>
      <trkpt lat="50.23332" lon="6.65939"></trkpt>
      <trkpt lat="50.23307" lon="6.65933"></trkpt>
      <trkpt lat="50.23285" lon="6.65938"></trkpt>
      <trkpt lat="50.23268" lon="6.65948"></trkpt>
      <trkpt lat="50.23253" lon="6.65960"></trkpt>
      <trkpt lat="50.23226" lon="6.65955"></trkpt>
      <trkpt lat="50.23204" lon="6.65936"></trkpt>
      <trkpt lat="50.23187" lon="6.65929"></trkpt>
      <trkpt lat="50.23176" lon="6.65921"></trkpt>
      <trkpt lat="50.23168" lon="6.65925"></trkpt>
      <trkpt lat="50.23166" lon="6.65930"></trkpt>
      <trkpt lat="50.23168" lon="6.65942"></trkpt>
      <trkpt lat="50.23174" lon="6.65959"></trkpt>
      <trkpt lat="50.23181" lon="6.65973"></trkpt>
      <trkpt lat="50.23193" lon="6.65995"></trkpt>
      <trkpt lat="50.23208" lon="6.66013"></trkpt>
      <trkpt lat="50.23221" lon="6.66034"></trkpt>
      <trkpt lat="50.23234" lon="6.66059"></trkpt>
      <trkpt lat="50.23246" lon="6.66079"></trkpt>
      <trkpt lat="50.23258" lon="6.66087"></trkpt>
      <trkpt lat="50.23264" lon="6.66094"></trkpt>
      <trkpt lat="50.23272" lon="6.66105"></trkpt>
      <trkpt lat="50.23275" lon="6.66123"></trkpt>
      <trkpt lat="50.23277" lon="6.66141"></trkpt>
      <trkpt lat="50.23275" lon="6.66159"></trkpt>
      <trkpt lat="50.23273" lon="6.66187"></trkpt>
      <trkpt lat="50.23266" lon="6.66216"></trkpt>
      <trkpt lat="50.23248" lon="6.66230"></trkpt>
      <trkpt lat="50.23232" lon="6.66241"></trkpt>
      <trkpt lat="50.23214" lon="6.66252"></trkpt>
      <trkpt lat="50.23197" lon="6.66275"></trkpt>
      <trkpt lat="50.23179" lon="6.66289"></trkpt>
      <trkpt lat="50.23161" lon="6.66304"></trkpt>
      <trkpt lat="50.23145" lon="6.66318"></trkpt>
      <trkpt lat="50.23130" lon="6.66320"></trkpt>
      <trkpt lat="50.23130" lon="6.66335"></trkpt>
      <trkpt lat="50.23143" lon="6.66349"></trkpt>
      <trkpt lat="50.23135" lon="6.66360"></trkpt>
      <trkpt lat="50.23127" lon="6.66369"></trkpt>
      <trkpt lat="50.23141" lon="6.66376"></trkpt>
      <trkpt lat="50.23164" lon="6.66388"></trkpt>
      <trkpt lat="50.23179" lon="6.66407"></trkpt>
      <trkpt lat="50.23177" lon="6.66442"></trkpt>
      <trkpt lat="50.23169" lon="6.66476"></trkpt>
      <trkpt lat="50.23158" lon="6.66509"></trkpt>
      <trkpt lat="50.23151" lon="6.66533"></trkpt>
      <trkpt lat="50.23148" lon="6.66553"></trkpt>
      <trkpt lat="50.23144" lon="6.66573"></trkpt>
      <trkpt lat="50.23139" lon="6.66591"></trkpt>
      <trkpt lat="50.23132" lon="6.66606"></trkpt>
      <trkpt lat="50.23127" lon="6.66621"></trkpt>
      <trkpt lat="50.23121" lon="6.66633"></trkpt>
      <trkpt lat="50.23112" lon="6.66644"></trkpt>
      <trkpt lat="50.23102" lon="6.66655"></trkpt>
      <trkpt lat="50.23092" lon="6.66665"></trkpt>
      <trkpt lat="50.23081" lon="6.66674"></trkpt>
      <trkpt lat="50.23071" lon="6.66683"></trkpt>
      <trkpt lat="50.23060" lon="6.66693"></trkpt>
      <trkpt lat="50.23048" lon="6.66705"></trkpt>
      <trkpt lat="50.23032" lon="6.66719"></trkpt>
      <trkpt lat="50.23010" lon="6.66729"></trkpt>
      <trkpt lat="50.22989" lon="6.66740"></trkpt>
      <trkpt lat="50.22966" lon="6.66746"></trkpt>
      <trkpt lat="50.22955" lon="6.66759"></trkpt>
      <trkpt lat="50.22952" lon="6.66780"></trkpt>
      <trkpt lat="50.22948" lon="6.66800"></trkpt>
      <trkpt lat="50.22938" lon="6.66817"></trkpt>
      <trkpt lat="50.22928" lon="6.66831"></trkpt>
      <trkpt lat="50.22921" lon="6.66842"></trkpt>
      <trkpt lat="50.22909" lon="6.66842"></trkpt>
      <trkpt lat="50.22895" lon="6.66842"></trkpt>
      <trkpt lat="50.22880" lon="6.66841"></trkpt>
      <trkpt lat="50.22859" lon="6.66844"></trkpt>
      <trkpt lat="50.22835" lon="6.66851"></trkpt>
      <trkpt lat="50.22813" lon="6.66854"></trkpt>
      <trkpt lat="50.22791" lon="6.66858"></trkpt>
      <trkpt lat="50.22768" lon="6.66864"></trkpt>
      <trkpt lat="50.22750" lon="6.66877"></trkpt>
      <trkpt lat="50.22735" lon="6.66901"></trkpt>
      <trkpt lat="50.22719" lon="6.66925"></trkpt>
      <trkpt lat="50.22709" lon="6.66952"></trkpt>
      <trkpt lat="50.22709" lon="6.66985"></trkpt>
      <trkpt lat="50.22710" lon="6.67013"></trkpt>
      <trkpt lat="50.22713" lon="6.67046"></trkpt>
      <trkpt lat="50.22729" lon="6.67068"></trkpt>
      <trkpt lat="50.22749" lon="6.67083"></trkpt>
      <trkpt lat="50.22767" lon="6.67103"></trkpt>
      <trkpt lat="50.22779" lon="6.67135"></trkpt>
      <trkpt lat="50.22792" lon="6.67167"></trkpt>
      <trkpt lat="50.22801" lon="6.67191"></trkpt>
      <trkpt lat="50.22807" lon="6.67209"></trkpt>
      <trkpt lat="50.22815" lon="6.67222"></trkpt>
      <trkpt lat="50.22825" lon="6.67238"></trkpt>
      <trkpt lat="50.22836" lon="6.67252"></trkpt>
      <trkpt lat="50.22845" lon="6.67268"></trkpt>
      <trkpt lat="50.22852" lon="6.67285"></trkpt>
      <trkpt lat="50.22857" lon="6.67305"></trkpt>
      <trkpt lat="50.22856" lon="6.67325"></trkpt>
      <trkpt lat="50.22846" lon="6.67324"></trkpt>
      <trkpt lat="50.22836" lon="6.67309"></trkpt>
      <trkpt lat="50.22821" lon="6.67297"></trkpt>
      <trkpt lat="50.22798" lon="6.67292"></trkpt>
      <trkpt lat="50.22783" lon="6.67281"></trkpt>
      <trkpt lat="50.22780" lon="6.67278"></trkpt>
      <trkpt lat="50.22770" lon="6.67266"></trkpt>
      <trkpt lat="50.22755" lon="6.67257"></trkpt>
      <trkpt lat="50.22751" lon="6.67256"></trkpt>
      <trkpt lat="50.22750" lon="6.67256"></trkpt>
      <trkpt lat="50.22732" lon="6.67261"></trkpt>
      <trkpt lat="50.22713" lon="6.67274"></trkpt>
      <trkpt lat="50.22695" lon="6.67284"></trkpt>
      <trkpt lat="50.22692" lon="6.67279"></trkpt>
      <trkpt lat="50.22692" lon="6.67276"></trkpt>
      <trkpt lat="50.22692" lon="6.67273"></trkpt>
      <trkpt lat="50.22692" lon="6.67248"></trkpt>
      <trkpt lat="50.22695" lon="6.67217"></trkpt>
      <trkpt lat="50.22693" lon="6.67195"></trkpt>
      <trkpt lat="50.22682" lon="6.67205"></trkpt>
      <trkpt lat="50.22677" lon="6.67202"></trkpt>
      <trkpt lat="50.22670" lon="6.67202"></trkpt>
      <trkpt lat="50.22660" lon="6.67194"></trkpt>
      <trkpt lat="50.22638" lon="6.67180"></trkpt>
      <trkpt lat="50.22623" lon="6.67170"></trkpt>
      <trkpt lat="50.22618" lon="6.67140"></trkpt>
      <trkpt lat="50.22618" lon="6.67125"></trkpt>
      <trkpt lat="50.22618" lon="6.67124"></trkpt>
      <trkpt lat="50.22618" lon="6.67122"></trkpt>
      <trkpt lat="50.22619" lon="6.67116"></trkpt>
      <trkpt lat="50.22621" lon="6.67124"></trkpt>
      <trkpt lat="50.22623" lon="6.67148"></trkpt>
      <trkpt lat="50.22630" lon="6.67169"></trkpt>
      <trkpt lat="50.22625" lon="6.67166"></trkpt>
      <trkpt lat="50.22616" lon="6.67151"></trkpt>
      <trkpt lat="50.22614" lon="6.67172"></trkpt>
      <trkpt lat="50.22613" lon="6.67199"></trkpt>
      <trkpt lat="50.22608" lon="6.67213"></trkpt>
      <trkpt lat="50.22599" lon="6.67213"></trkpt>
      <trkpt lat="50.22590" lon="6.67192"></trkpt>
      <trkpt lat="50.22586" lon="6.67196"></trkpt>
      <trkpt lat="50.22585" lon="6.67221"></trkpt>
      <trkpt lat="50.22584" lon="6.67223"></trkpt>
      <trkpt lat="50.22583" lon="6.67225"></trkpt>
      <trkpt lat="50.22576" lon="6.67222"></trkpt>
      <trkpt lat="50.22569" lon="6.67225"></trkpt>
      <trkpt lat="50.22559" lon="6.67234"></trkpt>
      <trkpt lat="50.22551" lon="6.67238"></trkpt>
      <trkpt lat="50.22536" lon="6.67235"></trkpt>
      <trkpt lat="50.22524" lon="6.67235"></trkpt>
      <trkpt lat="50.22514" lon="6.67233"></trkpt>
      <trkpt lat="50.22505" lon="6.67233"></trkpt>
      <trkpt lat="50.22497" lon="6.67232"></trkpt>
      <trkpt lat="50.22490" lon="6.67237"></trkpt>
      <trkpt lat="50.22485" lon="6.67241"></trkpt>
      <trkpt lat="50.22483" lon="6.67232"></trkpt>
      <trkpt lat="50.22482" lon="6.67215"></trkpt>
      <trkpt lat="50.22485" lon="6.67205"></trkpt>
      <trkpt lat="50.22486" lon="6.67187"></trkpt>
      <trkpt lat="50.22485" lon="6.67167"></trkpt>
      <trkpt lat="50.22481" lon="6.67141"></trkpt>
      <trkpt lat="50.22477" lon="6.67108"></trkpt>
      <trkpt lat="50.22474" lon="6.67071"></trkpt>
      <trkpt lat="50.22472" lon="6.67040"></trkpt>
      <trkpt lat="50.22473" lon="6.67018"></trkpt>
      <trkpt lat="50.22475" lon="6.66995"></trkpt>
      <trkpt lat="50.22477" lon="6.66972"></trkpt>
      <trkpt lat="50.22478" lon="6.66948"></trkpt>
      <trkpt lat="50.22480" lon="6.66926"></trkpt>
      <trkpt lat="50.22483" lon="6.66904"></trkpt>
      <trkpt lat="50.22485" lon="6.66882"></trkpt>
      <trkpt lat="50.22486" lon="6.66861"></trkpt>
      <trkpt lat="50.22487" lon="6.66839"></trkpt>
      <trkpt lat="50.22489" lon="6.66816"></trkpt>
      <trkpt lat="50.22489" lon="6.66793"></trkpt>
      <trkpt lat="50.22489" lon="6.66770"></trkpt>
      <trkpt lat="50.22487" lon="6.66745"></trkpt>
      <trkpt lat="50.22486" lon="6.66712"></trkpt>
      <trkpt lat="50.22485" lon="6.66677"></trkpt>
      <trkpt lat="50.22484" lon="6.66641"></trkpt>
      <trkpt lat="50.22483" lon="6.66608"></trkpt>
      <trkpt lat="50.22484" lon="6.66575"></trkpt>
      <trkpt lat="50.22484" lon="6.66540"></trkpt>
      <trkpt lat="50.22484" lon="6.66508"></trkpt>
      <trkpt lat="50.22484" lon="6.66475"></trkpt>
      <trkpt lat="50.22484" lon="6.66442"></trkpt>
      <trkpt lat="50.22482" lon="6.66408"></trkpt>
      <trkpt lat="50.22480" lon="6.66374"></trkpt>
      <trkpt lat="50.22478" lon="6.66339"></trkpt>
      <trkpt lat="50.22475" lon="6.66306"></trkpt>
      <trkpt lat="50.22473" lon="6.66273"></trkpt>
      <trkpt lat="50.22470" lon="6.66239"></trkpt>
      <trkpt lat="50.22468" lon="6.66206"></trkpt>
      <trkpt lat="50.22461" lon="6.66173"></trkpt>
      <trkpt lat="50.22450" lon="6.66143"></trkpt>
      <trkpt lat="50.22445" lon="6.66109"></trkpt>
      <trkpt lat="50.22440" lon="6.66078"></trkpt>
      <trkpt lat="50.22422" lon="6.66073"></trkpt>
      <trkpt lat="50.22406" lon="6.66074"></trkpt>
      <trkpt lat="50.22391" lon="6.66074"></trkpt>
      <trkpt lat="50.22381" lon="6.66075"></trkpt>
      <trkpt lat="50.22376" lon="6.66076"></trkpt>
      <trkpt lat="50.22367" lon="6.66089"></trkpt>
      <trkpt lat="50.22346" lon="6.66110"></trkpt>
      <trkpt lat="50.22327" lon="6.66133"></trkpt>
      <trkpt lat="50.22312" lon="6.66161"></trkpt>
      <trkpt lat="50.22306" lon="6.66197"></trkpt>
      <trkpt lat="50.22302" lon="6.66232"></trkpt>
      <trkpt lat="50.22294" lon="6.66264"></trkpt>
      <trkpt lat="50.22286" lon="6.66296"></trkpt>
      <trkpt lat="50.22280" lon="6.66308"></trkpt>
      <trkpt lat="50.22279" lon="6.66299"></trkpt>
      <trkpt lat="50.22278" lon="6.66285"></trkpt>
      <trkpt lat="50.22273" lon="6.66279"></trkpt>
      <trkpt lat="50.22268" lon="6.66282"></trkpt>
      <trkpt lat="50.22263" lon="6.66286"></trkpt>
      <trkpt lat="50.22258" lon="6.66290"></trkpt>
      <trkpt lat="50.22253" lon="6.66293"></trkpt>
      <trkpt lat="50.22244" lon="6.66292"></trkpt>
      <trkpt lat="50.22228" lon="6.66294"></trkpt>
      <trkpt lat="50.22220" lon="6.66295"></trkpt>
      <trkpt lat="50.22220" lon="6.66292"></trkpt>
      <trkpt lat="50.22221" lon="6.66291"></trkpt>
      <trkpt lat="50.22223" lon="6.66290"></trkpt>
      <trkpt lat="50.22225" lon="6.66289"></trkpt>
      <trkpt lat="50.22227" lon="6.66287"></trkpt>
      <trkpt lat="50.22229" lon="6.66286"></trkpt>
      <trkpt lat="50.22231" lon="6.66285"></trkpt>
      <trkpt lat="50.22233" lon="6.66284"></trkpt>
      <trkpt lat="50.22235" lon="6.66283"></trkpt>
      <trkpt lat="50.22237" lon="6.66282"></trkpt>
      <trkpt lat="50.22239" lon="6.66281"></trkpt>
      <trkpt lat="50.22241" lon="6.66280"></trkpt>
      <trkpt lat="50.22243" lon="6.66279"></trkpt>
      <trkpt lat="50.22245" lon="6.66278"></trkpt>
      <trkpt lat="50.22247" lon="6.66277"></trkpt>
      <trkpt lat="50.22249" lon="6.66276"></trkpt>
      <trkpt lat="50.22250" lon="6.66275"></trkpt>
      <trkpt lat="50.22252" lon="6.66274"></trkpt>
      <trkpt lat="50.22254" lon="6.66274"></trkpt>
      <trkpt lat="50.22250" lon="6.66277"></trkpt>
      <trkpt lat="50.22249" lon="6.66278"></trkpt>
      <trkpt lat="50.22248" lon="6.66278"></trkpt>
      <trkpt lat="50.22248" lon="6.66279"></trkpt>
      <trkpt lat="50.22247" lon="6.66279"></trkpt>
      <trkpt lat="50.22246" lon="6.66280"></trkpt>
      <trkpt lat="50.22246" lon="6.66280"></trkpt>
      <trkpt lat="50.22245" lon="6.66281"></trkpt>
      <trkpt lat="50.22244" lon="6.66282"></trkpt>
      <trkpt lat="50.22244" lon="6.66282"></trkpt>
      <trkpt lat="50.22243" lon="6.66282"></trkpt>
      <trkpt lat="50.22243" lon="6.66283"></trkpt>
      <trkpt lat="50.22242" lon="6.66283"></trkpt>
      <trkpt lat="50.22240" lon="6.66284"></trkpt>
      <trkpt lat="50.22236" lon="6.66285"></trkpt>
      <trkpt lat="50.22229" lon="6.66284"></trkpt>
      <trkpt lat="50.22217" lon="6.66266"></trkpt>
      <trkpt lat="50.22212" lon="6.66230"></trkpt>
      <trkpt lat="50.22207" lon="6.66197"></trkpt>
      <trkpt lat="50.22200" lon="6.66165"></trkpt>
      <trkpt lat="50.22193" lon="6.66132"></trkpt>
      <trkpt lat="50.22188" lon="6.66100"></trkpt>
      <trkpt lat="50.22188" lon="6.66065"></trkpt>
      <trkpt lat="50.22196" lon="6.66029"></trkpt>
      <trkpt lat="50.22210" lon="6.66000"></trkpt>
      <trkpt lat="50.22218" lon="6.65971"></trkpt>
      <trkpt lat="50.22224" lon="6.65939"></trkpt>
      <trkpt lat="50.22226" lon="6.65930"></trkpt>
      <trkpt lat="50.22228" lon="6.65917"></trkpt>
      <trkpt lat="50.22237" lon="6.65885"></trkpt>
      <trkpt lat="50.22250" lon="6.65856"></trkpt>
      <trkpt lat="50.22261" lon="6.65827"></trkpt>
      <trkpt lat="50.22264" lon="6.65805"></trkpt>
      <trkpt lat="50.22265" lon="6.65776"></trkpt>
      <trkpt lat="50.22271" lon="6.65743"></trkpt>
      <trkpt lat="50.22281" lon="6.65719"></trkpt>
      <trkpt lat="50.22290" lon="6.65696"></trkpt>
      <trkpt lat="50.22295" lon="6.65666"></trkpt>
      <trkpt lat="50.22294" lon="6.65633"></trkpt>
      <trkpt lat="50.22290" lon="6.65599"></trkpt>
      <trkpt lat="50.22276" lon="6.65570"></trkpt>
      <trkpt lat="50.22270" lon="6.65535"></trkpt>
      <trkpt lat="50.22268" lon="6.65499"></trkpt>
      <trkpt lat="50.22266" lon="6.65463"></trkpt>
      <trkpt lat="50.22265" lon="6.65427"></trkpt>
      <trkpt lat="50.22267" lon="6.65394"></trkpt>
      <trkpt lat="50.22267" lon="6.65384"></trkpt>
      <trkpt lat="50.22267" lon="6.65382"></trkpt>
      <trkpt lat="50.22267" lon="6.65367"></trkpt>
      <trkpt lat="50.22266" lon="6.65331"></trkpt>
      <trkpt lat="50.22263" lon="6.65295"></trkpt>
      <trkpt lat="50.22260" lon="6.65261"></trkpt>
      <trkpt lat="50.22254" lon="6.65227"></trkpt>
      <trkpt lat="50.22245" lon="6.65194"></trkpt>
      <trkpt lat="50.22236" lon="6.65167"></trkpt>
      <trkpt lat="50.22228" lon="6.65147"></trkpt>
      <trkpt lat="50.22228" lon="6.65133"></trkpt>
      <trkpt lat="50.22231" lon="6.65125"></trkpt>
      <trkpt lat="50.22230" lon="6.65119"></trkpt>
      <trkpt lat="50.22230" lon="6.65118"></trkpt>
      <trkpt lat="50.22230" lon="6.65118"></trkpt>
      <trkpt lat="50.22230" lon="6.65118"></trkpt>
      <trkpt lat="50.22230" lon="6.65118"></trkpt>
      <trkpt lat="50.22230" lon="6.65118"></trkpt>
      <trkpt lat="50.22230" lon="6.65117"></trkpt>
      <trkpt lat="50.22230" lon="6.65117"></trkpt>
      <trkpt lat="50.22230" lon="6.65117"></trkpt>
      <trkpt lat="50.22230" lon="6.65117"></trkpt>
      <trkpt lat="50.22230" lon="6.65117"></trkpt>
      <trkpt lat="50.22230" lon="6.65117"></trkpt>
      <trkpt lat="50.22230" lon="6.65117"></trkpt>
      <trkpt lat="50.22230" lon="6.65116"></trkpt>
      <trkpt lat="50.22230" lon="6.65116"></trkpt>
      <trkpt lat="50.22230" lon="6.65116"></trkpt>
      <trkpt lat="50.22230" lon="6.65116"></trkpt>
      <trkpt lat="50.22229" lon="6.65116"></trkpt>
      <trkpt lat="50.22229" lon="6.65116"></trkpt>
      <trkpt lat="50.22229" lon="6.65116"></trkpt>
      <trkpt lat="50.22230" lon="6.65115"></trkpt>
      <trkpt lat="50.22237" lon="6.65108"></trkpt>
      <trkpt lat="50.22240" lon="6.65107"></trkpt>
      <trkpt lat="50.22240" lon="6.65107"></trkpt>
      <trkpt lat="50.22240" lon="6.65107"></trkpt>
      <trkpt lat="50.22241" lon="6.65106"></trkpt>
      <trkpt lat="50.22241" lon="6.65106"></trkpt>
      <trkpt lat="50.22250" lon="6.65106"></trkpt>
      <trkpt lat="50.22256" lon="6.65114"></trkpt>
      <trkpt lat="50.22257" lon="6.65116"></trkpt>
      <trkpt lat="50.22259" lon="6.65130"></trkpt>
      <trkpt lat="50.22262" lon="6.65151"></trkpt>
      <trkpt lat="50.22266" lon="6.65171"></trkpt>
      <trkpt lat="50.22273" lon="6.65188"></trkpt>
      <trkpt lat="50.22285" lon="6.65211"></trkpt>
      <trkpt lat="50.22305" lon="6.65215"></trkpt>
      <trkpt lat="50.22323" lon="6.65220"></trkpt>
      <trkpt lat="50.22330" lon="6.65252"></trkpt>
      <trkpt lat="50.22334" lon="6.65274"></trkpt>
      <trkpt lat="50.22336" lon="6.65281"></trkpt>
      <trkpt lat="50.22342" lon="6.65314"></trkpt>
      <trkpt lat="50.22348" lon="6.65349"></trkpt>
      <trkpt lat="50.22355" lon="6.65384"></trkpt>
      <trkpt lat="50.22362" lon="6.65419"></trkpt>
      <trkpt lat="50.22368" lon="6.65454"></trkpt>
      <trkpt lat="50.22375" lon="6.65489"></trkpt>
      <trkpt lat="50.22382" lon="6.65524"></trkpt>
      <trkpt lat="50.22388" lon="6.65559"></trkpt>
      <trkpt lat="50.22392" lon="6.65594"></trkpt>
      <trkpt lat="50.22396" lon="6.65629"></trkpt>
      <trkpt lat="50.22397" lon="6.65663"></trkpt>
      <trkpt lat="50.22398" lon="6.65698"></trkpt>
      <trkpt lat="50.22400" lon="6.65732"></trkpt>
      <trkpt lat="50.22403" lon="6.65759"></trkpt>
      <trkpt lat="50.22403" lon="6.65780"></trkpt>
      <trkpt lat="50.22411" lon="6.65804"></trkpt>
      <trkpt lat="50.22425" lon="6.65829"></trkpt>
      <trkpt lat="50.22433" lon="6.65862"></trkpt>
      <trkpt lat="50.22435" lon="6.65895"></trkpt>
      <trkpt lat="50.22439" lon="6.65929"></trkpt>
      <trkpt lat="50.22439" lon="6.65963"></trkpt>
      <trkpt lat="50.22441" lon="6.65998"></trkpt>
      <trkpt lat="50.22443" lon="6.66034"></trkpt>
      <trkpt lat="50.22444" lon="6.66071"></trkpt>
      <trkpt lat="50.22446" lon="6.66107"></trkpt>
      <trkpt lat="50.22450" lon="6.66141"></trkpt>
      <trkpt lat="50.22460" lon="6.66166"></trkpt>
      <trkpt lat="50.22465" lon="6.66186"></trkpt>
      <trkpt lat="50.22468" lon="6.66208"></trkpt>
      <trkpt lat="50.22470" lon="6.66230"></trkpt>
      <trkpt lat="50.22473" lon="6.66252"></trkpt>
      <trkpt lat="50.22475" lon="6.66272"></trkpt>
      <trkpt lat="50.22477" lon="6.66293"></trkpt>
      <trkpt lat="50.22478" lon="6.66314"></trkpt>
      <trkpt lat="50.22480" lon="6.66338"></trkpt>
      <trkpt lat="50.22480" lon="6.66360"></trkpt>
      <trkpt lat="50.22481" lon="6.66381"></trkpt>
      <trkpt lat="50.22482" lon="6.66402"></trkpt>
      <trkpt lat="50.22483" lon="6.66426"></trkpt>
      <trkpt lat="50.22483" lon="6.66450"></trkpt>
      <trkpt lat="50.22485" lon="6.66471"></trkpt>
      <trkpt lat="50.22492" lon="6.66482"></trkpt>
      <trkpt lat="50.22503" lon="6.66481"></trkpt>
      <trkpt lat="50.22515" lon="6.66481"></trkpt>
      <trkpt lat="50.22530" lon="6.66479"></trkpt>
      <trkpt lat="50.22546" lon="6.66476"></trkpt>
      <trkpt lat="50.22552" lon="6.66474"></trkpt>
      <trkpt lat="50.22559" lon="6.66482"></trkpt>
      <trkpt lat="50.22561" lon="6.66501"></trkpt>
      <trkpt lat="50.22564" lon="6.66523"></trkpt>
      <trkpt lat="50.22565" lon="6.66545"></trkpt>
      <trkpt lat="50.22566" lon="6.66569"></trkpt>
      <trkpt lat="50.22562" lon="6.66590"></trkpt>
      <trkpt lat="50.22562" lon="6.66612"></trkpt>
      <trkpt lat="50.22559" lon="6.66635"></trkpt>
      <trkpt lat="50.22559" lon="6.66653"></trkpt>
      <trkpt lat="50.22569" lon="6.66648"></trkpt>
      <trkpt lat="50.22571" lon="6.66626"></trkpt>
      <trkpt lat="50.22571" lon="6.66605"></trkpt>
      <trkpt lat="50.22575" lon="6.66582"></trkpt>
      <trkpt lat="50.22580" lon="6.66561"></trkpt>
      <trkpt lat="50.22587" lon="6.66542"></trkpt>
      <trkpt lat="50.22594" lon="6.66521"></trkpt>
      <trkpt lat="50.22601" lon="6.66500"></trkpt>
      <trkpt lat="50.22607" lon="6.66478"></trkpt>
      <trkpt lat="50.22613" lon="6.66457"></trkpt>
      <trkpt lat="50.22619" lon="6.66437"></trkpt>
      <trkpt lat="50.22623" lon="6.66415"></trkpt>
      <trkpt lat="50.22626" lon="6.66395"></trkpt>
      <trkpt lat="50.22628" lon="6.66377"></trkpt>
      <trkpt lat="50.22631" lon="6.66357"></trkpt>
      <trkpt lat="50.22632" lon="6.66335"></trkpt>
      <trkpt lat="50.22635" lon="6.66304"></trkpt>
      <trkpt lat="50.22637" lon="6.66268"></trkpt>
      <trkpt lat="50.22637" lon="6.66233"></trkpt>
      <trkpt lat="50.22638" lon="6.66197"></trkpt>
      <trkpt lat="50.22638" lon="6.66163"></trkpt>
      <trkpt lat="50.22638" lon="6.66129"></trkpt>
      <trkpt lat="50.22637" lon="6.66093"></trkpt>
      <trkpt lat="50.22637" lon="6.66058"></trkpt>
      <trkpt lat="50.22636" lon="6.66023"></trkpt>
      <trkpt lat="50.22636" lon="6.65988"></trkpt>
      <trkpt lat="50.22636" lon="6.65953"></trkpt>
      <trkpt lat="50.22628" lon="6.65920"></trkpt>
      <trkpt lat="50.22616" lon="6.65888"></trkpt>
      <trkpt lat="50.22610" lon="6.65861"></trkpt>
      <trkpt lat="50.22615" lon="6.65841"></trkpt>
      <trkpt lat="50.22618" lon="6.65835"></trkpt>
      <trkpt lat="50.22619" lon="6.65834"></trkpt>
      <trkpt lat="50.22620" lon="6.65833"></trkpt>
      <trkpt lat="50.22625" lon="6.65829"></trkpt>
      <trkpt lat="50.22628" lon="6.65828"></trkpt>
      <trkpt lat="50.22632" lon="6.65826"></trkpt>
      <trkpt lat="50.22637" lon="6.65822"></trkpt>
      <trkpt lat="50.22639" lon="6.65806"></trkpt>
      <trkpt lat="50.22632" lon="6.65785"></trkpt>
      <trkpt lat="50.22625" lon="6.65770"></trkpt>
      <trkpt lat="50.22623" lon="6.65751"></trkpt>
      <trkpt lat="50.22625" lon="6.65734"></trkpt>
      <trkpt lat="50.22626" lon="6.65712"></trkpt>
      <trkpt lat="50.22625" lon="6.65694"></trkpt>
      <trkpt lat="50.22623" lon="6.65678"></trkpt>
      <trkpt lat="50.22623" lon="6.65667"></trkpt>
      <trkpt lat="50.22625" lon="6.65657"></trkpt>
      <trkpt lat="50.22625" lon="6.65657"></trkpt>
      <trkpt lat="50.22625" lon="6.65656"></trkpt>
      <trkpt lat="50.22624" lon="6.65656"></trkpt>
      <trkpt lat="50.22624" lon="6.65655"></trkpt>
      <trkpt lat="50.22624" lon="6.65655"></trkpt>
      <trkpt lat="50.22624" lon="6.65654"></trkpt>
      <trkpt lat="50.22618" lon="6.65657"></trkpt>
      <trkpt lat="50.22613" lon="6.65663"></trkpt>
      <trkpt lat="50.22612" lon="6.65664"></trkpt>
      <trkpt lat="50.22611" lon="6.65670"></trkpt>
      <trkpt lat="50.22610" lon="6.65681"></trkpt>
      <trkpt lat="50.22611" lon="6.65676"></trkpt>
      <trkpt lat="50.22613" lon="6.65661"></trkpt>
      <trkpt lat="50.22613" lon="6.65646"></trkpt>
      <trkpt lat="50.22614" lon="6.65641"></trkpt>
      <trkpt lat="50.22616" lon="6.65632"></trkpt>
      <trkpt lat="50.22619" lon="6.65627"></trkpt>
      <trkpt lat="50.22620" lon="6.65631"></trkpt>
      <trkpt lat="50.22621" lon="6.65632"></trkpt>
      <trkpt lat="50.22621" lon="6.65637"></trkpt>
      <trkpt lat="50.22624" lon="6.65652"></trkpt>
      <trkpt lat="50.22629" lon="6.65663"></trkpt>
      <trkpt lat="50.22629" lon="6.65662"></trkpt>
      <trkpt lat="50.22629" lon="6.65655"></trkpt>
      <trkpt lat="50.22627" lon="6.65644"></trkpt>
      <trkpt lat="50.22625" lon="6.65636"></trkpt>
      <trkpt lat="50.22625" lon="6.65630"></trkpt>
      <trkpt lat="50.22622" lon="6.65611"></trkpt>
      <trkpt lat="50.22621" lon="6.65594"></trkpt>
      <trkpt lat="50.22621" lon="6.65578"></trkpt>
      <trkpt lat="50.22620" lon="6.65562"></trkpt>
      <trkpt lat="50.22620" lon="6.65545"></trkpt>
      <trkpt lat="50.22616" lon="6.65520"></trkpt>
      <trkpt lat="50.22617" lon="6.65491"></trkpt>
      <trkpt lat="50.22620" lon="6.65464"></trkpt>
      <trkpt lat="50.22628" lon="6.65436"></trkpt>
      <trkpt lat="50.22640" lon="6.65410"></trkpt>
      <trkpt lat="50.22653" lon="6.65386"></trkpt>
      <trkpt lat="50.22669" lon="6.65367"></trkpt>
      <trkpt lat="50.22685" lon="6.65352"></trkpt>
      <trkpt lat="50.22700" lon="6.65336"></trkpt>
      <trkpt lat="50.22716" lon="6.65320"></trkpt>
      <trkpt lat="50.22728" lon="6.65309"></trkpt>
      <trkpt lat="50.22731" lon="6.65308"></trkpt>
      <trkpt lat="50.22739" lon="6.65303"></trkpt>
      <trkpt lat="50.22753" lon="6.65295"></trkpt>
      <trkpt lat="50.22766" lon="6.65285"></trkpt>
      <trkpt lat="50.22777" lon="6.65274"></trkpt>
      <trkpt lat="50.22790" lon="6.65266"></trkpt>
      <trkpt lat="50.22803" lon="6.65259"></trkpt>
      <trkpt lat="50.22815" lon="6.65248"></trkpt>
      <trkpt lat="50.22828" lon="6.65234"></trkpt>
      <trkpt lat="50.22842" lon="6.65233"></trkpt>
      <trkpt lat="50.22852" lon="6.65250"></trkpt>
      <trkpt lat="50.22863" lon="6.65282"></trkpt>
      <trkpt lat="50.22874" lon="6.65313"></trkpt>
      <trkpt lat="50.22881" lon="6.65339"></trkpt>
      <trkpt lat="50.22883" lon="6.65332"></trkpt>
      <trkpt lat="50.22879" lon="6.65309"></trkpt>
      <trkpt lat="50.22878" lon="6.65284"></trkpt>
      <trkpt lat="50.22877" lon="6.65255"></trkpt>
      <trkpt lat="50.22866" lon="6.65227"></trkpt>
      <trkpt lat="50.22855" lon="6.65206"></trkpt>
      <trkpt lat="50.22843" lon="6.65192"></trkpt>
      <trkpt lat="50.22832" lon="6.65176"></trkpt>
      <trkpt lat="50.22827" lon="6.65159"></trkpt>
      <trkpt lat="50.22831" lon="6.65141"></trkpt>
      <trkpt lat="50.22844" lon="6.65122"></trkpt>
      <trkpt lat="50.22858" lon="6.65113"></trkpt>
      <trkpt lat="50.22872" lon="6.65109"></trkpt>
      <trkpt lat="50.22885" lon="6.65104"></trkpt>
      <trkpt lat="50.22898" lon="6.65102"></trkpt>
      <trkpt lat="50.22911" lon="6.65101"></trkpt>
      <trkpt lat="50.22925" lon="6.65100"></trkpt>
      <trkpt lat="50.22933" lon="6.65115"></trkpt>
      <trkpt lat="50.22944" lon="6.65128"></trkpt>
      <trkpt lat="50.22956" lon="6.65140"></trkpt>
      <trkpt lat="50.22967" lon="6.65152"></trkpt>
      <trkpt lat="50.22979" lon="6.65164"></trkpt>
      <trkpt lat="50.22992" lon="6.65176"></trkpt>
      <trkpt lat="50.23005" lon="6.65188"></trkpt>
      <trkpt lat="50.23018" lon="6.65199"></trkpt>
      <trkpt lat="50.23030" lon="6.65210"></trkpt>
      <trkpt lat="50.23044" lon="6.65219"></trkpt>
      <trkpt lat="50.23057" lon="6.65229"></trkpt>
      <trkpt lat="50.23071" lon="6.65237"></trkpt>
      <trkpt lat="50.23083" lon="6.65245"></trkpt>
      <trkpt lat="50.23096" lon="6.65254"></trkpt>
      <trkpt lat="50.23108" lon="6.65263"></trkpt>
      <trkpt lat="50.23121" lon="6.65272"></trkpt>
      <trkpt lat="50.23134" lon="6.65280"></trkpt>
      <trkpt lat="50.23148" lon="6.65290"></trkpt>
      <trkpt lat="50.23163" lon="6.65299"></trkpt>
      <trkpt lat="50.23177" lon="6.65308"></trkpt>
      <trkpt lat="50.23191" lon="6.65318"></trkpt>
      <trkpt lat="50.23205" lon="6.65327"></trkpt>
      <trkpt lat="50.23219" lon="6.65337"></trkpt>
      <trkpt lat="50.23232" lon="6.65346"></trkpt>
      <trkpt lat="50.23246" lon="6.65355"></trkpt>
      <trkpt lat="50.23259" lon="6.65366"></trkpt>
      <trkpt lat="50.23271" lon="6.65376"></trkpt>
      <trkpt lat="50.23284" lon="6.65380"></trkpt>
      <trkpt lat="50.23297" lon="6.65382"></trkpt>
      <trkpt lat="50.23311" lon="6.65384"></trkpt>
      <trkpt lat="50.23326" lon="6.65388"></trkpt>
      <trkpt lat="50.23339" lon="6.65392"></trkpt>
      <trkpt lat="50.23353" lon="6.65396"></trkpt>
      <trkpt lat="50.23368" lon="6.65401"></trkpt>
      <trkpt lat="50.23382" lon="6.65411"></trkpt>
      <trkpt lat="50.23397" lon="6.65436"></trkpt>
      <trkpt lat="50.23418" lon="6.65449"></trkpt>
      <trkpt lat="50.23441" lon="6.65458"></trkpt>
      <trkpt lat="50.23461" lon="6.65478"></trkpt>
      <trkpt lat="50.23479" lon="6.65503"></trkpt>
      <trkpt lat="50.23492" lon="6.65522"></trkpt>
      <trkpt lat="50.23501" lon="6.65534"></trkpt>
      <trkpt lat="50.23513" lon="6.65546"></trkpt>
      <trkpt lat="50.23523" lon="6.65562"></trkpt>
      <trkpt lat="50.23533" lon="6.65577"></trkpt>
      <trkpt lat="50.23544" lon="6.65593"></trkpt>
      <trkpt lat="50.23554" lon="6.65608"></trkpt>
      <trkpt lat="50.23564" lon="6.65624"></trkpt>
      <trkpt lat="50.23573" lon="6.65638"></trkpt>
      <trkpt lat="50.23583" lon="6.65652"></trkpt>
      <trkpt lat="50.23590" lon="6.65665"></trkpt>
      <trkpt lat="50.23592" lon="6.65678"></trkpt>
      <trkpt lat="50.23591" lon="6.65699"></trkpt>
      <trkpt lat="50.23589" lon="6.65720"></trkpt>
      <trkpt lat="50.23589" lon="6.65740"></trkpt>
      <trkpt lat="50.23598" lon="6.65751"></trkpt>
      <trkpt lat="50.23604" lon="6.65755"></trkpt>
      <trkpt lat="50.23611" lon="6.65770"></trkpt>
      <trkpt lat="50.23620" lon="6.65777"></trkpt>
      <trkpt lat="50.23639" lon="6.65762"></trkpt>
      <trkpt lat="50.23647" lon="6.65765"></trkpt>
    </trkseg>
  </trk>
</gpx>