<?xml version="1.0" encoding="UTF-8"?>
<gpx version="1.1" creator="jeffry.running" xmlns="http://www.topografix.com/GPX/1/1">
  <metadata><time>2026-08-04T07:12:57.083Z</time></metadata>
  <trk>
    <trkseg>
      <trkpt lat="51.29213" lon="4.84796"></trkpt>
      <trkpt lat="51.29209" lon="4.84793"></trkpt>
      <trkpt lat="51.29203" lon="4.84788"></trkpt>
      <trkpt lat="51.29199" lon="4.84781"></trkpt>
      <trkpt lat="51.29194" lon="4.84774"></trkpt>
      <trkpt lat="51.29190" lon="4.84768"></trkpt>
      <trkpt lat="51.29186" lon="4.84761"></trkpt>
      <trkpt lat="51.29181" lon="4.84754"></trkpt>
      <trkpt lat="51.29176" lon="4.84748"></trkpt>
      <trkpt lat="51.29170" lon="4.84741"></trkpt>
      <trkpt lat="51.29166" lon="4.84734"></trkpt>
      <trkpt lat="51.29162" lon="4.84727"></trkpt>
      <trkpt lat="51.29157" lon="4.84721"></trkpt>
      <trkpt lat="51.29153" lon="4.84714"></trkpt>
      <trkpt lat="51.29149" lon="4.84708"></trkpt>
      <trkpt lat="51.29145" lon="4.84701"></trkpt>
      <trkpt lat="51.29141" lon="4.84694"></trkpt>
      <trkpt lat="51.29138" lon="4.84688"></trkpt>
      <trkpt lat="51.29134" lon="4.84681"></trkpt>
      <trkpt lat="51.29130" lon="4.84673"></trkpt>
      <trkpt lat="51.29126" lon="4.84666"></trkpt>
      <trkpt lat="51.29121" lon="4.84660"></trkpt>
      <trkpt lat="51.29117" lon="4.84653"></trkpt>
      <trkpt lat="51.29113" lon="4.84646"></trkpt>
      <trkpt lat="51.29114" lon="4.84637"></trkpt>
      <trkpt lat="51.29118" lon="4.84628"></trkpt>
      <trkpt lat="51.29122" lon="4.84622"></trkpt>
      <trkpt lat="51.29127" lon="4.84617"></trkpt>
      <trkpt lat="51.29132" lon="4.84611"></trkpt>
      <trkpt lat="51.29136" lon="4.84606"></trkpt>
      <trkpt lat="51.29141" lon="4.84601"></trkpt>
      <trkpt lat="51.29146" lon="4.84595"></trkpt>
      <trkpt lat="51.29151" lon="4.84589"></trkpt>
      <trkpt lat="51.29157" lon="4.84582"></trkpt>
      <trkpt lat="51.29163" lon="4.84576"></trkpt>
      <trkpt lat="51.29168" lon="4.84569"></trkpt>
      <trkpt lat="51.29172" lon="4.84563"></trkpt>
      <trkpt lat="51.29178" lon="4.84557"></trkpt>
      <trkpt lat="51.29182" lon="4.84552"></trkpt>
      <trkpt lat="51.29187" lon="4.84546"></trkpt>
      <trkpt lat="51.29192" lon="4.84540"></trkpt>
      <trkpt lat="51.29196" lon="4.84534"></trkpt>
      <trkpt lat="51.29198" lon="4.84526"></trkpt>
      <trkpt lat="51.29198" lon="4.84517"></trkpt>
      <trkpt lat="51.29193" lon="4.84507"></trkpt>
      <trkpt lat="51.29188" lon="4.84501"></trkpt>
      <trkpt lat="51.29184" lon="4.84497"></trkpt>
      <trkpt lat="51.29179" lon="4.84495"></trkpt>
      <trkpt lat="51.29175" lon="4.84492"></trkpt>
      <trkpt lat="51.29170" lon="4.84487"></trkpt>
      <trkpt lat="51.29165" lon="4.84480"></trkpt>
      <trkpt lat="51.29162" lon="4.84475"></trkpt>
      <trkpt lat="51.29158" lon="4.84470"></trkpt>
      <trkpt lat="51.29155" lon="4.84462"></trkpt>
      <trkpt lat="51.29150" lon="4.84452"></trkpt>
      <trkpt lat="51.29146" lon="4.84444"></trkpt>
      <trkpt lat="51.29143" lon="4.84437"></trkpt>
      <trkpt lat="51.29144" lon="4.84431"></trkpt>
      <trkpt lat="51.29148" lon="4.84428"></trkpt>
      <trkpt lat="51.29154" lon="4.84428"></trkpt>
      <trkpt lat="51.29159" lon="4.84429"></trkpt>
      <trkpt lat="51.29165" lon="4.84431"></trkpt>
      <trkpt lat="51.29172" lon="4.84431"></trkpt>
      <trkpt lat="51.29177" lon="4.84430"></trkpt>
      <trkpt lat="51.29178" lon="4.84423"></trkpt>
      <trkpt lat="51.29176" lon="4.84415"></trkpt>
      <trkpt lat="51.29172" lon="4.84407"></trkpt>
      <trkpt lat="51.29167" lon="4.84400"></trkpt>
      <trkpt lat="51.29163" lon="4.84393"></trkpt>
      <trkpt lat="51.29160" lon="4.84385"></trkpt>
      <trkpt lat="51.29155" lon="4.84376"></trkpt>
      <trkpt lat="51.29151" lon="4.84368"></trkpt>
      <trkpt lat="51.29148" lon="4.84360"></trkpt>
      <trkpt lat="51.29144" lon="4.84353"></trkpt>
      <trkpt lat="51.29140" lon="4.84345"></trkpt>
      <trkpt lat="51.29136" lon="4.84338"></trkpt>
      <trkpt lat="51.29133" lon="4.84329"></trkpt>
      <trkpt lat="51.29130" lon="4.84321"></trkpt>
      <trkpt lat="51.29127" lon="4.84313"></trkpt>
      <trkpt lat="51.29123" lon="4.84306"></trkpt>
      <trkpt lat="51.29119" lon="4.84298"></trkpt>
      <trkpt lat="51.29115" lon="4.84290"></trkpt>
      <trkpt lat="51.29111" lon="4.84282"></trkpt>
      <trkpt lat="51.29107" lon="4.84275"></trkpt>
      <trkpt lat="51.29104" lon="4.84267"></trkpt>
      <trkpt lat="51.29101" lon="4.84260"></trkpt>
      <trkpt lat="51.29097" lon="4.84252"></trkpt>
      <trkpt lat="51.29093" lon="4.84244"></trkpt>
      <trkpt lat="51.29090" lon="4.84236"></trkpt>
      <trkpt lat="51.29086" lon="4.84229"></trkpt>
      <trkpt lat="51.29082" lon="4.84222"></trkpt>
      <trkpt lat="51.29078" lon="4.84214"></trkpt>
      <trkpt lat="51.29074" lon="4.84206"></trkpt>
      <trkpt lat="51.29070" lon="4.84198"></trkpt>
      <trkpt lat="51.29066" lon="4.84191"></trkpt>
      <trkpt lat="51.29062" lon="4.84184"></trkpt>
      <trkpt lat="51.29058" lon="4.84177"></trkpt>
      <trkpt lat="51.29054" lon="4.84169"></trkpt>
      <trkpt lat="51.29051" lon="4.84161"></trkpt>
      <trkpt lat="51.29048" lon="4.84153"></trkpt>
      <trkpt lat="51.29044" lon="4.84146"></trkpt>
      <trkpt lat="51.29040" lon="4.84139"></trkpt>
      <trkpt lat="51.29036" lon="4.84131"></trkpt>
      <trkpt lat="51.29033" lon="4.84123"></trkpt>
      <trkpt lat="51.29029" lon="4.84115"></trkpt>
      <trkpt lat="51.29025" lon="4.84107"></trkpt>
      <trkpt lat="51.29022" lon="4.84099"></trkpt>
      <trkpt lat="51.29017" lon="4.84091"></trkpt>
      <trkpt lat="51.29014" lon="4.84084"></trkpt>
      <trkpt lat="51.29010" lon="4.84077"></trkpt>
      <trkpt lat="51.29006" lon="4.84069"></trkpt>
      <trkpt lat="51.29003" lon="4.84062"></trkpt>
      <trkpt lat="51.28999" lon="4.84055"></trkpt>
      <trkpt lat="51.28994" lon="4.84052"></trkpt>
      <trkpt lat="51.28988" lon="4.84055"></trkpt>
      <trkpt lat="51.28983" lon="4.84061"></trkpt>
      <trkpt lat="51.28978" lon="4.84068"></trkpt>
      <trkpt lat="51.28974" lon="4.84073"></trkpt>
      <trkpt lat="51.28969" lon="4.84079"></trkpt>
      <trkpt lat="51.28963" lon="4.84084"></trkpt>
      <trkpt lat="51.28958" lon="4.84091"></trkpt>
      <trkpt lat="51.28953" lon="4.84098"></trkpt>
      <trkpt lat="51.28949" lon="4.84104"></trkpt>
      <trkpt lat="51.28944" lon="4.84110"></trkpt>
      <trkpt lat="51.28939" lon="4.84117"></trkpt>
      <trkpt lat="51.28935" lon="4.84123"></trkpt>
      <trkpt lat="51.28930" lon="4.84129"></trkpt>
      <trkpt lat="51.28924" lon="4.84135"></trkpt>
      <trkpt lat="51.28919" lon="4.84139"></trkpt>
      <trkpt lat="51.28914" lon="4.84144"></trkpt>
      <trkpt lat="51.28909" lon="4.84150"></trkpt>
      <trkpt lat="51.28903" lon="4.84156"></trkpt>
      <trkpt lat="51.28897" lon="4.84158"></trkpt>
      <trkpt lat="51.28891" lon="4.84156"></trkpt>
      <trkpt lat="51.28888" lon="4.84152"></trkpt>
      <trkpt lat="51.28884" lon="4.84151"></trkpt>
      <trkpt lat="51.28878" lon="4.84151"></trkpt>
      <trkpt lat="51.28872" lon="4.84150"></trkpt>
      <trkpt lat="51.28866" lon="4.84148"></trkpt>
      <trkpt lat="51.28860" lon="4.84143"></trkpt>
      <trkpt lat="51.28856" lon="4.84138"></trkpt>
      <trkpt lat="51.28851" lon="4.84133"></trkpt>
      <trkpt lat="51.28845" lon="4.84127"></trkpt>
      <trkpt lat="51.28840" lon="4.84121"></trkpt>
      <trkpt lat="51.28834" lon="4.84116"></trkpt>
      <trkpt lat="51.28828" lon="4.84113"></trkpt>
      <trkpt lat="51.28823" lon="4.84109"></trkpt>
      <trkpt lat="51.28817" lon="4.84105"></trkpt>
      <trkpt lat="51.28811" lon="4.84102"></trkpt>
      <trkpt lat="51.28805" lon="4.84100"></trkpt>
      <trkpt lat="51.28799" lon="4.84096"></trkpt>
      <trkpt lat="51.28794" lon="4.84089"></trkpt>
      <trkpt lat="51.28789" lon="4.84083"></trkpt>
      <trkpt lat="51.28784" lon="4.84077"></trkpt>
      <trkpt lat="51.28779" lon="4.84071"></trkpt>
      <trkpt lat="51.28775" lon="4.84065"></trkpt>
      <trkpt lat="51.28770" lon="4.84060"></trkpt>
      <trkpt lat="51.28766" lon="4.84053"></trkpt>
      <trkpt lat="51.28761" lon="4.84046"></trkpt>
      <trkpt lat="51.28757" lon="4.84037"></trkpt>
      <trkpt lat="51.28755" lon="4.84032"></trkpt>
      <trkpt lat="51.28755" lon="4.84029"></trkpt>
      <trkpt lat="51.28755" lon="4.84028"></trkpt>
      <trkpt lat="51.28755" lon="4.84028"></trkpt>
      <trkpt lat="51.28755" lon="4.84027"></trkpt>
      <trkpt lat="51.28755" lon="4.84027"></trkpt>
      <trkpt lat="51.28754" lon="4.84026"></trkpt>
      <trkpt lat="51.28754" lon="4.84026"></trkpt>
      <trkpt lat="51.28754" lon="4.84025"></trkpt>
      <trkpt lat="51.28754" lon="4.84025"></trkpt>
      <trkpt lat="51.28753" lon="4.84021"></trkpt>
      <trkpt lat="51.28747" lon="4.84010"></trkpt>
      <trkpt lat="51.28743" lon="4.84002"></trkpt>
      <trkpt lat="51.28739" lon="4.83993"></trkpt>
      <trkpt lat="51.28734" lon="4.83985"></trkpt>
      <trkpt lat="51.28730" lon="4.83977"></trkpt>
      <trkpt lat="51.28727" lon="4.83968"></trkpt>
      <trkpt lat="51.28727" lon="4.83959"></trkpt>
      <trkpt lat="51.28732" lon="4.83952"></trkpt>
      <trkpt lat="51.28737" lon="4.83946"></trkpt>
      <trkpt lat="51.28742" lon="4.83940"></trkpt>
      <trkpt lat="51.28747" lon="4.83933"></trkpt>
      <trkpt lat="51.28752" lon="4.83926"></trkpt>
      <trkpt lat="51.28758" lon="4.83922"></trkpt>
      <trkpt lat="51.28765" lon="4.83916"></trkpt>
      <trkpt lat="51.28770" lon="4.83911"></trkpt>
      <trkpt lat="51.28775" lon="4.83904"></trkpt>
      <trkpt lat="51.28779" lon="4.83897"></trkpt>
      <trkpt lat="51.28783" lon="4.83890"></trkpt>
      <trkpt lat="51.28788" lon="4.83884"></trkpt>
      <trkpt lat="51.28792" lon="4.83877"></trkpt>
      <trkpt lat="51.28797" lon="4.83870"></trkpt>
      <trkpt lat="51.28802" lon="4.83861"></trkpt>
      <trkpt lat="51.28807" lon="4.83854"></trkpt>
      <trkpt lat="51.28809" lon="4.83846"></trkpt>
      <trkpt lat="51.28813" lon="4.83839"></trkpt>
      <trkpt lat="51.28814" lon="4.83831"></trkpt>
      <trkpt lat="51.28814" lon="4.83821"></trkpt>
      <trkpt lat="51.28813" lon="4.83811"></trkpt>
      <trkpt lat="51.28810" lon="4.83803"></trkpt>
      <trkpt lat="51.28805" lon="4.83796"></trkpt>
      <trkpt lat="51.28799" lon="4.83790"></trkpt>
      <trkpt lat="51.28793" lon="4.83787"></trkpt>
      <trkpt lat="51.28787" lon="4.83784"></trkpt>
      <trkpt lat="51.28781" lon="4.83781"></trkpt>
      <trkpt lat="51.28775" lon="4.83778"></trkpt>
      <trkpt lat="51.28769" lon="4.83775"></trkpt>
      <trkpt lat="51.28763" lon="4.83773"></trkpt>
      <trkpt lat="51.28757" lon="4.83771"></trkpt>
      <trkpt lat="51.28751" lon="4.83767"></trkpt>
      <trkpt lat="51.28745" lon="4.83763"></trkpt>
      <trkpt lat="51.28739" lon="4.83759"></trkpt>
      <trkpt lat="51.28734" lon="4.83755"></trkpt>
      <trkpt lat="51.28728" lon="4.83752"></trkpt>
      <trkpt lat="51.28722" lon="4.83747"></trkpt>
      <trkpt lat="51.28717" lon="4.83744"></trkpt>
      <trkpt lat="51.28710" lon="4.83741"></trkpt>
      <trkpt lat="51.28704" lon="4.83737"></trkpt>
      <trkpt lat="51.28698" lon="4.83733"></trkpt>
      <trkpt lat="51.28692" lon="4.83729"></trkpt>
      <trkpt lat="51.28686" lon="4.83726"></trkpt>
      <trkpt lat="51.28680" lon="4.83722"></trkpt>
      <trkpt lat="51.28674" lon="4.83719"></trkpt>
      <trkpt lat="51.28668" lon="4.83716"></trkpt>
      <trkpt lat="51.28662" lon="4.83713"></trkpt>
      <trkpt lat="51.28656" lon="4.83709"></trkpt>
      <trkpt lat="51.28650" lon="4.83705"></trkpt>
      <trkpt lat="51.28643" lon="4.83702"></trkpt>
      <trkpt lat="51.28637" lon="4.83699"></trkpt>
      <trkpt lat="51.28631" lon="4.83697"></trkpt>
      <trkpt lat="51.28625" lon="4.83694"></trkpt>
      <trkpt lat="51.28619" lon="4.83688"></trkpt>
      <trkpt lat="51.28614" lon="4.83683"></trkpt>
      <trkpt lat="51.28608" lon="4.83679"></trkpt>
      <trkpt lat="51.28601" lon="4.83677"></trkpt>
      <trkpt lat="51.28595" lon="4.83674"></trkpt>
      <trkpt lat="51.28589" lon="4.83671"></trkpt>
      <trkpt lat="51.28583" lon="4.83668"></trkpt>
      <trkpt lat="51.28577" lon="4.83665"></trkpt>
      <trkpt lat="51.28570" lon="4.83661"></trkpt>
      <trkpt lat="51.28564" lon="4.83656"></trkpt>
      <trkpt lat="51.28558" lon="4.83652"></trkpt>
      <trkpt lat="51.28553" lon="4.83649"></trkpt>
      <trkpt lat="51.28546" lon="4.83645"></trkpt>
      <trkpt lat="51.28540" lon="4.83642"></trkpt>
      <trkpt lat="51.28534" lon="4.83639"></trkpt>
      <trkpt lat="51.28529" lon="4.83635"></trkpt>
      <trkpt lat="51.28523" lon="4.83631"></trkpt>
      <trkpt lat="51.28517" lon="4.83628"></trkpt>
      <trkpt lat="51.28511" lon="4.83626"></trkpt>
      <trkpt lat="51.28505" lon="4.83621"></trkpt>
      <trkpt lat="51.28499" lon="4.83617"></trkpt>
      <trkpt lat="51.28493" lon="4.83614"></trkpt>
      <trkpt lat="51.28487" lon="4.83611"></trkpt>
      <trkpt lat="51.28482" lon="4.83608"></trkpt>
      <trkpt lat="51.28476" lon="4.83604"></trkpt>
      <trkpt lat="51.28469" lon="4.83600"></trkpt>
      <trkpt lat="51.28463" lon="4.83597"></trkpt>
      <trkpt lat="51.28457" lon="4.83594"></trkpt>
      <trkpt lat="51.28451" lon="4.83588"></trkpt>
      <trkpt lat="51.28445" lon="4.83584"></trkpt>
      <trkpt lat="51.28440" lon="4.83584"></trkpt>
      <trkpt lat="51.28433" lon="4.83584"></trkpt>
      <trkpt lat="51.28427" lon="4.83580"></trkpt>
      <trkpt lat="51.28422" lon="4.83574"></trkpt>
      <trkpt lat="51.28416" lon="4.83568"></trkpt>
      <trkpt lat="51.28411" lon="4.83562"></trkpt>
      <trkpt lat="51.28405" lon="4.83556"></trkpt>
      <trkpt lat="51.28400" lon="4.83550"></trkpt>
      <trkpt lat="51.28395" lon="4.83544"></trkpt>
      <trkpt lat="51.28390" lon="4.83538"></trkpt>
      <trkpt lat="51.28385" lon="4.83533"></trkpt>
      <trkpt lat="51.28380" lon="4.83527"></trkpt>
      <trkpt lat="51.28374" lon="4.83522"></trkpt>
      <trkpt lat="51.28369" lon="4.83517"></trkpt>
      <trkpt lat="51.28365" lon="4.83510"></trkpt>
      <trkpt lat="51.28360" lon="4.83502"></trkpt>
      <trkpt lat="51.28356" lon="4.83493"></trkpt>
      <trkpt lat="51.28351" lon="4.83486"></trkpt>
      <trkpt lat="51.28346" lon="4.83482"></trkpt>
      <trkpt lat="51.28340" lon="4.83478"></trkpt>
      <trkpt lat="51.28335" lon="4.83475"></trkpt>
      <trkpt lat="51.28330" lon="4.83471"></trkpt>
      <trkpt lat="51.28324" lon="4.83465"></trkpt>
      <trkpt lat="51.28319" lon="4.83458"></trkpt>
      <trkpt lat="51.28316" lon="4.83451"></trkpt>
      <trkpt lat="51.28311" lon="4.83442"></trkpt>
      <trkpt lat="51.28308" lon="4.83433"></trkpt>
      <trkpt lat="51.28304" lon="4.83425"></trkpt>
      <trkpt lat="51.28300" lon="4.83417"></trkpt>
      <trkpt lat="51.28296" lon="4.83408"></trkpt>
      <trkpt lat="51.28294" lon="4.83401"></trkpt>
      <trkpt lat="51.28290" lon="4.83393"></trkpt>
      <trkpt lat="51.28286" lon="4.83384"></trkpt>
      <trkpt lat="51.28281" lon="4.83376"></trkpt>
      <trkpt lat="51.28276" lon="4.83369"></trkpt>
      <trkpt lat="51.28273" lon="4.83361"></trkpt>
      <trkpt lat="51.28270" lon="4.83353"></trkpt>
      <trkpt lat="51.28267" lon="4.83345"></trkpt>
      <trkpt lat="51.28265" lon="4.83337"></trkpt>
      <trkpt lat="51.28261" lon="4.83328"></trkpt>
      <trkpt lat="51.28258" lon="4.83319"></trkpt>
      <trkpt lat="51.28255" lon="4.83311"></trkpt>
      <trkpt lat="51.28251" lon="4.83303"></trkpt>
      <trkpt lat="51.28248" lon="4.83294"></trkpt>
      <trkpt lat="51.28244" lon="4.83287"></trkpt>
      <trkpt lat="51.28240" lon="4.83283"></trkpt>
      <trkpt lat="51.28235" lon="4.83286"></trkpt>
      <trkpt lat="51.28229" lon="4.83292"></trkpt>
      <trkpt lat="51.28223" lon="4.83296"></trkpt>
      <trkpt lat="51.28218" lon="4.83300"></trkpt>
      <trkpt lat="51.28212" lon="4.83303"></trkpt>
      <trkpt lat="51.28206" lon="4.83306"></trkpt>
      <trkpt lat="51.28200" lon="4.83311"></trkpt>
      <trkpt lat="51.28194" lon="4.83314"></trkpt>
      <trkpt lat="51.28188" lon="4.83318"></trkpt>
      <trkpt lat="51.28181" lon="4.83322"></trkpt>
      <trkpt lat="51.28175" lon="4.83322"></trkpt>
      <trkpt lat="51.28169" lon="4.83319"></trkpt>
      <trkpt lat="51.28162" lon="4.83319"></trkpt>
      <trkpt lat="51.28158" lon="4.83325"></trkpt>
      <trkpt lat="51.28153" lon="4.83331"></trkpt>
      <trkpt lat="51.28147" lon="4.83335"></trkpt>
      <trkpt lat="51.28142" lon="4.83339"></trkpt>
      <trkpt lat="51.28137" lon="4.83344"></trkpt>
      <trkpt lat="51.28132" lon="4.83349"></trkpt>
      <trkpt lat="51.28126" lon="4.83354"></trkpt>
      <trkpt lat="51.28120" lon="4.83359"></trkpt>
      <trkpt lat="51.28114" lon="4.83364"></trkpt>
      <trkpt lat="51.28109" lon="4.83370"></trkpt>
      <trkpt lat="51.28104" lon="4.83377"></trkpt>
      <trkpt lat="51.28098" lon="4.83382"></trkpt>
      <trkpt lat="51.28093" lon="4.83384"></trkpt>
      <trkpt lat="51.28086" lon="4.83386"></trkpt>
      <trkpt lat="51.28080" lon="4.83386"></trkpt>
      <trkpt lat="51.28073" lon="4.83386"></trkpt>
      <trkpt lat="51.28067" lon="4.83386"></trkpt>
      <trkpt lat="51.28060" lon="4.83386"></trkpt>
      <trkpt lat="51.28054" lon="4.83387"></trkpt>
      <trkpt lat="51.28048" lon="4.83388"></trkpt>
      <trkpt lat="51.28042" lon="4.83388"></trkpt>
      <trkpt lat="51.28036" lon="4.83389"></trkpt>
      <trkpt lat="51.28029" lon="4.83390"></trkpt>
      <trkpt lat="51.28022" lon="4.83391"></trkpt>
      <trkpt lat="51.28016" lon="4.83393"></trkpt>
      <trkpt lat="51.28009" lon="4.83395"></trkpt>
      <trkpt lat="51.28002" lon="4.83395"></trkpt>
      <trkpt lat="51.27996" lon="4.83398"></trkpt>
      <trkpt lat="51.27990" lon="4.83400"></trkpt>
      <trkpt lat="51.27983" lon="4.83401"></trkpt>
      <trkpt lat="51.27976" lon="4.83403"></trkpt>
      <trkpt lat="51.27970" lon="4.83404"></trkpt>
      <trkpt lat="51.27963" lon="4.83404"></trkpt>
      <trkpt lat="51.27957" lon="4.83404"></trkpt>
      <trkpt lat="51.27952" lon="4.83406"></trkpt>
      <trkpt lat="51.27946" lon="4.83407"></trkpt>
      <trkpt lat="51.27940" lon="4.83410"></trkpt>
      <trkpt lat="51.27934" lon="4.83411"></trkpt>
      <trkpt lat="51.27928" lon="4.83413"></trkpt>
      <trkpt lat="51.27922" lon="4.83414"></trkpt>
      <trkpt lat="51.27916" lon="4.83415"></trkpt>
      <trkpt lat="51.27910" lon="4.83417"></trkpt>
      <trkpt lat="51.27903" lon="4.83418"></trkpt>
      <trkpt lat="51.27896" lon="4.83420"></trkpt>
      <trkpt lat="51.27890" lon="4.83421"></trkpt>
      <trkpt lat="51.27884" lon="4.83422"></trkpt>
      <trkpt lat="51.27877" lon="4.83424"></trkpt>
      <trkpt lat="51.27872" lon="4.83425"></trkpt>
      <trkpt lat="51.27866" lon="4.83425"></trkpt>
      <trkpt lat="51.27860" lon="4.83424"></trkpt>
      <trkpt lat="51.27854" lon="4.83425"></trkpt>
      <trkpt lat="51.27847" lon="4.83425"></trkpt>
      <trkpt lat="51.27841" lon="4.83426"></trkpt>
      <trkpt lat="51.27835" lon="4.83425"></trkpt>
      <trkpt lat="51.27829" lon="4.83424"></trkpt>
      <trkpt lat="51.27823" lon="4.83423"></trkpt>
      <trkpt lat="51.27816" lon="4.83424"></trkpt>
      <trkpt lat="51.27810" lon="4.83426"></trkpt>
      <trkpt lat="51.27803" lon="4.83428"></trkpt>
      <trkpt lat="51.27797" lon="4.83428"></trkpt>
      <trkpt lat="51.27791" lon="4.83430"></trkpt>
      <trkpt lat="51.27785" lon="4.83431"></trkpt>
      <trkpt lat="51.27779" lon="4.83432"></trkpt>
      <trkpt lat="51.27773" lon="4.83429"></trkpt>
      <trkpt lat="51.27768" lon="4.83423"></trkpt>
      <trkpt lat="51.27767" lon="4.83414"></trkpt>
      <trkpt lat="51.27767" lon="4.83404"></trkpt>
      <trkpt lat="51.27767" lon="4.83392"></trkpt>
      <trkpt lat="51.27766" lon="4.83381"></trkpt>
      <trkpt lat="51.27765" lon="4.83371"></trkpt>
      <trkpt lat="51.27764" lon="4.83359"></trkpt>
      <trkpt lat="51.27762" lon="4.83349"></trkpt>
      <trkpt lat="51.27759" lon="4.83340"></trkpt>
      <trkpt lat="51.27753" lon="4.83336"></trkpt>
      <trkpt lat="51.27747" lon="4.83337"></trkpt>
      <trkpt lat="51.27740" lon="4.83340"></trkpt>
      <trkpt lat="51.27734" lon="4.83342"></trkpt>
      <trkpt lat="51.27728" lon="4.83345"></trkpt>
      <trkpt lat="51.27722" lon="4.83348"></trkpt>
      <trkpt lat="51.27716" lon="4.83351"></trkpt>
      <trkpt lat="51.27710" lon="4.83354"></trkpt>
      <trkpt lat="51.27705" lon="4.83356"></trkpt>
      <trkpt lat="51.27698" lon="4.83359"></trkpt>
      <trkpt lat="51.27692" lon="4.83362"></trkpt>
      <trkpt lat="51.27686" lon="4.83364"></trkpt>
      <trkpt lat="51.27680" lon="4.83366"></trkpt>
      <trkpt lat="51.27674" lon="4.83368"></trkpt>
      <trkpt lat="51.27668" lon="4.83370"></trkpt>
      <trkpt lat="51.27662" lon="4.83372"></trkpt>
      <trkpt lat="51.27656" lon="4.83374"></trkpt>
      <trkpt lat="51.27650" lon="4.83377"></trkpt>
      <trkpt lat="51.27644" lon="4.83380"></trkpt>
      <trkpt lat="51.27638" lon="4.83383"></trkpt>
      <trkpt lat="51.27632" lon="4.83385"></trkpt>
      <trkpt lat="51.27625" lon="4.83387"></trkpt>
      <trkpt lat="51.27619" lon="4.83389"></trkpt>
      <trkpt lat="51.27613" lon="4.83392"></trkpt>
      <trkpt lat="51.27606" lon="4.83395"></trkpt>
      <trkpt lat="51.27600" lon="4.83398"></trkpt>
      <trkpt lat="51.27594" lon="4.83400"></trkpt>
      <trkpt lat="51.27588" lon="4.83402"></trkpt>
      <trkpt lat="51.27581" lon="4.83405"></trkpt>
      <trkpt lat="51.27575" lon="4.83407"></trkpt>
      <trkpt lat="51.27568" lon="4.83408"></trkpt>
      <trkpt lat="51.27561" lon="4.83407"></trkpt>
      <trkpt lat="51.27554" lon="4.83407"></trkpt>
      <trkpt lat="51.27547" lon="4.83408"></trkpt>
      <trkpt lat="51.27541" lon="4.83408"></trkpt>
      <trkpt lat="51.27535" lon="4.83408"></trkpt>
      <trkpt lat="51.27528" lon="4.83409"></trkpt>
      <trkpt lat="51.27522" lon="4.83410"></trkpt>
      <trkpt lat="51.27516" lon="4.83409"></trkpt>
      <trkpt lat="51.27510" lon="4.83409"></trkpt>
      <trkpt lat="51.27505" lon="4.83408"></trkpt>
      <trkpt lat="51.27498" lon="4.83407"></trkpt>
      <trkpt lat="51.27493" lon="4.83407"></trkpt>
      <trkpt lat="51.27487" lon="4.83407"></trkpt>
      <trkpt lat="51.27481" lon="4.83407"></trkpt>
      <trkpt lat="51.27474" lon="4.83407"></trkpt>
      <trkpt lat="51.27467" lon="4.83405"></trkpt>
      <trkpt lat="51.27460" lon="4.83403"></trkpt>
      <trkpt lat="51.27454" lon="4.83400"></trkpt>
      <trkpt lat="51.27448" lon="4.83396"></trkpt>
      <trkpt lat="51.27442" lon="4.83394"></trkpt>
      <trkpt lat="51.27436" lon="4.83391"></trkpt>
      <trkpt lat="51.27431" lon="4.83388"></trkpt>
      <trkpt lat="51.27425" lon="4.83385"></trkpt>
      <trkpt lat="51.27417" lon="4.83382"></trkpt>
      <trkpt lat="51.27410" lon="4.83379"></trkpt>
      <trkpt lat="51.27403" lon="4.83377"></trkpt>
      <trkpt lat="51.27397" lon="4.83374"></trkpt>
      <trkpt lat="51.27390" lon="4.83372"></trkpt>
      <trkpt lat="51.27385" lon="4.83369"></trkpt>
      <trkpt lat="51.27379" lon="4.83365"></trkpt>
      <trkpt lat="51.27373" lon="4.83359"></trkpt>
      <trkpt lat="51.27369" lon="4.83351"></trkpt>
      <trkpt lat="51.27364" lon="4.83344"></trkpt>
      <trkpt lat="51.27360" lon="4.83337"></trkpt>
      <trkpt lat="51.27356" lon="4.83329"></trkpt>
      <trkpt lat="51.27353" lon="4.83321"></trkpt>
      <trkpt lat="51.27349" lon="4.83313"></trkpt>
      <trkpt lat="51.27345" lon="4.83305"></trkpt>
      <trkpt lat="51.27340" lon="4.83298"></trkpt>
      <trkpt lat="51.27336" lon="4.83291"></trkpt>
      <trkpt lat="51.27332" lon="4.83283"></trkpt>
      <trkpt lat="51.27327" lon="4.83276"></trkpt>
      <trkpt lat="51.27324" lon="4.83268"></trkpt>
      <trkpt lat="51.27322" lon="4.83259"></trkpt>
      <trkpt lat="51.27323" lon="4.83249"></trkpt>
      <trkpt lat="51.27323" lon="4.83239"></trkpt>
      <trkpt lat="51.27323" lon="4.83229"></trkpt>
      <trkpt lat="51.27323" lon="4.83218"></trkpt>
      <trkpt lat="51.27325" lon="4.83209"></trkpt>
      <trkpt lat="51.27326" lon="4.83199"></trkpt>
      <trkpt lat="51.27326" lon="4.83189"></trkpt>
      <trkpt lat="51.27325" lon="4.83180"></trkpt>
      <trkpt lat="51.27324" lon="4.83169"></trkpt>
      <trkpt lat="51.27325" lon="4.83158"></trkpt>
      <trkpt lat="51.27325" lon="4.83147"></trkpt>
      <trkpt lat="51.27324" lon="4.83136"></trkpt>
      <trkpt lat="51.27324" lon="4.83126"></trkpt>
      <trkpt lat="51.27324" lon="4.83116"></trkpt>
      <trkpt lat="51.27325" lon="4.83109"></trkpt>
      <trkpt lat="51.27327" lon="4.83101"></trkpt>
      <trkpt lat="51.27329" lon="4.83092"></trkpt>
      <trkpt lat="51.27329" lon="4.83081"></trkpt>
      <trkpt lat="51.27331" lon="4.83071"></trkpt>
      <trkpt lat="51.27332" lon="4.83061"></trkpt>
      <trkpt lat="51.27334" lon="4.83052"></trkpt>
      <trkpt lat="51.27335" lon="4.83042"></trkpt>
      <trkpt lat="51.27334" lon="4.83033"></trkpt>
      <trkpt lat="51.27332" lon="4.83023"></trkpt>
      <trkpt lat="51.27332" lon="4.83013"></trkpt>
      <trkpt lat="51.27333" lon="4.83003"></trkpt>
      <trkpt lat="51.27336" lon="4.82993"></trkpt>
      <trkpt lat="51.27340" lon="4.82985"></trkpt>
      <trkpt lat="51.27343" lon="4.82978"></trkpt>
      <trkpt lat="51.27347" lon="4.82971"></trkpt>
      <trkpt lat="51.27351" lon="4.82965"></trkpt>
      <trkpt lat="51.27354" lon="4.82959"></trkpt>
      <trkpt lat="51.27358" lon="4.82952"></trkpt>
      <trkpt lat="51.27363" lon="4.82947"></trkpt>
      <trkpt lat="51.27368" lon="4.82942"></trkpt>
      <trkpt lat="51.27373" lon="4.82934"></trkpt>
      <trkpt lat="51.27377" lon="4.82926"></trkpt>
      <trkpt lat="51.27380" lon="4.82917"></trkpt>
      <trkpt lat="51.27383" lon="4.82908"></trkpt>
      <trkpt lat="51.27385" lon="4.82898"></trkpt>
      <trkpt lat="51.27386" lon="4.82888"></trkpt>
      <trkpt lat="51.27388" lon="4.82878"></trkpt>
      <trkpt lat="51.27390" lon="4.82868"></trkpt>
      <trkpt lat="51.27392" lon="4.82857"></trkpt>
      <trkpt lat="51.27393" lon="4.82848"></trkpt>
      <trkpt lat="51.27396" lon="4.82838"></trkpt>
      <trkpt lat="51.27398" lon="4.82831"></trkpt>
      <trkpt lat="51.27401" lon="4.82827"></trkpt>
      <trkpt lat="51.27405" lon="4.82821"></trkpt>
      <trkpt lat="51.27410" lon="4.82813"></trkpt>
      <trkpt lat="51.27413" lon="4.82804"></trkpt>
      <trkpt lat="51.27413" lon="4.82794"></trkpt>
      <trkpt lat="51.27413" lon="4.82783"></trkpt>
      <trkpt lat="51.27410" lon="4.82774"></trkpt>
      <trkpt lat="51.27406" lon="4.82767"></trkpt>
      <trkpt lat="51.27402" lon="4.82759"></trkpt>
      <trkpt lat="51.27400" lon="4.82750"></trkpt>
      <trkpt lat="51.27399" lon="4.82741"></trkpt>
      <trkpt lat="51.27398" lon="4.82732"></trkpt>
      <trkpt lat="51.27396" lon="4.82722"></trkpt>
      <trkpt lat="51.27394" lon="4.82712"></trkpt>
      <trkpt lat="51.27395" lon="4.82702"></trkpt>
      <trkpt lat="51.27394" lon="4.82692"></trkpt>
      <trkpt lat="51.27390" lon="4.82684"></trkpt>
      <trkpt lat="51.27386" lon="4.82674"></trkpt>
      <trkpt lat="51.27383" lon="4.82665"></trkpt>
      <trkpt lat="51.27381" lon="4.82655"></trkpt>
      <trkpt lat="51.27378" lon="4.82645"></trkpt>
      <trkpt lat="51.27376" lon="4.82635"></trkpt>
      <trkpt lat="51.27374" lon="4.82625"></trkpt>
      <trkpt lat="51.27371" lon="4.82615"></trkpt>
      <trkpt lat="51.27370" lon="4.82606"></trkpt>
      <trkpt lat="51.27368" lon="4.82597"></trkpt>
      <trkpt lat="51.27366" lon="4.82587"></trkpt>
      <trkpt lat="51.27363" lon="4.82577"></trkpt>
      <trkpt lat="51.27362" lon="4.82567"></trkpt>
      <trkpt lat="51.27361" lon="4.82558"></trkpt>
      <trkpt lat="51.27359" lon="4.82549"></trkpt>
      <trkpt lat="51.27357" lon="4.82539"></trkpt>
      <trkpt lat="51.27355" lon="4.82530"></trkpt>
      <trkpt lat="51.27358" lon="4.82522"></trkpt>
      <trkpt lat="51.27364" lon="4.82517"></trkpt>
      <trkpt lat="51.27370" lon="4.82512"></trkpt>
      <trkpt lat="51.27377" lon="4.82507"></trkpt>
      <trkpt lat="51.27382" lon="4.82502"></trkpt>
      <trkpt lat="51.27388" lon="4.82498"></trkpt>
      <trkpt lat="51.27394" lon="4.82492"></trkpt>
      <trkpt lat="51.27400" lon="4.82486"></trkpt>
      <trkpt lat="51.27405" lon="4.82481"></trkpt>
      <trkpt lat="51.27411" lon="4.82476"></trkpt>
      <trkpt lat="51.27416" lon="4.82472"></trkpt>
      <trkpt lat="51.27421" lon="4.82468"></trkpt>
      <trkpt lat="51.27426" lon="4.82463"></trkpt>
      <trkpt lat="51.27431" lon="4.82458"></trkpt>
      <trkpt lat="51.27437" lon="4.82453"></trkpt>
      <trkpt lat="51.27442" lon="4.82447"></trkpt>
      <trkpt lat="51.27447" lon="4.82442"></trkpt>
      <trkpt lat="51.27452" lon="4.82437"></trkpt>
      <trkpt lat="51.27458" lon="4.82432"></trkpt>
      <trkpt lat="51.27464" lon="4.82426"></trkpt>
      <trkpt lat="51.27470" lon="4.82421"></trkpt>
      <trkpt lat="51.27476" lon="4.82417"></trkpt>
      <trkpt lat="51.27482" lon="4.82412"></trkpt>
      <trkpt lat="51.27488" lon="4.82407"></trkpt>
      <trkpt lat="51.27494" lon="4.82402"></trkpt>
      <trkpt lat="51.27500" lon="4.82397"></trkpt>
      <trkpt lat="51.27506" lon="4.82392"></trkpt>
      <trkpt lat="51.27512" lon="4.82388"></trkpt>
      <trkpt lat="51.27519" lon="4.82383"></trkpt>
      <trkpt lat="51.27523" lon="4.82378"></trkpt>
      <trkpt lat="51.27528" lon="4.82373"></trkpt>
      <trkpt lat="51.27534" lon="4.82367"></trkpt>
      <trkpt lat="51.27539" lon="4.82362"></trkpt>
      <trkpt lat="51.27544" lon="4.82357"></trkpt>
      <trkpt lat="51.27550" lon="4.82352"></trkpt>
      <trkpt lat="51.27556" lon="4.82347"></trkpt>
      <trkpt lat="51.27562" lon="4.82342"></trkpt>
      <trkpt lat="51.27569" lon="4.82337"></trkpt>
      <trkpt lat="51.27576" lon="4.82332"></trkpt>
      <trkpt lat="51.27582" lon="4.82326"></trkpt>
      <trkpt lat="51.27587" lon="4.82321"></trkpt>
      <trkpt lat="51.27593" lon="4.82315"></trkpt>
      <trkpt lat="51.27599" lon="4.82310"></trkpt>
      <trkpt lat="51.27604" lon="4.82304"></trkpt>
      <trkpt lat="51.27609" lon="4.82297"></trkpt>
      <trkpt lat="51.27615" lon="4.82292"></trkpt>
      <trkpt lat="51.27620" lon="4.82286"></trkpt>
      <trkpt lat="51.27626" lon="4.82280"></trkpt>
      <trkpt lat="51.27632" lon="4.82274"></trkpt>
      <trkpt lat="51.27637" lon="4.82268"></trkpt>
      <trkpt lat="51.27642" lon="4.82262"></trkpt>
      <trkpt lat="51.27647" lon="4.82257"></trkpt>
      <trkpt lat="51.27653" lon="4.82251"></trkpt>
      <trkpt lat="51.27658" lon="4.82246"></trkpt>
      <trkpt lat="51.27664" lon="4.82244"></trkpt>
      <trkpt lat="51.27669" lon="4.82252"></trkpt>
      <trkpt lat="51.27672" lon="4.82263"></trkpt>
      <trkpt lat="51.27675" lon="4.82272"></trkpt>
      <trkpt lat="51.27679" lon="4.82281"></trkpt>
      <trkpt lat="51.27683" lon="4.82290"></trkpt>
      <trkpt lat="51.27688" lon="4.82300"></trkpt>
      <trkpt lat="51.27692" lon="4.82309"></trkpt>
      <trkpt lat="51.27696" lon="4.82319"></trkpt>
      <trkpt lat="51.27699" lon="4.82328"></trkpt>
      <trkpt lat="51.27703" lon="4.82338"></trkpt>
      <trkpt lat="51.27707" lon="4.82347"></trkpt>
      <trkpt lat="51.27710" lon="4.82356"></trkpt>
      <trkpt lat="51.27713" lon="4.82365"></trkpt>
      <trkpt lat="51.27717" lon="4.82375"></trkpt>
      <trkpt lat="51.27720" lon="4.82384"></trkpt>
      <trkpt lat="51.27723" lon="4.82392"></trkpt>
      <trkpt lat="51.27726" lon="4.82401"></trkpt>
      <trkpt lat="51.27730" lon="4.82410"></trkpt>
      <trkpt lat="51.27733" lon="4.82419"></trkpt>
      <trkpt lat="51.27737" lon="4.82429"></trkpt>
      <trkpt lat="51.27740" lon="4.82438"></trkpt>
      <trkpt lat="51.27743" lon="4.82447"></trkpt>
      <trkpt lat="51.27746" lon="4.82456"></trkpt>
      <trkpt lat="51.27749" lon="4.82465"></trkpt>
      <trkpt lat="51.27753" lon="4.82474"></trkpt>
      <trkpt lat="51.27757" lon="4.82483"></trkpt>
      <trkpt lat="51.27760" lon="4.82492"></trkpt>
      <trkpt lat="51.27764" lon="4.82501"></trkpt>
      <trkpt lat="51.27767" lon="4.82511"></trkpt>
      <trkpt lat="51.27771" lon="4.82520"></trkpt>
      <trkpt lat="51.27774" lon="4.82529"></trkpt>
      <trkpt lat="51.27778" lon="4.82538"></trkpt>
      <trkpt lat="51.27782" lon="4.82547"></trkpt>
      <trkpt lat="51.27785" lon="4.82556"></trkpt>
      <trkpt lat="51.27789" lon="4.82565"></trkpt>
      <trkpt lat="51.27792" lon="4.82574"></trkpt>
      <trkpt lat="51.27796" lon="4.82584"></trkpt>
      <trkpt lat="51.27800" lon="4.82593"></trkpt>
      <trkpt lat="51.27804" lon="4.82602"></trkpt>
      <trkpt lat="51.27807" lon="4.82610"></trkpt>
      <trkpt lat="51.27810" lon="4.82618"></trkpt>
      <trkpt lat="51.27812" lon="4.82623"></trkpt>
      <trkpt lat="51.27814" lon="4.82628"></trkpt>
      <trkpt lat="51.27816" lon="4.82633"></trkpt>
      <trkpt lat="51.27817" lon="4.82638"></trkpt>
      <trkpt lat="51.27819" lon="4.82643"></trkpt>
      <trkpt lat="51.27821" lon="4.82648"></trkpt>
      <trkpt lat="51.27823" lon="4.82653"></trkpt>
      <trkpt lat="51.27825" lon="4.82657"></trkpt>
      <trkpt lat="51.27828" lon="4.82659"></trkpt>
      <trkpt lat="51.27833" lon="4.82659"></trkpt>
      <trkpt lat="51.27838" lon="4.82657"></trkpt>
      <trkpt lat="51.27843" lon="4.82654"></trkpt>
      <trkpt lat="51.27848" lon="4.82650"></trkpt>
      <trkpt lat="51.27854" lon="4.82646"></trkpt>
      <trkpt lat="51.27860" lon="4.82642"></trkpt>
      <trkpt lat="51.27866" lon="4.82639"></trkpt>
      <trkpt lat="51.27872" lon="4.82635"></trkpt>
      <trkpt lat="51.27878" lon="4.82630"></trkpt>
      <trkpt lat="51.27884" lon="4.82626"></trkpt>
      <trkpt lat="51.27890" lon="4.82623"></trkpt>
      <trkpt lat="51.27896" lon="4.82619"></trkpt>
      <trkpt lat="51.27902" lon="4.82615"></trkpt>
      <trkpt lat="51.27907" lon="4.82610"></trkpt>
      <trkpt lat="51.27912" lon="4.82604"></trkpt>
      <trkpt lat="51.27917" lon="4.82600"></trkpt>
      <trkpt lat="51.27922" lon="4.82595"></trkpt>
      <trkpt lat="51.27928" lon="4.82590"></trkpt>
      <trkpt lat="51.27933" lon="4.82586"></trkpt>
      <trkpt lat="51.27936" lon="4.82583"></trkpt>
      <trkpt lat="51.27939" lon="4.82581"></trkpt>
      <trkpt lat="51.27946" lon="4.82583"></trkpt>
      <trkpt lat="51.27953" lon="4.82589"></trkpt>
      <trkpt lat="51.27959" lon="4.82595"></trkpt>
      <trkpt lat="51.27965" lon="4.82604"></trkpt>
      <trkpt lat="51.27970" lon="4.82614"></trkpt>
      <trkpt lat="51.27974" lon="4.82625"></trkpt>
      <trkpt lat="51.27976" lon="4.82636"></trkpt>
      <trkpt lat="51.27978" lon="4.82646"></trkpt>
      <trkpt lat="51.27980" lon="4.82655"></trkpt>
      <trkpt lat="51.27982" lon="4.82662"></trkpt>
      <trkpt lat="51.27985" lon="4.82671"></trkpt>
      <trkpt lat="51.27986" lon="4.82678"></trkpt>
      <trkpt lat="51.27988" lon="4.82685"></trkpt>
      <trkpt lat="51.27992" lon="4.82692"></trkpt>
      <trkpt lat="51.27996" lon="4.82699"></trkpt>
      <trkpt lat="51.28000" lon="4.82707"></trkpt>
      <trkpt lat="51.28003" lon="4.82716"></trkpt>
      <trkpt lat="51.28006" lon="4.82725"></trkpt>
      <trkpt lat="51.28007" lon="4.82735"></trkpt>
      <trkpt lat="51.28007" lon="4.82745"></trkpt>
      <trkpt lat="51.28007" lon="4.82755"></trkpt>
      <trkpt lat="51.28007" lon="4.82764"></trkpt>
      <trkpt lat="51.28008" lon="4.82775"></trkpt>
      <trkpt lat="51.28007" lon="4.82785"></trkpt>
      <trkpt lat="51.28008" lon="4.82796"></trkpt>
      <trkpt lat="51.28008" lon="4.82807"></trkpt>
      <trkpt lat="51.28007" lon="4.82818"></trkpt>
      <trkpt lat="51.28007" lon="4.82828"></trkpt>
      <trkpt lat="51.28007" lon="4.82837"></trkpt>
      <trkpt lat="51.28008" lon="4.82848"></trkpt>
      <trkpt lat="51.28009" lon="4.82857"></trkpt>
      <trkpt lat="51.28011" lon="4.82866"></trkpt>
      <trkpt lat="51.28012" lon="4.82876"></trkpt>
      <trkpt lat="51.28013" lon="4.82886"></trkpt>
      <trkpt lat="51.28014" lon="4.82897"></trkpt>
      <trkpt lat="51.28016" lon="4.82907"></trkpt>
      <trkpt lat="51.28016" lon="4.82917"></trkpt>
      <trkpt lat="51.28017" lon="4.82927"></trkpt>
      <trkpt lat="51.28018" lon="4.82938"></trkpt>
      <trkpt lat="51.28018" lon="4.82947"></trkpt>
      <trkpt lat="51.28018" lon="4.82958"></trkpt>
      <trkpt lat="51.28018" lon="4.82969"></trkpt>
      <trkpt lat="51.28018" lon="4.82979"></trkpt>
      <trkpt lat="51.28018" lon="4.82988"></trkpt>
      <trkpt lat="51.28019" lon="4.82999"></trkpt>
      <trkpt lat="51.28020" lon="4.83010"></trkpt>
      <trkpt lat="51.28022" lon="4.83021"></trkpt>
      <trkpt lat="51.28024" lon="4.83031"></trkpt>
      <trkpt lat="51.28027" lon="4.83041"></trkpt>
      <trkpt lat="51.28029" lon="4.83052"></trkpt>
      <trkpt lat="51.28030" lon="4.83061"></trkpt>
      <trkpt lat="51.28031" lon="4.83071"></trkpt>
      <trkpt lat="51.28032" lon="4.83082"></trkpt>
      <trkpt lat="51.28034" lon="4.83091"></trkpt>
      <trkpt lat="51.28035" lon="4.83101"></trkpt>
      <trkpt lat="51.28036" lon="4.83110"></trkpt>
      <trkpt lat="51.28038" lon="4.83120"></trkpt>
      <trkpt lat="51.28038" lon="4.83129"></trkpt>
      <trkpt lat="51.28038" lon="4.83138"></trkpt>
      <trkpt lat="51.28040" lon="4.83149"></trkpt>
      <trkpt lat="51.28042" lon="4.83159"></trkpt>
      <trkpt lat="51.28044" lon="4.83169"></trkpt>
      <trkpt lat="51.28046" lon="4.83179"></trkpt>
      <trkpt lat="51.28050" lon="4.83190"></trkpt>
      <trkpt lat="51.28052" lon="4.83199"></trkpt>
      <trkpt lat="51.28054" lon="4.83210"></trkpt>
      <trkpt lat="51.28057" lon="4.83220"></trkpt>
      <trkpt lat="51.28061" lon="4.83229"></trkpt>
      <trkpt lat="51.28066" lon="4.83235"></trkpt>
      <trkpt lat="51.28070" lon="4.83241"></trkpt>
      <trkpt lat="51.28067" lon="4.83248"></trkpt>
      <trkpt lat="51.28061" lon="4.83253"></trkpt>
      <trkpt lat="51.28054" lon="4.83257"></trkpt>
      <trkpt lat="51.28046" lon="4.83257"></trkpt>
      <trkpt lat="51.28043" lon="4.83256"></trkpt>
      <trkpt lat="51.28040" lon="4.83255"></trkpt>
      <trkpt lat="51.28033" lon="4.83255"></trkpt>
      <trkpt lat="51.28026" lon="4.83258"></trkpt>
      <trkpt lat="51.28021" lon="4.83262"></trkpt>
      <trkpt lat="51.28017" lon="4.83263"></trkpt>
      <trkpt lat="51.28019" lon="4.83261"></trkpt>
      <trkpt lat="51.28021" lon="4.83259"></trkpt>
      <trkpt lat="51.28023" lon="4.83257"></trkpt>
      <trkpt lat="51.28023" lon="4.83257"></trkpt>
      <trkpt lat="51.28023" lon="4.83257"></trkpt>
      <trkpt lat="51.28023" lon="4.83257"></trkpt>
      <trkpt lat="51.28023" lon="4.83257"></trkpt>
      <trkpt lat="51.28023" lon="4.83257"></trkpt>
      <trkpt lat="51.28023" lon="4.83257"></trkpt>
      <trkpt lat="51.28023" lon="4.83257"></trkpt>
      <trkpt lat="51.28023" lon="4.83257"></trkpt>
      <trkpt lat="51.28023" lon="4.83257"></trkpt>
      <trkpt lat="51.28023" lon="4.83257"></trkpt>
      <trkpt lat="51.28023" lon="4.83257"></trkpt>
      <trkpt lat="51.28023" lon="4.83257"></trkpt>
      <trkpt lat="51.28023" lon="4.83257"></trkpt>
      <trkpt lat="51.28023" lon="4.83257"></trkpt>
      <trkpt lat="51.28024" lon="4.83257"></trkpt>
      <trkpt lat="51.28024" lon="4.83257"></trkpt>
      <trkpt lat="51.28024" lon="4.83257"></trkpt>
      <trkpt lat="51.28024" lon="4.83257"></trkpt>
      <trkpt lat="51.28024" lon="4.83257"></trkpt>
      <trkpt lat="51.28024" lon="4.83257"></trkpt>
      <trkpt lat="51.28024" lon="4.83257"></trkpt>
      <trkpt lat="51.28024" lon="4.83257"></trkpt>
      <trkpt lat="51.28024" lon="4.83257"></trkpt>
      <trkpt lat="51.28024" lon="4.83257"></trkpt>
      <trkpt lat="51.28024" lon="4.83257"></trkpt>
      <trkpt lat="51.28024" lon="4.83257"></trkpt>
      <trkpt lat="51.28024" lon="4.83257"></trkpt>
      <trkpt lat="51.28024" lon="4.83257"></trkpt>
      <trkpt lat="51.28024" lon="4.83257"></trkpt>
      <trkpt lat="51.28024" lon="4.83257"></trkpt>
      <trkpt lat="51.28024" lon="4.83257"></trkpt>
      <trkpt lat="51.28024" lon="4.83257"></trkpt>
      <trkpt lat="51.28024" lon="4.83257"></trkpt>
      <trkpt lat="51.28024" lon="4.83257"></trkpt>
      <trkpt lat="51.28024" lon="4.83257"></trkpt>
      <trkpt lat="51.28024" lon="4.83257"></trkpt>
      <trkpt lat="51.28024" lon="4.83257"></trkpt>
      <trkpt lat="51.28024" lon="4.83257"></trkpt>
      <trkpt lat="51.28024" lon="4.83257"></trkpt>
      <trkpt lat="51.28024" lon="4.83257"></trkpt>
      <trkpt lat="51.28024" lon="4.83257"></trkpt>
      <trkpt lat="51.28024" lon="4.83257"></trkpt>
      <trkpt lat="51.28024" lon="4.83257"></trkpt>
      <trkpt lat="51.28024" lon="4.83257"></trkpt>
      <trkpt lat="51.28024" lon="4.83257"></trkpt>
      <trkpt lat="51.28024" lon="4.83257"></trkpt>
      <trkpt lat="51.28024" lon="4.83257"></trkpt>
      <trkpt lat="51.28024" lon="4.83257"></trkpt>
      <trkpt lat="51.28024" lon="4.83257"></trkpt>
      <trkpt lat="51.28024" lon="4.83257"></trkpt>
      <trkpt lat="51.28024" lon="4.83257"></trkpt>
      <trkpt lat="51.28024" lon="4.83257"></trkpt>
      <trkpt lat="51.28024" lon="4.83257"></trkpt>
      <trkpt lat="51.28024" lon="4.83257"></trkpt>
      <trkpt lat="51.28024" lon="4.83257"></trkpt>
      <trkpt lat="51.28024" lon="4.83257"></trkpt>
      <trkpt lat="51.28024" lon="4.83257"></trkpt>
      <trkpt lat="51.28024" lon="4.83257"></trkpt>
      <trkpt lat="51.28024" lon="4.83257"></trkpt>
      <trkpt lat="51.28024" lon="4.83257"></trkpt>
      <trkpt lat="51.28025" lon="4.83257"></trkpt>
      <trkpt lat="51.28025" lon="4.83257"></trkpt>
      <trkpt lat="51.28025" lon="4.83257"></trkpt>
      <trkpt lat="51.28025" lon="4.83257"></trkpt>
      <trkpt lat="51.28025" lon="4.83257"></trkpt>
      <trkpt lat="51.28025" lon="4.83257"></trkpt>
      <trkpt lat="51.28025" lon="4.83257"></trkpt>
      <trkpt lat="51.28025" lon="4.83257"></trkpt>
      <trkpt lat="51.28025" lon="4.83257"></trkpt>
      <trkpt lat="51.28025" lon="4.83257"></trkpt>
      <trkpt lat="51.28025" lon="4.83257"></trkpt>
      <trkpt lat="51.28025" lon="4.83257"></trkpt>
      <trkpt lat="51.28025" lon="4.83256"></trkpt>
      <trkpt lat="51.28025" lon="4.83256"></trkpt>
      <trkpt lat="51.28025" lon="4.83256"></trkpt>
      <trkpt lat="51.28025" lon="4.83256"></trkpt>
      <trkpt lat="51.28025" lon="4.83256"></trkpt>
      <trkpt lat="51.28025" lon="4.83256"></trkpt>
      <trkpt lat="51.28025" lon="4.83256"></trkpt>
      <trkpt lat="51.28025" lon="4.83256"></trkpt>
      <trkpt lat="51.28025" lon="4.83256"></trkpt>
      <trkpt lat="51.28025" lon="4.83256"></trkpt>
      <trkpt lat="51.28025" lon="4.83256"></trkpt>
      <trkpt lat="51.28025" lon="4.83256"></trkpt>
      <trkpt lat="51.28025" lon="4.83256"></trkpt>
      <trkpt lat="51.28025" lon="4.83256"></trkpt>
      <trkpt lat="51.28025" lon="4.83256"></trkpt>
      <trkpt lat="51.28025" lon="4.83256"></trkpt>
      <trkpt lat="51.28025" lon="4.83256"></trkpt>
      <trkpt lat="51.28025" lon="4.83256"></trkpt>
      <trkpt lat="51.28025" lon="4.83256"></trkpt>
      <trkpt lat="51.28023" lon="4.83257"></trkpt>
      <trkpt lat="51.28017" lon="4.83258"></trkpt>
      <trkpt lat="51.28010" lon="4.83261"></trkpt>
      <trkpt lat="51.28003" lon="4.83264"></trkpt>
      <trkpt lat="51.27997" lon="4.83266"></trkpt>
      <trkpt lat="51.27990" lon="4.83268"></trkpt>
      <trkpt lat="51.27983" lon="4.83269"></trkpt>
      <trkpt lat="51.27976" lon="4.83271"></trkpt>
      <trkpt lat="51.27969" lon="4.83274"></trkpt>
      <trkpt lat="51.27962" lon="4.83275"></trkpt>
      <trkpt lat="51.27955" lon="4.83277"></trkpt>
      <trkpt lat="51.27948" lon="4.83279"></trkpt>
      <trkpt lat="51.27941" lon="4.83281"></trkpt>
      <trkpt lat="51.27934" lon="4.83282"></trkpt>
      <trkpt lat="51.27928" lon="4.83284"></trkpt>
      <trkpt lat="51.27921" lon="4.83286"></trkpt>
      <trkpt lat="51.27915" lon="4.83287"></trkpt>
      <trkpt lat="51.27908" lon="4.83286"></trkpt>
      <trkpt lat="51.27902" lon="4.83287"></trkpt>
      <trkpt lat="51.27895" lon="4.83286"></trkpt>
      <trkpt lat="51.27889" lon="4.83285"></trkpt>
      <trkpt lat="51.27882" lon="4.83286"></trkpt>
      <trkpt lat="51.27874" lon="4.83287"></trkpt>
      <trkpt lat="51.27867" lon="4.83289"></trkpt>
      <trkpt lat="51.27860" lon="4.83291"></trkpt>
      <trkpt lat="51.27854" lon="4.83294"></trkpt>
      <trkpt lat="51.27847" lon="4.83296"></trkpt>
      <trkpt lat="51.27841" lon="4.83299"></trkpt>
      <trkpt lat="51.27834" lon="4.83302"></trkpt>
      <trkpt lat="51.27828" lon="4.83305"></trkpt>
      <trkpt lat="51.27822" lon="4.83308"></trkpt>
      <trkpt lat="51.27816" lon="4.83310"></trkpt>
      <trkpt lat="51.27810" lon="4.83312"></trkpt>
      <trkpt lat="51.27804" lon="4.83315"></trkpt>
      <trkpt lat="51.27798" lon="4.83318"></trkpt>
      <trkpt lat="51.27791" lon="4.83321"></trkpt>
      <trkpt lat="51.27785" lon="4.83324"></trkpt>
      <trkpt lat="51.27779" lon="4.83327"></trkpt>
      <trkpt lat="51.27773" lon="4.83330"></trkpt>
      <trkpt lat="51.27767" lon="4.83333"></trkpt>
      <trkpt lat="51.27763" lon="4.83341"></trkpt>
      <trkpt lat="51.27762" lon="4.83352"></trkpt>
      <trkpt lat="51.27763" lon="4.83362"></trkpt>
      <trkpt lat="51.27764" lon="4.83373"></trkpt>
      <trkpt lat="51.27765" lon="4.83383"></trkpt>
      <trkpt lat="51.27767" lon="4.83394"></trkpt>
      <trkpt lat="51.27767" lon="4.83405"></trkpt>
      <trkpt lat="51.27769" lon="4.83415"></trkpt>
      <trkpt lat="51.27770" lon="4.83425"></trkpt>
      <trkpt lat="51.27776" lon="4.83430"></trkpt>
      <trkpt lat="51.27782" lon="4.83430"></trkpt>
      <trkpt lat="51.27789" lon="4.83429"></trkpt>
      <trkpt lat="51.27795" lon="4.83427"></trkpt>
      <trkpt lat="51.27801" lon="4.83426"></trkpt>
      <trkpt lat="51.27807" lon="4.83423"></trkpt>
      <trkpt lat="51.27813" lon="4.83422"></trkpt>
      <trkpt lat="51.27820" lon="4.83420"></trkpt>
      <trkpt lat="51.27827" lon="4.83419"></trkpt>
      <trkpt lat="51.27833" lon="4.83420"></trkpt>
      <trkpt lat="51.27841" lon="4.83419"></trkpt>
      <trkpt lat="51.27848" lon="4.83418"></trkpt>
      <trkpt lat="51.27855" lon="4.83418"></trkpt>
      <trkpt lat="51.27861" lon="4.83417"></trkpt>
      <trkpt lat="51.27868" lon="4.83417"></trkpt>
      <trkpt lat="51.27875" lon="4.83416"></trkpt>
      <trkpt lat="51.27882" lon="4.83415"></trkpt>
      <trkpt lat="51.27889" lon="4.83414"></trkpt>
      <trkpt lat="51.27895" lon="4.83414"></trkpt>
      <trkpt lat="51.27902" lon="4.83413"></trkpt>
      <trkpt lat="51.27908" lon="4.83412"></trkpt>
      <trkpt lat="51.27915" lon="4.83411"></trkpt>
      <trkpt lat="51.27923" lon="4.83409"></trkpt>
      <trkpt lat="51.27930" lon="4.83407"></trkpt>
      <trkpt lat="51.27936" lon="4.83406"></trkpt>
      <trkpt lat="51.27943" lon="4.83403"></trkpt>
      <trkpt lat="51.27951" lon="4.83401"></trkpt>
      <trkpt lat="51.27958" lon="4.83400"></trkpt>
      <trkpt lat="51.27965" lon="4.83398"></trkpt>
      <trkpt lat="51.27971" lon="4.83398"></trkpt>
      <trkpt lat="51.27976" lon="4.83397"></trkpt>
      <trkpt lat="51.27982" lon="4.83395"></trkpt>
      <trkpt lat="51.27989" lon="4.83394"></trkpt>
      <trkpt lat="51.27994" lon="4.83392"></trkpt>
      <trkpt lat="51.28000" lon="4.83390"></trkpt>
      <trkpt lat="51.28006" lon="4.83389"></trkpt>
      <trkpt lat="51.28013" lon="4.83388"></trkpt>
      <trkpt lat="51.28019" lon="4.83386"></trkpt>
      <trkpt lat="51.28026" lon="4.83386"></trkpt>
      <trkpt lat="51.28033" lon="4.83387"></trkpt>
      <trkpt lat="51.28040" lon="4.83386"></trkpt>
      <trkpt lat="51.28045" lon="4.83384"></trkpt>
      <trkpt lat="51.28052" lon="4.83382"></trkpt>
      <trkpt lat="51.28058" lon="4.83381"></trkpt>
      <trkpt lat="51.28064" lon="4.83380"></trkpt>
      <trkpt lat="51.28070" lon="4.83379"></trkpt>
      <trkpt lat="51.28077" lon="4.83379"></trkpt>
      <trkpt lat="51.28082" lon="4.83378"></trkpt>
      <trkpt lat="51.28089" lon="4.83376"></trkpt>
      <trkpt lat="51.28095" lon="4.83373"></trkpt>
      <trkpt lat="51.28102" lon="4.83368"></trkpt>
      <trkpt lat="51.28108" lon="4.83363"></trkpt>
      <trkpt lat="51.28114" lon="4.83357"></trkpt>
      <trkpt lat="51.28120" lon="4.83353"></trkpt>
      <trkpt lat="51.28127" lon="4.83346"></trkpt>
      <trkpt lat="51.28132" lon="4.83341"></trkpt>
      <trkpt lat="51.28138" lon="4.83337"></trkpt>
      <trkpt lat="51.28145" lon="4.83332"></trkpt>
      <trkpt lat="51.28151" lon="4.83327"></trkpt>
      <trkpt lat="51.28157" lon="4.83322"></trkpt>
      <trkpt lat="51.28160" lon="4.83318"></trkpt>
      <trkpt lat="51.28162" lon="4.83314"></trkpt>
      <trkpt lat="51.28164" lon="4.83312"></trkpt>
      <trkpt lat="51.28168" lon="4.83312"></trkpt>
      <trkpt lat="51.28172" lon="4.83314"></trkpt>
      <trkpt lat="51.28176" lon="4.83315"></trkpt>
      <trkpt lat="51.28179" lon="4.83317"></trkpt>
      <trkpt lat="51.28183" lon="4.83317"></trkpt>
      <trkpt lat="51.28189" lon="4.83315"></trkpt>
      <trkpt lat="51.28196" lon="4.83311"></trkpt>
      <trkpt lat="51.28202" lon="4.83306"></trkpt>
      <trkpt lat="51.28209" lon="4.83303"></trkpt>
      <trkpt lat="51.28215" lon="4.83298"></trkpt>
      <trkpt lat="51.28221" lon="4.83294"></trkpt>
      <trkpt lat="51.28227" lon="4.83289"></trkpt>
      <trkpt lat="51.28233" lon="4.83285"></trkpt>
      <trkpt lat="51.28240" lon="4.83279"></trkpt>
      <trkpt lat="51.28246" lon="4.83279"></trkpt>
      <trkpt lat="51.28250" lon="4.83285"></trkpt>
      <trkpt lat="51.28255" lon="4.83294"></trkpt>
      <trkpt lat="51.28259" lon="4.83304"></trkpt>
      <trkpt lat="51.28263" lon="4.83314"></trkpt>
      <trkpt lat="51.28266" lon="4.83323"></trkpt>
      <trkpt lat="51.28269" lon="4.83333"></trkpt>
      <trkpt lat="51.28273" lon="4.83342"></trkpt>
      <trkpt lat="51.28277" lon="4.83351"></trkpt>
      <trkpt lat="51.28282" lon="4.83360"></trkpt>
      <trkpt lat="51.28285" lon="4.83369"></trkpt>
      <trkpt lat="51.28288" lon="4.83377"></trkpt>
      <trkpt lat="51.28291" lon="4.83386"></trkpt>
      <trkpt lat="51.28295" lon="4.83394"></trkpt>
      <trkpt lat="51.28300" lon="4.83403"></trkpt>
      <trkpt lat="51.28305" lon="4.83412"></trkpt>
      <trkpt lat="51.28309" lon="4.83421"></trkpt>
      <trkpt lat="51.28312" lon="4.83430"></trkpt>
      <trkpt lat="51.28316" lon="4.83437"></trkpt>
      <trkpt lat="51.28321" lon="4.83445"></trkpt>
      <trkpt lat="51.28325" lon="4.83454"></trkpt>
      <trkpt lat="51.28330" lon="4.83461"></trkpt>
      <trkpt lat="51.28334" lon="4.83469"></trkpt>
      <trkpt lat="51.28339" lon="4.83476"></trkpt>
      <trkpt lat="51.28344" lon="4.83481"></trkpt>
      <trkpt lat="51.28350" lon="4.83485"></trkpt>
      <trkpt lat="51.28357" lon="4.83491"></trkpt>
      <trkpt lat="51.28362" lon="4.83500"></trkpt>
      <trkpt lat="51.28367" lon="4.83507"></trkpt>
      <trkpt lat="51.28373" lon="4.83512"></trkpt>
      <trkpt lat="51.28378" lon="4.83518"></trkpt>
      <trkpt lat="51.28384" lon="4.83524"></trkpt>
      <trkpt lat="51.28389" lon="4.83529"></trkpt>
      <trkpt lat="51.28395" lon="4.83535"></trkpt>
      <trkpt lat="51.28401" lon="4.83543"></trkpt>
      <trkpt lat="51.28406" lon="4.83550"></trkpt>
      <trkpt lat="51.28409" lon="4.83556"></trkpt>
      <trkpt lat="51.28414" lon="4.83562"></trkpt>
      <trkpt lat="51.28418" lon="4.83568"></trkpt>
      <trkpt lat="51.28424" lon="4.83573"></trkpt>
      <trkpt lat="51.28430" lon="4.83579"></trkpt>
      <trkpt lat="51.28436" lon="4.83584"></trkpt>
      <trkpt lat="51.28442" lon="4.83584"></trkpt>
      <trkpt lat="51.28449" lon="4.83586"></trkpt>
      <trkpt lat="51.28455" lon="4.83590"></trkpt>
      <trkpt lat="51.28462" lon="4.83594"></trkpt>
      <trkpt lat="51.28469" lon="4.83596"></trkpt>
      <trkpt lat="51.28476" lon="4.83600"></trkpt>
      <trkpt lat="51.28483" lon="4.83604"></trkpt>
      <trkpt lat="51.28490" lon="4.83607"></trkpt>
      <trkpt lat="51.28496" lon="4.83611"></trkpt>
      <trkpt lat="51.28503" lon="4.83615"></trkpt>
      <trkpt lat="51.28509" lon="4.83618"></trkpt>
      <trkpt lat="51.28516" lon="4.83622"></trkpt>
      <trkpt lat="51.28522" lon="4.83626"></trkpt>
      <trkpt lat="51.28529" lon="4.83630"></trkpt>
      <trkpt lat="51.28535" lon="4.83635"></trkpt>
      <trkpt lat="51.28542" lon="4.83639"></trkpt>
      <trkpt lat="51.28548" lon="4.83643"></trkpt>
      <trkpt lat="51.28555" lon="4.83647"></trkpt>
      <trkpt lat="51.28561" lon="4.83650"></trkpt>
      <trkpt lat="51.28567" lon="4.83654"></trkpt>
      <trkpt lat="51.28573" lon="4.83658"></trkpt>
      <trkpt lat="51.28579" lon="4.83661"></trkpt>
      <trkpt lat="51.28586" lon="4.83664"></trkpt>
      <trkpt lat="51.28592" lon="4.83668"></trkpt>
      <trkpt lat="51.28599" lon="4.83671"></trkpt>
      <trkpt lat="51.28606" lon="4.83675"></trkpt>
      <trkpt lat="51.28612" lon="4.83678"></trkpt>
      <trkpt lat="51.28618" lon="4.83681"></trkpt>
      <trkpt lat="51.28623" lon="4.83685"></trkpt>
      <trkpt lat="51.28628" lon="4.83689"></trkpt>
      <trkpt lat="51.28634" lon="4.83693"></trkpt>
      <trkpt lat="51.28639" lon="4.83697"></trkpt>
      <trkpt lat="51.28644" lon="4.83699"></trkpt>
      <trkpt lat="51.28650" lon="4.83701"></trkpt>
      <trkpt lat="51.28657" lon="4.83705"></trkpt>
      <trkpt lat="51.28663" lon="4.83709"></trkpt>
      <trkpt lat="51.28668" lon="4.83713"></trkpt>
      <trkpt lat="51.28675" lon="4.83716"></trkpt>
      <trkpt lat="51.28681" lon="4.83720"></trkpt>
      <trkpt lat="51.28688" lon="4.83724"></trkpt>
      <trkpt lat="51.28694" lon="4.83728"></trkpt>
      <trkpt lat="51.28700" lon="4.83732"></trkpt>
      <trkpt lat="51.28706" lon="4.83736"></trkpt>
      <trkpt lat="51.28712" lon="4.83740"></trkpt>
      <trkpt lat="51.28718" lon="4.83745"></trkpt>
      <trkpt lat="51.28723" lon="4.83748"></trkpt>
      <trkpt lat="51.28730" lon="4.83750"></trkpt>
      <trkpt lat="51.28737" lon="4.83754"></trkpt>
      <trkpt lat="51.28743" lon="4.83758"></trkpt>
      <trkpt lat="51.28749" lon="4.83763"></trkpt>
      <trkpt lat="51.28755" lon="4.83767"></trkpt>
      <trkpt lat="51.28762" lon="4.83771"></trkpt>
      <trkpt lat="51.28769" lon="4.83773"></trkpt>
      <trkpt lat="51.28776" lon="4.83776"></trkpt>
      <trkpt lat="51.28783" lon="4.83778"></trkpt>
      <trkpt lat="51.28789" lon="4.83782"></trkpt>
      <trkpt lat="51.28795" lon="4.83784"></trkpt>
      <trkpt lat="51.28802" lon="4.83787"></trkpt>
      <trkpt lat="51.28808" lon="4.83792"></trkpt>
      <trkpt lat="51.28812" lon="4.83796"></trkpt>
      <trkpt lat="51.28815" lon="4.83805"></trkpt>
      <trkpt lat="51.28815" lon="4.83815"></trkpt>
      <trkpt lat="51.28815" lon="4.83827"></trkpt>
      <trkpt lat="51.28813" lon="4.83838"></trkpt>
      <trkpt lat="51.28809" lon="4.83847"></trkpt>
      <trkpt lat="51.28804" lon="4.83854"></trkpt>
      <trkpt lat="51.28798" lon="4.83861"></trkpt>
      <trkpt lat="51.28793" lon="4.83869"></trkpt>
      <trkpt lat="51.28787" lon="4.83876"></trkpt>
      <trkpt lat="51.28782" lon="4.83884"></trkpt>
      <trkpt lat="51.28776" lon="4.83892"></trkpt>
      <trkpt lat="51.28771" lon="4.83901"></trkpt>
      <trkpt lat="51.28766" lon="4.83910"></trkpt>
      <trkpt lat="51.28761" lon="4.83916"></trkpt>
      <trkpt lat="51.28755" lon="4.83921"></trkpt>
      <trkpt lat="51.28750" lon="4.83927"></trkpt>
      <trkpt lat="51.28743" lon="4.83934"></trkpt>
      <trkpt lat="51.28738" lon="4.83942"></trkpt>
      <trkpt lat="51.28733" lon="4.83950"></trkpt>
      <trkpt lat="51.28728" lon="4.83958"></trkpt>
      <trkpt lat="51.28725" lon="4.83966"></trkpt>
      <trkpt lat="51.28728" lon="4.83976"></trkpt>
      <trkpt lat="51.28731" lon="4.83985"></trkpt>
      <trkpt lat="51.28735" lon="4.83994"></trkpt>
      <trkpt lat="51.28739" lon="4.84003"></trkpt>
      <trkpt lat="51.28744" lon="4.84012"></trkpt>
      <trkpt lat="51.28748" lon="4.84020"></trkpt>
      <trkpt lat="51.28753" lon="4.84029"></trkpt>
      <trkpt lat="51.28758" lon="4.84037"></trkpt>
      <trkpt lat="51.28762" lon="4.84046"></trkpt>
      <trkpt lat="51.28767" lon="4.84054"></trkpt>
      <trkpt lat="51.28772" lon="4.84061"></trkpt>
      <trkpt lat="51.28777" lon="4.84069"></trkpt>
      <trkpt lat="51.28781" lon="4.84076"></trkpt>
      <trkpt lat="51.28786" lon="4.84081"></trkpt>
      <trkpt lat="51.28791" lon="4.84087"></trkpt>
      <trkpt lat="51.28797" lon="4.84095"></trkpt>
      <trkpt lat="51.28803" lon="4.84099"></trkpt>
      <trkpt lat="51.28810" lon="4.84102"></trkpt>
      <trkpt lat="51.28818" lon="4.84106"></trkpt>
      <trkpt lat="51.28824" lon="4.84111"></trkpt>
      <trkpt lat="51.28831" lon="4.84115"></trkpt>
      <trkpt lat="51.28837" lon="4.84120"></trkpt>
      <trkpt lat="51.28844" lon="4.84125"></trkpt>
      <trkpt lat="51.28850" lon="4.84130"></trkpt>
      <trkpt lat="51.28856" lon="4.84136"></trkpt>
      <trkpt lat="51.28863" lon="4.84141"></trkpt>
      <trkpt lat="51.28868" lon="4.84146"></trkpt>
      <trkpt lat="51.28874" lon="4.84150"></trkpt>
      <trkpt lat="51.28880" lon="4.84151"></trkpt>
      <trkpt lat="51.28887" lon="4.84150"></trkpt>
      <trkpt lat="51.28891" lon="4.84151"></trkpt>
      <trkpt lat="51.28893" lon="4.84155"></trkpt>
      <trkpt lat="51.28897" lon="4.84157"></trkpt>
      <trkpt lat="51.28904" lon="4.84155"></trkpt>
      <trkpt lat="51.28909" lon="4.84150"></trkpt>
      <trkpt lat="51.28914" lon="4.84144"></trkpt>
      <trkpt lat="51.28918" lon="4.84138"></trkpt>
      <trkpt lat="51.28922" lon="4.84131"></trkpt>
      <trkpt lat="51.28927" lon="4.84125"></trkpt>
      <trkpt lat="51.28933" lon="4.84118"></trkpt>
      <trkpt lat="51.28938" lon="4.84112"></trkpt>
      <trkpt lat="51.28943" lon="4.84105"></trkpt>
      <trkpt lat="51.28948" lon="4.84099"></trkpt>
      <trkpt lat="51.28953" lon="4.84092"></trkpt>
      <trkpt lat="51.28959" lon="4.84086"></trkpt>
      <trkpt lat="51.28965" lon="4.84079"></trkpt>
      <trkpt lat="51.28971" lon="4.84071"></trkpt>
      <trkpt lat="51.28976" lon="4.84064"></trkpt>
      <trkpt lat="51.28982" lon="4.84057"></trkpt>
      <trkpt lat="51.28987" lon="4.84051"></trkpt>
      <trkpt lat="51.28993" lon="4.84047"></trkpt>
      <trkpt lat="51.28998" lon="4.84050"></trkpt>
      <trkpt lat="51.29003" lon="4.84059"></trkpt>
      <trkpt lat="51.29008" lon="4.84069"></trkpt>
      <trkpt lat="51.29012" lon="4.84077"></trkpt>
      <trkpt lat="51.29016" lon="4.84086"></trkpt>
      <trkpt lat="51.29020" lon="4.84095"></trkpt>
      <trkpt lat="51.29024" lon="4.84104"></trkpt>
      <trkpt lat="51.29027" lon="4.84114"></trkpt>
      <trkpt lat="51.29031" lon="4.84122"></trkpt>
      <trkpt lat="51.29036" lon="4.84131"></trkpt>
      <trkpt lat="51.29041" lon="4.84140"></trkpt>
      <trkpt lat="51.29045" lon="4.84147"></trkpt>
      <trkpt lat="51.29049" lon="4.84155"></trkpt>
      <trkpt lat="51.29054" lon="4.84163"></trkpt>
      <trkpt lat="51.29058" lon="4.84171"></trkpt>
      <trkpt lat="51.29063" lon="4.84179"></trkpt>
      <trkpt lat="51.29067" lon="4.84189"></trkpt>
      <trkpt lat="51.29071" lon="4.84197"></trkpt>
      <trkpt lat="51.29076" lon="4.84206"></trkpt>
      <trkpt lat="51.29079" lon="4.84215"></trkpt>
      <trkpt lat="51.29083" lon="4.84224"></trkpt>
      <trkpt lat="51.29087" lon="4.84233"></trkpt>
      <trkpt lat="51.29091" lon="4.84241"></trkpt>
      <trkpt lat="51.29096" lon="4.84249"></trkpt>
      <trkpt lat="51.29101" lon="4.84257"></trkpt>
      <trkpt lat="51.29105" lon="4.84265"></trkpt>
      <trkpt lat="51.29109" lon="4.84273"></trkpt>
      <trkpt lat="51.29113" lon="4.84282"></trkpt>
      <trkpt lat="51.29117" lon="4.84291"></trkpt>
      <trkpt lat="51.29121" lon="4.84299"></trkpt>
      <trkpt lat="51.29126" lon="4.84308"></trkpt>
      <trkpt lat="51.29130" lon="4.84317"></trkpt>
      <trkpt lat="51.29134" lon="4.84325"></trkpt>
      <trkpt lat="51.29139" lon="4.84334"></trkpt>
      <trkpt lat="51.29143" lon="4.84343"></trkpt>
      <trkpt lat="51.29148" lon="4.84352"></trkpt>
      <trkpt lat="51.29152" lon="4.84361"></trkpt>
      <trkpt lat="51.29155" lon="4.84370"></trkpt>
      <trkpt lat="51.29159" lon="4.84379"></trkpt>
      <trkpt lat="51.29163" lon="4.84388"></trkpt>
      <trkpt lat="51.29167" lon="4.84397"></trkpt>
      <trkpt lat="51.29172" lon="4.84405"></trkpt>
      <trkpt lat="51.29176" lon="4.84413"></trkpt>
      <trkpt lat="51.29180" lon="4.84422"></trkpt>
      <trkpt lat="51.29183" lon="4.84432"></trkpt>
      <trkpt lat="51.29187" lon="4.84441"></trkpt>
      <trkpt lat="51.29191" lon="4.84450"></trkpt>
      <trkpt lat="51.29195" lon="4.84458"></trkpt>
      <trkpt lat="51.29200" lon="4.84466"></trkpt>
      <trkpt lat="51.29205" lon="4.84474"></trkpt>
      <trkpt lat="51.29208" lon="4.84483"></trkpt>
      <trkpt lat="51.29213" lon="4.84491"></trkpt>
      <trkpt lat="51.29217" lon="4.84499"></trkpt>
      <trkpt lat="51.29221" lon="4.84507"></trkpt>
      <trkpt lat="51.29226" lon="4.84516"></trkpt>
      <trkpt lat="51.29230" lon="4.84525"></trkpt>
      <trkpt lat="51.29234" lon="4.84533"></trkpt>
      <trkpt lat="51.29239" lon="4.84541"></trkpt>
      <trkpt lat="51.29242" lon="4.84550"></trkpt>
      <trkpt lat="51.29246" lon="4.84559"></trkpt>
      <trkpt lat="51.29251" lon="4.84568"></trkpt>
      <trkpt lat="51.29256" lon="4.84577"></trkpt>
      <trkpt lat="51.29260" lon="4.84586"></trkpt>
      <trkpt lat="51.29265" lon="4.84592"></trkpt>
      <trkpt lat="51.29270" lon="4.84601"></trkpt>
      <trkpt lat="51.29274" lon="4.84610"></trkpt>
      <trkpt lat="51.29279" lon="4.84619"></trkpt>
      <trkpt lat="51.29283" lon="4.84628"></trkpt>
      <trkpt lat="51.29287" lon="4.84637"></trkpt>
      <trkpt lat="51.29291" lon="4.84647"></trkpt>
      <trkpt lat="51.29296" lon="4.84656"></trkpt>
      <trkpt lat="51.29301" lon="4.84663"></trkpt>
      <trkpt lat="51.29306" lon="4.84671"></trkpt>
      <trkpt lat="51.29311" lon="4.84680"></trkpt>
      <trkpt lat="51.29314" lon="4.84686"></trkpt>
    </trkseg>
  </trk>
</gpx>