<?xml version="1.0" encoding="UTF-8"?>
<gpx version="1.1" creator="jeffry.running" xmlns="http://www.topografix.com/GPX/1/1">
  <metadata><time>2026-08-08T06:19:13.184Z</time></metadata>
  <trk>
    <trkseg>
      <trkpt lat="51.29377" lon="4.84842"></trkpt>
      <trkpt lat="51.29371" lon="4.84828"></trkpt>
      <trkpt lat="51.29363" lon="4.84818"></trkpt>
      <trkpt lat="51.29352" lon="4.84824"></trkpt>
      <trkpt lat="51.29341" lon="4.84837"></trkpt>
      <trkpt lat="51.29330" lon="4.84849"></trkpt>
      <trkpt lat="51.29319" lon="4.84859"></trkpt>
      <trkpt lat="51.29309" lon="4.84869"></trkpt>
      <trkpt lat="51.29298" lon="4.84881"></trkpt>
      <trkpt lat="51.29285" lon="4.84894"></trkpt>
      <trkpt lat="51.29272" lon="4.84903"></trkpt>
      <trkpt lat="51.29260" lon="4.84890"></trkpt>
      <trkpt lat="51.29250" lon="4.84873"></trkpt>
      <trkpt lat="51.29240" lon="4.84856"></trkpt>
      <trkpt lat="51.29228" lon="4.84841"></trkpt>
      <trkpt lat="51.29218" lon="4.84825"></trkpt>
      <trkpt lat="51.29207" lon="4.84809"></trkpt>
      <trkpt lat="51.29196" lon="4.84794"></trkpt>
      <trkpt lat="51.29185" lon="4.84782"></trkpt>
      <trkpt lat="51.29177" lon="4.84765"></trkpt>
      <trkpt lat="51.29168" lon="4.84751"></trkpt>
      <trkpt lat="51.29162" lon="4.84737"></trkpt>
      <trkpt lat="51.29153" lon="4.84720"></trkpt>
      <trkpt lat="51.29141" lon="4.84703"></trkpt>
      <trkpt lat="51.29131" lon="4.84687"></trkpt>
      <trkpt lat="51.29120" lon="4.84672"></trkpt>
      <trkpt lat="51.29109" lon="4.84656"></trkpt>
      <trkpt lat="51.29110" lon="4.84639"></trkpt>
      <trkpt lat="51.29122" lon="4.84626"></trkpt>
      <trkpt lat="51.29132" lon="4.84611"></trkpt>
      <trkpt lat="51.29143" lon="4.84598"></trkpt>
      <trkpt lat="51.29154" lon="4.84584"></trkpt>
      <trkpt lat="51.29165" lon="4.84568"></trkpt>
      <trkpt lat="51.29176" lon="4.84556"></trkpt>
      <trkpt lat="51.29186" lon="4.84541"></trkpt>
      <trkpt lat="51.29189" lon="4.84520"></trkpt>
      <trkpt lat="51.29180" lon="4.84505"></trkpt>
      <trkpt lat="51.29165" lon="4.84499"></trkpt>
      <trkpt lat="51.29153" lon="4.84485"></trkpt>
      <trkpt lat="51.29144" lon="4.84467"></trkpt>
      <trkpt lat="51.29136" lon="4.84448"></trkpt>
      <trkpt lat="51.29125" lon="4.84431"></trkpt>
      <trkpt lat="51.29113" lon="4.84416"></trkpt>
      <trkpt lat="51.29101" lon="4.84403"></trkpt>
      <trkpt lat="51.29091" lon="4.84388"></trkpt>
      <trkpt lat="51.29081" lon="4.84370"></trkpt>
      <trkpt lat="51.29069" lon="4.84355"></trkpt>
      <trkpt lat="51.29058" lon="4.84341"></trkpt>
      <trkpt lat="51.29049" lon="4.84322"></trkpt>
      <trkpt lat="51.29040" lon="4.84304"></trkpt>
      <trkpt lat="51.29032" lon="4.84286"></trkpt>
      <trkpt lat="51.29022" lon="4.84270"></trkpt>
      <trkpt lat="51.29010" lon="4.84258"></trkpt>
      <trkpt lat="51.29005" lon="4.84239"></trkpt>
      <trkpt lat="51.28996" lon="4.84222"></trkpt>
      <trkpt lat="51.28986" lon="4.84209"></trkpt>
      <trkpt lat="51.28973" lon="4.84206"></trkpt>
      <trkpt lat="51.28960" lon="4.84211"></trkpt>
      <trkpt lat="51.28946" lon="4.84209"></trkpt>
      <trkpt lat="51.28933" lon="4.84200"></trkpt>
      <trkpt lat="51.28920" lon="4.84190"></trkpt>
      <trkpt lat="51.28908" lon="4.84175"></trkpt>
      <trkpt lat="51.28900" lon="4.84166"></trkpt>
      <trkpt lat="51.28888" lon="4.84159"></trkpt>
      <trkpt lat="51.28879" lon="4.84154"></trkpt>
      <trkpt lat="51.28866" lon="4.84152"></trkpt>
      <trkpt lat="51.28853" lon="4.84143"></trkpt>
      <trkpt lat="51.28840" lon="4.84131"></trkpt>
      <trkpt lat="51.28828" lon="4.84119"></trkpt>
      <trkpt lat="51.28814" lon="4.84110"></trkpt>
      <trkpt lat="51.28801" lon="4.84101"></trkpt>
      <trkpt lat="51.28789" lon="4.84090"></trkpt>
      <trkpt lat="51.28776" lon="4.84078"></trkpt>
      <trkpt lat="51.28765" lon="4.84062"></trkpt>
      <trkpt lat="51.28755" lon="4.84045"></trkpt>
      <trkpt lat="51.28746" lon="4.84026"></trkpt>
      <trkpt lat="51.28738" lon="4.84007"></trkpt>
      <trkpt lat="51.28730" lon="4.83988"></trkpt>
      <trkpt lat="51.28722" lon="4.83969"></trkpt>
      <trkpt lat="51.28729" lon="4.83949"></trkpt>
      <trkpt lat="51.28740" lon="4.83932"></trkpt>
      <trkpt lat="51.28751" lon="4.83919"></trkpt>
      <trkpt lat="51.28764" lon="4.83905"></trkpt>
      <trkpt lat="51.28775" lon="4.83889"></trkpt>
      <trkpt lat="51.28785" lon="4.83873"></trkpt>
      <trkpt lat="51.28797" lon="4.83859"></trkpt>
      <trkpt lat="51.28807" lon="4.83843"></trkpt>
      <trkpt lat="51.28810" lon="4.83821"></trkpt>
      <trkpt lat="51.28806" lon="4.83801"></trkpt>
      <trkpt lat="51.28793" lon="4.83790"></trkpt>
      <trkpt lat="51.28780" lon="4.83784"></trkpt>
      <trkpt lat="51.28765" lon="4.83778"></trkpt>
      <trkpt lat="51.28749" lon="4.83770"></trkpt>
      <trkpt lat="51.28735" lon="4.83759"></trkpt>
      <trkpt lat="51.28721" lon="4.83752"></trkpt>
      <trkpt lat="51.28706" lon="4.83745"></trkpt>
      <trkpt lat="51.28693" lon="4.83735"></trkpt>
      <trkpt lat="51.28679" lon="4.83725"></trkpt>
      <trkpt lat="51.28664" lon="4.83718"></trkpt>
      <trkpt lat="51.28650" lon="4.83710"></trkpt>
      <trkpt lat="51.28634" lon="4.83703"></trkpt>
      <trkpt lat="51.28620" lon="4.83694"></trkpt>
      <trkpt lat="51.28607" lon="4.83685"></trkpt>
      <trkpt lat="51.28593" lon="4.83677"></trkpt>
      <trkpt lat="51.28579" lon="4.83670"></trkpt>
      <trkpt lat="51.28565" lon="4.83664"></trkpt>
      <trkpt lat="51.28552" lon="4.83656"></trkpt>
      <trkpt lat="51.28538" lon="4.83649"></trkpt>
      <trkpt lat="51.28526" lon="4.83639"></trkpt>
      <trkpt lat="51.28513" lon="4.83631"></trkpt>
      <trkpt lat="51.28500" lon="4.83625"></trkpt>
      <trkpt lat="51.28487" lon="4.83617"></trkpt>
      <trkpt lat="51.28475" lon="4.83609"></trkpt>
      <trkpt lat="51.28462" lon="4.83600"></trkpt>
      <trkpt lat="51.28448" lon="4.83594"></trkpt>
      <trkpt lat="51.28434" lon="4.83588"></trkpt>
      <trkpt lat="51.28421" lon="4.83582"></trkpt>
      <trkpt lat="51.28407" lon="4.83571"></trkpt>
      <trkpt lat="51.28394" lon="4.83558"></trkpt>
      <trkpt lat="51.28383" lon="4.83544"></trkpt>
      <trkpt lat="51.28373" lon="4.83529"></trkpt>
      <trkpt lat="51.28360" lon="4.83515"></trkpt>
      <trkpt lat="51.28348" lon="4.83499"></trkpt>
      <trkpt lat="51.28335" lon="4.83486"></trkpt>
      <trkpt lat="51.28323" lon="4.83472"></trkpt>
      <trkpt lat="51.28316" lon="4.83453"></trkpt>
      <trkpt lat="51.28308" lon="4.83435"></trkpt>
      <trkpt lat="51.28300" lon="4.83418"></trkpt>
      <trkpt lat="51.28291" lon="4.83402"></trkpt>
      <trkpt lat="51.28280" lon="4.83383"></trkpt>
      <trkpt lat="51.28273" lon="4.83362"></trkpt>
      <trkpt lat="51.28265" lon="4.83344"></trkpt>
      <trkpt lat="51.28257" lon="4.83327"></trkpt>
      <trkpt lat="51.28252" lon="4.83308"></trkpt>
      <trkpt lat="51.28242" lon="4.83288"></trkpt>
      <trkpt lat="51.28232" lon="4.83285"></trkpt>
      <trkpt lat="51.28218" lon="4.83298"></trkpt>
      <trkpt lat="51.28206" lon="4.83305"></trkpt>
      <trkpt lat="51.28192" lon="4.83314"></trkpt>
      <trkpt lat="51.28179" lon="4.83323"></trkpt>
      <trkpt lat="51.28167" lon="4.83316"></trkpt>
      <trkpt lat="51.28155" lon="4.83307"></trkpt>
      <trkpt lat="51.28156" lon="4.83314"></trkpt>
      <trkpt lat="51.28152" lon="4.83329"></trkpt>
      <trkpt lat="51.28140" lon="4.83341"></trkpt>
      <trkpt lat="51.28128" lon="4.83350"></trkpt>
      <trkpt lat="51.28121" lon="4.83358"></trkpt>
      <trkpt lat="51.28114" lon="4.83365"></trkpt>
      <trkpt lat="51.28103" lon="4.83372"></trkpt>
      <trkpt lat="51.28087" lon="4.83381"></trkpt>
      <trkpt lat="51.28073" lon="4.83381"></trkpt>
      <trkpt lat="51.28059" lon="4.83383"></trkpt>
      <trkpt lat="51.28044" lon="4.83388"></trkpt>
      <trkpt lat="51.28029" lon="4.83390"></trkpt>
      <trkpt lat="51.28014" lon="4.83393"></trkpt>
      <trkpt lat="51.27999" lon="4.83397"></trkpt>
      <trkpt lat="51.27984" lon="4.83399"></trkpt>
      <trkpt lat="51.27970" lon="4.83400"></trkpt>
      <trkpt lat="51.27955" lon="4.83404"></trkpt>
      <trkpt lat="51.27940" lon="4.83407"></trkpt>
      <trkpt lat="51.27925" lon="4.83410"></trkpt>
      <trkpt lat="51.27910" lon="4.83414"></trkpt>
      <trkpt lat="51.27895" lon="4.83417"></trkpt>
      <trkpt lat="51.27880" lon="4.83418"></trkpt>
      <trkpt lat="51.27865" lon="4.83421"></trkpt>
      <trkpt lat="51.27850" lon="4.83422"></trkpt>
      <trkpt lat="51.27837" lon="4.83421"></trkpt>
      <trkpt lat="51.27822" lon="4.83423"></trkpt>
      <trkpt lat="51.27806" lon="4.83425"></trkpt>
      <trkpt lat="51.27792" lon="4.83428"></trkpt>
      <trkpt lat="51.27779" lon="4.83430"></trkpt>
      <trkpt lat="51.27768" lon="4.83423"></trkpt>
      <trkpt lat="51.27765" lon="4.83399"></trkpt>
      <trkpt lat="51.27761" lon="4.83376"></trkpt>
      <trkpt lat="51.27759" lon="4.83352"></trkpt>
      <trkpt lat="51.27750" lon="4.83338"></trkpt>
      <trkpt lat="51.27736" lon="4.83341"></trkpt>
      <trkpt lat="51.27722" lon="4.83348"></trkpt>
      <trkpt lat="51.27707" lon="4.83355"></trkpt>
      <trkpt lat="51.27693" lon="4.83360"></trkpt>
      <trkpt lat="51.27679" lon="4.83365"></trkpt>
      <trkpt lat="51.27666" lon="4.83371"></trkpt>
      <trkpt lat="51.27651" lon="4.83375"></trkpt>
      <trkpt lat="51.27636" lon="4.83380"></trkpt>
      <trkpt lat="51.27622" lon="4.83387"></trkpt>
      <trkpt lat="51.27608" lon="4.83393"></trkpt>
      <trkpt lat="51.27593" lon="4.83399"></trkpt>
      <trkpt lat="51.27579" lon="4.83403"></trkpt>
      <trkpt lat="51.27563" lon="4.83409"></trkpt>
      <trkpt lat="51.27549" lon="4.83411"></trkpt>
      <trkpt lat="51.27534" lon="4.83409"></trkpt>
      <trkpt lat="51.27519" lon="4.83408"></trkpt>
      <trkpt lat="51.27505" lon="4.83407"></trkpt>
      <trkpt lat="51.27491" lon="4.83408"></trkpt>
      <trkpt lat="51.27479" lon="4.83408"></trkpt>
      <trkpt lat="51.27477" lon="4.83409"></trkpt>
      <trkpt lat="51.27476" lon="4.83408"></trkpt>
      <trkpt lat="51.27476" lon="4.83408"></trkpt>
      <trkpt lat="51.27471" lon="4.83407"></trkpt>
      <trkpt lat="51.27455" lon="4.83402"></trkpt>
      <trkpt lat="51.27441" lon="4.83395"></trkpt>
      <trkpt lat="51.27426" lon="4.83389"></trkpt>
      <trkpt lat="51.27411" lon="4.83383"></trkpt>
      <trkpt lat="51.27396" lon="4.83376"></trkpt>
      <trkpt lat="51.27383" lon="4.83367"></trkpt>
      <trkpt lat="51.27370" lon="4.83351"></trkpt>
      <trkpt lat="51.27359" lon="4.83334"></trkpt>
      <trkpt lat="51.27350" lon="4.83315"></trkpt>
      <trkpt lat="51.27341" lon="4.83299"></trkpt>
      <trkpt lat="51.27330" lon="4.83284"></trkpt>
      <trkpt lat="51.27321" lon="4.83268"></trkpt>
      <trkpt lat="51.27320" lon="4.83247"></trkpt>
      <trkpt lat="51.27321" lon="4.83226"></trkpt>
      <trkpt lat="51.27321" lon="4.83204"></trkpt>
      <trkpt lat="51.27322" lon="4.83182"></trkpt>
      <trkpt lat="51.27323" lon="4.83159"></trkpt>
      <trkpt lat="51.27321" lon="4.83137"></trkpt>
      <trkpt lat="51.27320" lon="4.83116"></trkpt>
      <trkpt lat="51.27324" lon="4.83101"></trkpt>
      <trkpt lat="51.27327" lon="4.83078"></trkpt>
      <trkpt lat="51.27330" lon="4.83056"></trkpt>
      <trkpt lat="51.27332" lon="4.83034"></trkpt>
      <trkpt lat="51.27330" lon="4.83011"></trkpt>
      <trkpt lat="51.27335" lon="4.82990"></trkpt>
      <trkpt lat="51.27345" lon="4.82973"></trkpt>
      <trkpt lat="51.27354" lon="4.82956"></trkpt>
      <trkpt lat="51.27366" lon="4.82944"></trkpt>
      <trkpt lat="51.27376" lon="4.82928"></trkpt>
      <trkpt lat="51.27382" lon="4.82906"></trkpt>
      <trkpt lat="51.27385" lon="4.82883"></trkpt>
      <trkpt lat="51.27388" lon="4.82860"></trkpt>
      <trkpt lat="51.27394" lon="4.82840"></trkpt>
      <trkpt lat="51.27401" lon="4.82825"></trkpt>
      <trkpt lat="51.27409" lon="4.82806"></trkpt>
      <trkpt lat="51.27411" lon="4.82783"></trkpt>
      <trkpt lat="51.27405" lon="4.82764"></trkpt>
      <trkpt lat="51.27397" lon="4.82744"></trkpt>
      <trkpt lat="51.27393" lon="4.82721"></trkpt>
      <trkpt lat="51.27387" lon="4.82701"></trkpt>
      <trkpt lat="51.27382" lon="4.82678"></trkpt>
      <trkpt lat="51.27378" lon="4.82656"></trkpt>
      <trkpt lat="51.27373" lon="4.82633"></trkpt>
      <trkpt lat="51.27366" lon="4.82611"></trkpt>
      <trkpt lat="51.27361" lon="4.82588"></trkpt>
      <trkpt lat="51.27356" lon="4.82565"></trkpt>
      <trkpt lat="51.27353" lon="4.82542"></trkpt>
      <trkpt lat="51.27350" lon="4.82519"></trkpt>
      <trkpt lat="51.27346" lon="4.82495"></trkpt>
      <trkpt lat="51.27344" lon="4.82471"></trkpt>
      <trkpt lat="51.27343" lon="4.82448"></trkpt>
      <trkpt lat="51.27340" lon="4.82425"></trkpt>
      <trkpt lat="51.27338" lon="4.82402"></trkpt>
      <trkpt lat="51.27336" lon="4.82379"></trkpt>
      <trkpt lat="51.27335" lon="4.82357"></trkpt>
      <trkpt lat="51.27334" lon="4.82334"></trkpt>
      <trkpt lat="51.27332" lon="4.82310"></trkpt>
      <trkpt lat="51.27331" lon="4.82286"></trkpt>
      <trkpt lat="51.27330" lon="4.82263"></trkpt>
      <trkpt lat="51.27329" lon="4.82240"></trkpt>
      <trkpt lat="51.27326" lon="4.82217"></trkpt>
      <trkpt lat="51.27324" lon="4.82193"></trkpt>
      <trkpt lat="51.27322" lon="4.82170"></trkpt>
      <trkpt lat="51.27320" lon="4.82146"></trkpt>
      <trkpt lat="51.27318" lon="4.82123"></trkpt>
      <trkpt lat="51.27316" lon="4.82099"></trkpt>
      <trkpt lat="51.27314" lon="4.82075"></trkpt>
      <trkpt lat="51.27312" lon="4.82052"></trkpt>
      <trkpt lat="51.27311" lon="4.82029"></trkpt>
      <trkpt lat="51.27309" lon="4.82006"></trkpt>
      <trkpt lat="51.27307" lon="4.81982"></trkpt>
      <trkpt lat="51.27304" lon="4.81959"></trkpt>
      <trkpt lat="51.27303" lon="4.81939"></trkpt>
      <trkpt lat="51.27302" lon="4.81917"></trkpt>
      <trkpt lat="51.27301" lon="4.81895"></trkpt>
      <trkpt lat="51.27299" lon="4.81872"></trkpt>
      <trkpt lat="51.27296" lon="4.81850"></trkpt>
      <trkpt lat="51.27295" lon="4.81827"></trkpt>
      <trkpt lat="51.27295" lon="4.81803"></trkpt>
      <trkpt lat="51.27297" lon="4.81779"></trkpt>
      <trkpt lat="51.27298" lon="4.81755"></trkpt>
      <trkpt lat="51.27298" lon="4.81730"></trkpt>
      <trkpt lat="51.27298" lon="4.81707"></trkpt>
      <trkpt lat="51.27296" lon="4.81683"></trkpt>
      <trkpt lat="51.27294" lon="4.81662"></trkpt>
      <trkpt lat="51.27291" lon="4.81639"></trkpt>
      <trkpt lat="51.27290" lon="4.81617"></trkpt>
      <trkpt lat="51.27288" lon="4.81595"></trkpt>
      <trkpt lat="51.27286" lon="4.81573"></trkpt>
      <trkpt lat="51.27284" lon="4.81551"></trkpt>
      <trkpt lat="51.27281" lon="4.81528"></trkpt>
      <trkpt lat="51.27279" lon="4.81507"></trkpt>
      <trkpt lat="51.27278" lon="4.81485"></trkpt>
      <trkpt lat="51.27278" lon="4.81465"></trkpt>
      <trkpt lat="51.27289" lon="4.81457"></trkpt>
      <trkpt lat="51.27303" lon="4.81452"></trkpt>
      <trkpt lat="51.27317" lon="4.81446"></trkpt>
      <trkpt lat="51.27332" lon="4.81442"></trkpt>
      <trkpt lat="51.27346" lon="4.81436"></trkpt>
      <trkpt lat="51.27360" lon="4.81427"></trkpt>
      <trkpt lat="51.27374" lon="4.81419"></trkpt>
      <trkpt lat="51.27388" lon="4.81411"></trkpt>
      <trkpt lat="51.27402" lon="4.81404"></trkpt>
      <trkpt lat="51.27417" lon="4.81398"></trkpt>
      <trkpt lat="51.27431" lon="4.81391"></trkpt>
      <trkpt lat="51.27445" lon="4.81385"></trkpt>
      <trkpt lat="51.27459" lon="4.81377"></trkpt>
      <trkpt lat="51.27472" lon="4.81366"></trkpt>
      <trkpt lat="51.27485" lon="4.81356"></trkpt>
      <trkpt lat="51.27499" lon="4.81345"></trkpt>
      <trkpt lat="51.27512" lon="4.81334"></trkpt>
      <trkpt lat="51.27525" lon="4.81323"></trkpt>
      <trkpt lat="51.27538" lon="4.81312"></trkpt>
      <trkpt lat="51.27550" lon="4.81299"></trkpt>
      <trkpt lat="51.27563" lon="4.81289"></trkpt>
      <trkpt lat="51.27576" lon="4.81279"></trkpt>
      <trkpt lat="51.27588" lon="4.81266"></trkpt>
      <trkpt lat="51.27601" lon="4.81254"></trkpt>
      <trkpt lat="51.27613" lon="4.81242"></trkpt>
      <trkpt lat="51.27626" lon="4.81232"></trkpt>
      <trkpt lat="51.27640" lon="4.81222"></trkpt>
      <trkpt lat="51.27652" lon="4.81213"></trkpt>
      <trkpt lat="51.27663" lon="4.81202"></trkpt>
      <trkpt lat="51.27669" lon="4.81193"></trkpt>
      <trkpt lat="51.27672" lon="4.81176"></trkpt>
      <trkpt lat="51.27685" lon="4.81177"></trkpt>
      <trkpt lat="51.27698" lon="4.81191"></trkpt>
      <trkpt lat="51.27710" lon="4.81204"></trkpt>
      <trkpt lat="51.27722" lon="4.81217"></trkpt>
      <trkpt lat="51.27733" lon="4.81229"></trkpt>
      <trkpt lat="51.27746" lon="4.81242"></trkpt>
      <trkpt lat="51.27757" lon="4.81254"></trkpt>
      <trkpt lat="51.27770" lon="4.81265"></trkpt>
      <trkpt lat="51.27783" lon="4.81277"></trkpt>
      <trkpt lat="51.27796" lon="4.81288"></trkpt>
      <trkpt lat="51.27808" lon="4.81296"></trkpt>
      <trkpt lat="51.27819" lon="4.81286"></trkpt>
      <trkpt lat="51.27830" lon="4.81270"></trkpt>
      <trkpt lat="51.27840" lon="4.81255"></trkpt>
      <trkpt lat="51.27851" lon="4.81241"></trkpt>
      <trkpt lat="51.27861" lon="4.81226"></trkpt>
      <trkpt lat="51.27872" lon="4.81210"></trkpt>
      <trkpt lat="51.27882" lon="4.81196"></trkpt>
      <trkpt lat="51.27889" lon="4.81185"></trkpt>
      <trkpt lat="51.27896" lon="4.81176"></trkpt>
      <trkpt lat="51.27901" lon="4.81168"></trkpt>
      <trkpt lat="51.27907" lon="4.81160"></trkpt>
      <trkpt lat="51.27912" lon="4.81153"></trkpt>
      <trkpt lat="51.27918" lon="4.81145"></trkpt>
      <trkpt lat="51.27923" lon="4.81137"></trkpt>
      <trkpt lat="51.27929" lon="4.81128"></trkpt>
      <trkpt lat="51.27936" lon="4.81120"></trkpt>
      <trkpt lat="51.27942" lon="4.81113"></trkpt>
      <trkpt lat="51.27949" lon="4.81104"></trkpt>
      <trkpt lat="51.27955" lon="4.81095"></trkpt>
      <trkpt lat="51.27962" lon="4.81085"></trkpt>
      <trkpt lat="51.27968" lon="4.81075"></trkpt>
      <trkpt lat="51.27975" lon="4.81067"></trkpt>
      <trkpt lat="51.27981" lon="4.81058"></trkpt>
      <trkpt lat="51.27988" lon="4.81046"></trkpt>
      <trkpt lat="51.27993" lon="4.81038"></trkpt>
      <trkpt lat="51.27999" lon="4.81031"></trkpt>
      <trkpt lat="51.28005" lon="4.81024"></trkpt>
      <trkpt lat="51.28012" lon="4.81016"></trkpt>
      <trkpt lat="51.28021" lon="4.81003"></trkpt>
      <trkpt lat="51.28032" lon="4.80989"></trkpt>
      <trkpt lat="51.28043" lon="4.80974"></trkpt>
      <trkpt lat="51.28054" lon="4.80957"></trkpt>
      <trkpt lat="51.28063" lon="4.80942"></trkpt>
      <trkpt lat="51.28074" lon="4.80926"></trkpt>
      <trkpt lat="51.28084" lon="4.80912"></trkpt>
      <trkpt lat="51.28095" lon="4.80896"></trkpt>
      <trkpt lat="51.28106" lon="4.80881"></trkpt>
      <trkpt lat="51.28118" lon="4.80866"></trkpt>
      <trkpt lat="51.28129" lon="4.80851"></trkpt>
      <trkpt lat="51.28143" lon="4.80851"></trkpt>
      <trkpt lat="51.28155" lon="4.80868"></trkpt>
      <trkpt lat="51.28164" lon="4.80888"></trkpt>
      <trkpt lat="51.28175" lon="4.80905"></trkpt>
      <trkpt lat="51.28185" lon="4.80922"></trkpt>
      <trkpt lat="51.28195" lon="4.80939"></trkpt>
      <trkpt lat="51.28204" lon="4.80955"></trkpt>
      <trkpt lat="51.28213" lon="4.80968"></trkpt>
      <trkpt lat="51.28222" lon="4.80984"></trkpt>
      <trkpt lat="51.28231" lon="4.81001"></trkpt>
      <trkpt lat="51.28241" lon="4.81016"></trkpt>
      <trkpt lat="51.28251" lon="4.81032"></trkpt>
      <trkpt lat="51.28261" lon="4.81048"></trkpt>
      <trkpt lat="51.28259" lon="4.81066"></trkpt>
      <trkpt lat="51.28246" lon="4.81077"></trkpt>
      <trkpt lat="51.28235" lon="4.81091"></trkpt>
      <trkpt lat="51.28236" lon="4.81109"></trkpt>
      <trkpt lat="51.28242" lon="4.81125"></trkpt>
      <trkpt lat="51.28247" lon="4.81143"></trkpt>
      <trkpt lat="51.28252" lon="4.81162"></trkpt>
      <trkpt lat="51.28258" lon="4.81182"></trkpt>
      <trkpt lat="51.28265" lon="4.81202"></trkpt>
      <trkpt lat="51.28271" lon="4.81222"></trkpt>
      <trkpt lat="51.28278" lon="4.81243"></trkpt>
      <trkpt lat="51.28284" lon="4.81264"></trkpt>
      <trkpt lat="51.28289" lon="4.81280"></trkpt>
      <trkpt lat="51.28289" lon="4.81283"></trkpt>
      <trkpt lat="51.28289" lon="4.81285"></trkpt>
      <trkpt lat="51.28290" lon="4.81286"></trkpt>
      <trkpt lat="51.28293" lon="4.81297"></trkpt>
      <trkpt lat="51.28299" lon="4.81321"></trkpt>
      <trkpt lat="51.28306" lon="4.81342"></trkpt>
      <trkpt lat="51.28314" lon="4.81363"></trkpt>
      <trkpt lat="51.28320" lon="4.81385"></trkpt>
      <trkpt lat="51.28327" lon="4.81406"></trkpt>
      <trkpt lat="51.28333" lon="4.81427"></trkpt>
      <trkpt lat="51.28339" lon="4.81447"></trkpt>
      <trkpt lat="51.28347" lon="4.81467"></trkpt>
      <trkpt lat="51.28359" lon="4.81481"></trkpt>
      <trkpt lat="51.28372" lon="4.81490"></trkpt>
      <trkpt lat="51.28386" lon="4.81497"></trkpt>
      <trkpt lat="51.28399" lon="4.81505"></trkpt>
      <trkpt lat="51.28412" lon="4.81515"></trkpt>
      <trkpt lat="51.28426" lon="4.81523"></trkpt>
      <trkpt lat="51.28439" lon="4.81530"></trkpt>
      <trkpt lat="51.28453" lon="4.81539"></trkpt>
      <trkpt lat="51.28466" lon="4.81548"></trkpt>
      <trkpt lat="51.28479" lon="4.81558"></trkpt>
      <trkpt lat="51.28493" lon="4.81567"></trkpt>
      <trkpt lat="51.28507" lon="4.81575"></trkpt>
      <trkpt lat="51.28521" lon="4.81585"></trkpt>
      <trkpt lat="51.28536" lon="4.81593"></trkpt>
      <trkpt lat="51.28548" lon="4.81601"></trkpt>
      <trkpt lat="51.28559" lon="4.81610"></trkpt>
      <trkpt lat="51.28571" lon="4.81619"></trkpt>
      <trkpt lat="51.28583" lon="4.81627"></trkpt>
      <trkpt lat="51.28595" lon="4.81637"></trkpt>
      <trkpt lat="51.28597" lon="4.81659"></trkpt>
      <trkpt lat="51.28594" lon="4.81680"></trkpt>
      <trkpt lat="51.28591" lon="4.81700"></trkpt>
      <trkpt lat="51.28588" lon="4.81721"></trkpt>
      <trkpt lat="51.28584" lon="4.81742"></trkpt>
      <trkpt lat="51.28579" lon="4.81763"></trkpt>
      <trkpt lat="51.28574" lon="4.81786"></trkpt>
      <trkpt lat="51.28570" lon="4.81808"></trkpt>
      <trkpt lat="51.28567" lon="4.81830"></trkpt>
      <trkpt lat="51.28563" lon="4.81852"></trkpt>
      <trkpt lat="51.28559" lon="4.81872"></trkpt>
      <trkpt lat="51.28554" lon="4.81894"></trkpt>
      <trkpt lat="51.28550" lon="4.81916"></trkpt>
      <trkpt lat="51.28545" lon="4.81938"></trkpt>
      <trkpt lat="51.28540" lon="4.81959"></trkpt>
      <trkpt lat="51.28537" lon="4.81980"></trkpt>
      <trkpt lat="51.28533" lon="4.82002"></trkpt>
      <trkpt lat="51.28529" lon="4.82024"></trkpt>
      <trkpt lat="51.28524" lon="4.82046"></trkpt>
      <trkpt lat="51.28521" lon="4.82069"></trkpt>
      <trkpt lat="51.28517" lon="4.82093"></trkpt>
      <trkpt lat="51.28511" lon="4.82115"></trkpt>
      <trkpt lat="51.28505" lon="4.82137"></trkpt>
      <trkpt lat="51.28501" lon="4.82158"></trkpt>
      <trkpt lat="51.28497" lon="4.82176"></trkpt>
      <trkpt lat="51.28492" lon="4.82199"></trkpt>
      <trkpt lat="51.28487" lon="4.82221"></trkpt>
      <trkpt lat="51.28482" lon="4.82244"></trkpt>
      <trkpt lat="51.28478" lon="4.82266"></trkpt>
      <trkpt lat="51.28474" lon="4.82287"></trkpt>
      <trkpt lat="51.28469" lon="4.82309"></trkpt>
      <trkpt lat="51.28464" lon="4.82331"></trkpt>
      <trkpt lat="51.28458" lon="4.82352"></trkpt>
      <trkpt lat="51.28451" lon="4.82373"></trkpt>
      <trkpt lat="51.28444" lon="4.82392"></trkpt>
      <trkpt lat="51.28436" lon="4.82412"></trkpt>
      <trkpt lat="51.28428" lon="4.82432"></trkpt>
      <trkpt lat="51.28422" lon="4.82453"></trkpt>
      <trkpt lat="51.28417" lon="4.82474"></trkpt>
      <trkpt lat="51.28411" lon="4.82495"></trkpt>
      <trkpt lat="51.28404" lon="4.82517"></trkpt>
      <trkpt lat="51.28397" lon="4.82538"></trkpt>
      <trkpt lat="51.28392" lon="4.82559"></trkpt>
      <trkpt lat="51.28386" lon="4.82580"></trkpt>
      <trkpt lat="51.28380" lon="4.82601"></trkpt>
      <trkpt lat="51.28376" lon="4.82623"></trkpt>
      <trkpt lat="51.28372" lon="4.82644"></trkpt>
      <trkpt lat="51.28366" lon="4.82665"></trkpt>
      <trkpt lat="51.28361" lon="4.82686"></trkpt>
      <trkpt lat="51.28357" lon="4.82709"></trkpt>
      <trkpt lat="51.28351" lon="4.82733"></trkpt>
      <trkpt lat="51.28344" lon="4.82753"></trkpt>
      <trkpt lat="51.28336" lon="4.82774"></trkpt>
      <trkpt lat="51.28328" lon="4.82794"></trkpt>
      <trkpt lat="51.28321" lon="4.82815"></trkpt>
      <trkpt lat="51.28314" lon="4.82836"></trkpt>
      <trkpt lat="51.28308" lon="4.82857"></trkpt>
      <trkpt lat="51.28300" lon="4.82877"></trkpt>
      <trkpt lat="51.28298" lon="4.82899"></trkpt>
      <trkpt lat="51.28303" lon="4.82921"></trkpt>
      <trkpt lat="51.28308" lon="4.82941"></trkpt>
      <trkpt lat="51.28313" lon="4.82963"></trkpt>
      <trkpt lat="51.28318" lon="4.82985"></trkpt>
      <trkpt lat="51.28323" lon="4.83007"></trkpt>
      <trkpt lat="51.28328" lon="4.83029"></trkpt>
      <trkpt lat="51.28334" lon="4.83050"></trkpt>
      <trkpt lat="51.28340" lon="4.83070"></trkpt>
      <trkpt lat="51.28340" lon="4.83092"></trkpt>
      <trkpt lat="51.28330" lon="4.83110"></trkpt>
      <trkpt lat="51.28321" lon="4.83129"></trkpt>
      <trkpt lat="51.28310" lon="4.83147"></trkpt>
      <trkpt lat="51.28300" lon="4.83164"></trkpt>
      <trkpt lat="51.28291" lon="4.83181"></trkpt>
      <trkpt lat="51.28282" lon="4.83198"></trkpt>
      <trkpt lat="51.28272" lon="4.83215"></trkpt>
      <trkpt lat="51.28262" lon="4.83231"></trkpt>
      <trkpt lat="51.28252" lon="4.83247"></trkpt>
      <trkpt lat="51.28242" lon="4.83265"></trkpt>
      <trkpt lat="51.28244" lon="4.83285"></trkpt>
      <trkpt lat="51.28255" lon="4.83303"></trkpt>
      <trkpt lat="51.28265" lon="4.83323"></trkpt>
      <trkpt lat="51.28274" lon="4.83342"></trkpt>
      <trkpt lat="51.28283" lon="4.83359"></trkpt>
      <trkpt lat="51.28289" lon="4.83377"></trkpt>
      <trkpt lat="51.28297" lon="4.83395"></trkpt>
      <trkpt lat="51.28304" lon="4.83413"></trkpt>
      <trkpt lat="51.28313" lon="4.83431"></trkpt>
      <trkpt lat="51.28320" lon="4.83450"></trkpt>
      <trkpt lat="51.28330" lon="4.83468"></trkpt>
      <trkpt lat="51.28340" lon="4.83482"></trkpt>
      <trkpt lat="51.28353" lon="4.83494"></trkpt>
      <trkpt lat="51.28364" lon="4.83509"></trkpt>
      <trkpt lat="51.28375" lon="4.83521"></trkpt>
      <trkpt lat="51.28386" lon="4.83534"></trkpt>
      <trkpt lat="51.28397" lon="4.83548"></trkpt>
      <trkpt lat="51.28407" lon="4.83562"></trkpt>
      <trkpt lat="51.28419" lon="4.83573"></trkpt>
      <trkpt lat="51.28431" lon="4.83585"></trkpt>
      <trkpt lat="51.28445" lon="4.83589"></trkpt>
      <trkpt lat="51.28459" lon="4.83597"></trkpt>
      <trkpt lat="51.28473" lon="4.83604"></trkpt>
      <trkpt lat="51.28487" lon="4.83611"></trkpt>
      <trkpt lat="51.28499" lon="4.83619"></trkpt>
      <trkpt lat="51.28512" lon="4.83627"></trkpt>
      <trkpt lat="51.28525" lon="4.83633"></trkpt>
      <trkpt lat="51.28538" lon="4.83641"></trkpt>
      <trkpt lat="51.28551" lon="4.83649"></trkpt>
      <trkpt lat="51.28565" lon="4.83656"></trkpt>
      <trkpt lat="51.28578" lon="4.83664"></trkpt>
      <trkpt lat="51.28591" lon="4.83672"></trkpt>
      <trkpt lat="51.28605" lon="4.83680"></trkpt>
      <trkpt lat="51.28618" lon="4.83687"></trkpt>
      <trkpt lat="51.28631" lon="4.83697"></trkpt>
      <trkpt lat="51.28645" lon="4.83704"></trkpt>
      <trkpt lat="51.28658" lon="4.83711"></trkpt>
      <trkpt lat="51.28671" lon="4.83719"></trkpt>
      <trkpt lat="51.28685" lon="4.83725"></trkpt>
      <trkpt lat="51.28697" lon="4.83733"></trkpt>
      <trkpt lat="51.28710" lon="4.83742"></trkpt>
      <trkpt lat="51.28723" lon="4.83749"></trkpt>
      <trkpt lat="51.28736" lon="4.83757"></trkpt>
      <trkpt lat="51.28749" lon="4.83766"></trkpt>
      <trkpt lat="51.28762" lon="4.83774"></trkpt>
      <trkpt lat="51.28774" lon="4.83781"></trkpt>
      <trkpt lat="51.28787" lon="4.83789"></trkpt>
      <trkpt lat="51.28800" lon="4.83795"></trkpt>
      <trkpt lat="51.28810" lon="4.83807"></trkpt>
      <trkpt lat="51.28812" lon="4.83830"></trkpt>
      <trkpt lat="51.28806" lon="4.83849"></trkpt>
      <trkpt lat="51.28794" lon="4.83865"></trkpt>
      <trkpt lat="51.28783" lon="4.83881"></trkpt>
      <trkpt lat="51.28772" lon="4.83899"></trkpt>
      <trkpt lat="51.28762" lon="4.83915"></trkpt>
      <trkpt lat="51.28751" lon="4.83928"></trkpt>
      <trkpt lat="51.28741" lon="4.83941"></trkpt>
      <trkpt lat="51.28731" lon="4.83957"></trkpt>
      <trkpt lat="51.28727" lon="4.83976"></trkpt>
      <trkpt lat="51.28734" lon="4.83995"></trkpt>
      <trkpt lat="51.28741" lon="4.84012"></trkpt>
      <trkpt lat="51.28750" lon="4.84030"></trkpt>
      <trkpt lat="51.28758" lon="4.84048"></trkpt>
      <trkpt lat="51.28766" lon="4.84063"></trkpt>
      <trkpt lat="51.28776" lon="4.84078"></trkpt>
      <trkpt lat="51.28788" lon="4.84090"></trkpt>
      <trkpt lat="51.28799" lon="4.84101"></trkpt>
      <trkpt lat="51.28813" lon="4.84107"></trkpt>
      <trkpt lat="51.28826" lon="4.84116"></trkpt>
      <trkpt lat="51.28839" lon="4.84127"></trkpt>
      <trkpt lat="51.28852" lon="4.84138"></trkpt>
      <trkpt lat="51.28865" lon="4.84149"></trkpt>
      <trkpt lat="51.28878" lon="4.84155"></trkpt>
      <trkpt lat="51.28888" lon="4.84155"></trkpt>
      <trkpt lat="51.28898" lon="4.84160"></trkpt>
      <trkpt lat="51.28908" lon="4.84168"></trkpt>
      <trkpt lat="51.28919" lon="4.84178"></trkpt>
      <trkpt lat="51.28933" lon="4.84185"></trkpt>
      <trkpt lat="51.28945" lon="4.84195"></trkpt>
      <trkpt lat="51.28957" lon="4.84204"></trkpt>
      <trkpt lat="51.28970" lon="4.84204"></trkpt>
      <trkpt lat="51.28983" lon="4.84210"></trkpt>
      <trkpt lat="51.28994" lon="4.84219"></trkpt>
      <trkpt lat="51.29005" lon="4.84234"></trkpt>
      <trkpt lat="51.29013" lon="4.84250"></trkpt>
      <trkpt lat="51.29025" lon="4.84260"></trkpt>
      <trkpt lat="51.29034" lon="4.84273"></trkpt>
      <trkpt lat="51.29041" lon="4.84291"></trkpt>
      <trkpt lat="51.29050" lon="4.84308"></trkpt>
      <trkpt lat="51.29059" lon="4.84325"></trkpt>
      <trkpt lat="51.29070" lon="4.84340"></trkpt>
      <trkpt lat="51.29081" lon="4.84352"></trkpt>
      <trkpt lat="51.29090" lon="4.84369"></trkpt>
      <trkpt lat="51.29099" lon="4.84387"></trkpt>
      <trkpt lat="51.29108" lon="4.84400"></trkpt>
      <trkpt lat="51.29118" lon="4.84411"></trkpt>
      <trkpt lat="51.29128" lon="4.84423"></trkpt>
      <trkpt lat="51.29137" lon="4.84437"></trkpt>
      <trkpt lat="51.29147" lon="4.84454"></trkpt>
      <trkpt lat="51.29156" lon="4.84472"></trkpt>
      <trkpt lat="51.29165" lon="4.84488"></trkpt>
      <trkpt lat="51.29177" lon="4.84499"></trkpt>
      <trkpt lat="51.29189" lon="4.84509"></trkpt>
      <trkpt lat="51.29192" lon="4.84531"></trkpt>
      <trkpt lat="51.29186" lon="4.84551"></trkpt>
      <trkpt lat="51.29174" lon="4.84564"></trkpt>
      <trkpt lat="51.29163" lon="4.84579"></trkpt>
      <trkpt lat="51.29150" lon="4.84594"></trkpt>
      <trkpt lat="51.29138" lon="4.84606"></trkpt>
      <trkpt lat="51.29128" lon="4.84619"></trkpt>
      <trkpt lat="51.29117" lon="4.84634"></trkpt>
      <trkpt lat="51.29112" lon="4.84651"></trkpt>
      <trkpt lat="51.29121" lon="4.84666"></trkpt>
      <trkpt lat="51.29131" lon="4.84681"></trkpt>
      <trkpt lat="51.29140" lon="4.84694"></trkpt>
      <trkpt lat="51.29149" lon="4.84709"></trkpt>
      <trkpt lat="51.29160" lon="4.84726"></trkpt>
      <trkpt lat="51.29171" lon="4.84742"></trkpt>
      <trkpt lat="51.29180" lon="4.84756"></trkpt>
      <trkpt lat="51.29190" lon="4.84771"></trkpt>
      <trkpt lat="51.29201" lon="4.84787"></trkpt>
      <trkpt lat="51.29212" lon="4.84804"></trkpt>
      <trkpt lat="51.29222" lon="4.84820"></trkpt>
      <trkpt lat="51.29232" lon="4.84835"></trkpt>
      <trkpt lat="51.29244" lon="4.84849"></trkpt>
      <trkpt lat="51.29254" lon="4.84865"></trkpt>
      <trkpt lat="51.29263" lon="4.84883"></trkpt>
      <trkpt lat="51.29272" lon="4.84901"></trkpt>
      <trkpt lat="51.29269" lon="4.84920"></trkpt>
      <trkpt lat="51.29255" lon="4.84934"></trkpt>
      <trkpt lat="51.29242" lon="4.84947"></trkpt>
      <trkpt lat="51.29229" lon="4.84960"></trkpt>
      <trkpt lat="51.29217" lon="4.84973"></trkpt>
      <trkpt lat="51.29205" lon="4.84986"></trkpt>
      <trkpt lat="51.29193" lon="4.84997"></trkpt>
      <trkpt lat="51.29182" lon="4.85011"></trkpt>
      <trkpt lat="51.29171" lon="4.85024"></trkpt>
      <trkpt lat="51.29159" lon="4.85038"></trkpt>
      <trkpt lat="51.29147" lon="4.85051"></trkpt>
      <trkpt lat="51.29136" lon="4.85063"></trkpt>
      <trkpt lat="51.29125" lon="4.85076"></trkpt>
      <trkpt lat="51.29113" lon="4.85088"></trkpt>
      <trkpt lat="51.29102" lon="4.85101"></trkpt>
      <trkpt lat="51.29093" lon="4.85115"></trkpt>
      <trkpt lat="51.29102" lon="4.85125"></trkpt>
      <trkpt lat="51.29118" lon="4.85127"></trkpt>
      <trkpt lat="51.29132" lon="4.85126"></trkpt>
      <trkpt lat="51.29146" lon="4.85125"></trkpt>
      <trkpt lat="51.29160" lon="4.85124"></trkpt>
      <trkpt lat="51.29174" lon="4.85124"></trkpt>
      <trkpt lat="51.29190" lon="4.85124"></trkpt>
      <trkpt lat="51.29204" lon="4.85124"></trkpt>
      <trkpt lat="51.29219" lon="4.85124"></trkpt>
      <trkpt lat="51.29233" lon="4.85123"></trkpt>
      <trkpt lat="51.29248" lon="4.85124"></trkpt>
      <trkpt lat="51.29263" lon="4.85125"></trkpt>
      <trkpt lat="51.29277" lon="4.85124"></trkpt>
      <trkpt lat="51.29292" lon="4.85125"></trkpt>
      <trkpt lat="51.29306" lon="4.85124"></trkpt>
      <trkpt lat="51.29321" lon="4.85124"></trkpt>
      <trkpt lat="51.29335" lon="4.85123"></trkpt>
      <trkpt lat="51.29349" lon="4.85122"></trkpt>
      <trkpt lat="51.29362" lon="4.85123"></trkpt>
      <trkpt lat="51.29374" lon="4.85122"></trkpt>
      <trkpt lat="51.29387" lon="4.85123"></trkpt>
      <trkpt lat="51.29401" lon="4.85123"></trkpt>
      <trkpt lat="51.29415" lon="4.85122"></trkpt>
      <trkpt lat="51.29429" lon="4.85120"></trkpt>
      <trkpt lat="51.29441" lon="4.85112"></trkpt>
      <trkpt lat="51.29454" lon="4.85100"></trkpt>
      <trkpt lat="51.29463" lon="4.85086"></trkpt>
      <trkpt lat="51.29464" lon="4.85079"></trkpt>
      <trkpt lat="51.29464" lon="4.85079"></trkpt>
      <trkpt lat="51.29464" lon="4.85079"></trkpt>
      <trkpt lat="51.29464" lon="4.85079"></trkpt>
      <trkpt lat="51.29464" lon="4.85079"></trkpt>
      <trkpt lat="51.29464" lon="4.85079"></trkpt>
      <trkpt lat="51.29464" lon="4.85079"></trkpt>
      <trkpt lat="51.29464" lon="4.85079"></trkpt>
      <trkpt lat="51.29464" lon="4.85078"></trkpt>
      <trkpt lat="51.29464" lon="4.85078"></trkpt>
      <trkpt lat="51.29464" lon="4.85078"></trkpt>
      <trkpt lat="51.29464" lon="4.85078"></trkpt>
      <trkpt lat="51.29464" lon="4.85078"></trkpt>
      <trkpt lat="51.29464" lon="4.85078"></trkpt>
      <trkpt lat="51.29464" lon="4.85078"></trkpt>
      <trkpt lat="51.29464" lon="4.85078"></trkpt>
      <trkpt lat="51.29464" lon="4.85078"></trkpt>
      <trkpt lat="51.29464" lon="4.85078"></trkpt>
      <trkpt lat="51.29464" lon="4.85078"></trkpt>
      <trkpt lat="51.29464" lon="4.85078"></trkpt>
      <trkpt lat="51.29464" lon="4.85078"></trkpt>
      <trkpt lat="51.29464" lon="4.85078"></trkpt>
      <trkpt lat="51.29464" lon="4.85078"></trkpt>
      <trkpt lat="51.29464" lon="4.85078"></trkpt>
      <trkpt lat="51.29464" lon="4.85077"></trkpt>
      <trkpt lat="51.29464" lon="4.85077"></trkpt>
      <trkpt lat="51.29464" lon="4.85077"></trkpt>
      <trkpt lat="51.29464" lon="4.85077"></trkpt>
      <trkpt lat="51.29464" lon="4.85077"></trkpt>
      <trkpt lat="51.29464" lon="4.85077"></trkpt>
      <trkpt lat="51.29464" lon="4.85077"></trkpt>
      <trkpt lat="51.29463" lon="4.85077"></trkpt>
      <trkpt lat="51.29463" lon="4.85077"></trkpt>
      <trkpt lat="51.29463" lon="4.85077"></trkpt>
      <trkpt lat="51.29463" lon="4.85077"></trkpt>
      <trkpt lat="51.29463" lon="4.85077"></trkpt>
      <trkpt lat="51.29463" lon="4.85077"></trkpt>
      <trkpt lat="51.29463" lon="4.85077"></trkpt>
      <trkpt lat="51.29463" lon="4.85077"></trkpt>
      <trkpt lat="51.29463" lon="4.85077"></trkpt>
      <trkpt lat="51.29463" lon="4.85076"></trkpt>
      <trkpt lat="51.29463" lon="4.85076"></trkpt>
      <trkpt lat="51.29463" lon="4.85076"></trkpt>
      <trkpt lat="51.29463" lon="4.85076"></trkpt>
      <trkpt lat="51.29463" lon="4.85076"></trkpt>
      <trkpt lat="51.29463" lon="4.85076"></trkpt>
      <trkpt lat="51.29463" lon="4.85076"></trkpt>
      <trkpt lat="51.29463" lon="4.85075"></trkpt>
      <trkpt lat="51.29462" lon="4.85069"></trkpt>
      <trkpt lat="51.29458" lon="4.85054"></trkpt>
      <trkpt lat="51.29451" lon="4.85036"></trkpt>
      <trkpt lat="51.29445" lon="4.85015"></trkpt>
      <trkpt lat="51.29437" lon="4.84994"></trkpt>
      <trkpt lat="51.29431" lon="4.84974"></trkpt>
      <trkpt lat="51.29424" lon="4.84952"></trkpt>
      <trkpt lat="51.29417" lon="4.84935"></trkpt>
      <trkpt lat="51.29408" lon="4.84916"></trkpt>
      <trkpt lat="51.29400" lon="4.84895"></trkpt>
      <trkpt lat="51.29393" lon="4.84875"></trkpt>
      <trkpt lat="51.29385" lon="4.84854"></trkpt>
      <trkpt lat="51.29376" lon="4.84835"></trkpt>
      <trkpt lat="51.29367" lon="4.84819"></trkpt>
      <trkpt lat="51.29355" lon="4.84820"></trkpt>
      <trkpt lat="51.29342" lon="4.84833"></trkpt>
      <trkpt lat="51.29331" lon="4.84846"></trkpt>
      <trkpt lat="51.29320" lon="4.84860"></trkpt>
      <trkpt lat="51.29307" lon="4.84873"></trkpt>
      <trkpt lat="51.29296" lon="4.84886"></trkpt>
      <trkpt lat="51.29283" lon="4.84899"></trkpt>
      <trkpt lat="51.29270" lon="4.84900"></trkpt>
      <trkpt lat="51.29260" lon="4.84884"></trkpt>
      <trkpt lat="51.29250" lon="4.84869"></trkpt>
      <trkpt lat="51.29240" lon="4.84852"></trkpt>
      <trkpt lat="51.29230" lon="4.84836"></trkpt>
      <trkpt lat="51.29220" lon="4.84820"></trkpt>
      <trkpt lat="51.29209" lon="4.84802"></trkpt>
      <trkpt lat="51.29199" lon="4.84784"></trkpt>
      <trkpt lat="51.29188" lon="4.84766"></trkpt>
      <trkpt lat="51.29177" lon="4.84750"></trkpt>
      <trkpt lat="51.29165" lon="4.84736"></trkpt>
      <trkpt lat="51.29153" lon="4.84720"></trkpt>
      <trkpt lat="51.29142" lon="4.84704"></trkpt>
      <trkpt lat="51.29131" lon="4.84687"></trkpt>
      <trkpt lat="51.29121" lon="4.84671"></trkpt>
      <trkpt lat="51.29109" lon="4.84654"></trkpt>
      <trkpt lat="51.29111" lon="4.84635"></trkpt>
      <trkpt lat="51.29123" lon="4.84619"></trkpt>
      <trkpt lat="51.29134" lon="4.84606"></trkpt>
      <trkpt lat="51.29147" lon="4.84591"></trkpt>
      <trkpt lat="51.29158" lon="4.84576"></trkpt>
      <trkpt lat="51.29170" lon="4.84561"></trkpt>
      <trkpt lat="51.29182" lon="4.84547"></trkpt>
      <trkpt lat="51.29194" lon="4.84536"></trkpt>
      <trkpt lat="51.29203" lon="4.84524"></trkpt>
      <trkpt lat="51.29210" lon="4.84507"></trkpt>
      <trkpt lat="51.29205" lon="4.84489"></trkpt>
      <trkpt lat="51.29197" lon="4.84472"></trkpt>
      <trkpt lat="51.29187" lon="4.84455"></trkpt>
      <trkpt lat="51.29178" lon="4.84436"></trkpt>
      <trkpt lat="51.29170" lon="4.84417"></trkpt>
      <trkpt lat="51.29161" lon="4.84398"></trkpt>
      <trkpt lat="51.29151" lon="4.84380"></trkpt>
      <trkpt lat="51.29143" lon="4.84361"></trkpt>
      <trkpt lat="51.29134" lon="4.84343"></trkpt>
      <trkpt lat="51.29126" lon="4.84325"></trkpt>
      <trkpt lat="51.29118" lon="4.84308"></trkpt>
      <trkpt lat="51.29110" lon="4.84290"></trkpt>
      <trkpt lat="51.29100" lon="4.84274"></trkpt>
      <trkpt lat="51.29090" lon="4.84257"></trkpt>
      <trkpt lat="51.29082" lon="4.84240"></trkpt>
      <trkpt lat="51.29074" lon="4.84222"></trkpt>
      <trkpt lat="51.29065" lon="4.84204"></trkpt>
      <trkpt lat="51.29055" lon="4.84187"></trkpt>
      <trkpt lat="51.29047" lon="4.84168"></trkpt>
      <trkpt lat="51.29039" lon="4.84149"></trkpt>
      <trkpt lat="51.29030" lon="4.84131"></trkpt>
      <trkpt lat="51.29022" lon="4.84112"></trkpt>
      <trkpt lat="51.29013" lon="4.84094"></trkpt>
      <trkpt lat="51.29004" lon="4.84076"></trkpt>
      <trkpt lat="51.28995" lon="4.84059"></trkpt>
      <trkpt lat="51.28982" lon="4.84062"></trkpt>
      <trkpt lat="51.28970" lon="4.84075"></trkpt>
      <trkpt lat="51.28959" lon="4.84088"></trkpt>
      <trkpt lat="51.28947" lon="4.84103"></trkpt>
      <trkpt lat="51.28935" lon="4.84117"></trkpt>
      <trkpt lat="51.28923" lon="4.84131"></trkpt>
      <trkpt lat="51.28912" lon="4.84144"></trkpt>
      <trkpt lat="51.28900" lon="4.84156"></trkpt>
      <trkpt lat="51.28887" lon="4.84159"></trkpt>
      <trkpt lat="51.28878" lon="4.84156"></trkpt>
      <trkpt lat="51.28864" lon="4.84153"></trkpt>
      <trkpt lat="51.28850" lon="4.84143"></trkpt>
      <trkpt lat="51.28838" lon="4.84131"></trkpt>
      <trkpt lat="51.28825" lon="4.84121"></trkpt>
      <trkpt lat="51.28812" lon="4.84113"></trkpt>
      <trkpt lat="51.28799" lon="4.84105"></trkpt>
      <trkpt lat="51.28789" lon="4.84095"></trkpt>
      <trkpt lat="51.28778" lon="4.84083"></trkpt>
      <trkpt lat="51.28768" lon="4.84067"></trkpt>
      <trkpt lat="51.28757" lon="4.84050"></trkpt>
      <trkpt lat="51.28748" lon="4.84033"></trkpt>
      <trkpt lat="51.28741" lon="4.84013"></trkpt>
      <trkpt lat="51.28732" lon="4.83995"></trkpt>
      <trkpt lat="51.28724" lon="4.83976"></trkpt>
      <trkpt lat="51.28727" lon="4.83956"></trkpt>
      <trkpt lat="51.28738" lon="4.83940"></trkpt>
      <trkpt lat="51.28749" lon="4.83927"></trkpt>
      <trkpt lat="51.28760" lon="4.83913"></trkpt>
      <trkpt lat="51.28770" lon="4.83900"></trkpt>
      <trkpt lat="51.28779" lon="4.83883"></trkpt>
      <trkpt lat="51.28788" lon="4.83867"></trkpt>
      <trkpt lat="51.28798" lon="4.83851"></trkpt>
      <trkpt lat="51.28808" lon="4.83837"></trkpt>
      <trkpt lat="51.28810" lon="4.83817"></trkpt>
      <trkpt lat="51.28801" lon="4.83802"></trkpt>
      <trkpt lat="51.28787" lon="4.83794"></trkpt>
      <trkpt lat="51.28773" lon="4.83786"></trkpt>
      <trkpt lat="51.28760" lon="4.83778"></trkpt>
      <trkpt lat="51.28747" lon="4.83770"></trkpt>
      <trkpt lat="51.28733" lon="4.83761"></trkpt>
      <trkpt lat="51.28721" lon="4.83753"></trkpt>
      <trkpt lat="51.28709" lon="4.83747"></trkpt>
      <trkpt lat="51.28698" lon="4.83740"></trkpt>
      <trkpt lat="51.28686" lon="4.83732"></trkpt>
      <trkpt lat="51.28673" lon="4.83725"></trkpt>
      <trkpt lat="51.28660" lon="4.83720"></trkpt>
      <trkpt lat="51.28648" lon="4.83712"></trkpt>
      <trkpt lat="51.28634" lon="4.83705"></trkpt>
      <trkpt lat="51.28621" lon="4.83696"></trkpt>
      <trkpt lat="51.28607" lon="4.83687"></trkpt>
      <trkpt lat="51.28593" lon="4.83681"></trkpt>
      <trkpt lat="51.28579" lon="4.83673"></trkpt>
      <trkpt lat="51.28565" lon="4.83665"></trkpt>
      <trkpt lat="51.28552" lon="4.83657"></trkpt>
      <trkpt lat="51.28538" lon="4.83649"></trkpt>
      <trkpt lat="51.28528" lon="4.83642"></trkpt>
      <trkpt lat="51.28519" lon="4.83636"></trkpt>
      <trkpt lat="51.28506" lon="4.83630"></trkpt>
      <trkpt lat="51.28493" lon="4.83622"></trkpt>
      <trkpt lat="51.28479" lon="4.83613"></trkpt>
      <trkpt lat="51.28465" lon="4.83605"></trkpt>
      <trkpt lat="51.28451" lon="4.83596"></trkpt>
      <trkpt lat="51.28437" lon="4.83588"></trkpt>
      <trkpt lat="51.28425" lon="4.83582"></trkpt>
      <trkpt lat="51.28412" lon="4.83572"></trkpt>
      <trkpt lat="51.28398" lon="4.83559"></trkpt>
      <trkpt lat="51.28387" lon="4.83545"></trkpt>
      <trkpt lat="51.28376" lon="4.83531"></trkpt>
      <trkpt lat="51.28365" lon="4.83518"></trkpt>
      <trkpt lat="51.28353" lon="4.83503"></trkpt>
      <trkpt lat="51.28341" lon="4.83492"></trkpt>
      <trkpt lat="51.28328" lon="4.83480"></trkpt>
      <trkpt lat="51.28319" lon="4.83463"></trkpt>
      <trkpt lat="51.28311" lon="4.83445"></trkpt>
      <trkpt lat="51.28302" lon="4.83428"></trkpt>
      <trkpt lat="51.28294" lon="4.83410"></trkpt>
      <trkpt lat="51.28285" lon="4.83392"></trkpt>
      <trkpt lat="51.28278" lon="4.83374"></trkpt>
      <trkpt lat="51.28269" lon="4.83355"></trkpt>
      <trkpt lat="51.28261" lon="4.83336"></trkpt>
      <trkpt lat="51.28253" lon="4.83316"></trkpt>
      <trkpt lat="51.28245" lon="4.83296"></trkpt>
      <trkpt lat="51.28236" lon="4.83286"></trkpt>
      <trkpt lat="51.28223" lon="4.83294"></trkpt>
      <trkpt lat="51.28210" lon="4.83304"></trkpt>
      <trkpt lat="51.28197" lon="4.83314"></trkpt>
      <trkpt lat="51.28184" lon="4.83320"></trkpt>
      <trkpt lat="51.28170" lon="4.83317"></trkpt>
      <trkpt lat="51.28157" lon="4.83323"></trkpt>
      <trkpt lat="51.28145" lon="4.83334"></trkpt>
      <trkpt lat="51.28132" lon="4.83344"></trkpt>
      <trkpt lat="51.28120" lon="4.83355"></trkpt>
      <trkpt lat="51.28107" lon="4.83367"></trkpt>
      <trkpt lat="51.28095" lon="4.83377"></trkpt>
      <trkpt lat="51.28082" lon="4.83379"></trkpt>
      <trkpt lat="51.28068" lon="4.83380"></trkpt>
      <trkpt lat="51.28054" lon="4.83383"></trkpt>
      <trkpt lat="51.28041" lon="4.83387"></trkpt>
      <trkpt lat="51.28026" lon="4.83390"></trkpt>
      <trkpt lat="51.28012" lon="4.83393"></trkpt>
      <trkpt lat="51.27998" lon="4.83396"></trkpt>
      <trkpt lat="51.27984" lon="4.83399"></trkpt>
      <trkpt lat="51.27970" lon="4.83401"></trkpt>
      <trkpt lat="51.27955" lon="4.83404"></trkpt>
      <trkpt lat="51.27942" lon="4.83408"></trkpt>
      <trkpt lat="51.27928" lon="4.83413"></trkpt>
      <trkpt lat="51.27913" lon="4.83416"></trkpt>
      <trkpt lat="51.27899" lon="4.83419"></trkpt>
      <trkpt lat="51.27885" lon="4.83420"></trkpt>
      <trkpt lat="51.27871" lon="4.83423"></trkpt>
      <trkpt lat="51.27857" lon="4.83426"></trkpt>
      <trkpt lat="51.27843" lon="4.83426"></trkpt>
      <trkpt lat="51.27830" lon="4.83426"></trkpt>
      <trkpt lat="51.27816" lon="4.83426"></trkpt>
      <trkpt lat="51.27801" lon="4.83430"></trkpt>
      <trkpt lat="51.27787" lon="4.83433"></trkpt>
      <trkpt lat="51.27774" lon="4.83434"></trkpt>
      <trkpt lat="51.27765" lon="4.83420"></trkpt>
      <trkpt lat="51.27762" lon="4.83395"></trkpt>
      <trkpt lat="51.27761" lon="4.83373"></trkpt>
      <trkpt lat="51.27758" lon="4.83351"></trkpt>
      <trkpt lat="51.27748" lon="4.83339"></trkpt>
      <trkpt lat="51.27735" lon="4.83343"></trkpt>
      <trkpt lat="51.27721" lon="4.83350"></trkpt>
      <trkpt lat="51.27707" lon="4.83356"></trkpt>
      <trkpt lat="51.27693" lon="4.83362"></trkpt>
      <trkpt lat="51.27678" lon="4.83368"></trkpt>
      <trkpt lat="51.27664" lon="4.83373"></trkpt>
      <trkpt lat="51.27650" lon="4.83378"></trkpt>
      <trkpt lat="51.27637" lon="4.83383"></trkpt>
      <trkpt lat="51.27623" lon="4.83388"></trkpt>
      <trkpt lat="51.27610" lon="4.83393"></trkpt>
      <trkpt lat="51.27596" lon="4.83399"></trkpt>
      <trkpt lat="51.27582" lon="4.83406"></trkpt>
      <trkpt lat="51.27568" lon="4.83412"></trkpt>
      <trkpt lat="51.27553" lon="4.83414"></trkpt>
      <trkpt lat="51.27539" lon="4.83413"></trkpt>
      <trkpt lat="51.27524" lon="4.83412"></trkpt>
      <trkpt lat="51.27510" lon="4.83411"></trkpt>
      <trkpt lat="51.27496" lon="4.83408"></trkpt>
      <trkpt lat="51.27482" lon="4.83409"></trkpt>
      <trkpt lat="51.27468" lon="4.83408"></trkpt>
      <trkpt lat="51.27454" lon="4.83404"></trkpt>
      <trkpt lat="51.27442" lon="4.83396"></trkpt>
      <trkpt lat="51.27429" lon="4.83390"></trkpt>
      <trkpt lat="51.27414" lon="4.83387"></trkpt>
      <trkpt lat="51.27401" lon="4.83381"></trkpt>
      <trkpt lat="51.27388" lon="4.83373"></trkpt>
      <trkpt lat="51.27375" lon="4.83364"></trkpt>
      <trkpt lat="51.27363" lon="4.83348"></trkpt>
      <trkpt lat="51.27353" lon="4.83332"></trkpt>
      <trkpt lat="51.27344" lon="4.83314"></trkpt>
      <trkpt lat="51.27334" lon="4.83296"></trkpt>
      <trkpt lat="51.27325" lon="4.83278"></trkpt>
      <trkpt lat="51.27319" lon="4.83258"></trkpt>
      <trkpt lat="51.27318" lon="4.83234"></trkpt>
      <trkpt lat="51.27319" lon="4.83211"></trkpt>
      <trkpt lat="51.27320" lon="4.83187"></trkpt>
      <trkpt lat="51.27320" lon="4.83163"></trkpt>
      <trkpt lat="51.27320" lon="4.83140"></trkpt>
      <trkpt lat="51.27322" lon="4.83119"></trkpt>
      <trkpt lat="51.27325" lon="4.83102"></trkpt>
      <trkpt lat="51.27328" lon="4.83081"></trkpt>
      <trkpt lat="51.27331" lon="4.83060"></trkpt>
      <trkpt lat="51.27333" lon="4.83038"></trkpt>
      <trkpt lat="51.27331" lon="4.83018"></trkpt>
      <trkpt lat="51.27335" lon="4.82996"></trkpt>
      <trkpt lat="51.27342" lon="4.82978"></trkpt>
      <trkpt lat="51.27350" lon="4.82962"></trkpt>
      <trkpt lat="51.27359" lon="4.82949"></trkpt>
      <trkpt lat="51.27370" lon="4.82937"></trkpt>
      <trkpt lat="51.27376" lon="4.82918"></trkpt>
      <trkpt lat="51.27378" lon="4.82903"></trkpt>
      <trkpt lat="51.27378" lon="4.82901"></trkpt>
      <trkpt lat="51.27378" lon="4.82900"></trkpt>
      <trkpt lat="51.27379" lon="4.82898"></trkpt>
      <trkpt lat="51.27382" lon="4.82890"></trkpt>
      <trkpt lat="51.27387" lon="4.82866"></trkpt>
      <trkpt lat="51.27392" lon="4.82845"></trkpt>
      <trkpt lat="51.27398" lon="4.82829"></trkpt>
      <trkpt lat="51.27406" lon="4.82814"></trkpt>
      <trkpt lat="51.27410" lon="4.82792"></trkpt>
      <trkpt lat="51.27407" lon="4.82771"></trkpt>
      <trkpt lat="51.27400" lon="4.82752"></trkpt>
      <trkpt lat="51.27395" lon="4.82731"></trkpt>
      <trkpt lat="51.27389" lon="4.82710"></trkpt>
      <trkpt lat="51.27384" lon="4.82690"></trkpt>
      <trkpt lat="51.27378" lon="4.82667"></trkpt>
      <trkpt lat="51.27373" lon="4.82645"></trkpt>
      <trkpt lat="51.27368" lon="4.82623"></trkpt>
      <trkpt lat="51.27364" lon="4.82601"></trkpt>
      <trkpt lat="51.27359" lon="4.82579"></trkpt>
      <trkpt lat="51.27355" lon="4.82557"></trkpt>
      <trkpt lat="51.27351" lon="4.82535"></trkpt>
      <trkpt lat="51.27348" lon="4.82512"></trkpt>
      <trkpt lat="51.27346" lon="4.82489"></trkpt>
      <trkpt lat="51.27344" lon="4.82465"></trkpt>
      <trkpt lat="51.27341" lon="4.82441"></trkpt>
      <trkpt lat="51.27340" lon="4.82418"></trkpt>
      <trkpt lat="51.27339" lon="4.82394"></trkpt>
      <trkpt lat="51.27338" lon="4.82372"></trkpt>
      <trkpt lat="51.27336" lon="4.82350"></trkpt>
      <trkpt lat="51.27334" lon="4.82327"></trkpt>
      <trkpt lat="51.27332" lon="4.82304"></trkpt>
      <trkpt lat="51.27330" lon="4.82280"></trkpt>
      <trkpt lat="51.27327" lon="4.82256"></trkpt>
      <trkpt lat="51.27325" lon="4.82234"></trkpt>
      <trkpt lat="51.27324" lon="4.82210"></trkpt>
      <trkpt lat="51.27322" lon="4.82186"></trkpt>
      <trkpt lat="51.27320" lon="4.82162"></trkpt>
      <trkpt lat="51.27319" lon="4.82140"></trkpt>
      <trkpt lat="51.27317" lon="4.82118"></trkpt>
      <trkpt lat="51.27315" lon="4.82096"></trkpt>
      <trkpt lat="51.27313" lon="4.82073"></trkpt>
      <trkpt lat="51.27312" lon="4.82049"></trkpt>
      <trkpt lat="51.27309" lon="4.82026"></trkpt>
      <trkpt lat="51.27308" lon="4.82003"></trkpt>
      <trkpt lat="51.27305" lon="4.81980"></trkpt>
      <trkpt lat="51.27303" lon="4.81957"></trkpt>
      <trkpt lat="51.27301" lon="4.81933"></trkpt>
      <trkpt lat="51.27299" lon="4.81910"></trkpt>
      <trkpt lat="51.27299" lon="4.81887"></trkpt>
      <trkpt lat="51.27296" lon="4.81863"></trkpt>
      <trkpt lat="51.27294" lon="4.81843"></trkpt>
      <trkpt lat="51.27294" lon="4.81820"></trkpt>
      <trkpt lat="51.27294" lon="4.81795"></trkpt>
      <trkpt lat="51.27294" lon="4.81771"></trkpt>
      <trkpt lat="51.27296" lon="4.81748"></trkpt>
      <trkpt lat="51.27297" lon="4.81725"></trkpt>
      <trkpt lat="51.27295" lon="4.81701"></trkpt>
      <trkpt lat="51.27293" lon="4.81679"></trkpt>
      <trkpt lat="51.27292" lon="4.81666"></trkpt>
      <trkpt lat="51.27291" lon="4.81653"></trkpt>
      <trkpt lat="51.27290" lon="4.81642"></trkpt>
      <trkpt lat="51.27289" lon="4.81632"></trkpt>
      <trkpt lat="51.27289" lon="4.81622"></trkpt>
      <trkpt lat="51.27287" lon="4.81611"></trkpt>
      <trkpt lat="51.27286" lon="4.81600"></trkpt>
      <trkpt lat="51.27284" lon="4.81591"></trkpt>
      <trkpt lat="51.27282" lon="4.81581"></trkpt>
      <trkpt lat="51.27281" lon="4.81571"></trkpt>
      <trkpt lat="51.27280" lon="4.81562"></trkpt>
      <trkpt lat="51.27280" lon="4.81551"></trkpt>
      <trkpt lat="51.27280" lon="4.81540"></trkpt>
      <trkpt lat="51.27278" lon="4.81528"></trkpt>
      <trkpt lat="51.27277" lon="4.81519"></trkpt>
      <trkpt lat="51.27277" lon="4.81513"></trkpt>
      <trkpt lat="51.27277" lon="4.81511"></trkpt>
      <trkpt lat="51.27276" lon="4.81510"></trkpt>
      <trkpt lat="51.27275" lon="4.81499"></trkpt>
      <trkpt lat="51.27274" lon="4.81487"></trkpt>
      <trkpt lat="51.27275" lon="4.81475"></trkpt>
      <trkpt lat="51.27280" lon="4.81465"></trkpt>
      <trkpt lat="51.27287" lon="4.81459"></trkpt>
      <trkpt lat="51.27293" lon="4.81457"></trkpt>
      <trkpt lat="51.27301" lon="4.81453"></trkpt>
      <trkpt lat="51.27311" lon="4.81449"></trkpt>
      <trkpt lat="51.27325" lon="4.81445"></trkpt>
      <trkpt lat="51.27340" lon="4.81439"></trkpt>
      <trkpt lat="51.27355" lon="4.81430"></trkpt>
      <trkpt lat="51.27361" lon="4.81426"></trkpt>
      <trkpt lat="51.27362" lon="4.81426"></trkpt>
      <trkpt lat="51.27363" lon="4.81425"></trkpt>
      <trkpt lat="51.27364" lon="4.81425"></trkpt>
      <trkpt lat="51.27370" lon="4.81422"></trkpt>
      <trkpt lat="51.27392" lon="4.81409"></trkpt>
      <trkpt lat="51.27410" lon="4.81399"></trkpt>
      <trkpt lat="51.27425" lon="4.81392"></trkpt>
      <trkpt lat="51.27441" lon="4.81386"></trkpt>
      <trkpt lat="51.27456" lon="4.81378"></trkpt>
      <trkpt lat="51.27469" lon="4.81367"></trkpt>
      <trkpt lat="51.27482" lon="4.81355"></trkpt>
      <trkpt lat="51.27496" lon="4.81344"></trkpt>
      <trkpt lat="51.27509" lon="4.81334"></trkpt>
      <trkpt lat="51.27522" lon="4.81323"></trkpt>
      <trkpt lat="51.27535" lon="4.81311"></trkpt>
      <trkpt lat="51.27547" lon="4.81301"></trkpt>
      <trkpt lat="51.27560" lon="4.81292"></trkpt>
      <trkpt lat="51.27573" lon="4.81282"></trkpt>
      <trkpt lat="51.27585" lon="4.81270"></trkpt>
      <trkpt lat="51.27597" lon="4.81257"></trkpt>
      <trkpt lat="51.27610" lon="4.81245"></trkpt>
      <trkpt lat="51.27623" lon="4.81235"></trkpt>
      <trkpt lat="51.27637" lon="4.81225"></trkpt>
      <trkpt lat="51.27651" lon="4.81215"></trkpt>
      <trkpt lat="51.27663" lon="4.81204"></trkpt>
      <trkpt lat="51.27669" lon="4.81185"></trkpt>
      <trkpt lat="51.27676" lon="4.81171"></trkpt>
      <trkpt lat="51.27689" lon="4.81180"></trkpt>
      <trkpt lat="51.27702" lon="4.81193"></trkpt>
      <trkpt lat="51.27714" lon="4.81207"></trkpt>
      <trkpt lat="51.27727" lon="4.81219"></trkpt>
      <trkpt lat="51.27740" lon="4.81232"></trkpt>
      <trkpt lat="51.27753" lon="4.81245"></trkpt>
      <trkpt lat="51.27765" lon="4.81257"></trkpt>
      <trkpt lat="51.27778" lon="4.81268"></trkpt>
      <trkpt lat="51.27790" lon="4.81280"></trkpt>
      <trkpt lat="51.27803" lon="4.81291"></trkpt>
      <trkpt lat="51.27815" lon="4.81288"></trkpt>
      <trkpt lat="51.27825" lon="4.81274"></trkpt>
      <trkpt lat="51.27836" lon="4.81259"></trkpt>
      <trkpt lat="51.27846" lon="4.81243"></trkpt>
      <trkpt lat="51.27856" lon="4.81228"></trkpt>
      <trkpt lat="51.27867" lon="4.81213"></trkpt>
      <trkpt lat="51.27877" lon="4.81199"></trkpt>
      <trkpt lat="51.27887" lon="4.81184"></trkpt>
      <trkpt lat="51.27897" lon="4.81170"></trkpt>
      <trkpt lat="51.27907" lon="4.81156"></trkpt>
      <trkpt lat="51.27918" lon="4.81141"></trkpt>
      <trkpt lat="51.27929" lon="4.81126"></trkpt>
      <trkpt lat="51.27941" lon="4.81111"></trkpt>
      <trkpt lat="51.27953" lon="4.81094"></trkpt>
      <trkpt lat="51.27963" lon="4.81079"></trkpt>
      <trkpt lat="51.27974" lon="4.81063"></trkpt>
      <trkpt lat="51.27986" lon="4.81046"></trkpt>
      <trkpt lat="51.27998" lon="4.81030"></trkpt>
      <trkpt lat="51.28010" lon="4.81015"></trkpt>
      <trkpt lat="51.28021" lon="4.80999"></trkpt>
      <trkpt lat="51.28031" lon="4.80982"></trkpt>
      <trkpt lat="51.28043" lon="4.80967"></trkpt>
      <trkpt lat="51.28053" lon="4.80952"></trkpt>
      <trkpt lat="51.28064" lon="4.80937"></trkpt>
      <trkpt lat="51.28074" lon="4.80922"></trkpt>
      <trkpt lat="51.28084" lon="4.80907"></trkpt>
      <trkpt lat="51.28097" lon="4.80893"></trkpt>
      <trkpt lat="51.28108" lon="4.80877"></trkpt>
      <trkpt lat="51.28118" lon="4.80862"></trkpt>
      <trkpt lat="51.28129" lon="4.80847"></trkpt>
      <trkpt lat="51.28142" lon="4.80849"></trkpt>
      <trkpt lat="51.28153" lon="4.80866"></trkpt>
      <trkpt lat="51.28162" lon="4.80886"></trkpt>
      <trkpt lat="51.28171" lon="4.80904"></trkpt>
      <trkpt lat="51.28181" lon="4.80920"></trkpt>
      <trkpt lat="51.28191" lon="4.80937"></trkpt>
      <trkpt lat="51.28202" lon="4.80954"></trkpt>
      <trkpt lat="51.28213" lon="4.80971"></trkpt>
      <trkpt lat="51.28224" lon="4.80987"></trkpt>
      <trkpt lat="51.28235" lon="4.81004"></trkpt>
      <trkpt lat="51.28245" lon="4.81021"></trkpt>
      <trkpt lat="51.28255" lon="4.81038"></trkpt>
      <trkpt lat="51.28261" lon="4.81056"></trkpt>
      <trkpt lat="51.28250" lon="4.81069"></trkpt>
      <trkpt lat="51.28238" lon="4.81080"></trkpt>
      <trkpt lat="51.28232" lon="4.81094"></trkpt>
      <trkpt lat="51.28232" lon="4.81095"></trkpt>
      <trkpt lat="51.28232" lon="4.81095"></trkpt>
      <trkpt lat="51.28233" lon="4.81095"></trkpt>
      <trkpt lat="51.28233" lon="4.81095"></trkpt>
      <trkpt lat="51.28233" lon="4.81096"></trkpt>
      <trkpt lat="51.28233" lon="4.81096"></trkpt>
      <trkpt lat="51.28235" lon="4.81098"></trkpt>
      <trkpt lat="51.28245" lon="4.81119"></trkpt>
      <trkpt lat="51.28252" lon="4.81144"></trkpt>
      <trkpt lat="51.28257" lon="4.81167"></trkpt>
      <trkpt lat="51.28264" lon="4.81189"></trkpt>
      <trkpt lat="51.28271" lon="4.81211"></trkpt>
      <trkpt lat="51.28278" lon="4.81234"></trkpt>
      <trkpt lat="51.28284" lon="4.81257"></trkpt>
      <trkpt lat="51.28289" lon="4.81279"></trkpt>
      <trkpt lat="51.28295" lon="4.81301"></trkpt>
      <trkpt lat="51.28303" lon="4.81322"></trkpt>
      <trkpt lat="51.28308" lon="4.81345"></trkpt>
      <trkpt lat="51.28315" lon="4.81366"></trkpt>
      <trkpt lat="51.28322" lon="4.81386"></trkpt>
      <trkpt lat="51.28328" lon="4.81407"></trkpt>
      <trkpt lat="51.28334" lon="4.81426"></trkpt>
      <trkpt lat="51.28340" lon="4.81446"></trkpt>
      <trkpt lat="51.28347" lon="4.81467"></trkpt>
      <trkpt lat="51.28357" lon="4.81480"></trkpt>
      <trkpt lat="51.28369" lon="4.81488"></trkpt>
      <trkpt lat="51.28382" lon="4.81496"></trkpt>
      <trkpt lat="51.28395" lon="4.81504"></trkpt>
      <trkpt lat="51.28409" lon="4.81513"></trkpt>
      <trkpt lat="51.28422" lon="4.81521"></trkpt>
      <trkpt lat="51.28436" lon="4.81529"></trkpt>
      <trkpt lat="51.28449" lon="4.81538"></trkpt>
      <trkpt lat="51.28464" lon="4.81547"></trkpt>
      <trkpt lat="51.28478" lon="4.81557"></trkpt>
      <trkpt lat="51.28492" lon="4.81566"></trkpt>
      <trkpt lat="51.28506" lon="4.81575"></trkpt>
      <trkpt lat="51.28521" lon="4.81584"></trkpt>
      <trkpt lat="51.28535" lon="4.81592"></trkpt>
      <trkpt lat="51.28548" lon="4.81600"></trkpt>
      <trkpt lat="51.28561" lon="4.81608"></trkpt>
      <trkpt lat="51.28573" lon="4.81614"></trkpt>
      <trkpt lat="51.28584" lon="4.81622"></trkpt>
      <trkpt lat="51.28595" lon="4.81630"></trkpt>
      <trkpt lat="51.28600" lon="4.81648"></trkpt>
      <trkpt lat="51.28598" lon="4.81670"></trkpt>
      <trkpt lat="51.28593" lon="4.81692"></trkpt>
      <trkpt lat="51.28588" lon="4.81713"></trkpt>
      <trkpt lat="51.28583" lon="4.81734"></trkpt>
      <trkpt lat="51.28580" lon="4.81757"></trkpt>
      <trkpt lat="51.28575" lon="4.81779"></trkpt>
      <trkpt lat="51.28571" lon="4.81801"></trkpt>
      <trkpt lat="51.28568" lon="4.81824"></trkpt>
      <trkpt lat="51.28563" lon="4.81846"></trkpt>
      <trkpt lat="51.28558" lon="4.81867"></trkpt>
      <trkpt lat="51.28554" lon="4.81889"></trkpt>
      <trkpt lat="51.28550" lon="4.81912"></trkpt>
      <trkpt lat="51.28545" lon="4.81934"></trkpt>
      <trkpt lat="51.28541" lon="4.81957"></trkpt>
      <trkpt lat="51.28538" lon="4.81979"></trkpt>
      <trkpt lat="51.28534" lon="4.82001"></trkpt>
      <trkpt lat="51.28528" lon="4.82025"></trkpt>
      <trkpt lat="51.28523" lon="4.82048"></trkpt>
      <trkpt lat="51.28518" lon="4.82072"></trkpt>
      <trkpt lat="51.28515" lon="4.82095"></trkpt>
      <trkpt lat="51.28510" lon="4.82117"></trkpt>
      <trkpt lat="51.28504" lon="4.82139"></trkpt>
      <trkpt lat="51.28499" lon="4.82161"></trkpt>
      <trkpt lat="51.28494" lon="4.82183"></trkpt>
      <trkpt lat="51.28490" lon="4.82204"></trkpt>
      <trkpt lat="51.28485" lon="4.82227"></trkpt>
      <trkpt lat="51.28481" lon="4.82250"></trkpt>
      <trkpt lat="51.28477" lon="4.82273"></trkpt>
      <trkpt lat="51.28472" lon="4.82296"></trkpt>
      <trkpt lat="51.28468" lon="4.82319"></trkpt>
      <trkpt lat="51.28462" lon="4.82341"></trkpt>
      <trkpt lat="51.28454" lon="4.82362"></trkpt>
      <trkpt lat="51.28447" lon="4.82382"></trkpt>
      <trkpt lat="51.28439" lon="4.82403"></trkpt>
      <trkpt lat="51.28431" lon="4.82423"></trkpt>
      <trkpt lat="51.28425" lon="4.82443"></trkpt>
      <trkpt lat="51.28419" lon="4.82464"></trkpt>
      <trkpt lat="51.28413" lon="4.82484"></trkpt>
      <trkpt lat="51.28407" lon="4.82506"></trkpt>
      <trkpt lat="51.28401" lon="4.82527"></trkpt>
      <trkpt lat="51.28396" lon="4.82549"></trkpt>
      <trkpt lat="51.28390" lon="4.82570"></trkpt>
      <trkpt lat="51.28384" lon="4.82593"></trkpt>
      <trkpt lat="51.28379" lon="4.82615"></trkpt>
      <trkpt lat="51.28374" lon="4.82638"></trkpt>
      <trkpt lat="51.28368" lon="4.82658"></trkpt>
      <trkpt lat="51.28362" lon="4.82678"></trkpt>
      <trkpt lat="51.28356" lon="4.82703"></trkpt>
      <trkpt lat="51.28352" lon="4.82725"></trkpt>
      <trkpt lat="51.28346" lon="4.82748"></trkpt>
      <trkpt lat="51.28338" lon="4.82769"></trkpt>
      <trkpt lat="51.28330" lon="4.82792"></trkpt>
      <trkpt lat="51.28322" lon="4.82813"></trkpt>
      <trkpt lat="51.28315" lon="4.82834"></trkpt>
      <trkpt lat="51.28307" lon="4.82855"></trkpt>
      <trkpt lat="51.28300" lon="4.82876"></trkpt>
      <trkpt lat="51.28298" lon="4.82898"></trkpt>
      <trkpt lat="51.28303" lon="4.82919"></trkpt>
      <trkpt lat="51.28309" lon="4.82939"></trkpt>
      <trkpt lat="51.28313" lon="4.82959"></trkpt>
      <trkpt lat="51.28318" lon="4.82980"></trkpt>
      <trkpt lat="51.28324" lon="4.83001"></trkpt>
      <trkpt lat="51.28328" lon="4.83022"></trkpt>
      <trkpt lat="51.28334" lon="4.83043"></trkpt>
      <trkpt lat="51.28339" lon="4.83064"></trkpt>
      <trkpt lat="51.28341" lon="4.83086"></trkpt>
      <trkpt lat="51.28334" lon="4.83105"></trkpt>
      <trkpt lat="51.28324" lon="4.83121"></trkpt>
      <trkpt lat="51.28314" lon="4.83138"></trkpt>
      <trkpt lat="51.28304" lon="4.83156"></trkpt>
      <trkpt lat="51.28293" lon="4.83175"></trkpt>
      <trkpt lat="51.28283" lon="4.83191"></trkpt>
      <trkpt lat="51.28273" lon="4.83207"></trkpt>
      <trkpt lat="51.28263" lon="4.83225"></trkpt>
      <trkpt lat="51.28252" lon="4.83243"></trkpt>
      <trkpt lat="51.28242" lon="4.83262"></trkpt>
      <trkpt lat="51.28245" lon="4.83281"></trkpt>
      <trkpt lat="51.28256" lon="4.83299"></trkpt>
      <trkpt lat="51.28264" lon="4.83317"></trkpt>
      <trkpt lat="51.28272" lon="4.83336"></trkpt>
      <trkpt lat="51.28279" lon="4.83356"></trkpt>
      <trkpt lat="51.28289" lon="4.83374"></trkpt>
      <trkpt lat="51.28297" lon="4.83393"></trkpt>
      <trkpt lat="51.28305" lon="4.83412"></trkpt>
      <trkpt lat="51.28313" lon="4.83432"></trkpt>
      <trkpt lat="51.28323" lon="4.83451"></trkpt>
      <trkpt lat="51.28330" lon="4.83469"></trkpt>
      <trkpt lat="51.28333" lon="4.83491"></trkpt>
      <trkpt lat="51.28329" lon="4.83513"></trkpt>
      <trkpt lat="51.28323" lon="4.83536"></trkpt>
      <trkpt lat="51.28316" lon="4.83558"></trkpt>
      <trkpt lat="51.28310" lon="4.83578"></trkpt>
      <trkpt lat="51.28304" lon="4.83600"></trkpt>
      <trkpt lat="51.28298" lon="4.83623"></trkpt>
      <trkpt lat="51.28291" lon="4.83644"></trkpt>
      <trkpt lat="51.28285" lon="4.83666"></trkpt>
      <trkpt lat="51.28279" lon="4.83687"></trkpt>
      <trkpt lat="51.28273" lon="4.83708"></trkpt>
      <trkpt lat="51.28263" lon="4.83725"></trkpt>
      <trkpt lat="51.28250" lon="4.83731"></trkpt>
      <trkpt lat="51.28236" lon="4.83734"></trkpt>
      <trkpt lat="51.28223" lon="4.83738"></trkpt>
      <trkpt lat="51.28208" lon="4.83743"></trkpt>
      <trkpt lat="51.28194" lon="4.83748"></trkpt>
      <trkpt lat="51.28182" lon="4.83761"></trkpt>
      <trkpt lat="51.28171" lon="4.83780"></trkpt>
      <trkpt lat="51.28163" lon="4.83800"></trkpt>
      <trkpt lat="51.28154" lon="4.83818"></trkpt>
      <trkpt lat="51.28146" lon="4.83837"></trkpt>
      <trkpt lat="51.28138" lon="4.83856"></trkpt>
      <trkpt lat="51.28129" lon="4.83876"></trkpt>
      <trkpt lat="51.28121" lon="4.83894"></trkpt>
      <trkpt lat="51.28113" lon="4.83914"></trkpt>
      <trkpt lat="51.28103" lon="4.83932"></trkpt>
      <trkpt lat="51.28093" lon="4.83951"></trkpt>
      <trkpt lat="51.28084" lon="4.83969"></trkpt>
      <trkpt lat="51.28074" lon="4.83984"></trkpt>
      <trkpt lat="51.28063" lon="4.83997"></trkpt>
      <trkpt lat="51.28052" lon="4.84015"></trkpt>
      <trkpt lat="51.28046" lon="4.84036"></trkpt>
      <trkpt lat="51.28040" lon="4.84057"></trkpt>
      <trkpt lat="51.28036" lon="4.84078"></trkpt>
      <trkpt lat="51.28033" lon="4.84099"></trkpt>
      <trkpt lat="51.28035" lon="4.84120"></trkpt>
      <trkpt lat="51.28043" lon="4.84140"></trkpt>
      <trkpt lat="51.28053" lon="4.84158"></trkpt>
      <trkpt lat="51.28062" lon="4.84176"></trkpt>
      <trkpt lat="51.28072" lon="4.84193"></trkpt>
      <trkpt lat="51.28081" lon="4.84211"></trkpt>
      <trkpt lat="51.28092" lon="4.84230"></trkpt>
      <trkpt lat="51.28102" lon="4.84249"></trkpt>
      <trkpt lat="51.28110" lon="4.84268"></trkpt>
      <trkpt lat="51.28116" lon="4.84292"></trkpt>
      <trkpt lat="51.28111" lon="4.84315"></trkpt>
      <trkpt lat="51.28112" lon="4.84337"></trkpt>
      <trkpt lat="51.28125" lon="4.84351"></trkpt>
      <trkpt lat="51.28138" lon="4.84363"></trkpt>
      <trkpt lat="51.28151" lon="4.84377"></trkpt>
      <trkpt lat="51.28161" lon="4.84393"></trkpt>
      <trkpt lat="51.28166" lon="4.84417"></trkpt>
      <trkpt lat="51.28169" lon="4.84440"></trkpt>
      <trkpt lat="51.28173" lon="4.84462"></trkpt>
      <trkpt lat="51.28179" lon="4.84486"></trkpt>
      <trkpt lat="51.28185" lon="4.84509"></trkpt>
      <trkpt lat="51.28191" lon="4.84531"></trkpt>
      <trkpt lat="51.28199" lon="4.84551"></trkpt>
      <trkpt lat="51.28207" lon="4.84570"></trkpt>
      <trkpt lat="51.28218" lon="4.84587"></trkpt>
      <trkpt lat="51.28229" lon="4.84603"></trkpt>
      <trkpt lat="51.28234" lon="4.84624"></trkpt>
      <trkpt lat="51.28234" lon="4.84647"></trkpt>
      <trkpt lat="51.28240" lon="4.84667"></trkpt>
      <trkpt lat="51.28251" lon="4.84681"></trkpt>
      <trkpt lat="51.28263" lon="4.84692"></trkpt>
      <trkpt lat="51.28274" lon="4.84706"></trkpt>
      <trkpt lat="51.28282" lon="4.84723"></trkpt>
      <trkpt lat="51.28291" lon="4.84740"></trkpt>
      <trkpt lat="51.28301" lon="4.84756"></trkpt>
      <trkpt lat="51.28312" lon="4.84772"></trkpt>
      <trkpt lat="51.28323" lon="4.84788"></trkpt>
      <trkpt lat="51.28334" lon="4.84800"></trkpt>
      <trkpt lat="51.28346" lon="4.84815"></trkpt>
      <trkpt lat="51.28355" lon="4.84829"></trkpt>
      <trkpt lat="51.28364" lon="4.84846"></trkpt>
      <trkpt lat="51.28371" lon="4.84863"></trkpt>
      <trkpt lat="51.28381" lon="4.84877"></trkpt>
      <trkpt lat="51.28391" lon="4.84892"></trkpt>
      <trkpt lat="51.28404" lon="4.84909"></trkpt>
      <trkpt lat="51.28413" lon="4.84924"></trkpt>
      <trkpt lat="51.28424" lon="4.84938"></trkpt>
      <trkpt lat="51.28437" lon="4.84952"></trkpt>
      <trkpt lat="51.28447" lon="4.84967"></trkpt>
      <trkpt lat="51.28458" lon="4.84981"></trkpt>
      <trkpt lat="51.28468" lon="4.84994"></trkpt>
      <trkpt lat="51.28478" lon="4.85008"></trkpt>
      <trkpt lat="51.28487" lon="4.85023"></trkpt>
      <trkpt lat="51.28499" lon="4.85037"></trkpt>
      <trkpt lat="51.28506" lon="4.85054"></trkpt>
      <trkpt lat="51.28507" lon="4.85074"></trkpt>
      <trkpt lat="51.28512" lon="4.85093"></trkpt>
      <trkpt lat="51.28518" lon="4.85112"></trkpt>
      <trkpt lat="51.28527" lon="4.85125"></trkpt>
      <trkpt lat="51.28538" lon="4.85140"></trkpt>
      <trkpt lat="51.28548" lon="4.85151"></trkpt>
      <trkpt lat="51.28560" lon="4.85156"></trkpt>
      <trkpt lat="51.28571" lon="4.85161"></trkpt>
      <trkpt lat="51.28582" lon="4.85166"></trkpt>
      <trkpt lat="51.28592" lon="4.85172"></trkpt>
      <trkpt lat="51.28604" lon="4.85181"></trkpt>
      <trkpt lat="51.28615" lon="4.85190"></trkpt>
      <trkpt lat="51.28626" lon="4.85198"></trkpt>
      <trkpt lat="51.28639" lon="4.85206"></trkpt>
      <trkpt lat="51.28650" lon="4.85219"></trkpt>
      <trkpt lat="51.28660" lon="4.85230"></trkpt>
      <trkpt lat="51.28668" lon="4.85241"></trkpt>
      <trkpt lat="51.28676" lon="4.85255"></trkpt>
      <trkpt lat="51.28679" lon="4.85271"></trkpt>
      <trkpt lat="51.28687" lon="4.85285"></trkpt>
      <trkpt lat="51.28698" lon="4.85298"></trkpt>
      <trkpt lat="51.28708" lon="4.85316"></trkpt>
      <trkpt lat="51.28715" lon="4.85337"></trkpt>
      <trkpt lat="51.28722" lon="4.85355"></trkpt>
      <trkpt lat="51.28732" lon="4.85369"></trkpt>
      <trkpt lat="51.28742" lon="4.85384"></trkpt>
      <trkpt lat="51.28755" lon="4.85399"></trkpt>
      <trkpt lat="51.28767" lon="4.85407"></trkpt>
      <trkpt lat="51.28776" lon="4.85396"></trkpt>
      <trkpt lat="51.28783" lon="4.85376"></trkpt>
      <trkpt lat="51.28792" lon="4.85358"></trkpt>
      <trkpt lat="51.28801" lon="4.85342"></trkpt>
      <trkpt lat="51.28810" lon="4.85323"></trkpt>
      <trkpt lat="51.28819" lon="4.85305"></trkpt>
      <trkpt lat="51.28828" lon="4.85288"></trkpt>
      <trkpt lat="51.28837" lon="4.85272"></trkpt>
      <trkpt lat="51.28847" lon="4.85256"></trkpt>
      <trkpt lat="51.28857" lon="4.85238"></trkpt>
      <trkpt lat="51.28865" lon="4.85220"></trkpt>
      <trkpt lat="51.28875" lon="4.85201"></trkpt>
      <trkpt lat="51.28885" lon="4.85184"></trkpt>
      <trkpt lat="51.28893" lon="4.85166"></trkpt>
      <trkpt lat="51.28902" lon="4.85147"></trkpt>
      <trkpt lat="51.28913" lon="4.85132"></trkpt>
      <trkpt lat="51.28927" lon="4.85129"></trkpt>
      <trkpt lat="51.28942" lon="4.85131"></trkpt>
      <trkpt lat="51.28957" lon="4.85130"></trkpt>
      <trkpt lat="51.28972" lon="4.85130"></trkpt>
      <trkpt lat="51.28986" lon="4.85130"></trkpt>
      <trkpt lat="51.29001" lon="4.85130"></trkpt>
      <trkpt lat="51.29015" lon="4.85130"></trkpt>
      <trkpt lat="51.29029" lon="4.85129"></trkpt>
      <trkpt lat="51.29044" lon="4.85130"></trkpt>
      <trkpt lat="51.29059" lon="4.85130"></trkpt>
      <trkpt lat="51.29072" lon="4.85124"></trkpt>
      <trkpt lat="51.29084" lon="4.85131"></trkpt>
      <trkpt lat="51.29096" lon="4.85147"></trkpt>
      <trkpt lat="51.29105" lon="4.85166"></trkpt>
      <trkpt lat="51.29115" lon="4.85185"></trkpt>
      <trkpt lat="51.29124" lon="4.85204"></trkpt>
      <trkpt lat="51.29134" lon="4.85223"></trkpt>
      <trkpt lat="51.29144" lon="4.85243"></trkpt>
      <trkpt lat="51.29153" lon="4.85262"></trkpt>
      <trkpt lat="51.29161" lon="4.85281"></trkpt>
      <trkpt lat="51.29170" lon="4.85299"></trkpt>
      <trkpt lat="51.29179" lon="4.85317"></trkpt>
      <trkpt lat="51.29187" lon="4.85334"></trkpt>
      <trkpt lat="51.29198" lon="4.85329"></trkpt>
      <trkpt lat="51.29207" lon="4.85320"></trkpt>
      <trkpt lat="51.29219" lon="4.85311"></trkpt>
      <trkpt lat="51.29230" lon="4.85300"></trkpt>
      <trkpt lat="51.29241" lon="4.85290"></trkpt>
      <trkpt lat="51.29252" lon="4.85279"></trkpt>
      <trkpt lat="51.29264" lon="4.85267"></trkpt>
      <trkpt lat="51.29277" lon="4.85256"></trkpt>
      <trkpt lat="51.29291" lon="4.85246"></trkpt>
      <trkpt lat="51.29301" lon="4.85257"></trkpt>
      <trkpt lat="51.29307" lon="4.85281"></trkpt>
      <trkpt lat="51.29312" lon="4.85303"></trkpt>
      <trkpt lat="51.29316" lon="4.85325"></trkpt>
      <trkpt lat="51.29322" lon="4.85349"></trkpt>
      <trkpt lat="51.29329" lon="4.85371"></trkpt>
      <trkpt lat="51.29334" lon="4.85394"></trkpt>
      <trkpt lat="51.29344" lon="4.85411"></trkpt>
      <trkpt lat="51.29359" lon="4.85413"></trkpt>
      <trkpt lat="51.29373" lon="4.85414"></trkpt>
      <trkpt lat="51.29389" lon="4.85414"></trkpt>
      <trkpt lat="51.29404" lon="4.85414"></trkpt>
      <trkpt lat="51.29419" lon="4.85416"></trkpt>
      <trkpt lat="51.29433" lon="4.85418"></trkpt>
      <trkpt lat="51.29448" lon="4.85419"></trkpt>
      <trkpt lat="51.29463" lon="4.85421"></trkpt>
      <trkpt lat="51.29478" lon="4.85422"></trkpt>
      <trkpt lat="51.29493" lon="4.85423"></trkpt>
      <trkpt lat="51.29508" lon="4.85423"></trkpt>
      <trkpt lat="51.29523" lon="4.85425"></trkpt>
      <trkpt lat="51.29539" lon="4.85427"></trkpt>
      <trkpt lat="51.29554" lon="4.85428"></trkpt>
      <trkpt lat="51.29569" lon="4.85428"></trkpt>
      <trkpt lat="51.29582" lon="4.85426"></trkpt>
      <trkpt lat="51.29582" lon="4.85411"></trkpt>
      <trkpt lat="51.29574" lon="4.85391"></trkpt>
      <trkpt lat="51.29566" lon="4.85370"></trkpt>
      <trkpt lat="51.29557" lon="4.85349"></trkpt>
      <trkpt lat="51.29549" lon="4.85328"></trkpt>
      <trkpt lat="51.29542" lon="4.85305"></trkpt>
      <trkpt lat="51.29535" lon="4.85283"></trkpt>
      <trkpt lat="51.29528" lon="4.85263"></trkpt>
    </trkseg>
  </trk>
</gpx>