<?xml version="1.0" encoding="UTF-8"?>
<gpx version="1.1" creator="jeffry.running" xmlns="http://www.topografix.com/GPX/1/1">
  <metadata><time>2026-08-16T06:23:01.393Z</time></metadata>
  <trk>
    <trkseg>
      <trkpt lat="50.83472" lon="3.62370"></trkpt>
      <trkpt lat="50.83512" lon="3.62461"></trkpt>
      <trkpt lat="50.83515" lon="3.62484"></trkpt>
      <trkpt lat="50.83517" lon="3.62507"></trkpt>
      <trkpt lat="50.83520" lon="3.62539"></trkpt>
      <trkpt lat="50.83523" lon="3.62567"></trkpt>
      <trkpt lat="50.83527" lon="3.62593"></trkpt>
      <trkpt lat="50.83531" lon="3.62617"></trkpt>
      <trkpt lat="50.83534" lon="3.62640"></trkpt>
      <trkpt lat="50.83538" lon="3.62665"></trkpt>
      <trkpt lat="50.83541" lon="3.62690"></trkpt>
      <trkpt lat="50.83544" lon="3.62714"></trkpt>
      <trkpt lat="50.83542" lon="3.62737"></trkpt>
      <trkpt lat="50.83528" lon="3.62744"></trkpt>
      <trkpt lat="50.83513" lon="3.62746"></trkpt>
      <trkpt lat="50.83496" lon="3.62748"></trkpt>
      <trkpt lat="50.83480" lon="3.62750"></trkpt>
      <trkpt lat="50.83464" lon="3.62753"></trkpt>
      <trkpt lat="50.83448" lon="3.62757"></trkpt>
      <trkpt lat="50.83432" lon="3.62761"></trkpt>
      <trkpt lat="50.83417" lon="3.62766"></trkpt>
      <trkpt lat="50.83403" lon="3.62773"></trkpt>
      <trkpt lat="50.83387" lon="3.62780"></trkpt>
      <trkpt lat="50.83372" lon="3.62785"></trkpt>
      <trkpt lat="50.83356" lon="3.62791"></trkpt>
      <trkpt lat="50.83341" lon="3.62796"></trkpt>
      <trkpt lat="50.83324" lon="3.62802"></trkpt>
      <trkpt lat="50.83310" lon="3.62812"></trkpt>
      <trkpt lat="50.83299" lon="3.62829"></trkpt>
      <trkpt lat="50.83294" lon="3.62852"></trkpt>
      <trkpt lat="50.83289" lon="3.62875"></trkpt>
      <trkpt lat="50.83283" lon="3.62899"></trkpt>
      <trkpt lat="50.83279" lon="3.62924"></trkpt>
      <trkpt lat="50.83277" lon="3.62948"></trkpt>
      <trkpt lat="50.83278" lon="3.62974"></trkpt>
      <trkpt lat="50.83278" lon="3.62999"></trkpt>
      <trkpt lat="50.83278" lon="3.63024"></trkpt>
      <trkpt lat="50.83276" lon="3.63048"></trkpt>
      <trkpt lat="50.83270" lon="3.63070"></trkpt>
      <trkpt lat="50.83262" lon="3.63090"></trkpt>
      <trkpt lat="50.83252" lon="3.63108"></trkpt>
      <trkpt lat="50.83242" lon="3.63127"></trkpt>
      <trkpt lat="50.83238" lon="3.63149"></trkpt>
      <trkpt lat="50.83248" lon="3.63162"></trkpt>
      <trkpt lat="50.83262" lon="3.63170"></trkpt>
      <trkpt lat="50.83277" lon="3.63178"></trkpt>
      <trkpt lat="50.83291" lon="3.63185"></trkpt>
      <trkpt lat="50.83307" lon="3.63191"></trkpt>
      <trkpt lat="50.83322" lon="3.63194"></trkpt>
      <trkpt lat="50.83337" lon="3.63198"></trkpt>
      <trkpt lat="50.83353" lon="3.63202"></trkpt>
      <trkpt lat="50.83368" lon="3.63206"></trkpt>
      <trkpt lat="50.83383" lon="3.63210"></trkpt>
      <trkpt lat="50.83398" lon="3.63212"></trkpt>
      <trkpt lat="50.83414" lon="3.63217"></trkpt>
      <trkpt lat="50.83431" lon="3.63221"></trkpt>
      <trkpt lat="50.83447" lon="3.63225"></trkpt>
      <trkpt lat="50.83463" lon="3.63229"></trkpt>
      <trkpt lat="50.83478" lon="3.63233"></trkpt>
      <trkpt lat="50.83493" lon="3.63237"></trkpt>
      <trkpt lat="50.83509" lon="3.63242"></trkpt>
      <trkpt lat="50.83524" lon="3.63247"></trkpt>
      <trkpt lat="50.83540" lon="3.63251"></trkpt>
      <trkpt lat="50.83555" lon="3.63255"></trkpt>
      <trkpt lat="50.83569" lon="3.63259"></trkpt>
      <trkpt lat="50.83584" lon="3.63264"></trkpt>
      <trkpt lat="50.83599" lon="3.63270"></trkpt>
      <trkpt lat="50.83612" lon="3.63276"></trkpt>
      <trkpt lat="50.83627" lon="3.63282"></trkpt>
      <trkpt lat="50.83642" lon="3.63287"></trkpt>
      <trkpt lat="50.83657" lon="3.63291"></trkpt>
      <trkpt lat="50.83672" lon="3.63296"></trkpt>
      <trkpt lat="50.83688" lon="3.63301"></trkpt>
      <trkpt lat="50.83702" lon="3.63307"></trkpt>
      <trkpt lat="50.83717" lon="3.63315"></trkpt>
      <trkpt lat="50.83732" lon="3.63325"></trkpt>
      <trkpt lat="50.83747" lon="3.63333"></trkpt>
      <trkpt lat="50.83762" lon="3.63337"></trkpt>
      <trkpt lat="50.83778" lon="3.63339"></trkpt>
      <trkpt lat="50.83794" lon="3.63341"></trkpt>
      <trkpt lat="50.83809" lon="3.63347"></trkpt>
      <trkpt lat="50.83825" lon="3.63352"></trkpt>
      <trkpt lat="50.83836" lon="3.63369"></trkpt>
      <trkpt lat="50.83845" lon="3.63391"></trkpt>
      <trkpt lat="50.83852" lon="3.63412"></trkpt>
      <trkpt lat="50.83862" lon="3.63432"></trkpt>
      <trkpt lat="50.83873" lon="3.63450"></trkpt>
      <trkpt lat="50.83886" lon="3.63464"></trkpt>
      <trkpt lat="50.83900" lon="3.63477"></trkpt>
      <trkpt lat="50.83913" lon="3.63490"></trkpt>
      <trkpt lat="50.83926" lon="3.63504"></trkpt>
      <trkpt lat="50.83939" lon="3.63517"></trkpt>
      <trkpt lat="50.83952" lon="3.63530"></trkpt>
      <trkpt lat="50.83965" lon="3.63543"></trkpt>
      <trkpt lat="50.83979" lon="3.63556"></trkpt>
      <trkpt lat="50.83992" lon="3.63569"></trkpt>
      <trkpt lat="50.84005" lon="3.63582"></trkpt>
      <trkpt lat="50.84018" lon="3.63595"></trkpt>
      <trkpt lat="50.84031" lon="3.63607"></trkpt>
      <trkpt lat="50.84044" lon="3.63623"></trkpt>
      <trkpt lat="50.84057" lon="3.63635"></trkpt>
      <trkpt lat="50.84067" lon="3.63654"></trkpt>
      <trkpt lat="50.84067" lon="3.63678"></trkpt>
      <trkpt lat="50.84067" lon="3.63699"></trkpt>
      <trkpt lat="50.84077" lon="3.63714"></trkpt>
      <trkpt lat="50.84086" lon="3.63733"></trkpt>
      <trkpt lat="50.84095" lon="3.63754"></trkpt>
      <trkpt lat="50.84101" lon="3.63775"></trkpt>
      <trkpt lat="50.84102" lon="3.63798"></trkpt>
      <trkpt lat="50.84105" lon="3.63821"></trkpt>
      <trkpt lat="50.84106" lon="3.63843"></trkpt>
      <trkpt lat="50.84102" lon="3.63865"></trkpt>
      <trkpt lat="50.84102" lon="3.63890"></trkpt>
      <trkpt lat="50.84106" lon="3.63913"></trkpt>
      <trkpt lat="50.84108" lon="3.63935"></trkpt>
      <trkpt lat="50.84106" lon="3.63950"></trkpt>
      <trkpt lat="50.84101" lon="3.63964"></trkpt>
      <trkpt lat="50.84096" lon="3.63978"></trkpt>
      <trkpt lat="50.84092" lon="3.63992"></trkpt>
      <trkpt lat="50.84088" lon="3.64005"></trkpt>
      <trkpt lat="50.84085" lon="3.64015"></trkpt>
      <trkpt lat="50.84082" lon="3.64027"></trkpt>
      <trkpt lat="50.84078" lon="3.64048"></trkpt>
      <trkpt lat="50.84075" lon="3.64071"></trkpt>
      <trkpt lat="50.84072" lon="3.64090"></trkpt>
      <trkpt lat="50.84070" lon="3.64106"></trkpt>
      <trkpt lat="50.84069" lon="3.64122"></trkpt>
      <trkpt lat="50.84067" lon="3.64142"></trkpt>
      <trkpt lat="50.84063" lon="3.64164"></trkpt>
      <trkpt lat="50.84058" lon="3.64183"></trkpt>
      <trkpt lat="50.84045" lon="3.64192"></trkpt>
      <trkpt lat="50.84038" lon="3.64215"></trkpt>
      <trkpt lat="50.84035" lon="3.64237"></trkpt>
      <trkpt lat="50.84028" lon="3.64258"></trkpt>
      <trkpt lat="50.84024" lon="3.64280"></trkpt>
      <trkpt lat="50.84018" lon="3.64294"></trkpt>
      <trkpt lat="50.84016" lon="3.64306"></trkpt>
      <trkpt lat="50.84016" lon="3.64320"></trkpt>
      <trkpt lat="50.84021" lon="3.64335"></trkpt>
      <trkpt lat="50.84027" lon="3.64351"></trkpt>
      <trkpt lat="50.84030" lon="3.64366"></trkpt>
      <trkpt lat="50.84033" lon="3.64379"></trkpt>
      <trkpt lat="50.84053" lon="3.64387"></trkpt>
      <trkpt lat="50.84068" lon="3.64385"></trkpt>
      <trkpt lat="50.84083" lon="3.64385"></trkpt>
      <trkpt lat="50.84099" lon="3.64380"></trkpt>
      <trkpt lat="50.84114" lon="3.64380"></trkpt>
      <trkpt lat="50.84128" lon="3.64380"></trkpt>
      <trkpt lat="50.84144" lon="3.64381"></trkpt>
      <trkpt lat="50.84160" lon="3.64383"></trkpt>
      <trkpt lat="50.84175" lon="3.64385"></trkpt>
      <trkpt lat="50.84191" lon="3.64389"></trkpt>
      <trkpt lat="50.84207" lon="3.64393"></trkpt>
      <trkpt lat="50.84220" lon="3.64394"></trkpt>
      <trkpt lat="50.84236" lon="3.64396"></trkpt>
      <trkpt lat="50.84252" lon="3.64400"></trkpt>
      <trkpt lat="50.84269" lon="3.64404"></trkpt>
      <trkpt lat="50.84286" lon="3.64404"></trkpt>
      <trkpt lat="50.84302" lon="3.64405"></trkpt>
      <trkpt lat="50.84306" lon="3.64406"></trkpt>
      <trkpt lat="50.84305" lon="3.64407"></trkpt>
      <trkpt lat="50.84304" lon="3.64407"></trkpt>
      <trkpt lat="50.84297" lon="3.64409"></trkpt>
      <trkpt lat="50.84281" lon="3.64410"></trkpt>
      <trkpt lat="50.84265" lon="3.64409"></trkpt>
      <trkpt lat="50.84249" lon="3.64406"></trkpt>
      <trkpt lat="50.84232" lon="3.64402"></trkpt>
      <trkpt lat="50.84215" lon="3.64398"></trkpt>
      <trkpt lat="50.84198" lon="3.64395"></trkpt>
      <trkpt lat="50.84180" lon="3.64392"></trkpt>
      <trkpt lat="50.84163" lon="3.64388"></trkpt>
      <trkpt lat="50.84146" lon="3.64385"></trkpt>
      <trkpt lat="50.84128" lon="3.64384"></trkpt>
      <trkpt lat="50.84110" lon="3.64383"></trkpt>
      <trkpt lat="50.84093" lon="3.64384"></trkpt>
      <trkpt lat="50.84076" lon="3.64386"></trkpt>
      <trkpt lat="50.84058" lon="3.64387"></trkpt>
      <trkpt lat="50.84041" lon="3.64391"></trkpt>
      <trkpt lat="50.84024" lon="3.64397"></trkpt>
      <trkpt lat="50.84007" lon="3.64401"></trkpt>
      <trkpt lat="50.83991" lon="3.64400"></trkpt>
      <trkpt lat="50.83976" lon="3.64389"></trkpt>
      <trkpt lat="50.83959" lon="3.64388"></trkpt>
      <trkpt lat="50.83943" lon="3.64394"></trkpt>
      <trkpt lat="50.83927" lon="3.64394"></trkpt>
      <trkpt lat="50.83914" lon="3.64377"></trkpt>
      <trkpt lat="50.83902" lon="3.64358"></trkpt>
      <trkpt lat="50.83889" lon="3.64349"></trkpt>
      <trkpt lat="50.83876" lon="3.64362"></trkpt>
      <trkpt lat="50.83863" lon="3.64380"></trkpt>
      <trkpt lat="50.83852" lon="3.64399"></trkpt>
      <trkpt lat="50.83846" lon="3.64423"></trkpt>
      <trkpt lat="50.83843" lon="3.64441"></trkpt>
      <trkpt lat="50.83840" lon="3.64457"></trkpt>
      <trkpt lat="50.83837" lon="3.64472"></trkpt>
      <trkpt lat="50.83834" lon="3.64488"></trkpt>
      <trkpt lat="50.83831" lon="3.64503"></trkpt>
      <trkpt lat="50.83828" lon="3.64518"></trkpt>
      <trkpt lat="50.83825" lon="3.64534"></trkpt>
      <trkpt lat="50.83821" lon="3.64549"></trkpt>
      <trkpt lat="50.83818" lon="3.64564"></trkpt>
      <trkpt lat="50.83816" lon="3.64579"></trkpt>
      <trkpt lat="50.83812" lon="3.64592"></trkpt>
      <trkpt lat="50.83803" lon="3.64597"></trkpt>
      <trkpt lat="50.83797" lon="3.64602"></trkpt>
      <trkpt lat="50.83794" lon="3.64615"></trkpt>
      <trkpt lat="50.83792" lon="3.64631"></trkpt>
      <trkpt lat="50.83790" lon="3.64644"></trkpt>
      <trkpt lat="50.83789" lon="3.64647"></trkpt>
      <trkpt lat="50.83788" lon="3.64648"></trkpt>
      <trkpt lat="50.83787" lon="3.64649"></trkpt>
      <trkpt lat="50.83786" lon="3.64650"></trkpt>
      <trkpt lat="50.83786" lon="3.64652"></trkpt>
      <trkpt lat="50.83785" lon="3.64653"></trkpt>
      <trkpt lat="50.83784" lon="3.64654"></trkpt>
      <trkpt lat="50.83784" lon="3.64655"></trkpt>
      <trkpt lat="50.83783" lon="3.64656"></trkpt>
      <trkpt lat="50.83782" lon="3.64657"></trkpt>
      <trkpt lat="50.83782" lon="3.64658"></trkpt>
      <trkpt lat="50.83781" lon="3.64660"></trkpt>
      <trkpt lat="50.83780" lon="3.64661"></trkpt>
      <trkpt lat="50.83780" lon="3.64662"></trkpt>
      <trkpt lat="50.83779" lon="3.64663"></trkpt>
      <trkpt lat="50.83778" lon="3.64664"></trkpt>
      <trkpt lat="50.83778" lon="3.64665"></trkpt>
      <trkpt lat="50.83777" lon="3.64666"></trkpt>
      <trkpt lat="50.83776" lon="3.64668"></trkpt>
      <trkpt lat="50.83776" lon="3.64669"></trkpt>
      <trkpt lat="50.83774" lon="3.64676"></trkpt>
      <trkpt lat="50.83768" lon="3.64700"></trkpt>
      <trkpt lat="50.83760" lon="3.64724"></trkpt>
      <trkpt lat="50.83750" lon="3.64745"></trkpt>
      <trkpt lat="50.83742" lon="3.64761"></trkpt>
      <trkpt lat="50.83733" lon="3.64781"></trkpt>
      <trkpt lat="50.83725" lon="3.64799"></trkpt>
      <trkpt lat="50.83714" lon="3.64813"></trkpt>
      <trkpt lat="50.83699" lon="3.64819"></trkpt>
      <trkpt lat="50.83687" lon="3.64837"></trkpt>
      <trkpt lat="50.83674" lon="3.64851"></trkpt>
      <trkpt lat="50.83656" lon="3.64854"></trkpt>
      <trkpt lat="50.83639" lon="3.64852"></trkpt>
      <trkpt lat="50.83623" lon="3.64858"></trkpt>
      <trkpt lat="50.83611" lon="3.64873"></trkpt>
      <trkpt lat="50.83598" lon="3.64887"></trkpt>
      <trkpt lat="50.83589" lon="3.64902"></trkpt>
      <trkpt lat="50.83589" lon="3.64926"></trkpt>
      <trkpt lat="50.83597" lon="3.64948"></trkpt>
      <trkpt lat="50.83608" lon="3.64961"></trkpt>
      <trkpt lat="50.83621" lon="3.64971"></trkpt>
      <trkpt lat="50.83630" lon="3.64992"></trkpt>
      <trkpt lat="50.83640" lon="3.65012"></trkpt>
      <trkpt lat="50.83635" lon="3.65033"></trkpt>
      <trkpt lat="50.83622" lon="3.65046"></trkpt>
      <trkpt lat="50.83607" lon="3.65054"></trkpt>
      <trkpt lat="50.83595" lon="3.65050"></trkpt>
      <trkpt lat="50.83593" lon="3.65025"></trkpt>
      <trkpt lat="50.83582" lon="3.65007"></trkpt>
      <trkpt lat="50.83566" lon="3.64999"></trkpt>
      <trkpt lat="50.83551" lon="3.65005"></trkpt>
      <trkpt lat="50.83538" lon="3.65022"></trkpt>
      <trkpt lat="50.83522" lon="3.65020"></trkpt>
      <trkpt lat="50.83510" lon="3.65000"></trkpt>
      <trkpt lat="50.83496" lon="3.64985"></trkpt>
      <trkpt lat="50.83483" lon="3.64992"></trkpt>
      <trkpt lat="50.83469" lon="3.64995"></trkpt>
      <trkpt lat="50.83455" lon="3.64981"></trkpt>
      <trkpt lat="50.83458" lon="3.64960"></trkpt>
      <trkpt lat="50.83466" lon="3.64941"></trkpt>
      <trkpt lat="50.83479" lon="3.64929"></trkpt>
      <trkpt lat="50.83491" lon="3.64914"></trkpt>
      <trkpt lat="50.83493" lon="3.64888"></trkpt>
      <trkpt lat="50.83487" lon="3.64865"></trkpt>
      <trkpt lat="50.83487" lon="3.64841"></trkpt>
      <trkpt lat="50.83498" lon="3.64820"></trkpt>
      <trkpt lat="50.83507" lon="3.64796"></trkpt>
      <trkpt lat="50.83516" lon="3.64776"></trkpt>
      <trkpt lat="50.83531" lon="3.64770"></trkpt>
      <trkpt lat="50.83548" lon="3.64772"></trkpt>
      <trkpt lat="50.83565" lon="3.64773"></trkpt>
      <trkpt lat="50.83581" lon="3.64768"></trkpt>
      <trkpt lat="50.83595" lon="3.64759"></trkpt>
      <trkpt lat="50.83601" lon="3.64736"></trkpt>
      <trkpt lat="50.83603" lon="3.64710"></trkpt>
      <trkpt lat="50.83613" lon="3.64692"></trkpt>
      <trkpt lat="50.83622" lon="3.64671"></trkpt>
      <trkpt lat="50.83623" lon="3.64647"></trkpt>
      <trkpt lat="50.83617" lon="3.64623"></trkpt>
      <trkpt lat="50.83606" lon="3.64605"></trkpt>
      <trkpt lat="50.83594" lon="3.64588"></trkpt>
      <trkpt lat="50.83583" lon="3.64569"></trkpt>
      <trkpt lat="50.83579" lon="3.64546"></trkpt>
      <trkpt lat="50.83582" lon="3.64532"></trkpt>
      <trkpt lat="50.83582" lon="3.64529"></trkpt>
      <trkpt lat="50.83575" lon="3.64527"></trkpt>
      <trkpt lat="50.83562" lon="3.64539"></trkpt>
      <trkpt lat="50.83550" lon="3.64556"></trkpt>
      <trkpt lat="50.83539" lon="3.64573"></trkpt>
      <trkpt lat="50.83525" lon="3.64588"></trkpt>
      <trkpt lat="50.83509" lon="3.64591"></trkpt>
      <trkpt lat="50.83495" lon="3.64593"></trkpt>
      <trkpt lat="50.83489" lon="3.64616"></trkpt>
      <trkpt lat="50.83479" lon="3.64634"></trkpt>
      <trkpt lat="50.83464" lon="3.64647"></trkpt>
      <trkpt lat="50.83450" lon="3.64660"></trkpt>
      <trkpt lat="50.83436" lon="3.64673"></trkpt>
      <trkpt lat="50.83424" lon="3.64682"></trkpt>
      <trkpt lat="50.83416" lon="3.64691"></trkpt>
      <trkpt lat="50.83408" lon="3.64698"></trkpt>
      <trkpt lat="50.83401" lon="3.64706"></trkpt>
      <trkpt lat="50.83395" lon="3.64713"></trkpt>
      <trkpt lat="50.83388" lon="3.64719"></trkpt>
      <trkpt lat="50.83380" lon="3.64720"></trkpt>
      <trkpt lat="50.83375" lon="3.64710"></trkpt>
      <trkpt lat="50.83374" lon="3.64697"></trkpt>
      <trkpt lat="50.83374" lon="3.64682"></trkpt>
      <trkpt lat="50.83373" lon="3.64669"></trkpt>
      <trkpt lat="50.83372" lon="3.64659"></trkpt>
      <trkpt lat="50.83373" lon="3.64648"></trkpt>
      <trkpt lat="50.83373" lon="3.64637"></trkpt>
      <trkpt lat="50.83374" lon="3.64622"></trkpt>
      <trkpt lat="50.83374" lon="3.64604"></trkpt>
      <trkpt lat="50.83374" lon="3.64578"></trkpt>
      <trkpt lat="50.83373" lon="3.64551"></trkpt>
      <trkpt lat="50.83372" lon="3.64525"></trkpt>
      <trkpt lat="50.83368" lon="3.64500"></trkpt>
      <trkpt lat="50.83368" lon="3.64476"></trkpt>
      <trkpt lat="50.83382" lon="3.64459"></trkpt>
      <trkpt lat="50.83395" lon="3.64444"></trkpt>
      <trkpt lat="50.83408" lon="3.64429"></trkpt>
      <trkpt lat="50.83420" lon="3.64415"></trkpt>
      <trkpt lat="50.83434" lon="3.64401"></trkpt>
      <trkpt lat="50.83448" lon="3.64386"></trkpt>
      <trkpt lat="50.83463" lon="3.64375"></trkpt>
      <trkpt lat="50.83478" lon="3.64369"></trkpt>
      <trkpt lat="50.83495" lon="3.64375"></trkpt>
      <trkpt lat="50.83508" lon="3.64373"></trkpt>
      <trkpt lat="50.83519" lon="3.64356"></trkpt>
      <trkpt lat="50.83528" lon="3.64336"></trkpt>
      <trkpt lat="50.83539" lon="3.64318"></trkpt>
      <trkpt lat="50.83555" lon="3.64310"></trkpt>
      <trkpt lat="50.83571" lon="3.64312"></trkpt>
      <trkpt lat="50.83587" lon="3.64324"></trkpt>
      <trkpt lat="50.83599" lon="3.64342"></trkpt>
      <trkpt lat="50.83611" lon="3.64358"></trkpt>
      <trkpt lat="50.83622" lon="3.64376"></trkpt>
      <trkpt lat="50.83629" lon="3.64396"></trkpt>
      <trkpt lat="50.83630" lon="3.64418"></trkpt>
      <trkpt lat="50.83621" lon="3.64438"></trkpt>
      <trkpt lat="50.83615" lon="3.64458"></trkpt>
      <trkpt lat="50.83620" lon="3.64473"></trkpt>
      <trkpt lat="50.83630" lon="3.64477"></trkpt>
      <trkpt lat="50.83638" lon="3.64472"></trkpt>
      <trkpt lat="50.83651" lon="3.64459"></trkpt>
      <trkpt lat="50.83666" lon="3.64446"></trkpt>
      <trkpt lat="50.83681" lon="3.64436"></trkpt>
      <trkpt lat="50.83695" lon="3.64447"></trkpt>
      <trkpt lat="50.83709" lon="3.64464"></trkpt>
      <trkpt lat="50.83722" lon="3.64480"></trkpt>
      <trkpt lat="50.83735" lon="3.64497"></trkpt>
      <trkpt lat="50.83747" lon="3.64513"></trkpt>
      <trkpt lat="50.83758" lon="3.64530"></trkpt>
      <trkpt lat="50.83770" lon="3.64546"></trkpt>
      <trkpt lat="50.83782" lon="3.64562"></trkpt>
      <trkpt lat="50.83794" lon="3.64578"></trkpt>
      <trkpt lat="50.83798" lon="3.64590"></trkpt>
      <trkpt lat="50.83795" lon="3.64612"></trkpt>
      <trkpt lat="50.83790" lon="3.64636"></trkpt>
      <trkpt lat="50.83785" lon="3.64655"></trkpt>
      <trkpt lat="50.83778" lon="3.64657"></trkpt>
      <trkpt lat="50.83772" lon="3.64679"></trkpt>
      <trkpt lat="50.83766" lon="3.64702"></trkpt>
      <trkpt lat="50.83758" lon="3.64724"></trkpt>
      <trkpt lat="50.83749" lon="3.64743"></trkpt>
      <trkpt lat="50.83741" lon="3.64758"></trkpt>
      <trkpt lat="50.83731" lon="3.64777"></trkpt>
      <trkpt lat="50.83727" lon="3.64783"></trkpt>
      <trkpt lat="50.83727" lon="3.64784"></trkpt>
      <trkpt lat="50.83727" lon="3.64787"></trkpt>
      <trkpt lat="50.83719" lon="3.64805"></trkpt>
      <trkpt lat="50.83704" lon="3.64812"></trkpt>
      <trkpt lat="50.83691" lon="3.64827"></trkpt>
      <trkpt lat="50.83679" lon="3.64844"></trkpt>
      <trkpt lat="50.83664" lon="3.64849"></trkpt>
      <trkpt lat="50.83647" lon="3.64849"></trkpt>
      <trkpt lat="50.83631" lon="3.64851"></trkpt>
      <trkpt lat="50.83616" lon="3.64864"></trkpt>
      <trkpt lat="50.83603" lon="3.64880"></trkpt>
      <trkpt lat="50.83589" lon="3.64895"></trkpt>
      <trkpt lat="50.83587" lon="3.64919"></trkpt>
      <trkpt lat="50.83593" lon="3.64942"></trkpt>
      <trkpt lat="50.83605" lon="3.64958"></trkpt>
      <trkpt lat="50.83619" lon="3.64968"></trkpt>
      <trkpt lat="50.83629" lon="3.64988"></trkpt>
      <trkpt lat="50.83641" lon="3.65006"></trkpt>
      <trkpt lat="50.83638" lon="3.65028"></trkpt>
      <trkpt lat="50.83624" lon="3.65043"></trkpt>
      <trkpt lat="50.83609" lon="3.65052"></trkpt>
      <trkpt lat="50.83596" lon="3.65046"></trkpt>
      <trkpt lat="50.83592" lon="3.65023"></trkpt>
      <trkpt lat="50.83580" lon="3.65007"></trkpt>
      <trkpt lat="50.83565" lon="3.65001"></trkpt>
      <trkpt lat="50.83551" lon="3.65008"></trkpt>
      <trkpt lat="50.83538" lon="3.65023"></trkpt>
      <trkpt lat="50.83523" lon="3.65023"></trkpt>
      <trkpt lat="50.83513" lon="3.65005"></trkpt>
      <trkpt lat="50.83501" lon="3.64987"></trkpt>
      <trkpt lat="50.83487" lon="3.64988"></trkpt>
      <trkpt lat="50.83473" lon="3.64998"></trkpt>
      <trkpt lat="50.83458" lon="3.64988"></trkpt>
      <trkpt lat="50.83457" lon="3.64966"></trkpt>
      <trkpt lat="50.83463" lon="3.64948"></trkpt>
      <trkpt lat="50.83475" lon="3.64933"></trkpt>
      <trkpt lat="50.83488" lon="3.64920"></trkpt>
      <trkpt lat="50.83495" lon="3.64899"></trkpt>
      <trkpt lat="50.83491" lon="3.64876"></trkpt>
      <trkpt lat="50.83487" lon="3.64851"></trkpt>
      <trkpt lat="50.83495" lon="3.64829"></trkpt>
      <trkpt lat="50.83505" lon="3.64808"></trkpt>
      <trkpt lat="50.83512" lon="3.64783"></trkpt>
      <trkpt lat="50.83525" lon="3.64769"></trkpt>
      <trkpt lat="50.83540" lon="3.64770"></trkpt>
      <trkpt lat="50.83556" lon="3.64772"></trkpt>
      <trkpt lat="50.83572" lon="3.64770"></trkpt>
      <trkpt lat="50.83588" lon="3.64764"></trkpt>
      <trkpt lat="50.83599" lon="3.64747"></trkpt>
      <trkpt lat="50.83601" lon="3.64720"></trkpt>
      <trkpt lat="50.83608" lon="3.64698"></trkpt>
      <trkpt lat="50.83620" lon="3.64679"></trkpt>
      <trkpt lat="50.83624" lon="3.64655"></trkpt>
      <trkpt lat="50.83621" lon="3.64631"></trkpt>
      <trkpt lat="50.83612" lon="3.64611"></trkpt>
      <trkpt lat="50.83599" lon="3.64594"></trkpt>
      <trkpt lat="50.83588" lon="3.64577"></trkpt>
      <trkpt lat="50.83579" lon="3.64560"></trkpt>
      <trkpt lat="50.83579" lon="3.64545"></trkpt>
      <trkpt lat="50.83581" lon="3.64530"></trkpt>
      <trkpt lat="50.83575" lon="3.64527"></trkpt>
      <trkpt lat="50.83573" lon="3.64529"></trkpt>
      <trkpt lat="50.83572" lon="3.64530"></trkpt>
      <trkpt lat="50.83558" lon="3.64543"></trkpt>
      <trkpt lat="50.83546" lon="3.64560"></trkpt>
      <trkpt lat="50.83534" lon="3.64579"></trkpt>
      <trkpt lat="50.83519" lon="3.64592"></trkpt>
      <trkpt lat="50.83503" lon="3.64591"></trkpt>
      <trkpt lat="50.83491" lon="3.64602"></trkpt>
      <trkpt lat="50.83486" lon="3.64626"></trkpt>
      <trkpt lat="50.83472" lon="3.64639"></trkpt>
      <trkpt lat="50.83457" lon="3.64651"></trkpt>
      <trkpt lat="50.83443" lon="3.64664"></trkpt>
      <trkpt lat="50.83430" lon="3.64677"></trkpt>
      <trkpt lat="50.83417" lon="3.64691"></trkpt>
      <trkpt lat="50.83403" lon="3.64704"></trkpt>
      <trkpt lat="50.83389" lon="3.64716"></trkpt>
      <trkpt lat="50.83377" lon="3.64715"></trkpt>
      <trkpt lat="50.83373" lon="3.64692"></trkpt>
      <trkpt lat="50.83374" lon="3.64674"></trkpt>
      <trkpt lat="50.83374" lon="3.64660"></trkpt>
      <trkpt lat="50.83375" lon="3.64643"></trkpt>
      <trkpt lat="50.83375" lon="3.64626"></trkpt>
      <trkpt lat="50.83375" lon="3.64611"></trkpt>
      <trkpt lat="50.83375" lon="3.64596"></trkpt>
      <trkpt lat="50.83375" lon="3.64581"></trkpt>
      <trkpt lat="50.83376" lon="3.64567"></trkpt>
      <trkpt lat="50.83374" lon="3.64554"></trkpt>
      <trkpt lat="50.83372" lon="3.64539"></trkpt>
      <trkpt lat="50.83372" lon="3.64518"></trkpt>
      <trkpt lat="50.83367" lon="3.64492"></trkpt>
      <trkpt lat="50.83373" lon="3.64471"></trkpt>
      <trkpt lat="50.83389" lon="3.64458"></trkpt>
      <trkpt lat="50.83404" lon="3.64440"></trkpt>
      <trkpt lat="50.83416" lon="3.64423"></trkpt>
      <trkpt lat="50.83429" lon="3.64410"></trkpt>
      <trkpt lat="50.83443" lon="3.64395"></trkpt>
      <trkpt lat="50.83456" lon="3.64382"></trkpt>
      <trkpt lat="50.83471" lon="3.64372"></trkpt>
      <trkpt lat="50.83487" lon="3.64371"></trkpt>
      <trkpt lat="50.83502" lon="3.64375"></trkpt>
      <trkpt lat="50.83507" lon="3.64376"></trkpt>
      <trkpt lat="50.83507" lon="3.64375"></trkpt>
      <trkpt lat="50.83511" lon="3.64369"></trkpt>
      <trkpt lat="50.83523" lon="3.64349"></trkpt>
      <trkpt lat="50.83532" lon="3.64327"></trkpt>
      <trkpt lat="50.83540" lon="3.64312"></trkpt>
      <trkpt lat="50.83539" lon="3.64308"></trkpt>
      <trkpt lat="50.83540" lon="3.64307"></trkpt>
      <trkpt lat="50.83541" lon="3.64306"></trkpt>
      <trkpt lat="50.83547" lon="3.64301"></trkpt>
      <trkpt lat="50.83563" lon="3.64293"></trkpt>
      <trkpt lat="50.83567" lon="3.64289"></trkpt>
      <trkpt lat="50.83584" lon="3.64301"></trkpt>
      <trkpt lat="50.83603" lon="3.64313"></trkpt>
      <trkpt lat="50.83620" lon="3.64324"></trkpt>
      <trkpt lat="50.83637" lon="3.64335"></trkpt>
      <trkpt lat="50.83654" lon="3.64346"></trkpt>
      <trkpt lat="50.83671" lon="3.64359"></trkpt>
      <trkpt lat="50.83686" lon="3.64372"></trkpt>
      <trkpt lat="50.83701" lon="3.64385"></trkpt>
      <trkpt lat="50.83715" lon="3.64399"></trkpt>
      <trkpt lat="50.83730" lon="3.64397"></trkpt>
      <trkpt lat="50.83745" lon="3.64387"></trkpt>
      <trkpt lat="50.83759" lon="3.64378"></trkpt>
      <trkpt lat="50.83775" lon="3.64370"></trkpt>
      <trkpt lat="50.83791" lon="3.64367"></trkpt>
      <trkpt lat="50.83807" lon="3.64370"></trkpt>
      <trkpt lat="50.83823" lon="3.64374"></trkpt>
      <trkpt lat="50.83839" lon="3.64379"></trkpt>
      <trkpt lat="50.83847" lon="3.64380"></trkpt>
      <trkpt lat="50.83860" lon="3.64366"></trkpt>
      <trkpt lat="50.83874" lon="3.64350"></trkpt>
      <trkpt lat="50.83886" lon="3.64334"></trkpt>
      <trkpt lat="50.83894" lon="3.64323"></trkpt>
      <trkpt lat="50.83895" lon="3.64320"></trkpt>
      <trkpt lat="50.83899" lon="3.64316"></trkpt>
      <trkpt lat="50.83904" lon="3.64308"></trkpt>
      <trkpt lat="50.83906" lon="3.64306"></trkpt>
      <trkpt lat="50.83920" lon="3.64294"></trkpt>
      <trkpt lat="50.83933" lon="3.64276"></trkpt>
      <trkpt lat="50.83939" lon="3.64253"></trkpt>
      <trkpt lat="50.83942" lon="3.64229"></trkpt>
      <trkpt lat="50.83943" lon="3.64204"></trkpt>
      <trkpt lat="50.83944" lon="3.64179"></trkpt>
      <trkpt lat="50.83944" lon="3.64154"></trkpt>
      <trkpt lat="50.83945" lon="3.64129"></trkpt>
      <trkpt lat="50.83947" lon="3.64103"></trkpt>
      <trkpt lat="50.83949" lon="3.64080"></trkpt>
      <trkpt lat="50.83954" lon="3.64056"></trkpt>
      <trkpt lat="50.83960" lon="3.64031"></trkpt>
      <trkpt lat="50.83965" lon="3.64007"></trkpt>
      <trkpt lat="50.83970" lon="3.63983"></trkpt>
      <trkpt lat="50.83974" lon="3.63966"></trkpt>
      <trkpt lat="50.83980" lon="3.63946"></trkpt>
      <trkpt lat="50.83986" lon="3.63922"></trkpt>
      <trkpt lat="50.83992" lon="3.63898"></trkpt>
      <trkpt lat="50.83997" lon="3.63874"></trkpt>
      <trkpt lat="50.84003" lon="3.63851"></trkpt>
      <trkpt lat="50.84009" lon="3.63829"></trkpt>
      <trkpt lat="50.84017" lon="3.63808"></trkpt>
      <trkpt lat="50.84024" lon="3.63789"></trkpt>
      <trkpt lat="50.84030" lon="3.63775"></trkpt>
      <trkpt lat="50.84035" lon="3.63761"></trkpt>
      <trkpt lat="50.84043" lon="3.63742"></trkpt>
      <trkpt lat="50.84052" lon="3.63722"></trkpt>
      <trkpt lat="50.84059" lon="3.63702"></trkpt>
      <trkpt lat="50.84065" lon="3.63681"></trkpt>
      <trkpt lat="50.84068" lon="3.63658"></trkpt>
      <trkpt lat="50.84060" lon="3.63637"></trkpt>
      <trkpt lat="50.84048" lon="3.63626"></trkpt>
      <trkpt lat="50.84034" lon="3.63616"></trkpt>
      <trkpt lat="50.84021" lon="3.63605"></trkpt>
      <trkpt lat="50.84008" lon="3.63591"></trkpt>
      <trkpt lat="50.83994" lon="3.63578"></trkpt>
      <trkpt lat="50.83980" lon="3.63565"></trkpt>
      <trkpt lat="50.83966" lon="3.63551"></trkpt>
      <trkpt lat="50.83952" lon="3.63537"></trkpt>
      <trkpt lat="50.83938" lon="3.63523"></trkpt>
      <trkpt lat="50.83924" lon="3.63509"></trkpt>
      <trkpt lat="50.83910" lon="3.63495"></trkpt>
      <trkpt lat="50.83906" lon="3.63484"></trkpt>
      <trkpt lat="50.83918" lon="3.63466"></trkpt>
      <trkpt lat="50.83930" lon="3.63442"></trkpt>
      <trkpt lat="50.83943" lon="3.63420"></trkpt>
      <trkpt lat="50.83950" lon="3.63407"></trkpt>
      <trkpt lat="50.83942" lon="3.63388"></trkpt>
      <trkpt lat="50.83932" lon="3.63373"></trkpt>
      <trkpt lat="50.83927" lon="3.63363"></trkpt>
      <trkpt lat="50.83923" lon="3.63357"></trkpt>
      <trkpt lat="50.83914" lon="3.63341"></trkpt>
      <trkpt lat="50.83901" lon="3.63323"></trkpt>
      <trkpt lat="50.83890" lon="3.63306"></trkpt>
      <trkpt lat="50.83879" lon="3.63289"></trkpt>
      <trkpt lat="50.83866" lon="3.63271"></trkpt>
      <trkpt lat="50.83854" lon="3.63251"></trkpt>
      <trkpt lat="50.83842" lon="3.63233"></trkpt>
      <trkpt lat="50.83829" lon="3.63220"></trkpt>
      <trkpt lat="50.83816" lon="3.63205"></trkpt>
      <trkpt lat="50.83808" lon="3.63191"></trkpt>
      <trkpt lat="50.83802" lon="3.63180"></trkpt>
      <trkpt lat="50.83796" lon="3.63172"></trkpt>
      <trkpt lat="50.83789" lon="3.63160"></trkpt>
      <trkpt lat="50.83777" lon="3.63141"></trkpt>
      <trkpt lat="50.83765" lon="3.63121"></trkpt>
      <trkpt lat="50.83754" lon="3.63101"></trkpt>
      <trkpt lat="50.83743" lon="3.63083"></trkpt>
      <trkpt lat="50.83732" lon="3.63065"></trkpt>
      <trkpt lat="50.83721" lon="3.63047"></trkpt>
      <trkpt lat="50.83711" lon="3.63027"></trkpt>
      <trkpt lat="50.83706" lon="3.63009"></trkpt>
      <trkpt lat="50.83709" lon="3.62999"></trkpt>
      <trkpt lat="50.83714" lon="3.62985"></trkpt>
      <trkpt lat="50.83711" lon="3.62963"></trkpt>
      <trkpt lat="50.83700" lon="3.62942"></trkpt>
      <trkpt lat="50.83686" lon="3.62924"></trkpt>
      <trkpt lat="50.83671" lon="3.62908"></trkpt>
      <trkpt lat="50.83655" lon="3.62892"></trkpt>
      <trkpt lat="50.83640" lon="3.62876"></trkpt>
      <trkpt lat="50.83626" lon="3.62858"></trkpt>
      <trkpt lat="50.83616" lon="3.62834"></trkpt>
      <trkpt lat="50.83607" lon="3.62810"></trkpt>
      <trkpt lat="50.83598" lon="3.62785"></trkpt>
      <trkpt lat="50.83590" lon="3.62761"></trkpt>
      <trkpt lat="50.83578" lon="3.62744"></trkpt>
      <trkpt lat="50.83561" lon="3.62742"></trkpt>
      <trkpt lat="50.83545" lon="3.62736"></trkpt>
      <trkpt lat="50.83541" lon="3.62714"></trkpt>
      <trkpt lat="50.83540" lon="3.62699"></trkpt>
      <trkpt lat="50.83537" lon="3.62687"></trkpt>
      <trkpt lat="50.83536" lon="3.62673"></trkpt>
      <trkpt lat="50.83534" lon="3.62658"></trkpt>
      <trkpt lat="50.83532" lon="3.62641"></trkpt>
      <trkpt lat="50.83528" lon="3.62616"></trkpt>
      <trkpt lat="50.83525" lon="3.62588"></trkpt>
      <trkpt lat="50.83521" lon="3.62559"></trkpt>
      <trkpt lat="50.83518" lon="3.62530"></trkpt>
      <trkpt lat="50.83515" lon="3.62501"></trkpt>
      <trkpt lat="50.83512" lon="3.62472"></trkpt>
      <trkpt lat="50.83509" lon="3.62443"></trkpt>
      <trkpt lat="50.83505" lon="3.62414"></trkpt>
      <trkpt lat="50.83498" lon="3.62387"></trkpt>
      <trkpt lat="50.83490" lon="3.62361"></trkpt>
      <trkpt lat="50.83482" lon="3.62336"></trkpt>
      <trkpt lat="50.83473" lon="3.62311"></trkpt>
      <trkpt lat="50.83464" lon="3.62302"></trkpt>
      <trkpt lat="50.83451" lon="3.62308"></trkpt>
      <trkpt lat="50.83442" lon="3.62318"></trkpt>
      <trkpt lat="50.83438" lon="3.62322"></trkpt>
      <trkpt lat="50.83438" lon="3.62322"></trkpt>
      <trkpt lat="50.83438" lon="3.62322"></trkpt>
      <trkpt lat="50.83438" lon="3.62322"></trkpt>
      <trkpt lat="50.83438" lon="3.62322"></trkpt>
      <trkpt lat="50.83438" lon="3.62322"></trkpt>
      <trkpt lat="50.83438" lon="3.62322"></trkpt>
      <trkpt lat="50.83438" lon="3.62322"></trkpt>
      <trkpt lat="50.83438" lon="3.62322"></trkpt>
      <trkpt lat="50.83438" lon="3.62322"></trkpt>
      <trkpt lat="50.83438" lon="3.62322"></trkpt>
      <trkpt lat="50.83438" lon="3.62322"></trkpt>
      <trkpt lat="50.83438" lon="3.62322"></trkpt>
      <trkpt lat="50.83438" lon="3.62322"></trkpt>
      <trkpt lat="50.83438" lon="3.62322"></trkpt>
      <trkpt lat="50.83438" lon="3.62322"></trkpt>
      <trkpt lat="50.83438" lon="3.62322"></trkpt>
      <trkpt lat="50.83438" lon="3.62322"></trkpt>
      <trkpt lat="50.83438" lon="3.62322"></trkpt>
      <trkpt lat="50.83438" lon="3.62322"></trkpt>
      <trkpt lat="50.83438" lon="3.62322"></trkpt>
      <trkpt lat="50.83438" lon="3.62322"></trkpt>
      <trkpt lat="50.83438" lon="3.62322"></trkpt>
      <trkpt lat="50.83439" lon="3.62322"></trkpt>
      <trkpt lat="50.83439" lon="3.62322"></trkpt>
      <trkpt lat="50.83439" lon="3.62321"></trkpt>
      <trkpt lat="50.83439" lon="3.62321"></trkpt>
      <trkpt lat="50.83439" lon="3.62321"></trkpt>
      <trkpt lat="50.83439" lon="3.62321"></trkpt>
      <trkpt lat="50.83439" lon="3.62321"></trkpt>
      <trkpt lat="50.83439" lon="3.62321"></trkpt>
      <trkpt lat="50.83439" lon="3.62321"></trkpt>
      <trkpt lat="50.83439" lon="3.62321"></trkpt>
      <trkpt lat="50.83439" lon="3.62321"></trkpt>
      <trkpt lat="50.83439" lon="3.62321"></trkpt>
      <trkpt lat="50.83439" lon="3.62321"></trkpt>
      <trkpt lat="50.83439" lon="3.62321"></trkpt>
      <trkpt lat="50.83439" lon="3.62321"></trkpt>
      <trkpt lat="50.83439" lon="3.62321"></trkpt>
      <trkpt lat="50.83439" lon="3.62321"></trkpt>
      <trkpt lat="50.83439" lon="3.62321"></trkpt>
      <trkpt lat="50.83441" lon="3.62319"></trkpt>
      <trkpt lat="50.83452" lon="3.62297"></trkpt>
      <trkpt lat="50.83454" lon="3.62278"></trkpt>
      <trkpt lat="50.83449" lon="3.62255"></trkpt>
      <trkpt lat="50.83438" lon="3.62239"></trkpt>
      <trkpt lat="50.83434" lon="3.62224"></trkpt>
      <trkpt lat="50.83441" lon="3.62201"></trkpt>
      <trkpt lat="50.83448" lon="3.62178"></trkpt>
      <trkpt lat="50.83455" lon="3.62157"></trkpt>
      <trkpt lat="50.83462" lon="3.62135"></trkpt>
      <trkpt lat="50.83466" lon="3.62113"></trkpt>
      <trkpt lat="50.83451" lon="3.62108"></trkpt>
      <trkpt lat="50.83433" lon="3.62108"></trkpt>
      <trkpt lat="50.83415" lon="3.62108"></trkpt>
      <trkpt lat="50.83398" lon="3.62108"></trkpt>
      <trkpt lat="50.83381" lon="3.62108"></trkpt>
      <trkpt lat="50.83365" lon="3.62108"></trkpt>
      <trkpt lat="50.83349" lon="3.62107"></trkpt>
      <trkpt lat="50.83332" lon="3.62107"></trkpt>
      <trkpt lat="50.83315" lon="3.62107"></trkpt>
      <trkpt lat="50.83298" lon="3.62106"></trkpt>
      <trkpt lat="50.83281" lon="3.62106"></trkpt>
      <trkpt lat="50.83264" lon="3.62105"></trkpt>
      <trkpt lat="50.83248" lon="3.62104"></trkpt>
      <trkpt lat="50.83231" lon="3.62104"></trkpt>
      <trkpt lat="50.83214" lon="3.62104"></trkpt>
      <trkpt lat="50.83197" lon="3.62103"></trkpt>
      <trkpt lat="50.83180" lon="3.62103"></trkpt>
      <trkpt lat="50.83165" lon="3.62103"></trkpt>
      <trkpt lat="50.83158" lon="3.62087"></trkpt>
      <trkpt lat="50.83157" lon="3.62060"></trkpt>
      <trkpt lat="50.83155" lon="3.62034"></trkpt>
      <trkpt lat="50.83145" lon="3.62022"></trkpt>
      <trkpt lat="50.83129" lon="3.62030"></trkpt>
      <trkpt lat="50.83113" lon="3.62040"></trkpt>
      <trkpt lat="50.83098" lon="3.62049"></trkpt>
      <trkpt lat="50.83083" lon="3.62059"></trkpt>
      <trkpt lat="50.83067" lon="3.62069"></trkpt>
      <trkpt lat="50.83052" lon="3.62077"></trkpt>
      <trkpt lat="50.83037" lon="3.62085"></trkpt>
      <trkpt lat="50.83021" lon="3.62092"></trkpt>
      <trkpt lat="50.83003" lon="3.62089"></trkpt>
      <trkpt lat="50.82988" lon="3.62075"></trkpt>
      <trkpt lat="50.82974" lon="3.62062"></trkpt>
      <trkpt lat="50.82960" lon="3.62050"></trkpt>
      <trkpt lat="50.82945" lon="3.62038"></trkpt>
      <trkpt lat="50.82930" lon="3.62026"></trkpt>
      <trkpt lat="50.82916" lon="3.62015"></trkpt>
      <trkpt lat="50.82902" lon="3.62004"></trkpt>
      <trkpt lat="50.82887" lon="3.61993"></trkpt>
      <trkpt lat="50.82872" lon="3.61985"></trkpt>
      <trkpt lat="50.82856" lon="3.61979"></trkpt>
      <trkpt lat="50.82840" lon="3.61974"></trkpt>
      <trkpt lat="50.82825" lon="3.61969"></trkpt>
      <trkpt lat="50.82810" lon="3.61964"></trkpt>
      <trkpt lat="50.82795" lon="3.61958"></trkpt>
      <trkpt lat="50.82780" lon="3.61953"></trkpt>
      <trkpt lat="50.82766" lon="3.61949"></trkpt>
      <trkpt lat="50.82752" lon="3.61946"></trkpt>
      <trkpt lat="50.82740" lon="3.61932"></trkpt>
      <trkpt lat="50.82733" lon="3.61913"></trkpt>
      <trkpt lat="50.82730" lon="3.61896"></trkpt>
      <trkpt lat="50.82724" lon="3.61879"></trkpt>
      <trkpt lat="50.82711" lon="3.61870"></trkpt>
      <trkpt lat="50.82696" lon="3.61871"></trkpt>
      <trkpt lat="50.82687" lon="3.61871"></trkpt>
      <trkpt lat="50.82674" lon="3.61861"></trkpt>
      <trkpt lat="50.82659" lon="3.61847"></trkpt>
      <trkpt lat="50.82647" lon="3.61834"></trkpt>
      <trkpt lat="50.82634" lon="3.61820"></trkpt>
      <trkpt lat="50.82623" lon="3.61825"></trkpt>
      <trkpt lat="50.82614" lon="3.61843"></trkpt>
      <trkpt lat="50.82606" lon="3.61861"></trkpt>
      <trkpt lat="50.82598" lon="3.61880"></trkpt>
      <trkpt lat="50.82591" lon="3.61901"></trkpt>
      <trkpt lat="50.82582" lon="3.61919"></trkpt>
      <trkpt lat="50.82572" lon="3.61921"></trkpt>
      <trkpt lat="50.82566" lon="3.61923"></trkpt>
      <trkpt lat="50.82554" lon="3.61925"></trkpt>
      <trkpt lat="50.82539" lon="3.61925"></trkpt>
      <trkpt lat="50.82524" lon="3.61928"></trkpt>
      <trkpt lat="50.82511" lon="3.61937"></trkpt>
      <trkpt lat="50.82498" lon="3.61951"></trkpt>
      <trkpt lat="50.82485" lon="3.61963"></trkpt>
      <trkpt lat="50.82471" lon="3.61976"></trkpt>
      <trkpt lat="50.82458" lon="3.61989"></trkpt>
      <trkpt lat="50.82444" lon="3.62002"></trkpt>
      <trkpt lat="50.82430" lon="3.62013"></trkpt>
      <trkpt lat="50.82414" lon="3.62025"></trkpt>
      <trkpt lat="50.82398" lon="3.62035"></trkpt>
      <trkpt lat="50.82383" lon="3.62044"></trkpt>
      <trkpt lat="50.82367" lon="3.62054"></trkpt>
      <trkpt lat="50.82352" lon="3.62062"></trkpt>
      <trkpt lat="50.82337" lon="3.62072"></trkpt>
      <trkpt lat="50.82321" lon="3.62079"></trkpt>
      <trkpt lat="50.82307" lon="3.62074"></trkpt>
      <trkpt lat="50.82302" lon="3.62047"></trkpt>
      <trkpt lat="50.82299" lon="3.62026"></trkpt>
      <trkpt lat="50.82297" lon="3.62012"></trkpt>
      <trkpt lat="50.82294" lon="3.61997"></trkpt>
      <trkpt lat="50.82292" lon="3.61982"></trkpt>
      <trkpt lat="50.82289" lon="3.61969"></trkpt>
      <trkpt lat="50.82285" lon="3.61954"></trkpt>
      <trkpt lat="50.82276" lon="3.61961"></trkpt>
      <trkpt lat="50.82262" lon="3.61976"></trkpt>
      <trkpt lat="50.82244" lon="3.61981"></trkpt>
      <trkpt lat="50.82229" lon="3.61991"></trkpt>
      <trkpt lat="50.82215" lon="3.62005"></trkpt>
      <trkpt lat="50.82204" lon="3.62027"></trkpt>
      <trkpt lat="50.82194" lon="3.62050"></trkpt>
      <trkpt lat="50.82184" lon="3.62073"></trkpt>
      <trkpt lat="50.82174" lon="3.62090"></trkpt>
      <trkpt lat="50.82161" lon="3.62103"></trkpt>
      <trkpt lat="50.82147" lon="3.62115"></trkpt>
      <trkpt lat="50.82133" lon="3.62124"></trkpt>
      <trkpt lat="50.82130" lon="3.62126"></trkpt>
      <trkpt lat="50.82124" lon="3.62140"></trkpt>
      <trkpt lat="50.82113" lon="3.62155"></trkpt>
      <trkpt lat="50.82101" lon="3.62169"></trkpt>
      <trkpt lat="50.82088" lon="3.62185"></trkpt>
      <trkpt lat="50.82075" lon="3.62203"></trkpt>
      <trkpt lat="50.82062" lon="3.62219"></trkpt>
      <trkpt lat="50.82049" lon="3.62236"></trkpt>
      <trkpt lat="50.82036" lon="3.62253"></trkpt>
      <trkpt lat="50.82022" lon="3.62268"></trkpt>
      <trkpt lat="50.82008" lon="3.62282"></trkpt>
      <trkpt lat="50.81993" lon="3.62295"></trkpt>
      <trkpt lat="50.81979" lon="3.62307"></trkpt>
      <trkpt lat="50.81964" lon="3.62321"></trkpt>
      <trkpt lat="50.81949" lon="3.62335"></trkpt>
      <trkpt lat="50.81936" lon="3.62348"></trkpt>
      <trkpt lat="50.81921" lon="3.62362"></trkpt>
      <trkpt lat="50.81907" lon="3.62378"></trkpt>
      <trkpt lat="50.81894" lon="3.62396"></trkpt>
      <trkpt lat="50.81882" lon="3.62415"></trkpt>
      <trkpt lat="50.81870" lon="3.62432"></trkpt>
      <trkpt lat="50.81856" lon="3.62435"></trkpt>
      <trkpt lat="50.81842" lon="3.62420"></trkpt>
      <trkpt lat="50.81827" lon="3.62421"></trkpt>
      <trkpt lat="50.81818" lon="3.62444"></trkpt>
      <trkpt lat="50.81810" lon="3.62468"></trkpt>
      <trkpt lat="50.81802" lon="3.62494"></trkpt>
      <trkpt lat="50.81794" lon="3.62519"></trkpt>
      <trkpt lat="50.81785" lon="3.62542"></trkpt>
      <trkpt lat="50.81773" lon="3.62561"></trkpt>
      <trkpt lat="50.81765" lon="3.62583"></trkpt>
      <trkpt lat="50.81762" lon="3.62609"></trkpt>
      <trkpt lat="50.81760" lon="3.62633"></trkpt>
      <trkpt lat="50.81758" lon="3.62647"></trkpt>
      <trkpt lat="50.81760" lon="3.62663"></trkpt>
      <trkpt lat="50.81758" lon="3.62690"></trkpt>
      <trkpt lat="50.81758" lon="3.62717"></trkpt>
      <trkpt lat="50.81767" lon="3.62734"></trkpt>
      <trkpt lat="50.81783" lon="3.62744"></trkpt>
      <trkpt lat="50.81799" lon="3.62757"></trkpt>
      <trkpt lat="50.81815" lon="3.62768"></trkpt>
      <trkpt lat="50.81830" lon="3.62782"></trkpt>
      <trkpt lat="50.81842" lon="3.62802"></trkpt>
      <trkpt lat="50.81852" lon="3.62823"></trkpt>
      <trkpt lat="50.81861" lon="3.62844"></trkpt>
      <trkpt lat="50.81871" lon="3.62863"></trkpt>
      <trkpt lat="50.81880" lon="3.62886"></trkpt>
      <trkpt lat="50.81887" lon="3.62909"></trkpt>
      <trkpt lat="50.81889" lon="3.62915"></trkpt>
      <trkpt lat="50.81890" lon="3.62916"></trkpt>
      <trkpt lat="50.81891" lon="3.62916"></trkpt>
      <trkpt lat="50.81897" lon="3.62923"></trkpt>
      <trkpt lat="50.81910" lon="3.62940"></trkpt>
      <trkpt lat="50.81922" lon="3.62960"></trkpt>
      <trkpt lat="50.81931" lon="3.62981"></trkpt>
      <trkpt lat="50.81937" lon="3.63007"></trkpt>
      <trkpt lat="50.81943" lon="3.63033"></trkpt>
      <trkpt lat="50.81947" lon="3.63060"></trkpt>
      <trkpt lat="50.81937" lon="3.63081"></trkpt>
      <trkpt lat="50.81928" lon="3.63101"></trkpt>
      <trkpt lat="50.81925" lon="3.63129"></trkpt>
      <trkpt lat="50.81920" lon="3.63156"></trkpt>
      <trkpt lat="50.81914" lon="3.63182"></trkpt>
      <trkpt lat="50.81912" lon="3.63209"></trkpt>
      <trkpt lat="50.81910" lon="3.63234"></trkpt>
      <trkpt lat="50.81908" lon="3.63258"></trkpt>
      <trkpt lat="50.81910" lon="3.63280"></trkpt>
      <trkpt lat="50.81914" lon="3.63305"></trkpt>
      <trkpt lat="50.81916" lon="3.63329"></trkpt>
      <trkpt lat="50.81914" lon="3.63354"></trkpt>
      <trkpt lat="50.81912" lon="3.63379"></trkpt>
      <trkpt lat="50.81912" lon="3.63403"></trkpt>
      <trkpt lat="50.81908" lon="3.63426"></trkpt>
      <trkpt lat="50.81907" lon="3.63450"></trkpt>
      <trkpt lat="50.81912" lon="3.63474"></trkpt>
      <trkpt lat="50.81914" lon="3.63498"></trkpt>
      <trkpt lat="50.81915" lon="3.63521"></trkpt>
      <trkpt lat="50.81913" lon="3.63542"></trkpt>
      <trkpt lat="50.81904" lon="3.63560"></trkpt>
      <trkpt lat="50.81903" lon="3.63577"></trkpt>
      <trkpt lat="50.81906" lon="3.63593"></trkpt>
      <trkpt lat="50.81907" lon="3.63613"></trkpt>
      <trkpt lat="50.81902" lon="3.63634"></trkpt>
      <trkpt lat="50.81894" lon="3.63652"></trkpt>
      <trkpt lat="50.81892" lon="3.63673"></trkpt>
      <trkpt lat="50.81896" lon="3.63690"></trkpt>
      <trkpt lat="50.81899" lon="3.63712"></trkpt>
      <trkpt lat="50.81896" lon="3.63736"></trkpt>
      <trkpt lat="50.81893" lon="3.63759"></trkpt>
      <trkpt lat="50.81895" lon="3.63782"></trkpt>
      <trkpt lat="50.81888" lon="3.63804"></trkpt>
      <trkpt lat="50.81883" lon="3.63823"></trkpt>
      <trkpt lat="50.81894" lon="3.63834"></trkpt>
      <trkpt lat="50.81903" lon="3.63850"></trkpt>
      <trkpt lat="50.81902" lon="3.63871"></trkpt>
      <trkpt lat="50.81895" lon="3.63887"></trkpt>
      <trkpt lat="50.81890" lon="3.63900"></trkpt>
      <trkpt lat="50.81895" lon="3.63909"></trkpt>
      <trkpt lat="50.81903" lon="3.63913"></trkpt>
      <trkpt lat="50.81909" lon="3.63920"></trkpt>
      <trkpt lat="50.81912" lon="3.63927"></trkpt>
      <trkpt lat="50.81916" lon="3.63939"></trkpt>
      <trkpt lat="50.81917" lon="3.63954"></trkpt>
      <trkpt lat="50.81920" lon="3.63975"></trkpt>
      <trkpt lat="50.81923" lon="3.63997"></trkpt>
      <trkpt lat="50.81922" lon="3.64019"></trkpt>
      <trkpt lat="50.81912" lon="3.64035"></trkpt>
      <trkpt lat="50.81898" lon="3.64043"></trkpt>
      <trkpt lat="50.81883" lon="3.64045"></trkpt>
      <trkpt lat="50.81873" lon="3.64066"></trkpt>
      <trkpt lat="50.81865" lon="3.64090"></trkpt>
      <trkpt lat="50.81859" lon="3.64115"></trkpt>
      <trkpt lat="50.81855" lon="3.64141"></trkpt>
      <trkpt lat="50.81851" lon="3.64166"></trkpt>
      <trkpt lat="50.81847" lon="3.64193"></trkpt>
      <trkpt lat="50.81843" lon="3.64220"></trkpt>
      <trkpt lat="50.81838" lon="3.64246"></trkpt>
      <trkpt lat="50.81834" lon="3.64272"></trkpt>
      <trkpt lat="50.81828" lon="3.64298"></trkpt>
      <trkpt lat="50.81821" lon="3.64322"></trkpt>
      <trkpt lat="50.81813" lon="3.64346"></trkpt>
      <trkpt lat="50.81813" lon="3.64371"></trkpt>
      <trkpt lat="50.81822" lon="3.64390"></trkpt>
      <trkpt lat="50.81838" lon="3.64387"></trkpt>
      <trkpt lat="50.81856" lon="3.64381"></trkpt>
      <trkpt lat="50.81873" lon="3.64382"></trkpt>
      <trkpt lat="50.81890" lon="3.64384"></trkpt>
      <trkpt lat="50.81905" lon="3.64384"></trkpt>
      <trkpt lat="50.81915" lon="3.64384"></trkpt>
      <trkpt lat="50.81920" lon="3.64384"></trkpt>
      <trkpt lat="50.81914" lon="3.64386"></trkpt>
      <trkpt lat="50.81902" lon="3.64388"></trkpt>
      <trkpt lat="50.81895" lon="3.64393"></trkpt>
      <trkpt lat="50.81897" lon="3.64393"></trkpt>
      <trkpt lat="50.81898" lon="3.64392"></trkpt>
      <trkpt lat="50.81893" lon="3.64387"></trkpt>
      <trkpt lat="50.81884" lon="3.64384"></trkpt>
      <trkpt lat="50.81874" lon="3.64384"></trkpt>
      <trkpt lat="50.81869" lon="3.64382"></trkpt>
      <trkpt lat="50.81861" lon="3.64383"></trkpt>
      <trkpt lat="50.81852" lon="3.64385"></trkpt>
      <trkpt lat="50.81842" lon="3.64387"></trkpt>
      <trkpt lat="50.81832" lon="3.64392"></trkpt>
      <trkpt lat="50.81822" lon="3.64394"></trkpt>
      <trkpt lat="50.81814" lon="3.64385"></trkpt>
      <trkpt lat="50.81810" lon="3.64369"></trkpt>
      <trkpt lat="50.81804" lon="3.64357"></trkpt>
      <trkpt lat="50.81793" lon="3.64359"></trkpt>
      <trkpt lat="50.81783" lon="3.64362"></trkpt>
      <trkpt lat="50.81773" lon="3.64366"></trkpt>
      <trkpt lat="50.81763" lon="3.64369"></trkpt>
      <trkpt lat="50.81752" lon="3.64373"></trkpt>
      <trkpt lat="50.81741" lon="3.64377"></trkpt>
      <trkpt lat="50.81730" lon="3.64380"></trkpt>
      <trkpt lat="50.81718" lon="3.64383"></trkpt>
      <trkpt lat="50.81707" lon="3.64385"></trkpt>
      <trkpt lat="50.81698" lon="3.64389"></trkpt>
      <trkpt lat="50.81695" lon="3.64392"></trkpt>
      <trkpt lat="50.81684" lon="3.64386"></trkpt>
      <trkpt lat="50.81666" lon="3.64381"></trkpt>
      <trkpt lat="50.81649" lon="3.64378"></trkpt>
      <trkpt lat="50.81632" lon="3.64375"></trkpt>
      <trkpt lat="50.81616" lon="3.64372"></trkpt>
      <trkpt lat="50.81610" lon="3.64363"></trkpt>
      <trkpt lat="50.81611" lon="3.64353"></trkpt>
      <trkpt lat="50.81615" lon="3.64331"></trkpt>
      <trkpt lat="50.81619" lon="3.64306"></trkpt>
      <trkpt lat="50.81623" lon="3.64283"></trkpt>
      <trkpt lat="50.81627" lon="3.64258"></trkpt>
      <trkpt lat="50.81633" lon="3.64233"></trkpt>
      <trkpt lat="50.81639" lon="3.64208"></trkpt>
      <trkpt lat="50.81647" lon="3.64185"></trkpt>
      <trkpt lat="50.81657" lon="3.64165"></trkpt>
      <trkpt lat="50.81658" lon="3.64140"></trkpt>
      <trkpt lat="50.81651" lon="3.64116"></trkpt>
      <trkpt lat="50.81642" lon="3.64093"></trkpt>
      <trkpt lat="50.81636" lon="3.64067"></trkpt>
      <trkpt lat="50.81635" lon="3.64041"></trkpt>
      <trkpt lat="50.81633" lon="3.64015"></trkpt>
      <trkpt lat="50.81631" lon="3.63989"></trkpt>
      <trkpt lat="50.81624" lon="3.63979"></trkpt>
      <trkpt lat="50.81611" lon="3.63976"></trkpt>
      <trkpt lat="50.81598" lon="3.63960"></trkpt>
      <trkpt lat="50.81592" lon="3.63934"></trkpt>
      <trkpt lat="50.81586" lon="3.63909"></trkpt>
      <trkpt lat="50.81578" lon="3.63885"></trkpt>
      <trkpt lat="50.81567" lon="3.63869"></trkpt>
      <trkpt lat="50.81566" lon="3.63851"></trkpt>
      <trkpt lat="50.81570" lon="3.63824"></trkpt>
      <trkpt lat="50.81573" lon="3.63796"></trkpt>
      <trkpt lat="50.81572" lon="3.63770"></trkpt>
      <trkpt lat="50.81569" lon="3.63743"></trkpt>
      <trkpt lat="50.81565" lon="3.63716"></trkpt>
      <trkpt lat="50.81561" lon="3.63692"></trkpt>
      <trkpt lat="50.81559" lon="3.63674"></trkpt>
      <trkpt lat="50.81557" lon="3.63652"></trkpt>
      <trkpt lat="50.81554" lon="3.63628"></trkpt>
      <trkpt lat="50.81550" lon="3.63603"></trkpt>
      <trkpt lat="50.81548" lon="3.63583"></trkpt>
      <trkpt lat="50.81552" lon="3.63562"></trkpt>
      <trkpt lat="50.81556" lon="3.63537"></trkpt>
      <trkpt lat="50.81558" lon="3.63509"></trkpt>
      <trkpt lat="50.81561" lon="3.63481"></trkpt>
      <trkpt lat="50.81564" lon="3.63454"></trkpt>
      <trkpt lat="50.81567" lon="3.63428"></trkpt>
      <trkpt lat="50.81561" lon="3.63410"></trkpt>
      <trkpt lat="50.81546" lon="3.63398"></trkpt>
      <trkpt lat="50.81531" lon="3.63385"></trkpt>
      <trkpt lat="50.81517" lon="3.63371"></trkpt>
      <trkpt lat="50.81503" lon="3.63358"></trkpt>
      <trkpt lat="50.81488" lon="3.63345"></trkpt>
      <trkpt lat="50.81474" lon="3.63331"></trkpt>
      <trkpt lat="50.81460" lon="3.63318"></trkpt>
      <trkpt lat="50.81447" lon="3.63305"></trkpt>
      <trkpt lat="50.81433" lon="3.63292"></trkpt>
      <trkpt lat="50.81420" lon="3.63279"></trkpt>
      <trkpt lat="50.81411" lon="3.63271"></trkpt>
      <trkpt lat="50.81399" lon="3.63261"></trkpt>
      <trkpt lat="50.81383" lon="3.63253"></trkpt>
      <trkpt lat="50.81367" lon="3.63246"></trkpt>
      <trkpt lat="50.81352" lon="3.63236"></trkpt>
      <trkpt lat="50.81338" lon="3.63220"></trkpt>
      <trkpt lat="50.81325" lon="3.63203"></trkpt>
      <trkpt lat="50.81313" lon="3.63186"></trkpt>
      <trkpt lat="50.81300" lon="3.63169"></trkpt>
      <trkpt lat="50.81288" lon="3.63151"></trkpt>
      <trkpt lat="50.81275" lon="3.63136"></trkpt>
      <trkpt lat="50.81263" lon="3.63130"></trkpt>
      <trkpt lat="50.81263" lon="3.63130"></trkpt>
      <trkpt lat="50.81264" lon="3.63130"></trkpt>
      <trkpt lat="50.81277" lon="3.63138"></trkpt>
      <trkpt lat="50.81292" lon="3.63154"></trkpt>
      <trkpt lat="50.81305" lon="3.63171"></trkpt>
      <trkpt lat="50.81318" lon="3.63189"></trkpt>
      <trkpt lat="50.81332" lon="3.63207"></trkpt>
      <trkpt lat="50.81344" lon="3.63204"></trkpt>
      <trkpt lat="50.81353" lon="3.63183"></trkpt>
      <trkpt lat="50.81361" lon="3.63162"></trkpt>
      <trkpt lat="50.81371" lon="3.63138"></trkpt>
      <trkpt lat="50.81380" lon="3.63115"></trkpt>
      <trkpt lat="50.81390" lon="3.63091"></trkpt>
      <trkpt lat="50.81399" lon="3.63068"></trkpt>
      <trkpt lat="50.81409" lon="3.63045"></trkpt>
      <trkpt lat="50.81402" lon="3.63030"></trkpt>
      <trkpt lat="50.81385" lon="3.63025"></trkpt>
      <trkpt lat="50.81369" lon="3.63020"></trkpt>
      <trkpt lat="50.81352" lon="3.63015"></trkpt>
      <trkpt lat="50.81335" lon="3.63007"></trkpt>
      <trkpt lat="50.81320" lon="3.62996"></trkpt>
      <trkpt lat="50.81309" lon="3.62976"></trkpt>
      <trkpt lat="50.81299" lon="3.62952"></trkpt>
      <trkpt lat="50.81293" lon="3.62925"></trkpt>
      <trkpt lat="50.81291" lon="3.62899"></trkpt>
      <trkpt lat="50.81287" lon="3.62871"></trkpt>
      <trkpt lat="50.81288" lon="3.62844"></trkpt>
      <trkpt lat="50.81290" lon="3.62816"></trkpt>
      <trkpt lat="50.81288" lon="3.62789"></trkpt>
      <trkpt lat="50.81284" lon="3.62763"></trkpt>
      <trkpt lat="50.81284" lon="3.62744"></trkpt>
      <trkpt lat="50.81276" lon="3.62736"></trkpt>
      <trkpt lat="50.81266" lon="3.62731"></trkpt>
      <trkpt lat="50.81261" lon="3.62747"></trkpt>
      <trkpt lat="50.81255" lon="3.62763"></trkpt>
      <trkpt lat="50.81239" lon="3.62759"></trkpt>
      <trkpt lat="50.81227" lon="3.62768"></trkpt>
      <trkpt lat="50.81224" lon="3.62794"></trkpt>
      <trkpt lat="50.81223" lon="3.62820"></trkpt>
      <trkpt lat="50.81220" lon="3.62847"></trkpt>
      <trkpt lat="50.81207" lon="3.62856"></trkpt>
      <trkpt lat="50.81190" lon="3.62847"></trkpt>
      <trkpt lat="50.81174" lon="3.62837"></trkpt>
      <trkpt lat="50.81158" lon="3.62825"></trkpt>
      <trkpt lat="50.81147" lon="3.62807"></trkpt>
      <trkpt lat="50.81140" lon="3.62782"></trkpt>
      <trkpt lat="50.81131" lon="3.62759"></trkpt>
      <trkpt lat="50.81130" lon="3.62734"></trkpt>
      <trkpt lat="50.81117" lon="3.62719"></trkpt>
      <trkpt lat="50.81101" lon="3.62708"></trkpt>
      <trkpt lat="50.81087" lon="3.62693"></trkpt>
      <trkpt lat="50.81072" lon="3.62677"></trkpt>
      <trkpt lat="50.81055" lon="3.62669"></trkpt>
      <trkpt lat="50.81037" lon="3.62667"></trkpt>
      <trkpt lat="50.81020" lon="3.62660"></trkpt>
      <trkpt lat="50.81003" lon="3.62659"></trkpt>
      <trkpt lat="50.80988" lon="3.62647"></trkpt>
      <trkpt lat="50.80973" lon="3.62631"></trkpt>
      <trkpt lat="50.80959" lon="3.62616"></trkpt>
      <trkpt lat="50.80943" lon="3.62609"></trkpt>
      <trkpt lat="50.80934" lon="3.62594"></trkpt>
      <trkpt lat="50.80923" lon="3.62596"></trkpt>
      <trkpt lat="50.80910" lon="3.62609"></trkpt>
      <trkpt lat="50.80893" lon="3.62612"></trkpt>
      <trkpt lat="50.80877" lon="3.62616"></trkpt>
      <trkpt lat="50.80862" lon="3.62623"></trkpt>
      <trkpt lat="50.80846" lon="3.62634"></trkpt>
      <trkpt lat="50.80830" lon="3.62645"></trkpt>
      <trkpt lat="50.80816" lon="3.62659"></trkpt>
      <trkpt lat="50.80809" lon="3.62683"></trkpt>
      <trkpt lat="50.80805" lon="3.62710"></trkpt>
      <trkpt lat="50.80803" lon="3.62736"></trkpt>
      <trkpt lat="50.80798" lon="3.62761"></trkpt>
      <trkpt lat="50.80794" lon="3.62787"></trkpt>
      <trkpt lat="50.80783" lon="3.62799"></trkpt>
      <trkpt lat="50.80773" lon="3.62779"></trkpt>
      <trkpt lat="50.80767" lon="3.62754"></trkpt>
      <trkpt lat="50.80760" lon="3.62730"></trkpt>
      <trkpt lat="50.80745" lon="3.62715"></trkpt>
      <trkpt lat="50.80728" lon="3.62707"></trkpt>
      <trkpt lat="50.80712" lon="3.62698"></trkpt>
      <trkpt lat="50.80698" lon="3.62682"></trkpt>
      <trkpt lat="50.80684" lon="3.62665"></trkpt>
      <trkpt lat="50.80670" lon="3.62648"></trkpt>
      <trkpt lat="50.80656" lon="3.62632"></trkpt>
      <trkpt lat="50.80643" lon="3.62615"></trkpt>
      <trkpt lat="50.80632" lon="3.62595"></trkpt>
      <trkpt lat="50.80621" lon="3.62576"></trkpt>
      <trkpt lat="50.80608" lon="3.62561"></trkpt>
      <trkpt lat="50.80594" lon="3.62547"></trkpt>
      <trkpt lat="50.80580" lon="3.62532"></trkpt>
      <trkpt lat="50.80564" lon="3.62526"></trkpt>
      <trkpt lat="50.80547" lon="3.62523"></trkpt>
      <trkpt lat="50.80535" lon="3.62537"></trkpt>
      <trkpt lat="50.80526" lon="3.62558"></trkpt>
      <trkpt lat="50.80517" lon="3.62579"></trkpt>
      <trkpt lat="50.80507" lon="3.62596"></trkpt>
      <trkpt lat="50.80493" lon="3.62591"></trkpt>
      <trkpt lat="50.80479" lon="3.62580"></trkpt>
      <trkpt lat="50.80467" lon="3.62568"></trkpt>
      <trkpt lat="50.80457" lon="3.62560"></trkpt>
      <trkpt lat="50.80449" lon="3.62552"></trkpt>
      <trkpt lat="50.80440" lon="3.62544"></trkpt>
      <trkpt lat="50.80433" lon="3.62536"></trkpt>
      <trkpt lat="50.80427" lon="3.62527"></trkpt>
      <trkpt lat="50.80421" lon="3.62518"></trkpt>
      <trkpt lat="50.80413" lon="3.62511"></trkpt>
      <trkpt lat="50.80405" lon="3.62504"></trkpt>
      <trkpt lat="50.80397" lon="3.62498"></trkpt>
      <trkpt lat="50.80390" lon="3.62491"></trkpt>
      <trkpt lat="50.80382" lon="3.62484"></trkpt>
      <trkpt lat="50.80374" lon="3.62477"></trkpt>
      <trkpt lat="50.80367" lon="3.62469"></trkpt>
      <trkpt lat="50.80360" lon="3.62464"></trkpt>
      <trkpt lat="50.80358" lon="3.62464"></trkpt>
      <trkpt lat="50.80356" lon="3.62463"></trkpt>
      <trkpt lat="50.80355" lon="3.62463"></trkpt>
      <trkpt lat="50.80353" lon="3.62462"></trkpt>
      <trkpt lat="50.80344" lon="3.62458"></trkpt>
      <trkpt lat="50.80340" lon="3.62456"></trkpt>
      <trkpt lat="50.80337" lon="3.62453"></trkpt>
      <trkpt lat="50.80336" lon="3.62453"></trkpt>
      <trkpt lat="50.80333" lon="3.62450"></trkpt>
      <trkpt lat="50.80327" lon="3.62448"></trkpt>
      <trkpt lat="50.80323" lon="3.62451"></trkpt>
      <trkpt lat="50.80317" lon="3.62457"></trkpt>
      <trkpt lat="50.80310" lon="3.62462"></trkpt>
      <trkpt lat="50.80304" lon="3.62466"></trkpt>
      <trkpt lat="50.80298" lon="3.62467"></trkpt>
      <trkpt lat="50.80290" lon="3.62469"></trkpt>
      <trkpt lat="50.80285" lon="3.62470"></trkpt>
      <trkpt lat="50.80284" lon="3.62470"></trkpt>
      <trkpt lat="50.80283" lon="3.62470"></trkpt>
      <trkpt lat="50.80283" lon="3.62469"></trkpt>
      <trkpt lat="50.80279" lon="3.62470"></trkpt>
      <trkpt lat="50.80271" lon="3.62471"></trkpt>
      <trkpt lat="50.80264" lon="3.62471"></trkpt>
      <trkpt lat="50.80262" lon="3.62471"></trkpt>
      <trkpt lat="50.80261" lon="3.62471"></trkpt>
      <trkpt lat="50.80261" lon="3.62471"></trkpt>
      <trkpt lat="50.80260" lon="3.62471"></trkpt>
      <trkpt lat="50.80253" lon="3.62472"></trkpt>
      <trkpt lat="50.80242" lon="3.62473"></trkpt>
      <trkpt lat="50.80234" lon="3.62475"></trkpt>
      <trkpt lat="50.80225" lon="3.62474"></trkpt>
      <trkpt lat="50.80215" lon="3.62467"></trkpt>
      <trkpt lat="50.80207" lon="3.62453"></trkpt>
      <trkpt lat="50.80197" lon="3.62434"></trkpt>
      <trkpt lat="50.80181" lon="3.62424"></trkpt>
      <trkpt lat="50.80164" lon="3.62417"></trkpt>
      <trkpt lat="50.80149" lon="3.62405"></trkpt>
      <trkpt lat="50.80135" lon="3.62389"></trkpt>
      <trkpt lat="50.80120" lon="3.62375"></trkpt>
      <trkpt lat="50.80104" lon="3.62371"></trkpt>
      <trkpt lat="50.80087" lon="3.62369"></trkpt>
      <trkpt lat="50.80071" lon="3.62372"></trkpt>
      <trkpt lat="50.80055" lon="3.62363"></trkpt>
      <trkpt lat="50.80040" lon="3.62353"></trkpt>
      <trkpt lat="50.80025" lon="3.62344"></trkpt>
      <trkpt lat="50.80010" lon="3.62334"></trkpt>
      <trkpt lat="50.79994" lon="3.62324"></trkpt>
      <trkpt lat="50.79979" lon="3.62315"></trkpt>
      <trkpt lat="50.79962" lon="3.62309"></trkpt>
      <trkpt lat="50.79946" lon="3.62302"></trkpt>
      <trkpt lat="50.79929" lon="3.62292"></trkpt>
      <trkpt lat="50.79915" lon="3.62278"></trkpt>
      <trkpt lat="50.79898" lon="3.62269"></trkpt>
      <trkpt lat="50.79890" lon="3.62264"></trkpt>
      <trkpt lat="50.79887" lon="3.62260"></trkpt>
      <trkpt lat="50.79886" lon="3.62258"></trkpt>
      <trkpt lat="50.79878" lon="3.62251"></trkpt>
      <trkpt lat="50.79871" lon="3.62241"></trkpt>
      <trkpt lat="50.79864" lon="3.62232"></trkpt>
      <trkpt lat="50.79855" lon="3.62224"></trkpt>
      <trkpt lat="50.79839" lon="3.62218"></trkpt>
      <trkpt lat="50.79822" lon="3.62226"></trkpt>
      <trkpt lat="50.79808" lon="3.62245"></trkpt>
      <trkpt lat="50.79792" lon="3.62249"></trkpt>
      <trkpt lat="50.79775" lon="3.62251"></trkpt>
      <trkpt lat="50.79759" lon="3.62261"></trkpt>
      <trkpt lat="50.79744" lon="3.62274"></trkpt>
      <trkpt lat="50.79730" lon="3.62290"></trkpt>
      <trkpt lat="50.79717" lon="3.62310"></trkpt>
      <trkpt lat="50.79702" lon="3.62320"></trkpt>
      <trkpt lat="50.79687" lon="3.62327"></trkpt>
      <trkpt lat="50.79673" lon="3.62343"></trkpt>
      <trkpt lat="50.79661" lon="3.62359"></trkpt>
      <trkpt lat="50.79648" lon="3.62374"></trkpt>
      <trkpt lat="50.79635" lon="3.62387"></trkpt>
      <trkpt lat="50.79620" lon="3.62401"></trkpt>
      <trkpt lat="50.79605" lon="3.62411"></trkpt>
      <trkpt lat="50.79589" lon="3.62420"></trkpt>
      <trkpt lat="50.79574" lon="3.62428"></trkpt>
      <trkpt lat="50.79558" lon="3.62436"></trkpt>
      <trkpt lat="50.79543" lon="3.62445"></trkpt>
      <trkpt lat="50.79528" lon="3.62454"></trkpt>
      <trkpt lat="50.79512" lon="3.62465"></trkpt>
      <trkpt lat="50.79497" lon="3.62476"></trkpt>
      <trkpt lat="50.79483" lon="3.62472"></trkpt>
      <trkpt lat="50.79474" lon="3.62449"></trkpt>
      <trkpt lat="50.79466" lon="3.62432"></trkpt>
      <trkpt lat="50.79460" lon="3.62416"></trkpt>
      <trkpt lat="50.79455" lon="3.62401"></trkpt>
      <trkpt lat="50.79449" lon="3.62386"></trkpt>
      <trkpt lat="50.79442" lon="3.62371"></trkpt>
      <trkpt lat="50.79434" lon="3.62357"></trkpt>
      <trkpt lat="50.79426" lon="3.62342"></trkpt>
      <trkpt lat="50.79418" lon="3.62328"></trkpt>
      <trkpt lat="50.79409" lon="3.62314"></trkpt>
      <trkpt lat="50.79402" lon="3.62301"></trkpt>
      <trkpt lat="50.79394" lon="3.62287"></trkpt>
      <trkpt lat="50.79383" lon="3.62272"></trkpt>
      <trkpt lat="50.79370" lon="3.62254"></trkpt>
      <trkpt lat="50.79361" lon="3.62232"></trkpt>
      <trkpt lat="50.79351" lon="3.62209"></trkpt>
      <trkpt lat="50.79339" lon="3.62188"></trkpt>
      <trkpt lat="50.79327" lon="3.62167"></trkpt>
      <trkpt lat="50.79316" lon="3.62144"></trkpt>
      <trkpt lat="50.79311" lon="3.62119"></trkpt>
      <trkpt lat="50.79312" lon="3.62093"></trkpt>
      <trkpt lat="50.79313" lon="3.62066"></trkpt>
      <trkpt lat="50.79323" lon="3.62050"></trkpt>
      <trkpt lat="50.79340" lon="3.62049"></trkpt>
      <trkpt lat="50.79357" lon="3.62047"></trkpt>
      <trkpt lat="50.79374" lon="3.62045"></trkpt>
      <trkpt lat="50.79390" lon="3.62044"></trkpt>
      <trkpt lat="50.79407" lon="3.62042"></trkpt>
      <trkpt lat="50.79424" lon="3.62040"></trkpt>
      <trkpt lat="50.79441" lon="3.62038"></trkpt>
      <trkpt lat="50.79457" lon="3.62036"></trkpt>
      <trkpt lat="50.79474" lon="3.62034"></trkpt>
      <trkpt lat="50.79491" lon="3.62032"></trkpt>
      <trkpt lat="50.79507" lon="3.62030"></trkpt>
      <trkpt lat="50.79524" lon="3.62028"></trkpt>
      <trkpt lat="50.79541" lon="3.62026"></trkpt>
      <trkpt lat="50.79557" lon="3.62024"></trkpt>
      <trkpt lat="50.79574" lon="3.62022"></trkpt>
      <trkpt lat="50.79591" lon="3.62019"></trkpt>
      <trkpt lat="50.79605" lon="3.62009"></trkpt>
      <trkpt lat="50.79618" lon="3.61993"></trkpt>
      <trkpt lat="50.79634" lon="3.61986"></trkpt>
      <trkpt lat="50.79650" lon="3.61982"></trkpt>
      <trkpt lat="50.79666" lon="3.61979"></trkpt>
      <trkpt lat="50.79683" lon="3.61979"></trkpt>
      <trkpt lat="50.79697" lon="3.61990"></trkpt>
      <trkpt lat="50.79710" lon="3.61979"></trkpt>
      <trkpt lat="50.79721" lon="3.61959"></trkpt>
      <trkpt lat="50.79731" lon="3.61939"></trkpt>
      <trkpt lat="50.79741" lon="3.61919"></trkpt>
      <trkpt lat="50.79750" lon="3.61898"></trkpt>
      <trkpt lat="50.79759" lon="3.61877"></trkpt>
      <trkpt lat="50.79767" lon="3.61855"></trkpt>
      <trkpt lat="50.79777" lon="3.61835"></trkpt>
      <trkpt lat="50.79791" lon="3.61822"></trkpt>
      <trkpt lat="50.79806" lon="3.61813"></trkpt>
      <trkpt lat="50.79821" lon="3.61802"></trkpt>
      <trkpt lat="50.79834" lon="3.61785"></trkpt>
      <trkpt lat="50.79849" lon="3.61772"></trkpt>
      <trkpt lat="50.79866" lon="3.61777"></trkpt>
      <trkpt lat="50.79881" lon="3.61795"></trkpt>
      <trkpt lat="50.79896" lon="3.61812"></trkpt>
      <trkpt lat="50.79910" lon="3.61829"></trkpt>
      <trkpt lat="50.79927" lon="3.61839"></trkpt>
      <trkpt lat="50.79944" lon="3.61842"></trkpt>
      <trkpt lat="50.79961" lon="3.61844"></trkpt>
      <trkpt lat="50.79977" lon="3.61847"></trkpt>
      <trkpt lat="50.79993" lon="3.61851"></trkpt>
      <trkpt lat="50.80009" lon="3.61854"></trkpt>
      <trkpt lat="50.80025" lon="3.61858"></trkpt>
      <trkpt lat="50.80041" lon="3.61861"></trkpt>
      <trkpt lat="50.80058" lon="3.61863"></trkpt>
      <trkpt lat="50.80073" lon="3.61866"></trkpt>
      <trkpt lat="50.80089" lon="3.61867"></trkpt>
      <trkpt lat="50.80104" lon="3.61870"></trkpt>
      <trkpt lat="50.80120" lon="3.61879"></trkpt>
      <trkpt lat="50.80136" lon="3.61889"></trkpt>
      <trkpt lat="50.80152" lon="3.61893"></trkpt>
      <trkpt lat="50.80169" lon="3.61890"></trkpt>
      <trkpt lat="50.80186" lon="3.61886"></trkpt>
      <trkpt lat="50.80203" lon="3.61883"></trkpt>
      <trkpt lat="50.80220" lon="3.61879"></trkpt>
      <trkpt lat="50.80237" lon="3.61875"></trkpt>
      <trkpt lat="50.80255" lon="3.61872"></trkpt>
      <trkpt lat="50.80272" lon="3.61868"></trkpt>
      <trkpt lat="50.80290" lon="3.61864"></trkpt>
      <trkpt lat="50.80307" lon="3.61860"></trkpt>
      <trkpt lat="50.80324" lon="3.61857"></trkpt>
      <trkpt lat="50.80342" lon="3.61853"></trkpt>
      <trkpt lat="50.80359" lon="3.61849"></trkpt>
      <trkpt lat="50.80377" lon="3.61845"></trkpt>
      <trkpt lat="50.80394" lon="3.61841"></trkpt>
      <trkpt lat="50.80411" lon="3.61837"></trkpt>
      <trkpt lat="50.80429" lon="3.61832"></trkpt>
      <trkpt lat="50.80447" lon="3.61828"></trkpt>
      <trkpt lat="50.80463" lon="3.61824"></trkpt>
      <trkpt lat="50.80480" lon="3.61820"></trkpt>
      <trkpt lat="50.80498" lon="3.61817"></trkpt>
      <trkpt lat="50.80515" lon="3.61812"></trkpt>
      <trkpt lat="50.80533" lon="3.61807"></trkpt>
      <trkpt lat="50.80551" lon="3.61804"></trkpt>
      <trkpt lat="50.80568" lon="3.61801"></trkpt>
      <trkpt lat="50.80585" lon="3.61798"></trkpt>
      <trkpt lat="50.80602" lon="3.61793"></trkpt>
      <trkpt lat="50.80618" lon="3.61787"></trkpt>
      <trkpt lat="50.80634" lon="3.61782"></trkpt>
      <trkpt lat="50.80651" lon="3.61777"></trkpt>
      <trkpt lat="50.80669" lon="3.61773"></trkpt>
      <trkpt lat="50.80686" lon="3.61769"></trkpt>
      <trkpt lat="50.80703" lon="3.61765"></trkpt>
      <trkpt lat="50.80720" lon="3.61762"></trkpt>
      <trkpt lat="50.80736" lon="3.61756"></trkpt>
      <trkpt lat="50.80752" lon="3.61749"></trkpt>
      <trkpt lat="50.80769" lon="3.61753"></trkpt>
      <trkpt lat="50.80786" lon="3.61754"></trkpt>
      <trkpt lat="50.80804" lon="3.61751"></trkpt>
      <trkpt lat="50.80821" lon="3.61745"></trkpt>
      <trkpt lat="50.80835" lon="3.61730"></trkpt>
      <trkpt lat="50.80847" lon="3.61711"></trkpt>
      <trkpt lat="50.80859" lon="3.61691"></trkpt>
      <trkpt lat="50.80874" lon="3.61679"></trkpt>
      <trkpt lat="50.80889" lon="3.61695"></trkpt>
      <trkpt lat="50.80901" lon="3.61715"></trkpt>
      <trkpt lat="50.80916" lon="3.61726"></trkpt>
      <trkpt lat="50.80933" lon="3.61724"></trkpt>
      <trkpt lat="50.80950" lon="3.61720"></trkpt>
      <trkpt lat="50.80968" lon="3.61716"></trkpt>
      <trkpt lat="50.80984" lon="3.61711"></trkpt>
      <trkpt lat="50.81001" lon="3.61707"></trkpt>
      <trkpt lat="50.81018" lon="3.61702"></trkpt>
      <trkpt lat="50.81035" lon="3.61697"></trkpt>
      <trkpt lat="50.81053" lon="3.61693"></trkpt>
      <trkpt lat="50.81070" lon="3.61688"></trkpt>
      <trkpt lat="50.81087" lon="3.61683"></trkpt>
      <trkpt lat="50.81103" lon="3.61679"></trkpt>
      <trkpt lat="50.81120" lon="3.61674"></trkpt>
      <trkpt lat="50.81137" lon="3.61670"></trkpt>
      <trkpt lat="50.81155" lon="3.61665"></trkpt>
      <trkpt lat="50.81173" lon="3.61661"></trkpt>
      <trkpt lat="50.81191" lon="3.61657"></trkpt>
      <trkpt lat="50.81209" lon="3.61652"></trkpt>
      <trkpt lat="50.81227" lon="3.61647"></trkpt>
      <trkpt lat="50.81245" lon="3.61642"></trkpt>
      <trkpt lat="50.81263" lon="3.61638"></trkpt>
      <trkpt lat="50.81280" lon="3.61633"></trkpt>
      <trkpt lat="50.81298" lon="3.61629"></trkpt>
      <trkpt lat="50.81316" lon="3.61624"></trkpt>
      <trkpt lat="50.81334" lon="3.61620"></trkpt>
      <trkpt lat="50.81352" lon="3.61616"></trkpt>
      <trkpt lat="50.81369" lon="3.61613"></trkpt>
      <trkpt lat="50.81386" lon="3.61610"></trkpt>
      <trkpt lat="50.81404" lon="3.61607"></trkpt>
      <trkpt lat="50.81421" lon="3.61603"></trkpt>
      <trkpt lat="50.81438" lon="3.61600"></trkpt>
      <trkpt lat="50.81454" lon="3.61589"></trkpt>
      <trkpt lat="50.81467" lon="3.61571"></trkpt>
      <trkpt lat="50.81480" lon="3.61554"></trkpt>
      <trkpt lat="50.81493" lon="3.61535"></trkpt>
      <trkpt lat="50.81506" lon="3.61517"></trkpt>
      <trkpt lat="50.81520" lon="3.61505"></trkpt>
      <trkpt lat="50.81536" lon="3.61517"></trkpt>
      <trkpt lat="50.81548" lon="3.61537"></trkpt>
      <trkpt lat="50.81559" lon="3.61556"></trkpt>
      <trkpt lat="50.81572" lon="3.61578"></trkpt>
      <trkpt lat="50.81585" lon="3.61600"></trkpt>
      <trkpt lat="50.81596" lon="3.61620"></trkpt>
      <trkpt lat="50.81606" lon="3.61641"></trkpt>
      <trkpt lat="50.81616" lon="3.61663"></trkpt>
      <trkpt lat="50.81625" lon="3.61686"></trkpt>
      <trkpt lat="50.81635" lon="3.61709"></trkpt>
      <trkpt lat="50.81645" lon="3.61733"></trkpt>
      <trkpt lat="50.81655" lon="3.61758"></trkpt>
      <trkpt lat="50.81666" lon="3.61782"></trkpt>
      <trkpt lat="50.81676" lon="3.61807"></trkpt>
      <trkpt lat="50.81685" lon="3.61829"></trkpt>
      <trkpt lat="50.81694" lon="3.61853"></trkpt>
      <trkpt lat="50.81703" lon="3.61876"></trkpt>
      <trkpt lat="50.81713" lon="3.61900"></trkpt>
      <trkpt lat="50.81724" lon="3.61923"></trkpt>
      <trkpt lat="50.81733" lon="3.61945"></trkpt>
      <trkpt lat="50.81746" lon="3.61965"></trkpt>
      <trkpt lat="50.81758" lon="3.61987"></trkpt>
      <trkpt lat="50.81770" lon="3.62010"></trkpt>
      <trkpt lat="50.81781" lon="3.62033"></trkpt>
      <trkpt lat="50.81792" lon="3.62057"></trkpt>
      <trkpt lat="50.81802" lon="3.62081"></trkpt>
      <trkpt lat="50.81813" lon="3.62104"></trkpt>
      <trkpt lat="50.81828" lon="3.62111"></trkpt>
      <trkpt lat="50.81841" lon="3.62093"></trkpt>
      <trkpt lat="50.81854" lon="3.62074"></trkpt>
      <trkpt lat="50.81867" lon="3.62054"></trkpt>
      <trkpt lat="50.81879" lon="3.62034"></trkpt>
      <trkpt lat="50.81892" lon="3.62014"></trkpt>
      <trkpt lat="50.81905" lon="3.61994"></trkpt>
      <trkpt lat="50.81918" lon="3.61975"></trkpt>
      <trkpt lat="50.81932" lon="3.61955"></trkpt>
      <trkpt lat="50.81944" lon="3.61935"></trkpt>
      <trkpt lat="50.81957" lon="3.61916"></trkpt>
      <trkpt lat="50.81971" lon="3.61897"></trkpt>
      <trkpt lat="50.81985" lon="3.61878"></trkpt>
      <trkpt lat="50.81999" lon="3.61860"></trkpt>
      <trkpt lat="50.82014" lon="3.61842"></trkpt>
      <trkpt lat="50.82028" lon="3.61825"></trkpt>
      <trkpt lat="50.82042" lon="3.61808"></trkpt>
      <trkpt lat="50.82056" lon="3.61793"></trkpt>
      <trkpt lat="50.82071" lon="3.61776"></trkpt>
      <trkpt lat="50.82085" lon="3.61760"></trkpt>
      <trkpt lat="50.82100" lon="3.61742"></trkpt>
      <trkpt lat="50.82115" lon="3.61725"></trkpt>
      <trkpt lat="50.82129" lon="3.61707"></trkpt>
      <trkpt lat="50.82144" lon="3.61690"></trkpt>
      <trkpt lat="50.82158" lon="3.61675"></trkpt>
      <trkpt lat="50.82168" lon="3.61678"></trkpt>
      <trkpt lat="50.82177" lon="3.61701"></trkpt>
      <trkpt lat="50.82186" lon="3.61724"></trkpt>
      <trkpt lat="50.82195" lon="3.61746"></trkpt>
      <trkpt lat="50.82204" lon="3.61771"></trkpt>
      <trkpt lat="50.82213" lon="3.61795"></trkpt>
      <trkpt lat="50.82222" lon="3.61818"></trkpt>
      <trkpt lat="50.82230" lon="3.61840"></trkpt>
      <trkpt lat="50.82239" lon="3.61862"></trkpt>
      <trkpt lat="50.82249" lon="3.61883"></trkpt>
      <trkpt lat="50.82261" lon="3.61900"></trkpt>
      <trkpt lat="50.82274" lon="3.61916"></trkpt>
      <trkpt lat="50.82286" lon="3.61931"></trkpt>
      <trkpt lat="50.82290" lon="3.61949"></trkpt>
      <trkpt lat="50.82295" lon="3.61976"></trkpt>
      <trkpt lat="50.82300" lon="3.62001"></trkpt>
      <trkpt lat="50.82304" lon="3.62023"></trkpt>
      <trkpt lat="50.82306" lon="3.62039"></trkpt>
      <trkpt lat="50.82309" lon="3.62056"></trkpt>
      <trkpt lat="50.82311" lon="3.62073"></trkpt>
      <trkpt lat="50.82320" lon="3.62078"></trkpt>
      <trkpt lat="50.82336" lon="3.62069"></trkpt>
      <trkpt lat="50.82352" lon="3.62058"></trkpt>
      <trkpt lat="50.82368" lon="3.62049"></trkpt>
      <trkpt lat="50.82384" lon="3.62039"></trkpt>
      <trkpt lat="50.82402" lon="3.62028"></trkpt>
      <trkpt lat="50.82418" lon="3.62016"></trkpt>
      <trkpt lat="50.82434" lon="3.62004"></trkpt>
      <trkpt lat="50.82449" lon="3.61990"></trkpt>
      <trkpt lat="50.82465" lon="3.61975"></trkpt>
      <trkpt lat="50.82480" lon="3.61961"></trkpt>
      <trkpt lat="50.82496" lon="3.61949"></trkpt>
      <trkpt lat="50.82510" lon="3.61936"></trkpt>
      <trkpt lat="50.82524" lon="3.61925"></trkpt>
      <trkpt lat="50.82534" lon="3.61922"></trkpt>
      <trkpt lat="50.82539" lon="3.61922"></trkpt>
      <trkpt lat="50.82551" lon="3.61922"></trkpt>
      <trkpt lat="50.82561" lon="3.61922"></trkpt>
      <trkpt lat="50.82570" lon="3.61919"></trkpt>
      <trkpt lat="50.82572" lon="3.61919"></trkpt>
      <trkpt lat="50.82573" lon="3.61919"></trkpt>
      <trkpt lat="50.82574" lon="3.61919"></trkpt>
      <trkpt lat="50.82581" lon="3.61916"></trkpt>
      <trkpt lat="50.82590" lon="3.61903"></trkpt>
      <trkpt lat="50.82596" lon="3.61888"></trkpt>
      <trkpt lat="50.82600" lon="3.61872"></trkpt>
      <trkpt lat="50.82607" lon="3.61857"></trkpt>
      <trkpt lat="50.82614" lon="3.61840"></trkpt>
      <trkpt lat="50.82623" lon="3.61824"></trkpt>
      <trkpt lat="50.82633" lon="3.61820"></trkpt>
      <trkpt lat="50.82643" lon="3.61829"></trkpt>
      <trkpt lat="50.82653" lon="3.61838"></trkpt>
      <trkpt lat="50.82662" lon="3.61847"></trkpt>
      <trkpt lat="50.82671" lon="3.61857"></trkpt>
      <trkpt lat="50.82680" lon="3.61863"></trkpt>
      <trkpt lat="50.82690" lon="3.61869"></trkpt>
      <trkpt lat="50.82701" lon="3.61870"></trkpt>
      <trkpt lat="50.82712" lon="3.61869"></trkpt>
      <trkpt lat="50.82723" lon="3.61873"></trkpt>
      <trkpt lat="50.82731" lon="3.61886"></trkpt>
      <trkpt lat="50.82736" lon="3.61904"></trkpt>
      <trkpt lat="50.82739" lon="3.61922"></trkpt>
      <trkpt lat="50.82740" lon="3.61924"></trkpt>
      <trkpt lat="50.82742" lon="3.61928"></trkpt>
      <trkpt lat="50.82755" lon="3.61941"></trkpt>
      <trkpt lat="50.82771" lon="3.61947"></trkpt>
      <trkpt lat="50.82787" lon="3.61954"></trkpt>
      <trkpt lat="50.82802" lon="3.61960"></trkpt>
      <trkpt lat="50.82817" lon="3.61965"></trkpt>
      <trkpt lat="50.82834" lon="3.61971"></trkpt>
      <trkpt lat="50.82851" lon="3.61977"></trkpt>
      <trkpt lat="50.82869" lon="3.61983"></trkpt>
      <trkpt lat="50.82887" lon="3.61991"></trkpt>
      <trkpt lat="50.82904" lon="3.62002"></trkpt>
      <trkpt lat="50.82919" lon="3.62014"></trkpt>
      <trkpt lat="50.82935" lon="3.62026"></trkpt>
      <trkpt lat="50.82952" lon="3.62039"></trkpt>
      <trkpt lat="50.82969" lon="3.62052"></trkpt>
      <trkpt lat="50.82985" lon="3.62067"></trkpt>
      <trkpt lat="50.83001" lon="3.62083"></trkpt>
      <trkpt lat="50.83018" lon="3.62091"></trkpt>
      <trkpt lat="50.83036" lon="3.62083"></trkpt>
      <trkpt lat="50.83055" lon="3.62073"></trkpt>
      <trkpt lat="50.83074" lon="3.62062"></trkpt>
      <trkpt lat="50.83092" lon="3.62050"></trkpt>
      <trkpt lat="50.83110" lon="3.62039"></trkpt>
      <trkpt lat="50.83128" lon="3.62029"></trkpt>
      <trkpt lat="50.83147" lon="3.62022"></trkpt>
      <trkpt lat="50.83160" lon="3.62040"></trkpt>
      <trkpt lat="50.83162" lon="3.62071"></trkpt>
      <trkpt lat="50.83164" lon="3.62099"></trkpt>
      <trkpt lat="50.83179" lon="3.62105"></trkpt>
      <trkpt lat="50.83197" lon="3.62104"></trkpt>
      <trkpt lat="50.83217" lon="3.62103"></trkpt>
      <trkpt lat="50.83236" lon="3.62103"></trkpt>
      <trkpt lat="50.83255" lon="3.62104"></trkpt>
      <trkpt lat="50.83275" lon="3.62104"></trkpt>
      <trkpt lat="50.83294" lon="3.62106"></trkpt>
      <trkpt lat="50.83313" lon="3.62107"></trkpt>
      <trkpt lat="50.83332" lon="3.62107"></trkpt>
      <trkpt lat="50.83350" lon="3.62108"></trkpt>
      <trkpt lat="50.83370" lon="3.62108"></trkpt>
      <trkpt lat="50.83390" lon="3.62108"></trkpt>
      <trkpt lat="50.83410" lon="3.62109"></trkpt>
      <trkpt lat="50.83429" lon="3.62109"></trkpt>
      <trkpt lat="50.83449" lon="3.62110"></trkpt>
      <trkpt lat="50.83467" lon="3.62114"></trkpt>
      <trkpt lat="50.83466" lon="3.62135"></trkpt>
      <trkpt lat="50.83456" lon="3.62163"></trkpt>
      <trkpt lat="50.83447" lon="3.62191"></trkpt>
      <trkpt lat="50.83439" lon="3.62219"></trkpt>
      <trkpt lat="50.83440" lon="3.62240"></trkpt>
      <trkpt lat="50.83452" lon="3.62261"></trkpt>
      <trkpt lat="50.83456" lon="3.62284"></trkpt>
      <trkpt lat="50.83450" lon="3.62308"></trkpt>
      <trkpt lat="50.83440" lon="3.62320"></trkpt>
    </trkseg>
  </trk>
</gpx>