<?xml version="1.0" encoding="UTF-8"?>
<gpx version="1.1" creator="jeffry.running" xmlns="http://www.topografix.com/GPX/1/1">
  <metadata><time>2026-09-18T12:16:54.233Z</time></metadata>
  <trk>
    <trkseg>
      <trkpt lat="51.20848" lon="4.44978"></trkpt>
      <trkpt lat="51.20853" lon="4.44968"></trkpt>
      <trkpt lat="51.20858" lon="4.44976"></trkpt>
      <trkpt lat="51.20860" lon="4.44981"></trkpt>
      <trkpt lat="51.20862" lon="4.44982"></trkpt>
      <trkpt lat="51.20865" lon="4.44975"></trkpt>
      <trkpt lat="51.20869" lon="4.44962"></trkpt>
      <trkpt lat="51.20872" lon="4.44960"></trkpt>
      <trkpt lat="51.20878" lon="4.44952"></trkpt>
      <trkpt lat="51.20885" lon="4.44937"></trkpt>
      <trkpt lat="51.20889" lon="4.44937"></trkpt>
      <trkpt lat="51.20892" lon="4.44941"></trkpt>
      <trkpt lat="51.20895" lon="4.44945"></trkpt>
      <trkpt lat="51.20896" lon="4.44951"></trkpt>
      <trkpt lat="51.20898" lon="4.44958"></trkpt>
      <trkpt lat="51.20900" lon="4.44963"></trkpt>
      <trkpt lat="51.20903" lon="4.44968"></trkpt>
      <trkpt lat="51.20905" lon="4.44974"></trkpt>
      <trkpt lat="51.20907" lon="4.44979"></trkpt>
      <trkpt lat="51.20909" lon="4.44985"></trkpt>
      <trkpt lat="51.20911" lon="4.44991"></trkpt>
      <trkpt lat="51.20914" lon="4.44997"></trkpt>
      <trkpt lat="51.20917" lon="4.45002"></trkpt>
      <trkpt lat="51.20920" lon="4.45009"></trkpt>
      <trkpt lat="51.20923" lon="4.45015"></trkpt>
      <trkpt lat="51.20926" lon="4.45021"></trkpt>
      <trkpt lat="51.20929" lon="4.45027"></trkpt>
      <trkpt lat="51.20931" lon="4.45033"></trkpt>
      <trkpt lat="51.20934" lon="4.45039"></trkpt>
      <trkpt lat="51.20936" lon="4.45045"></trkpt>
      <trkpt lat="51.20940" lon="4.45051"></trkpt>
      <trkpt lat="51.20943" lon="4.45057"></trkpt>
      <trkpt lat="51.20947" lon="4.45063"></trkpt>
      <trkpt lat="51.20950" lon="4.45068"></trkpt>
      <trkpt lat="51.20953" lon="4.45073"></trkpt>
      <trkpt lat="51.20957" lon="4.45081"></trkpt>
      <trkpt lat="51.20960" lon="4.45087"></trkpt>
      <trkpt lat="51.20963" lon="4.45092"></trkpt>
      <trkpt lat="51.20966" lon="4.45098"></trkpt>
      <trkpt lat="51.20970" lon="4.45106"></trkpt>
      <trkpt lat="51.20974" lon="4.45113"></trkpt>
      <trkpt lat="51.20977" lon="4.45120"></trkpt>
      <trkpt lat="51.20980" lon="4.45127"></trkpt>
      <trkpt lat="51.20984" lon="4.45134"></trkpt>
      <trkpt lat="51.20986" lon="4.45140"></trkpt>
      <trkpt lat="51.20989" lon="4.45143"></trkpt>
      <trkpt lat="51.20992" lon="4.45145"></trkpt>
      <trkpt lat="51.20996" lon="4.45145"></trkpt>
      <trkpt lat="51.20998" lon="4.45150"></trkpt>
      <trkpt lat="51.21002" lon="4.45151"></trkpt>
      <trkpt lat="51.21005" lon="4.45153"></trkpt>
      <trkpt lat="51.21004" lon="4.45157"></trkpt>
      <trkpt lat="51.21002" lon="4.45162"></trkpt>
      <trkpt lat="51.21000" lon="4.45167"></trkpt>
      <trkpt lat="51.20998" lon="4.45173"></trkpt>
      <trkpt lat="51.20995" lon="4.45178"></trkpt>
      <trkpt lat="51.20994" lon="4.45181"></trkpt>
      <trkpt lat="51.20993" lon="4.45184"></trkpt>
      <trkpt lat="51.20994" lon="4.45187"></trkpt>
      <trkpt lat="51.20995" lon="4.45193"></trkpt>
      <trkpt lat="51.20998" lon="4.45197"></trkpt>
      <trkpt lat="51.21003" lon="4.45200"></trkpt>
      <trkpt lat="51.21007" lon="4.45205"></trkpt>
      <trkpt lat="51.21010" lon="4.45210"></trkpt>
      <trkpt lat="51.21013" lon="4.45215"></trkpt>
      <trkpt lat="51.21016" lon="4.45222"></trkpt>
      <trkpt lat="51.21017" lon="4.45228"></trkpt>
      <trkpt lat="51.21016" lon="4.45235"></trkpt>
      <trkpt lat="51.21016" lon="4.45242"></trkpt>
      <trkpt lat="51.21015" lon="4.45248"></trkpt>
      <trkpt lat="51.21012" lon="4.45253"></trkpt>
      <trkpt lat="51.21007" lon="4.45254"></trkpt>
      <trkpt lat="51.21003" lon="4.45254"></trkpt>
      <trkpt lat="51.20998" lon="4.45253"></trkpt>
      <trkpt lat="51.20994" lon="4.45252"></trkpt>
      <trkpt lat="51.20989" lon="4.45251"></trkpt>
      <trkpt lat="51.20984" lon="4.45249"></trkpt>
      <trkpt lat="51.20980" lon="4.45248"></trkpt>
      <trkpt lat="51.20975" lon="4.45247"></trkpt>
      <trkpt lat="51.20971" lon="4.45247"></trkpt>
      <trkpt lat="51.20966" lon="4.45246"></trkpt>
      <trkpt lat="51.20962" lon="4.45245"></trkpt>
      <trkpt lat="51.20958" lon="4.45244"></trkpt>
      <trkpt lat="51.20953" lon="4.45242"></trkpt>
      <trkpt lat="51.20948" lon="4.45242"></trkpt>
      <trkpt lat="51.20943" lon="4.45243"></trkpt>
      <trkpt lat="51.20938" lon="4.45244"></trkpt>
      <trkpt lat="51.20933" lon="4.45243"></trkpt>
      <trkpt lat="51.20929" lon="4.45241"></trkpt>
      <trkpt lat="51.20925" lon="4.45239"></trkpt>
      <trkpt lat="51.20921" lon="4.45238"></trkpt>
      <trkpt lat="51.20917" lon="4.45236"></trkpt>
      <trkpt lat="51.20913" lon="4.45235"></trkpt>
      <trkpt lat="51.20909" lon="4.45233"></trkpt>
      <trkpt lat="51.20905" lon="4.45232"></trkpt>
      <trkpt lat="51.20901" lon="4.45231"></trkpt>
      <trkpt lat="51.20897" lon="4.45229"></trkpt>
      <trkpt lat="51.20893" lon="4.45227"></trkpt>
      <trkpt lat="51.20889" lon="4.45225"></trkpt>
      <trkpt lat="51.20885" lon="4.45224"></trkpt>
      <trkpt lat="51.20882" lon="4.45223"></trkpt>
      <trkpt lat="51.20878" lon="4.45222"></trkpt>
      <trkpt lat="51.20875" lon="4.45220"></trkpt>
      <trkpt lat="51.20872" lon="4.45219"></trkpt>
      <trkpt lat="51.20868" lon="4.45218"></trkpt>
      <trkpt lat="51.20863" lon="4.45217"></trkpt>
      <trkpt lat="51.20857" lon="4.45216"></trkpt>
      <trkpt lat="51.20852" lon="4.45215"></trkpt>
      <trkpt lat="51.20848" lon="4.45216"></trkpt>
      <trkpt lat="51.20844" lon="4.45216"></trkpt>
      <trkpt lat="51.20839" lon="4.45216"></trkpt>
      <trkpt lat="51.20835" lon="4.45216"></trkpt>
      <trkpt lat="51.20830" lon="4.45216"></trkpt>
      <trkpt lat="51.20825" lon="4.45217"></trkpt>
      <trkpt lat="51.20820" lon="4.45217"></trkpt>
      <trkpt lat="51.20816" lon="4.45217"></trkpt>
      <trkpt lat="51.20811" lon="4.45217"></trkpt>
      <trkpt lat="51.20807" lon="4.45218"></trkpt>
      <trkpt lat="51.20803" lon="4.45218"></trkpt>
      <trkpt lat="51.20798" lon="4.45219"></trkpt>
      <trkpt lat="51.20794" lon="4.45220"></trkpt>
      <trkpt lat="51.20790" lon="4.45221"></trkpt>
      <trkpt lat="51.20785" lon="4.45221"></trkpt>
      <trkpt lat="51.20781" lon="4.45222"></trkpt>
      <trkpt lat="51.20776" lon="4.45221"></trkpt>
      <trkpt lat="51.20772" lon="4.45222"></trkpt>
      <trkpt lat="51.20768" lon="4.45222"></trkpt>
      <trkpt lat="51.20764" lon="4.45222"></trkpt>
      <trkpt lat="51.20761" lon="4.45222"></trkpt>
      <trkpt lat="51.20757" lon="4.45223"></trkpt>
      <trkpt lat="51.20754" lon="4.45224"></trkpt>
      <trkpt lat="51.20751" lon="4.45224"></trkpt>
      <trkpt lat="51.20747" lon="4.45225"></trkpt>
      <trkpt lat="51.20743" lon="4.45225"></trkpt>
      <trkpt lat="51.20738" lon="4.45225"></trkpt>
      <trkpt lat="51.20733" lon="4.45225"></trkpt>
      <trkpt lat="51.20728" lon="4.45227"></trkpt>
      <trkpt lat="51.20724" lon="4.45228"></trkpt>
      <trkpt lat="51.20720" lon="4.45231"></trkpt>
      <trkpt lat="51.20717" lon="4.45235"></trkpt>
      <trkpt lat="51.20713" lon="4.45237"></trkpt>
      <trkpt lat="51.20709" lon="4.45239"></trkpt>
      <trkpt lat="51.20705" lon="4.45239"></trkpt>
      <trkpt lat="51.20701" lon="4.45238"></trkpt>
      <trkpt lat="51.20697" lon="4.45239"></trkpt>
      <trkpt lat="51.20693" lon="4.45240"></trkpt>
      <trkpt lat="51.20689" lon="4.45241"></trkpt>
      <trkpt lat="51.20685" lon="4.45242"></trkpt>
      <trkpt lat="51.20681" lon="4.45243"></trkpt>
      <trkpt lat="51.20677" lon="4.45243"></trkpt>
      <trkpt lat="51.20672" lon="4.45243"></trkpt>
      <trkpt lat="51.20668" lon="4.45243"></trkpt>
      <trkpt lat="51.20664" lon="4.45242"></trkpt>
      <trkpt lat="51.20660" lon="4.45242"></trkpt>
      <trkpt lat="51.20656" lon="4.45242"></trkpt>
      <trkpt lat="51.20652" lon="4.45242"></trkpt>
      <trkpt lat="51.20647" lon="4.45241"></trkpt>
      <trkpt lat="51.20643" lon="4.45242"></trkpt>
      <trkpt lat="51.20639" lon="4.45243"></trkpt>
      <trkpt lat="51.20635" lon="4.45243"></trkpt>
      <trkpt lat="51.20630" lon="4.45243"></trkpt>
      <trkpt lat="51.20626" lon="4.45244"></trkpt>
      <trkpt lat="51.20622" lon="4.45244"></trkpt>
      <trkpt lat="51.20618" lon="4.45244"></trkpt>
      <trkpt lat="51.20614" lon="4.45244"></trkpt>
      <trkpt lat="51.20610" lon="4.45245"></trkpt>
      <trkpt lat="51.20606" lon="4.45245"></trkpt>
      <trkpt lat="51.20602" lon="4.45244"></trkpt>
      <trkpt lat="51.20598" lon="4.45244"></trkpt>
      <trkpt lat="51.20595" lon="4.45244"></trkpt>
      <trkpt lat="51.20591" lon="4.45244"></trkpt>
      <trkpt lat="51.20586" lon="4.45244"></trkpt>
      <trkpt lat="51.20582" lon="4.45242"></trkpt>
      <trkpt lat="51.20578" lon="4.45240"></trkpt>
      <trkpt lat="51.20573" lon="4.45239"></trkpt>
      <trkpt lat="51.20569" lon="4.45238"></trkpt>
      <trkpt lat="51.20565" lon="4.45236"></trkpt>
      <trkpt lat="51.20561" lon="4.45234"></trkpt>
      <trkpt lat="51.20557" lon="4.45233"></trkpt>
      <trkpt lat="51.20552" lon="4.45231"></trkpt>
      <trkpt lat="51.20548" lon="4.45230"></trkpt>
      <trkpt lat="51.20544" lon="4.45228"></trkpt>
      <trkpt lat="51.20540" lon="4.45226"></trkpt>
      <trkpt lat="51.20536" lon="4.45225"></trkpt>
      <trkpt lat="51.20532" lon="4.45223"></trkpt>
      <trkpt lat="51.20528" lon="4.45221"></trkpt>
      <trkpt lat="51.20524" lon="4.45219"></trkpt>
      <trkpt lat="51.20519" lon="4.45217"></trkpt>
      <trkpt lat="51.20515" lon="4.45216"></trkpt>
      <trkpt lat="51.20511" lon="4.45214"></trkpt>
      <trkpt lat="51.20506" lon="4.45213"></trkpt>
      <trkpt lat="51.20503" lon="4.45213"></trkpt>
      <trkpt lat="51.20499" lon="4.45212"></trkpt>
      <trkpt lat="51.20495" lon="4.45211"></trkpt>
      <trkpt lat="51.20491" lon="4.45210"></trkpt>
      <trkpt lat="51.20487" lon="4.45208"></trkpt>
      <trkpt lat="51.20483" lon="4.45207"></trkpt>
      <trkpt lat="51.20479" lon="4.45205"></trkpt>
      <trkpt lat="51.20475" lon="4.45204"></trkpt>
      <trkpt lat="51.20470" lon="4.45202"></trkpt>
      <trkpt lat="51.20467" lon="4.45202"></trkpt>
      <trkpt lat="51.20462" lon="4.45202"></trkpt>
      <trkpt lat="51.20458" lon="4.45204"></trkpt>
      <trkpt lat="51.20454" lon="4.45205"></trkpt>
      <trkpt lat="51.20450" lon="4.45207"></trkpt>
      <trkpt lat="51.20446" lon="4.45209"></trkpt>
      <trkpt lat="51.20442" lon="4.45212"></trkpt>
      <trkpt lat="51.20438" lon="4.45214"></trkpt>
      <trkpt lat="51.20433" lon="4.45216"></trkpt>
      <trkpt lat="51.20429" lon="4.45218"></trkpt>
      <trkpt lat="51.20426" lon="4.45221"></trkpt>
      <trkpt lat="51.20422" lon="4.45224"></trkpt>
      <trkpt lat="51.20419" lon="4.45227"></trkpt>
      <trkpt lat="51.20415" lon="4.45229"></trkpt>
      <trkpt lat="51.20411" lon="4.45232"></trkpt>
      <trkpt lat="51.20408" lon="4.45235"></trkpt>
      <trkpt lat="51.20403" lon="4.45237"></trkpt>
      <trkpt lat="51.20399" lon="4.45239"></trkpt>
      <trkpt lat="51.20395" lon="4.45242"></trkpt>
      <trkpt lat="51.20392" lon="4.45245"></trkpt>
      <trkpt lat="51.20387" lon="4.45247"></trkpt>
      <trkpt lat="51.20384" lon="4.45244"></trkpt>
      <trkpt lat="51.20382" lon="4.45240"></trkpt>
      <trkpt lat="51.20379" lon="4.45234"></trkpt>
      <trkpt lat="51.20377" lon="4.45228"></trkpt>
      <trkpt lat="51.20375" lon="4.45221"></trkpt>
      <trkpt lat="51.20374" lon="4.45215"></trkpt>
      <trkpt lat="51.20373" lon="4.45209"></trkpt>
      <trkpt lat="51.20372" lon="4.45203"></trkpt>
      <trkpt lat="51.20371" lon="4.45197"></trkpt>
      <trkpt lat="51.20370" lon="4.45190"></trkpt>
      <trkpt lat="51.20368" lon="4.45184"></trkpt>
      <trkpt lat="51.20365" lon="4.45181"></trkpt>
      <trkpt lat="51.20362" lon="4.45180"></trkpt>
      <trkpt lat="51.20358" lon="4.45180"></trkpt>
      <trkpt lat="51.20354" lon="4.45179"></trkpt>
      <trkpt lat="51.20349" lon="4.45180"></trkpt>
      <trkpt lat="51.20345" lon="4.45181"></trkpt>
      <trkpt lat="51.20341" lon="4.45183"></trkpt>
      <trkpt lat="51.20338" lon="4.45185"></trkpt>
      <trkpt lat="51.20334" lon="4.45186"></trkpt>
      <trkpt lat="51.20330" lon="4.45183"></trkpt>
      <trkpt lat="51.20329" lon="4.45177"></trkpt>
      <trkpt lat="51.20329" lon="4.45171"></trkpt>
      <trkpt lat="51.20330" lon="4.45166"></trkpt>
      <trkpt lat="51.20331" lon="4.45160"></trkpt>
      <trkpt lat="51.20331" lon="4.45154"></trkpt>
      <trkpt lat="51.20330" lon="4.45148"></trkpt>
      <trkpt lat="51.20329" lon="4.45141"></trkpt>
      <trkpt lat="51.20327" lon="4.45135"></trkpt>
      <trkpt lat="51.20325" lon="4.45128"></trkpt>
      <trkpt lat="51.20323" lon="4.45122"></trkpt>
      <trkpt lat="51.20321" lon="4.45116"></trkpt>
      <trkpt lat="51.20319" lon="4.45110"></trkpt>
      <trkpt lat="51.20318" lon="4.45104"></trkpt>
      <trkpt lat="51.20315" lon="4.45098"></trkpt>
      <trkpt lat="51.20313" lon="4.45093"></trkpt>
      <trkpt lat="51.20310" lon="4.45088"></trkpt>
      <trkpt lat="51.20306" lon="4.45083"></trkpt>
      <trkpt lat="51.20303" lon="4.45079"></trkpt>
      <trkpt lat="51.20300" lon="4.45075"></trkpt>
      <trkpt lat="51.20296" lon="4.45072"></trkpt>
      <trkpt lat="51.20292" lon="4.45069"></trkpt>
      <trkpt lat="51.20287" lon="4.45067"></trkpt>
      <trkpt lat="51.20283" lon="4.45065"></trkpt>
      <trkpt lat="51.20279" lon="4.45063"></trkpt>
      <trkpt lat="51.20275" lon="4.45062"></trkpt>
      <trkpt lat="51.20271" lon="4.45061"></trkpt>
      <trkpt lat="51.20266" lon="4.45060"></trkpt>
      <trkpt lat="51.20262" lon="4.45059"></trkpt>
      <trkpt lat="51.20258" lon="4.45058"></trkpt>
      <trkpt lat="51.20254" lon="4.45056"></trkpt>
      <trkpt lat="51.20250" lon="4.45055"></trkpt>
      <trkpt lat="51.20245" lon="4.45055"></trkpt>
      <trkpt lat="51.20241" lon="4.45054"></trkpt>
      <trkpt lat="51.20237" lon="4.45055"></trkpt>
      <trkpt lat="51.20233" lon="4.45055"></trkpt>
      <trkpt lat="51.20229" lon="4.45055"></trkpt>
      <trkpt lat="51.20225" lon="4.45055"></trkpt>
      <trkpt lat="51.20220" lon="4.45056"></trkpt>
      <trkpt lat="51.20216" lon="4.45057"></trkpt>
      <trkpt lat="51.20212" lon="4.45056"></trkpt>
      <trkpt lat="51.20207" lon="4.45056"></trkpt>
      <trkpt lat="51.20203" lon="4.45056"></trkpt>
      <trkpt lat="51.20199" lon="4.45056"></trkpt>
      <trkpt lat="51.20194" lon="4.45056"></trkpt>
      <trkpt lat="51.20190" lon="4.45056"></trkpt>
      <trkpt lat="51.20185" lon="4.45057"></trkpt>
      <trkpt lat="51.20181" lon="4.45057"></trkpt>
      <trkpt lat="51.20177" lon="4.45056"></trkpt>
      <trkpt lat="51.20173" lon="4.45055"></trkpt>
      <trkpt lat="51.20169" lon="4.45054"></trkpt>
      <trkpt lat="51.20165" lon="4.45052"></trkpt>
      <trkpt lat="51.20161" lon="4.45052"></trkpt>
      <trkpt lat="51.20157" lon="4.45051"></trkpt>
      <trkpt lat="51.20153" lon="4.45051"></trkpt>
      <trkpt lat="51.20149" lon="4.45050"></trkpt>
      <trkpt lat="51.20146" lon="4.45049"></trkpt>
      <trkpt lat="51.20142" lon="4.45048"></trkpt>
      <trkpt lat="51.20137" lon="4.45047"></trkpt>
      <trkpt lat="51.20133" lon="4.45046"></trkpt>
      <trkpt lat="51.20127" lon="4.45044"></trkpt>
      <trkpt lat="51.20123" lon="4.45043"></trkpt>
      <trkpt lat="51.20118" lon="4.45042"></trkpt>
      <trkpt lat="51.20114" lon="4.45042"></trkpt>
      <trkpt lat="51.20110" lon="4.45042"></trkpt>
      <trkpt lat="51.20105" lon="4.45042"></trkpt>
      <trkpt lat="51.20102" lon="4.45043"></trkpt>
      <trkpt lat="51.20098" lon="4.45044"></trkpt>
      <trkpt lat="51.20093" lon="4.45045"></trkpt>
      <trkpt lat="51.20089" lon="4.45047"></trkpt>
      <trkpt lat="51.20085" lon="4.45049"></trkpt>
      <trkpt lat="51.20080" lon="4.45050"></trkpt>
      <trkpt lat="51.20076" lon="4.45052"></trkpt>
      <trkpt lat="51.20072" lon="4.45055"></trkpt>
      <trkpt lat="51.20068" lon="4.45058"></trkpt>
      <trkpt lat="51.20065" lon="4.45061"></trkpt>
      <trkpt lat="51.20061" lon="4.45064"></trkpt>
      <trkpt lat="51.20057" lon="4.45067"></trkpt>
      <trkpt lat="51.20054" lon="4.45069"></trkpt>
      <trkpt lat="51.20051" lon="4.45072"></trkpt>
      <trkpt lat="51.20047" lon="4.45075"></trkpt>
      <trkpt lat="51.20044" lon="4.45077"></trkpt>
      <trkpt lat="51.20040" lon="4.45080"></trkpt>
      <trkpt lat="51.20036" lon="4.45082"></trkpt>
      <trkpt lat="51.20032" lon="4.45083"></trkpt>
      <trkpt lat="51.20027" lon="4.45083"></trkpt>
      <trkpt lat="51.20024" lon="4.45082"></trkpt>
      <trkpt lat="51.20020" lon="4.45082"></trkpt>
      <trkpt lat="51.20016" lon="4.45082"></trkpt>
      <trkpt lat="51.20013" lon="4.45081"></trkpt>
      <trkpt lat="51.20008" lon="4.45081"></trkpt>
      <trkpt lat="51.20004" lon="4.45081"></trkpt>
      <trkpt lat="51.20000" lon="4.45081"></trkpt>
      <trkpt lat="51.19996" lon="4.45081"></trkpt>
      <trkpt lat="51.19993" lon="4.45084"></trkpt>
      <trkpt lat="51.19990" lon="4.45089"></trkpt>
      <trkpt lat="51.19987" lon="4.45094"></trkpt>
      <trkpt lat="51.19984" lon="4.45098"></trkpt>
      <trkpt lat="51.19980" lon="4.45102"></trkpt>
      <trkpt lat="51.19977" lon="4.45106"></trkpt>
      <trkpt lat="51.19975" lon="4.45110"></trkpt>
      <trkpt lat="51.19972" lon="4.45114"></trkpt>
      <trkpt lat="51.19969" lon="4.45118"></trkpt>
      <trkpt lat="51.19967" lon="4.45123"></trkpt>
      <trkpt lat="51.19965" lon="4.45128"></trkpt>
      <trkpt lat="51.19963" lon="4.45133"></trkpt>
      <trkpt lat="51.19960" lon="4.45136"></trkpt>
      <trkpt lat="51.19957" lon="4.45140"></trkpt>
      <trkpt lat="51.19954" lon="4.45144"></trkpt>
      <trkpt lat="51.19952" lon="4.45148"></trkpt>
      <trkpt lat="51.19949" lon="4.45153"></trkpt>
      <trkpt lat="51.19946" lon="4.45157"></trkpt>
      <trkpt lat="51.19945" lon="4.45162"></trkpt>
      <trkpt lat="51.19944" lon="4.45169"></trkpt>
      <trkpt lat="51.19943" lon="4.45175"></trkpt>
      <trkpt lat="51.19941" lon="4.45180"></trkpt>
      <trkpt lat="51.19938" lon="4.45185"></trkpt>
      <trkpt lat="51.19936" lon="4.45191"></trkpt>
      <trkpt lat="51.19934" lon="4.45195"></trkpt>
      <trkpt lat="51.19931" lon="4.45202"></trkpt>
      <trkpt lat="51.19929" lon="4.45209"></trkpt>
      <trkpt lat="51.19929" lon="4.45214"></trkpt>
      <trkpt lat="51.19928" lon="4.45221"></trkpt>
      <trkpt lat="51.19927" lon="4.45228"></trkpt>
      <trkpt lat="51.19926" lon="4.45235"></trkpt>
      <trkpt lat="51.19925" lon="4.45242"></trkpt>
      <trkpt lat="51.19924" lon="4.45251"></trkpt>
      <trkpt lat="51.19922" lon="4.45258"></trkpt>
      <trkpt lat="51.19921" lon="4.45265"></trkpt>
      <trkpt lat="51.19920" lon="4.45272"></trkpt>
      <trkpt lat="51.19919" lon="4.45279"></trkpt>
      <trkpt lat="51.19918" lon="4.45286"></trkpt>
      <trkpt lat="51.19916" lon="4.45293"></trkpt>
      <trkpt lat="51.19915" lon="4.45300"></trkpt>
      <trkpt lat="51.19914" lon="4.45307"></trkpt>
      <trkpt lat="51.19911" lon="4.45313"></trkpt>
      <trkpt lat="51.19909" lon="4.45319"></trkpt>
      <trkpt lat="51.19906" lon="4.45326"></trkpt>
      <trkpt lat="51.19904" lon="4.45332"></trkpt>
      <trkpt lat="51.19902" lon="4.45337"></trkpt>
      <trkpt lat="51.19900" lon="4.45343"></trkpt>
      <trkpt lat="51.19898" lon="4.45350"></trkpt>
      <trkpt lat="51.19896" lon="4.45357"></trkpt>
      <trkpt lat="51.19895" lon="4.45365"></trkpt>
      <trkpt lat="51.19894" lon="4.45372"></trkpt>
      <trkpt lat="51.19895" lon="4.45380"></trkpt>
      <trkpt lat="51.19894" lon="4.45387"></trkpt>
      <trkpt lat="51.19894" lon="4.45394"></trkpt>
      <trkpt lat="51.19895" lon="4.45401"></trkpt>
      <trkpt lat="51.19895" lon="4.45409"></trkpt>
      <trkpt lat="51.19897" lon="4.45415"></trkpt>
      <trkpt lat="51.19899" lon="4.45422"></trkpt>
      <trkpt lat="51.19901" lon="4.45427"></trkpt>
      <trkpt lat="51.19904" lon="4.45432"></trkpt>
      <trkpt lat="51.19906" lon="4.45437"></trkpt>
      <trkpt lat="51.19909" lon="4.45441"></trkpt>
      <trkpt lat="51.19912" lon="4.45445"></trkpt>
      <trkpt lat="51.19915" lon="4.45448"></trkpt>
      <trkpt lat="51.19919" lon="4.45452"></trkpt>
      <trkpt lat="51.19922" lon="4.45455"></trkpt>
      <trkpt lat="51.19926" lon="4.45458"></trkpt>
      <trkpt lat="51.19930" lon="4.45460"></trkpt>
      <trkpt lat="51.19933" lon="4.45462"></trkpt>
      <trkpt lat="51.19937" lon="4.45464"></trkpt>
      <trkpt lat="51.19942" lon="4.45465"></trkpt>
      <trkpt lat="51.19947" lon="4.45465"></trkpt>
      <trkpt lat="51.19952" lon="4.45465"></trkpt>
      <trkpt lat="51.19957" lon="4.45465"></trkpt>
      <trkpt lat="51.19962" lon="4.45465"></trkpt>
      <trkpt lat="51.19967" lon="4.45465"></trkpt>
      <trkpt lat="51.19971" lon="4.45463"></trkpt>
      <trkpt lat="51.19976" lon="4.45460"></trkpt>
      <trkpt lat="51.19980" lon="4.45458"></trkpt>
      <trkpt lat="51.19984" lon="4.45458"></trkpt>
      <trkpt lat="51.19989" lon="4.45459"></trkpt>
      <trkpt lat="51.19993" lon="4.45462"></trkpt>
      <trkpt lat="51.19996" lon="4.45465"></trkpt>
      <trkpt lat="51.20000" lon="4.45468"></trkpt>
      <trkpt lat="51.20004" lon="4.45471"></trkpt>
      <trkpt lat="51.20008" lon="4.45474"></trkpt>
      <trkpt lat="51.20011" lon="4.45476"></trkpt>
      <trkpt lat="51.20015" lon="4.45478"></trkpt>
      <trkpt lat="51.20019" lon="4.45481"></trkpt>
      <trkpt lat="51.20024" lon="4.45484"></trkpt>
      <trkpt lat="51.20028" lon="4.45486"></trkpt>
      <trkpt lat="51.20032" lon="4.45490"></trkpt>
      <trkpt lat="51.20035" lon="4.45493"></trkpt>
      <trkpt lat="51.20039" lon="4.45497"></trkpt>
      <trkpt lat="51.20042" lon="4.45501"></trkpt>
      <trkpt lat="51.20043" lon="4.45506"></trkpt>
      <trkpt lat="51.20043" lon="4.45512"></trkpt>
      <trkpt lat="51.20042" lon="4.45519"></trkpt>
      <trkpt lat="51.20040" lon="4.45525"></trkpt>
      <trkpt lat="51.20039" lon="4.45531"></trkpt>
      <trkpt lat="51.20039" lon="4.45537"></trkpt>
      <trkpt lat="51.20039" lon="4.45544"></trkpt>
      <trkpt lat="51.20040" lon="4.45550"></trkpt>
      <trkpt lat="51.20042" lon="4.45555"></trkpt>
      <trkpt lat="51.20044" lon="4.45561"></trkpt>
      <trkpt lat="51.20046" lon="4.45566"></trkpt>
      <trkpt lat="51.20047" lon="4.45572"></trkpt>
      <trkpt lat="51.20048" lon="4.45578"></trkpt>
      <trkpt lat="51.20049" lon="4.45585"></trkpt>
      <trkpt lat="51.20048" lon="4.45592"></trkpt>
      <trkpt lat="51.20048" lon="4.45598"></trkpt>
      <trkpt lat="51.20047" lon="4.45605"></trkpt>
      <trkpt lat="51.20047" lon="4.45612"></trkpt>
      <trkpt lat="51.20047" lon="4.45620"></trkpt>
      <trkpt lat="51.20046" lon="4.45627"></trkpt>
      <trkpt lat="51.20046" lon="4.45635"></trkpt>
      <trkpt lat="51.20046" lon="4.45643"></trkpt>
      <trkpt lat="51.20045" lon="4.45650"></trkpt>
      <trkpt lat="51.20043" lon="4.45656"></trkpt>
      <trkpt lat="51.20042" lon="4.45663"></trkpt>
      <trkpt lat="51.20041" lon="4.45669"></trkpt>
      <trkpt lat="51.20039" lon="4.45676"></trkpt>
      <trkpt lat="51.20037" lon="4.45681"></trkpt>
      <trkpt lat="51.20034" lon="4.45688"></trkpt>
      <trkpt lat="51.20032" lon="4.45694"></trkpt>
      <trkpt lat="51.20030" lon="4.45700"></trkpt>
      <trkpt lat="51.20028" lon="4.45706"></trkpt>
      <trkpt lat="51.20026" lon="4.45711"></trkpt>
      <trkpt lat="51.20024" lon="4.45718"></trkpt>
      <trkpt lat="51.20022" lon="4.45724"></trkpt>
      <trkpt lat="51.20021" lon="4.45731"></trkpt>
      <trkpt lat="51.20020" lon="4.45739"></trkpt>
      <trkpt lat="51.20020" lon="4.45746"></trkpt>
      <trkpt lat="51.20021" lon="4.45752"></trkpt>
      <trkpt lat="51.20025" lon="4.45756"></trkpt>
      <trkpt lat="51.20029" lon="4.45759"></trkpt>
      <trkpt lat="51.20034" lon="4.45761"></trkpt>
      <trkpt lat="51.20038" lon="4.45761"></trkpt>
      <trkpt lat="51.20042" lon="4.45760"></trkpt>
      <trkpt lat="51.20046" lon="4.45759"></trkpt>
      <trkpt lat="51.20050" lon="4.45753"></trkpt>
      <trkpt lat="51.20054" lon="4.45749"></trkpt>
      <trkpt lat="51.20057" lon="4.45745"></trkpt>
      <trkpt lat="51.20061" lon="4.45741"></trkpt>
      <trkpt lat="51.20064" lon="4.45736"></trkpt>
      <trkpt lat="51.20067" lon="4.45732"></trkpt>
      <trkpt lat="51.20070" lon="4.45727"></trkpt>
      <trkpt lat="51.20073" lon="4.45723"></trkpt>
      <trkpt lat="51.20076" lon="4.45718"></trkpt>
      <trkpt lat="51.20078" lon="4.45712"></trkpt>
      <trkpt lat="51.20081" lon="4.45706"></trkpt>
      <trkpt lat="51.20084" lon="4.45702"></trkpt>
      <trkpt lat="51.20086" lon="4.45696"></trkpt>
      <trkpt lat="51.20090" lon="4.45691"></trkpt>
      <trkpt lat="51.20093" lon="4.45688"></trkpt>
      <trkpt lat="51.20096" lon="4.45685"></trkpt>
      <trkpt lat="51.20100" lon="4.45681"></trkpt>
      <trkpt lat="51.20103" lon="4.45677"></trkpt>
      <trkpt lat="51.20107" lon="4.45673"></trkpt>
      <trkpt lat="51.20109" lon="4.45667"></trkpt>
      <trkpt lat="51.20111" lon="4.45660"></trkpt>
      <trkpt lat="51.20112" lon="4.45652"></trkpt>
      <trkpt lat="51.20113" lon="4.45645"></trkpt>
      <trkpt lat="51.20114" lon="4.45637"></trkpt>
      <trkpt lat="51.20114" lon="4.45631"></trkpt>
      <trkpt lat="51.20113" lon="4.45624"></trkpt>
      <trkpt lat="51.20113" lon="4.45616"></trkpt>
      <trkpt lat="51.20111" lon="4.45608"></trkpt>
      <trkpt lat="51.20110" lon="4.45602"></trkpt>
      <trkpt lat="51.20109" lon="4.45595"></trkpt>
      <trkpt lat="51.20109" lon="4.45588"></trkpt>
      <trkpt lat="51.20109" lon="4.45581"></trkpt>
      <trkpt lat="51.20109" lon="4.45574"></trkpt>
      <trkpt lat="51.20110" lon="4.45567"></trkpt>
      <trkpt lat="51.20111" lon="4.45560"></trkpt>
      <trkpt lat="51.20113" lon="4.45554"></trkpt>
      <trkpt lat="51.20115" lon="4.45547"></trkpt>
      <trkpt lat="51.20117" lon="4.45541"></trkpt>
      <trkpt lat="51.20119" lon="4.45534"></trkpt>
      <trkpt lat="51.20120" lon="4.45526"></trkpt>
      <trkpt lat="51.20122" lon="4.45519"></trkpt>
      <trkpt lat="51.20124" lon="4.45512"></trkpt>
      <trkpt lat="51.20125" lon="4.45504"></trkpt>
      <trkpt lat="51.20127" lon="4.45497"></trkpt>
      <trkpt lat="51.20129" lon="4.45490"></trkpt>
      <trkpt lat="51.20131" lon="4.45484"></trkpt>
      <trkpt lat="51.20132" lon="4.45478"></trkpt>
      <trkpt lat="51.20133" lon="4.45471"></trkpt>
      <trkpt lat="51.20134" lon="4.45464"></trkpt>
      <trkpt lat="51.20136" lon="4.45458"></trkpt>
      <trkpt lat="51.20138" lon="4.45452"></trkpt>
      <trkpt lat="51.20140" lon="4.45446"></trkpt>
      <trkpt lat="51.20142" lon="4.45439"></trkpt>
      <trkpt lat="51.20144" lon="4.45432"></trkpt>
      <trkpt lat="51.20144" lon="4.45425"></trkpt>
      <trkpt lat="51.20144" lon="4.45418"></trkpt>
      <trkpt lat="51.20142" lon="4.45410"></trkpt>
      <trkpt lat="51.20142" lon="4.45403"></trkpt>
      <trkpt lat="51.20142" lon="4.45396"></trkpt>
      <trkpt lat="51.20142" lon="4.45390"></trkpt>
      <trkpt lat="51.20142" lon="4.45384"></trkpt>
      <trkpt lat="51.20143" lon="4.45376"></trkpt>
      <trkpt lat="51.20144" lon="4.45368"></trkpt>
      <trkpt lat="51.20145" lon="4.45362"></trkpt>
      <trkpt lat="51.20147" lon="4.45356"></trkpt>
      <trkpt lat="51.20148" lon="4.45349"></trkpt>
      <trkpt lat="51.20149" lon="4.45342"></trkpt>
      <trkpt lat="51.20150" lon="4.45336"></trkpt>
      <trkpt lat="51.20152" lon="4.45330"></trkpt>
      <trkpt lat="51.20154" lon="4.45324"></trkpt>
      <trkpt lat="51.20156" lon="4.45317"></trkpt>
      <trkpt lat="51.20159" lon="4.45310"></trkpt>
      <trkpt lat="51.20160" lon="4.45304"></trkpt>
      <trkpt lat="51.20161" lon="4.45297"></trkpt>
      <trkpt lat="51.20163" lon="4.45292"></trkpt>
      <trkpt lat="51.20165" lon="4.45287"></trkpt>
      <trkpt lat="51.20168" lon="4.45282"></trkpt>
      <trkpt lat="51.20171" lon="4.45278"></trkpt>
      <trkpt lat="51.20174" lon="4.45273"></trkpt>
      <trkpt lat="51.20177" lon="4.45268"></trkpt>
      <trkpt lat="51.20180" lon="4.45263"></trkpt>
      <trkpt lat="51.20183" lon="4.45258"></trkpt>
      <trkpt lat="51.20186" lon="4.45252"></trkpt>
      <trkpt lat="51.20187" lon="4.45245"></trkpt>
      <trkpt lat="51.20189" lon="4.45239"></trkpt>
      <trkpt lat="51.20191" lon="4.45232"></trkpt>
      <trkpt lat="51.20193" lon="4.45226"></trkpt>
      <trkpt lat="51.20195" lon="4.45220"></trkpt>
      <trkpt lat="51.20197" lon="4.45213"></trkpt>
      <trkpt lat="51.20199" lon="4.45207"></trkpt>
      <trkpt lat="51.20200" lon="4.45200"></trkpt>
      <trkpt lat="51.20201" lon="4.45193"></trkpt>
      <trkpt lat="51.20202" lon="4.45186"></trkpt>
      <trkpt lat="51.20204" lon="4.45179"></trkpt>
      <trkpt lat="51.20207" lon="4.45173"></trkpt>
      <trkpt lat="51.20210" lon="4.45169"></trkpt>
      <trkpt lat="51.20214" lon="4.45167"></trkpt>
      <trkpt lat="51.20218" lon="4.45166"></trkpt>
      <trkpt lat="51.20223" lon="4.45164"></trkpt>
      <trkpt lat="51.20227" lon="4.45163"></trkpt>
      <trkpt lat="51.20231" lon="4.45163"></trkpt>
      <trkpt lat="51.20235" lon="4.45164"></trkpt>
      <trkpt lat="51.20239" lon="4.45164"></trkpt>
      <trkpt lat="51.20244" lon="4.45165"></trkpt>
      <trkpt lat="51.20248" lon="4.45166"></trkpt>
      <trkpt lat="51.20253" lon="4.45167"></trkpt>
      <trkpt lat="51.20256" lon="4.45168"></trkpt>
      <trkpt lat="51.20260" lon="4.45169"></trkpt>
      <trkpt lat="51.20263" lon="4.45171"></trkpt>
      <trkpt lat="51.20267" lon="4.45172"></trkpt>
      <trkpt lat="51.20271" lon="4.45173"></trkpt>
      <trkpt lat="51.20275" lon="4.45174"></trkpt>
      <trkpt lat="51.20278" lon="4.45176"></trkpt>
      <trkpt lat="51.20282" lon="4.45178"></trkpt>
      <trkpt lat="51.20286" lon="4.45180"></trkpt>
      <trkpt lat="51.20290" lon="4.45182"></trkpt>
      <trkpt lat="51.20294" lon="4.45184"></trkpt>
      <trkpt lat="51.20298" lon="4.45186"></trkpt>
      <trkpt lat="51.20302" lon="4.45188"></trkpt>
      <trkpt lat="51.20307" lon="4.45190"></trkpt>
      <trkpt lat="51.20311" lon="4.45191"></trkpt>
      <trkpt lat="51.20316" lon="4.45192"></trkpt>
      <trkpt lat="51.20320" lon="4.45191"></trkpt>
      <trkpt lat="51.20324" lon="4.45187"></trkpt>
      <trkpt lat="51.20327" lon="4.45180"></trkpt>
      <trkpt lat="51.20329" lon="4.45173"></trkpt>
      <trkpt lat="51.20330" lon="4.45167"></trkpt>
      <trkpt lat="51.20332" lon="4.45161"></trkpt>
      <trkpt lat="51.20333" lon="4.45156"></trkpt>
      <trkpt lat="51.20333" lon="4.45150"></trkpt>
      <trkpt lat="51.20332" lon="4.45143"></trkpt>
      <trkpt lat="51.20331" lon="4.45137"></trkpt>
      <trkpt lat="51.20330" lon="4.45131"></trkpt>
      <trkpt lat="51.20328" lon="4.45125"></trkpt>
      <trkpt lat="51.20326" lon="4.45119"></trkpt>
      <trkpt lat="51.20324" lon="4.45114"></trkpt>
      <trkpt lat="51.20322" lon="4.45108"></trkpt>
      <trkpt lat="51.20319" lon="4.45102"></trkpt>
      <trkpt lat="51.20317" lon="4.45097"></trkpt>
      <trkpt lat="51.20314" lon="4.45092"></trkpt>
      <trkpt lat="51.20310" lon="4.45088"></trkpt>
      <trkpt lat="51.20306" lon="4.45083"></trkpt>
      <trkpt lat="51.20302" lon="4.45080"></trkpt>
      <trkpt lat="51.20298" lon="4.45078"></trkpt>
      <trkpt lat="51.20293" lon="4.45076"></trkpt>
      <trkpt lat="51.20289" lon="4.45073"></trkpt>
      <trkpt lat="51.20284" lon="4.45071"></trkpt>
      <trkpt lat="51.20279" lon="4.45070"></trkpt>
      <trkpt lat="51.20275" lon="4.45068"></trkpt>
      <trkpt lat="51.20270" lon="4.45067"></trkpt>
      <trkpt lat="51.20266" lon="4.45066"></trkpt>
      <trkpt lat="51.20261" lon="4.45065"></trkpt>
      <trkpt lat="51.20257" lon="4.45063"></trkpt>
      <trkpt lat="51.20252" lon="4.45061"></trkpt>
      <trkpt lat="51.20248" lon="4.45059"></trkpt>
      <trkpt lat="51.20243" lon="4.45058"></trkpt>
      <trkpt lat="51.20239" lon="4.45057"></trkpt>
      <trkpt lat="51.20235" lon="4.45057"></trkpt>
      <trkpt lat="51.20230" lon="4.45057"></trkpt>
      <trkpt lat="51.20225" lon="4.45057"></trkpt>
      <trkpt lat="51.20221" lon="4.45057"></trkpt>
      <trkpt lat="51.20217" lon="4.45057"></trkpt>
      <trkpt lat="51.20213" lon="4.45057"></trkpt>
      <trkpt lat="51.20208" lon="4.45058"></trkpt>
      <trkpt lat="51.20204" lon="4.45058"></trkpt>
      <trkpt lat="51.20200" lon="4.45059"></trkpt>
      <trkpt lat="51.20195" lon="4.45059"></trkpt>
      <trkpt lat="51.20190" lon="4.45059"></trkpt>
      <trkpt lat="51.20186" lon="4.45059"></trkpt>
      <trkpt lat="51.20181" lon="4.45059"></trkpt>
      <trkpt lat="51.20176" lon="4.45059"></trkpt>
      <trkpt lat="51.20172" lon="4.45058"></trkpt>
      <trkpt lat="51.20168" lon="4.45057"></trkpt>
      <trkpt lat="51.20164" lon="4.45057"></trkpt>
      <trkpt lat="51.20159" lon="4.45057"></trkpt>
      <trkpt lat="51.20155" lon="4.45056"></trkpt>
      <trkpt lat="51.20151" lon="4.45055"></trkpt>
      <trkpt lat="51.20146" lon="4.45055"></trkpt>
      <trkpt lat="51.20142" lon="4.45053"></trkpt>
      <trkpt lat="51.20138" lon="4.45052"></trkpt>
      <trkpt lat="51.20134" lon="4.45051"></trkpt>
      <trkpt lat="51.20130" lon="4.45049"></trkpt>
      <trkpt lat="51.20125" lon="4.45048"></trkpt>
      <trkpt lat="51.20121" lon="4.45046"></trkpt>
      <trkpt lat="51.20116" lon="4.45045"></trkpt>
      <trkpt lat="51.20112" lon="4.45044"></trkpt>
      <trkpt lat="51.20108" lon="4.45045"></trkpt>
      <trkpt lat="51.20104" lon="4.45046"></trkpt>
      <trkpt lat="51.20100" lon="4.45048"></trkpt>
      <trkpt lat="51.20095" lon="4.45049"></trkpt>
      <trkpt lat="51.20091" lon="4.45051"></trkpt>
      <trkpt lat="51.20086" lon="4.45051"></trkpt>
      <trkpt lat="51.20082" lon="4.45053"></trkpt>
      <trkpt lat="51.20078" lon="4.45056"></trkpt>
      <trkpt lat="51.20073" lon="4.45059"></trkpt>
      <trkpt lat="51.20069" lon="4.45062"></trkpt>
      <trkpt lat="51.20065" lon="4.45065"></trkpt>
      <trkpt lat="51.20061" lon="4.45068"></trkpt>
      <trkpt lat="51.20057" lon="4.45072"></trkpt>
      <trkpt lat="51.20052" lon="4.45075"></trkpt>
      <trkpt lat="51.20048" lon="4.45078"></trkpt>
      <trkpt lat="51.20044" lon="4.45081"></trkpt>
      <trkpt lat="51.20040" lon="4.45084"></trkpt>
      <trkpt lat="51.20036" lon="4.45087"></trkpt>
      <trkpt lat="51.20032" lon="4.45089"></trkpt>
      <trkpt lat="51.20028" lon="4.45088"></trkpt>
      <trkpt lat="51.20025" lon="4.45087"></trkpt>
      <trkpt lat="51.20021" lon="4.45086"></trkpt>
      <trkpt lat="51.20017" lon="4.45085"></trkpt>
      <trkpt lat="51.20014" lon="4.45084"></trkpt>
      <trkpt lat="51.20009" lon="4.45083"></trkpt>
      <trkpt lat="51.20006" lon="4.45082"></trkpt>
      <trkpt lat="51.20001" lon="4.45082"></trkpt>
      <trkpt lat="51.19997" lon="4.45083"></trkpt>
      <trkpt lat="51.19994" lon="4.45085"></trkpt>
      <trkpt lat="51.19991" lon="4.45089"></trkpt>
      <trkpt lat="51.19988" lon="4.45095"></trkpt>
      <trkpt lat="51.19985" lon="4.45100"></trkpt>
      <trkpt lat="51.19982" lon="4.45106"></trkpt>
      <trkpt lat="51.19979" lon="4.45110"></trkpt>
      <trkpt lat="51.19975" lon="4.45114"></trkpt>
      <trkpt lat="51.19971" lon="4.45118"></trkpt>
      <trkpt lat="51.19969" lon="4.45123"></trkpt>
      <trkpt lat="51.19967" lon="4.45128"></trkpt>
      <trkpt lat="51.19964" lon="4.45134"></trkpt>
      <trkpt lat="51.19961" lon="4.45139"></trkpt>
      <trkpt lat="51.19958" lon="4.45144"></trkpt>
      <trkpt lat="51.19956" lon="4.45148"></trkpt>
      <trkpt lat="51.19952" lon="4.45152"></trkpt>
      <trkpt lat="51.19950" lon="4.45156"></trkpt>
      <trkpt lat="51.19947" lon="4.45160"></trkpt>
      <trkpt lat="51.19945" lon="4.45166"></trkpt>
      <trkpt lat="51.19945" lon="4.45172"></trkpt>
      <trkpt lat="51.19943" lon="4.45178"></trkpt>
      <trkpt lat="51.19941" lon="4.45184"></trkpt>
      <trkpt lat="51.19939" lon="4.45188"></trkpt>
      <trkpt lat="51.19937" lon="4.45193"></trkpt>
      <trkpt lat="51.19934" lon="4.45199"></trkpt>
      <trkpt lat="51.19932" lon="4.45205"></trkpt>
      <trkpt lat="51.19932" lon="4.45212"></trkpt>
      <trkpt lat="51.19932" lon="4.45220"></trkpt>
      <trkpt lat="51.19932" lon="4.45228"></trkpt>
      <trkpt lat="51.19930" lon="4.45235"></trkpt>
      <trkpt lat="51.19929" lon="4.45242"></trkpt>
      <trkpt lat="51.19927" lon="4.45249"></trkpt>
      <trkpt lat="51.19925" lon="4.45257"></trkpt>
      <trkpt lat="51.19924" lon="4.45265"></trkpt>
      <trkpt lat="51.19922" lon="4.45272"></trkpt>
      <trkpt lat="51.19920" lon="4.45280"></trkpt>
      <trkpt lat="51.19919" lon="4.45286"></trkpt>
      <trkpt lat="51.19917" lon="4.45293"></trkpt>
      <trkpt lat="51.19915" lon="4.45299"></trkpt>
      <trkpt lat="51.19913" lon="4.45305"></trkpt>
      <trkpt lat="51.19911" lon="4.45311"></trkpt>
      <trkpt lat="51.19909" lon="4.45317"></trkpt>
      <trkpt lat="51.19906" lon="4.45323"></trkpt>
      <trkpt lat="51.19904" lon="4.45329"></trkpt>
      <trkpt lat="51.19902" lon="4.45336"></trkpt>
      <trkpt lat="51.19900" lon="4.45344"></trkpt>
      <trkpt lat="51.19898" lon="4.45351"></trkpt>
      <trkpt lat="51.19896" lon="4.45358"></trkpt>
      <trkpt lat="51.19895" lon="4.45365"></trkpt>
      <trkpt lat="51.19894" lon="4.45372"></trkpt>
      <trkpt lat="51.19894" lon="4.45380"></trkpt>
      <trkpt lat="51.19894" lon="4.45388"></trkpt>
      <trkpt lat="51.19894" lon="4.45395"></trkpt>
      <trkpt lat="51.19894" lon="4.45402"></trkpt>
      <trkpt lat="51.19896" lon="4.45410"></trkpt>
      <trkpt lat="51.19898" lon="4.45417"></trkpt>
      <trkpt lat="51.19901" lon="4.45424"></trkpt>
      <trkpt lat="51.19904" lon="4.45429"></trkpt>
      <trkpt lat="51.19907" lon="4.45434"></trkpt>
      <trkpt lat="51.19909" lon="4.45439"></trkpt>
      <trkpt lat="51.19912" lon="4.45444"></trkpt>
      <trkpt lat="51.19916" lon="4.45449"></trkpt>
      <trkpt lat="51.19920" lon="4.45453"></trkpt>
      <trkpt lat="51.19924" lon="4.45456"></trkpt>
      <trkpt lat="51.19928" lon="4.45458"></trkpt>
      <trkpt lat="51.19932" lon="4.45461"></trkpt>
      <trkpt lat="51.19936" lon="4.45463"></trkpt>
      <trkpt lat="51.19940" lon="4.45465"></trkpt>
      <trkpt lat="51.19945" lon="4.45466"></trkpt>
      <trkpt lat="51.19950" lon="4.45467"></trkpt>
      <trkpt lat="51.19955" lon="4.45467"></trkpt>
      <trkpt lat="51.19959" lon="4.45466"></trkpt>
      <trkpt lat="51.19963" lon="4.45465"></trkpt>
      <trkpt lat="51.19967" lon="4.45464"></trkpt>
      <trkpt lat="51.19972" lon="4.45462"></trkpt>
      <trkpt lat="51.19976" lon="4.45460"></trkpt>
      <trkpt lat="51.19981" lon="4.45458"></trkpt>
      <trkpt lat="51.19984" lon="4.45458"></trkpt>
      <trkpt lat="51.19988" lon="4.45459"></trkpt>
      <trkpt lat="51.19992" lon="4.45463"></trkpt>
      <trkpt lat="51.19996" lon="4.45467"></trkpt>
      <trkpt lat="51.20000" lon="4.45470"></trkpt>
      <trkpt lat="51.20004" lon="4.45474"></trkpt>
      <trkpt lat="51.20008" lon="4.45477"></trkpt>
      <trkpt lat="51.20011" lon="4.45480"></trkpt>
      <trkpt lat="51.20015" lon="4.45483"></trkpt>
      <trkpt lat="51.20019" lon="4.45487"></trkpt>
      <trkpt lat="51.20023" lon="4.45491"></trkpt>
      <trkpt lat="51.20028" lon="4.45494"></trkpt>
      <trkpt lat="51.20031" lon="4.45497"></trkpt>
      <trkpt lat="51.20034" lon="4.45500"></trkpt>
      <trkpt lat="51.20037" lon="4.45504"></trkpt>
      <trkpt lat="51.20039" lon="4.45511"></trkpt>
      <trkpt lat="51.20039" lon="4.45518"></trkpt>
      <trkpt lat="51.20037" lon="4.45525"></trkpt>
      <trkpt lat="51.20036" lon="4.45532"></trkpt>
      <trkpt lat="51.20036" lon="4.45540"></trkpt>
      <trkpt lat="51.20036" lon="4.45547"></trkpt>
      <trkpt lat="51.20037" lon="4.45553"></trkpt>
      <trkpt lat="51.20039" lon="4.45559"></trkpt>
      <trkpt lat="51.20042" lon="4.45564"></trkpt>
      <trkpt lat="51.20045" lon="4.45571"></trkpt>
      <trkpt lat="51.20046" lon="4.45577"></trkpt>
      <trkpt lat="51.20048" lon="4.45585"></trkpt>
      <trkpt lat="51.20049" lon="4.45592"></trkpt>
      <trkpt lat="51.20049" lon="4.45599"></trkpt>
      <trkpt lat="51.20049" lon="4.45606"></trkpt>
      <trkpt lat="51.20049" lon="4.45612"></trkpt>
      <trkpt lat="51.20049" lon="4.45620"></trkpt>
      <trkpt lat="51.20049" lon="4.45627"></trkpt>
      <trkpt lat="51.20049" lon="4.45635"></trkpt>
      <trkpt lat="51.20047" lon="4.45642"></trkpt>
      <trkpt lat="51.20046" lon="4.45649"></trkpt>
      <trkpt lat="51.20044" lon="4.45655"></trkpt>
      <trkpt lat="51.20042" lon="4.45661"></trkpt>
      <trkpt lat="51.20041" lon="4.45668"></trkpt>
      <trkpt lat="51.20039" lon="4.45674"></trkpt>
      <trkpt lat="51.20037" lon="4.45680"></trkpt>
      <trkpt lat="51.20035" lon="4.45686"></trkpt>
      <trkpt lat="51.20033" lon="4.45693"></trkpt>
      <trkpt lat="51.20030" lon="4.45700"></trkpt>
      <trkpt lat="51.20027" lon="4.45707"></trkpt>
      <trkpt lat="51.20025" lon="4.45714"></trkpt>
      <trkpt lat="51.20023" lon="4.45722"></trkpt>
      <trkpt lat="51.20022" lon="4.45729"></trkpt>
      <trkpt lat="51.20021" lon="4.45737"></trkpt>
      <trkpt lat="51.20021" lon="4.45744"></trkpt>
      <trkpt lat="51.20023" lon="4.45751"></trkpt>
      <trkpt lat="51.20026" lon="4.45756"></trkpt>
      <trkpt lat="51.20030" lon="4.45760"></trkpt>
      <trkpt lat="51.20035" lon="4.45762"></trkpt>
      <trkpt lat="51.20040" lon="4.45762"></trkpt>
      <trkpt lat="51.20044" lon="4.45759"></trkpt>
      <trkpt lat="51.20048" lon="4.45754"></trkpt>
      <trkpt lat="51.20051" lon="4.45749"></trkpt>
      <trkpt lat="51.20054" lon="4.45743"></trkpt>
      <trkpt lat="51.20057" lon="4.45737"></trkpt>
      <trkpt lat="51.20061" lon="4.45732"></trkpt>
      <trkpt lat="51.20064" lon="4.45726"></trkpt>
      <trkpt lat="51.20067" lon="4.45721"></trkpt>
      <trkpt lat="51.20071" lon="4.45716"></trkpt>
      <trkpt lat="51.20075" lon="4.45711"></trkpt>
      <trkpt lat="51.20078" lon="4.45706"></trkpt>
      <trkpt lat="51.20082" lon="4.45701"></trkpt>
      <trkpt lat="51.20086" lon="4.45696"></trkpt>
      <trkpt lat="51.20090" lon="4.45690"></trkpt>
      <trkpt lat="51.20094" lon="4.45685"></trkpt>
      <trkpt lat="51.20098" lon="4.45680"></trkpt>
      <trkpt lat="51.20101" lon="4.45676"></trkpt>
      <trkpt lat="51.20105" lon="4.45670"></trkpt>
      <trkpt lat="51.20109" lon="4.45664"></trkpt>
      <trkpt lat="51.20111" lon="4.45658"></trkpt>
      <trkpt lat="51.20112" lon="4.45651"></trkpt>
      <trkpt lat="51.20112" lon="4.45643"></trkpt>
      <trkpt lat="51.20112" lon="4.45636"></trkpt>
      <trkpt lat="51.20111" lon="4.45628"></trkpt>
      <trkpt lat="51.20110" lon="4.45621"></trkpt>
      <trkpt lat="51.20109" lon="4.45613"></trkpt>
      <trkpt lat="51.20108" lon="4.45605"></trkpt>
      <trkpt lat="51.20108" lon="4.45598"></trkpt>
      <trkpt lat="51.20107" lon="4.45591"></trkpt>
      <trkpt lat="51.20107" lon="4.45584"></trkpt>
      <trkpt lat="51.20108" lon="4.45576"></trkpt>
      <trkpt lat="51.20108" lon="4.45567"></trkpt>
      <trkpt lat="51.20110" lon="4.45560"></trkpt>
      <trkpt lat="51.20110" lon="4.45552"></trkpt>
      <trkpt lat="51.20111" lon="4.45545"></trkpt>
      <trkpt lat="51.20113" lon="4.45538"></trkpt>
      <trkpt lat="51.20115" lon="4.45532"></trkpt>
      <trkpt lat="51.20117" lon="4.45525"></trkpt>
      <trkpt lat="51.20119" lon="4.45518"></trkpt>
      <trkpt lat="51.20121" lon="4.45510"></trkpt>
      <trkpt lat="51.20122" lon="4.45503"></trkpt>
      <trkpt lat="51.20124" lon="4.45496"></trkpt>
      <trkpt lat="51.20126" lon="4.45489"></trkpt>
      <trkpt lat="51.20128" lon="4.45482"></trkpt>
      <trkpt lat="51.20129" lon="4.45475"></trkpt>
      <trkpt lat="51.20131" lon="4.45469"></trkpt>
      <trkpt lat="51.20133" lon="4.45462"></trkpt>
      <trkpt lat="51.20135" lon="4.45456"></trkpt>
      <trkpt lat="51.20137" lon="4.45449"></trkpt>
      <trkpt lat="51.20138" lon="4.45442"></trkpt>
      <trkpt lat="51.20140" lon="4.45436"></trkpt>
      <trkpt lat="51.20141" lon="4.45429"></trkpt>
      <trkpt lat="51.20142" lon="4.45422"></trkpt>
      <trkpt lat="51.20142" lon="4.45415"></trkpt>
      <trkpt lat="51.20141" lon="4.45407"></trkpt>
      <trkpt lat="51.20141" lon="4.45400"></trkpt>
      <trkpt lat="51.20141" lon="4.45392"></trkpt>
      <trkpt lat="51.20142" lon="4.45385"></trkpt>
      <trkpt lat="51.20143" lon="4.45378"></trkpt>
      <trkpt lat="51.20144" lon="4.45371"></trkpt>
      <trkpt lat="51.20146" lon="4.45363"></trkpt>
      <trkpt lat="51.20147" lon="4.45356"></trkpt>
      <trkpt lat="51.20148" lon="4.45348"></trkpt>
      <trkpt lat="51.20149" lon="4.45341"></trkpt>
      <trkpt lat="51.20151" lon="4.45333"></trkpt>
      <trkpt lat="51.20153" lon="4.45327"></trkpt>
      <trkpt lat="51.20155" lon="4.45320"></trkpt>
      <trkpt lat="51.20158" lon="4.45313"></trkpt>
      <trkpt lat="51.20160" lon="4.45306"></trkpt>
      <trkpt lat="51.20162" lon="4.45300"></trkpt>
      <trkpt lat="51.20165" lon="4.45293"></trkpt>
      <trkpt lat="51.20168" lon="4.45287"></trkpt>
      <trkpt lat="51.20171" lon="4.45283"></trkpt>
      <trkpt lat="51.20175" lon="4.45278"></trkpt>
      <trkpt lat="51.20178" lon="4.45273"></trkpt>
      <trkpt lat="51.20183" lon="4.45269"></trkpt>
      <trkpt lat="51.20186" lon="4.45264"></trkpt>
      <trkpt lat="51.20191" lon="4.45259"></trkpt>
      <trkpt lat="51.20193" lon="4.45253"></trkpt>
      <trkpt lat="51.20193" lon="4.45245"></trkpt>
      <trkpt lat="51.20194" lon="4.45237"></trkpt>
      <trkpt lat="51.20195" lon="4.45229"></trkpt>
      <trkpt lat="51.20197" lon="4.45223"></trkpt>
      <trkpt lat="51.20198" lon="4.45216"></trkpt>
      <trkpt lat="51.20200" lon="4.45209"></trkpt>
      <trkpt lat="51.20202" lon="4.45203"></trkpt>
      <trkpt lat="51.20204" lon="4.45197"></trkpt>
      <trkpt lat="51.20205" lon="4.45190"></trkpt>
      <trkpt lat="51.20207" lon="4.45183"></trkpt>
      <trkpt lat="51.20209" lon="4.45176"></trkpt>
      <trkpt lat="51.20213" lon="4.45170"></trkpt>
      <trkpt lat="51.20217" lon="4.45168"></trkpt>
      <trkpt lat="51.20221" lon="4.45166"></trkpt>
      <trkpt lat="51.20226" lon="4.45165"></trkpt>
      <trkpt lat="51.20231" lon="4.45167"></trkpt>
      <trkpt lat="51.20235" lon="4.45168"></trkpt>
      <trkpt lat="51.20239" lon="4.45168"></trkpt>
      <trkpt lat="51.20244" lon="4.45169"></trkpt>
      <trkpt lat="51.20248" lon="4.45170"></trkpt>
      <trkpt lat="51.20253" lon="4.45171"></trkpt>
      <trkpt lat="51.20257" lon="4.45172"></trkpt>
      <trkpt lat="51.20261" lon="4.45173"></trkpt>
      <trkpt lat="51.20265" lon="4.45174"></trkpt>
      <trkpt lat="51.20269" lon="4.45176"></trkpt>
      <trkpt lat="51.20272" lon="4.45177"></trkpt>
      <trkpt lat="51.20277" lon="4.45179"></trkpt>
      <trkpt lat="51.20282" lon="4.45181"></trkpt>
      <trkpt lat="51.20287" lon="4.45182"></trkpt>
      <trkpt lat="51.20291" lon="4.45184"></trkpt>
      <trkpt lat="51.20296" lon="4.45186"></trkpt>
      <trkpt lat="51.20301" lon="4.45187"></trkpt>
      <trkpt lat="51.20305" lon="4.45189"></trkpt>
      <trkpt lat="51.20310" lon="4.45192"></trkpt>
      <trkpt lat="51.20314" lon="4.45195"></trkpt>
      <trkpt lat="51.20318" lon="4.45197"></trkpt>
      <trkpt lat="51.20323" lon="4.45197"></trkpt>
      <trkpt lat="51.20327" lon="4.45196"></trkpt>
      <trkpt lat="51.20332" lon="4.45194"></trkpt>
      <trkpt lat="51.20336" lon="4.45192"></trkpt>
      <trkpt lat="51.20341" lon="4.45190"></trkpt>
      <trkpt lat="51.20345" lon="4.45188"></trkpt>
      <trkpt lat="51.20349" lon="4.45186"></trkpt>
      <trkpt lat="51.20354" lon="4.45185"></trkpt>
      <trkpt lat="51.20359" lon="4.45184"></trkpt>
      <trkpt lat="51.20364" lon="4.45184"></trkpt>
      <trkpt lat="51.20368" lon="4.45184"></trkpt>
      <trkpt lat="51.20373" lon="4.45181"></trkpt>
      <trkpt lat="51.20378" lon="4.45179"></trkpt>
      <trkpt lat="51.20383" lon="4.45178"></trkpt>
      <trkpt lat="51.20388" lon="4.45177"></trkpt>
      <trkpt lat="51.20393" lon="4.45178"></trkpt>
      <trkpt lat="51.20398" lon="4.45178"></trkpt>
      <trkpt lat="51.20402" lon="4.45179"></trkpt>
      <trkpt lat="51.20407" lon="4.45180"></trkpt>
      <trkpt lat="51.20412" lon="4.45181"></trkpt>
      <trkpt lat="51.20417" lon="4.45181"></trkpt>
      <trkpt lat="51.20422" lon="4.45181"></trkpt>
      <trkpt lat="51.20427" lon="4.45182"></trkpt>
      <trkpt lat="51.20432" lon="4.45182"></trkpt>
      <trkpt lat="51.20438" lon="4.45182"></trkpt>
      <trkpt lat="51.20443" lon="4.45180"></trkpt>
      <trkpt lat="51.20447" lon="4.45177"></trkpt>
      <trkpt lat="51.20452" lon="4.45174"></trkpt>
      <trkpt lat="51.20456" lon="4.45171"></trkpt>
      <trkpt lat="51.20461" lon="4.45169"></trkpt>
      <trkpt lat="51.20465" lon="4.45166"></trkpt>
      <trkpt lat="51.20470" lon="4.45163"></trkpt>
      <trkpt lat="51.20474" lon="4.45159"></trkpt>
      <trkpt lat="51.20479" lon="4.45155"></trkpt>
      <trkpt lat="51.20484" lon="4.45152"></trkpt>
      <trkpt lat="51.20489" lon="4.45149"></trkpt>
      <trkpt lat="51.20493" lon="4.45146"></trkpt>
      <trkpt lat="51.20497" lon="4.45142"></trkpt>
      <trkpt lat="51.20500" lon="4.45138"></trkpt>
      <trkpt lat="51.20504" lon="4.45132"></trkpt>
      <trkpt lat="51.20509" lon="4.45127"></trkpt>
      <trkpt lat="51.20514" lon="4.45122"></trkpt>
      <trkpt lat="51.20518" lon="4.45115"></trkpt>
      <trkpt lat="51.20523" lon="4.45109"></trkpt>
      <trkpt lat="51.20526" lon="4.45102"></trkpt>
      <trkpt lat="51.20530" lon="4.45095"></trkpt>
      <trkpt lat="51.20533" lon="4.45089"></trkpt>
      <trkpt lat="51.20537" lon="4.45082"></trkpt>
      <trkpt lat="51.20540" lon="4.45076"></trkpt>
      <trkpt lat="51.20544" lon="4.45070"></trkpt>
      <trkpt lat="51.20546" lon="4.45064"></trkpt>
      <trkpt lat="51.20549" lon="4.45058"></trkpt>
      <trkpt lat="51.20552" lon="4.45052"></trkpt>
      <trkpt lat="51.20555" lon="4.45045"></trkpt>
      <trkpt lat="51.20558" lon="4.45039"></trkpt>
      <trkpt lat="51.20561" lon="4.45033"></trkpt>
      <trkpt lat="51.20565" lon="4.45027"></trkpt>
      <trkpt lat="51.20568" lon="4.45021"></trkpt>
    </trkseg>
  </trk>
</gpx>