<?xml version="1.0" encoding="UTF-8"?>
<gpx version="1.1" creator="jeffry.running" xmlns="http://www.topografix.com/GPX/1/1">
  <metadata><time>2026-07-28T06:31:39.330Z</time></metadata>
  <trk>
    <trkseg>
      <trkpt lat="51.32835" lon="5.00380"></trkpt>
      <trkpt lat="51.32847" lon="5.00388"></trkpt>
      <trkpt lat="51.32859" lon="5.00390"></trkpt>
      <trkpt lat="51.32872" lon="5.00387"></trkpt>
      <trkpt lat="51.32884" lon="5.00385"></trkpt>
      <trkpt lat="51.32896" lon="5.00382"></trkpt>
      <trkpt lat="51.32909" lon="5.00378"></trkpt>
      <trkpt lat="51.32922" lon="5.00374"></trkpt>
      <trkpt lat="51.32934" lon="5.00369"></trkpt>
      <trkpt lat="51.32947" lon="5.00365"></trkpt>
      <trkpt lat="51.32957" lon="5.00357"></trkpt>
      <trkpt lat="51.32960" lon="5.00341"></trkpt>
      <trkpt lat="51.32958" lon="5.00323"></trkpt>
      <trkpt lat="51.32956" lon="5.00303"></trkpt>
      <trkpt lat="51.32956" lon="5.00283"></trkpt>
      <trkpt lat="51.32957" lon="5.00265"></trkpt>
      <trkpt lat="51.32957" lon="5.00246"></trkpt>
      <trkpt lat="51.32958" lon="5.00228"></trkpt>
      <trkpt lat="51.32959" lon="5.00209"></trkpt>
      <trkpt lat="51.32962" lon="5.00190"></trkpt>
      <trkpt lat="51.32966" lon="5.00171"></trkpt>
      <trkpt lat="51.32969" lon="5.00152"></trkpt>
      <trkpt lat="51.32972" lon="5.00133"></trkpt>
      <trkpt lat="51.32975" lon="5.00114"></trkpt>
      <trkpt lat="51.32979" lon="5.00098"></trkpt>
      <trkpt lat="51.32983" lon="5.00085"></trkpt>
      <trkpt lat="51.32988" lon="5.00072"></trkpt>
      <trkpt lat="51.32996" lon="5.00054"></trkpt>
      <trkpt lat="51.33004" lon="5.00036"></trkpt>
      <trkpt lat="51.33011" lon="5.00019"></trkpt>
      <trkpt lat="51.33018" lon="5.00003"></trkpt>
      <trkpt lat="51.33026" lon="4.99990"></trkpt>
      <trkpt lat="51.33035" lon="4.99973"></trkpt>
      <trkpt lat="51.33042" lon="4.99956"></trkpt>
      <trkpt lat="51.33049" lon="4.99939"></trkpt>
      <trkpt lat="51.33053" lon="4.99921"></trkpt>
      <trkpt lat="51.33057" lon="4.99905"></trkpt>
      <trkpt lat="51.33060" lon="4.99885"></trkpt>
      <trkpt lat="51.33062" lon="4.99865"></trkpt>
      <trkpt lat="51.33065" lon="4.99845"></trkpt>
      <trkpt lat="51.33067" lon="4.99825"></trkpt>
      <trkpt lat="51.33064" lon="4.99807"></trkpt>
      <trkpt lat="51.33054" lon="4.99795"></trkpt>
      <trkpt lat="51.33043" lon="4.99784"></trkpt>
      <trkpt lat="51.33032" lon="4.99772"></trkpt>
      <trkpt lat="51.33021" lon="4.99761"></trkpt>
      <trkpt lat="51.33015" lon="4.99754"></trkpt>
      <trkpt lat="51.33020" lon="4.99753"></trkpt>
      <trkpt lat="51.33028" lon="4.99748"></trkpt>
      <trkpt lat="51.33040" lon="4.99744"></trkpt>
      <trkpt lat="51.33053" lon="4.99742"></trkpt>
      <trkpt lat="51.33065" lon="4.99738"></trkpt>
      <trkpt lat="51.33077" lon="4.99734"></trkpt>
      <trkpt lat="51.33088" lon="4.99730"></trkpt>
      <trkpt lat="51.33100" lon="4.99726"></trkpt>
      <trkpt lat="51.33114" lon="4.99722"></trkpt>
      <trkpt lat="51.33127" lon="4.99718"></trkpt>
      <trkpt lat="51.33140" lon="4.99714"></trkpt>
      <trkpt lat="51.33153" lon="4.99709"></trkpt>
      <trkpt lat="51.33165" lon="4.99706"></trkpt>
      <trkpt lat="51.33177" lon="4.99704"></trkpt>
      <trkpt lat="51.33189" lon="4.99700"></trkpt>
      <trkpt lat="51.33201" lon="4.99697"></trkpt>
      <trkpt lat="51.33212" lon="4.99695"></trkpt>
      <trkpt lat="51.33223" lon="4.99698"></trkpt>
      <trkpt lat="51.33236" lon="4.99704"></trkpt>
      <trkpt lat="51.33247" lon="4.99711"></trkpt>
      <trkpt lat="51.33257" lon="4.99718"></trkpt>
      <trkpt lat="51.33269" lon="4.99723"></trkpt>
      <trkpt lat="51.33281" lon="4.99729"></trkpt>
      <trkpt lat="51.33293" lon="4.99735"></trkpt>
      <trkpt lat="51.33305" lon="4.99742"></trkpt>
      <trkpt lat="51.33315" lon="4.99749"></trkpt>
      <trkpt lat="51.33327" lon="4.99755"></trkpt>
      <trkpt lat="51.33337" lon="4.99763"></trkpt>
      <trkpt lat="51.33347" lon="4.99772"></trkpt>
      <trkpt lat="51.33358" lon="4.99781"></trkpt>
      <trkpt lat="51.33368" lon="4.99793"></trkpt>
      <trkpt lat="51.33378" lon="4.99806"></trkpt>
      <trkpt lat="51.33386" lon="4.99819"></trkpt>
      <trkpt lat="51.33395" lon="4.99832"></trkpt>
      <trkpt lat="51.33404" lon="4.99845"></trkpt>
      <trkpt lat="51.33412" lon="4.99859"></trkpt>
      <trkpt lat="51.33420" lon="4.99873"></trkpt>
      <trkpt lat="51.33428" lon="4.99885"></trkpt>
      <trkpt lat="51.33437" lon="4.99899"></trkpt>
      <trkpt lat="51.33446" lon="4.99912"></trkpt>
      <trkpt lat="51.33454" lon="4.99926"></trkpt>
      <trkpt lat="51.33464" lon="4.99940"></trkpt>
      <trkpt lat="51.33474" lon="4.99948"></trkpt>
      <trkpt lat="51.33483" lon="4.99944"></trkpt>
      <trkpt lat="51.33489" lon="4.99927"></trkpt>
      <trkpt lat="51.33495" lon="4.99909"></trkpt>
      <trkpt lat="51.33500" lon="4.99892"></trkpt>
      <trkpt lat="51.33506" lon="4.99875"></trkpt>
      <trkpt lat="51.33512" lon="4.99858"></trkpt>
      <trkpt lat="51.33518" lon="4.99841"></trkpt>
      <trkpt lat="51.33523" lon="4.99825"></trkpt>
      <trkpt lat="51.33529" lon="4.99808"></trkpt>
      <trkpt lat="51.33534" lon="4.99791"></trkpt>
      <trkpt lat="51.33541" lon="4.99775"></trkpt>
      <trkpt lat="51.33546" lon="4.99757"></trkpt>
      <trkpt lat="51.33551" lon="4.99740"></trkpt>
      <trkpt lat="51.33557" lon="4.99723"></trkpt>
      <trkpt lat="51.33563" lon="4.99706"></trkpt>
      <trkpt lat="51.33569" lon="4.99688"></trkpt>
      <trkpt lat="51.33574" lon="4.99672"></trkpt>
      <trkpt lat="51.33577" lon="4.99657"></trkpt>
      <trkpt lat="51.33583" lon="4.99641"></trkpt>
      <trkpt lat="51.33591" lon="4.99623"></trkpt>
      <trkpt lat="51.33597" lon="4.99606"></trkpt>
      <trkpt lat="51.33603" lon="4.99587"></trkpt>
      <trkpt lat="51.33609" lon="4.99569"></trkpt>
      <trkpt lat="51.33616" lon="4.99552"></trkpt>
      <trkpt lat="51.33622" lon="4.99533"></trkpt>
      <trkpt lat="51.33627" lon="4.99514"></trkpt>
      <trkpt lat="51.33631" lon="4.99495"></trkpt>
      <trkpt lat="51.33634" lon="4.99475"></trkpt>
      <trkpt lat="51.33637" lon="4.99455"></trkpt>
      <trkpt lat="51.33640" lon="4.99440"></trkpt>
      <trkpt lat="51.33643" lon="4.99423"></trkpt>
      <trkpt lat="51.33652" lon="4.99412"></trkpt>
      <trkpt lat="51.33664" lon="4.99416"></trkpt>
      <trkpt lat="51.33676" lon="4.99424"></trkpt>
      <trkpt lat="51.33688" lon="4.99432"></trkpt>
      <trkpt lat="51.33700" lon="4.99437"></trkpt>
      <trkpt lat="51.33712" lon="4.99441"></trkpt>
      <trkpt lat="51.33723" lon="4.99444"></trkpt>
      <trkpt lat="51.33736" lon="4.99447"></trkpt>
      <trkpt lat="51.33748" lon="4.99451"></trkpt>
      <trkpt lat="51.33760" lon="4.99452"></trkpt>
      <trkpt lat="51.33773" lon="4.99455"></trkpt>
      <trkpt lat="51.33786" lon="4.99457"></trkpt>
      <trkpt lat="51.33799" lon="4.99459"></trkpt>
      <trkpt lat="51.33810" lon="4.99462"></trkpt>
      <trkpt lat="51.33821" lon="4.99465"></trkpt>
      <trkpt lat="51.33833" lon="4.99467"></trkpt>
      <trkpt lat="51.33844" lon="4.99472"></trkpt>
      <trkpt lat="51.33856" lon="4.99475"></trkpt>
      <trkpt lat="51.33868" lon="4.99477"></trkpt>
      <trkpt lat="51.33879" lon="4.99484"></trkpt>
      <trkpt lat="51.33887" lon="4.99498"></trkpt>
      <trkpt lat="51.33893" lon="4.99516"></trkpt>
      <trkpt lat="51.33897" lon="4.99535"></trkpt>
      <trkpt lat="51.33901" lon="4.99553"></trkpt>
      <trkpt lat="51.33904" lon="4.99569"></trkpt>
      <trkpt lat="51.33908" lon="4.99590"></trkpt>
      <trkpt lat="51.33912" lon="4.99609"></trkpt>
      <trkpt lat="51.33917" lon="4.99627"></trkpt>
      <trkpt lat="51.33919" lon="4.99645"></trkpt>
      <trkpt lat="51.33922" lon="4.99663"></trkpt>
      <trkpt lat="51.33927" lon="4.99681"></trkpt>
      <trkpt lat="51.33930" lon="4.99698"></trkpt>
      <trkpt lat="51.33932" lon="4.99716"></trkpt>
      <trkpt lat="51.33935" lon="4.99735"></trkpt>
      <trkpt lat="51.33940" lon="4.99754"></trkpt>
      <trkpt lat="51.33944" lon="4.99773"></trkpt>
      <trkpt lat="51.33947" lon="4.99791"></trkpt>
      <trkpt lat="51.33951" lon="4.99810"></trkpt>
      <trkpt lat="51.33955" lon="4.99827"></trkpt>
      <trkpt lat="51.33958" lon="4.99845"></trkpt>
      <trkpt lat="51.33961" lon="4.99863"></trkpt>
      <trkpt lat="51.33963" lon="4.99879"></trkpt>
      <trkpt lat="51.33967" lon="4.99895"></trkpt>
      <trkpt lat="51.33971" lon="4.99910"></trkpt>
      <trkpt lat="51.33975" lon="4.99929"></trkpt>
      <trkpt lat="51.33977" lon="4.99947"></trkpt>
      <trkpt lat="51.33980" lon="4.99965"></trkpt>
      <trkpt lat="51.33985" lon="4.99984"></trkpt>
      <trkpt lat="51.33990" lon="5.00002"></trkpt>
      <trkpt lat="51.33993" lon="5.00021"></trkpt>
      <trkpt lat="51.33996" lon="5.00040"></trkpt>
      <trkpt lat="51.33999" lon="5.00058"></trkpt>
      <trkpt lat="51.34002" lon="5.00077"></trkpt>
      <trkpt lat="51.34005" lon="5.00096"></trkpt>
      <trkpt lat="51.34009" lon="5.00113"></trkpt>
      <trkpt lat="51.34015" lon="5.00132"></trkpt>
      <trkpt lat="51.34020" lon="5.00150"></trkpt>
      <trkpt lat="51.34025" lon="5.00168"></trkpt>
      <trkpt lat="51.34030" lon="5.00186"></trkpt>
      <trkpt lat="51.34031" lon="5.00203"></trkpt>
      <trkpt lat="51.34025" lon="5.00221"></trkpt>
      <trkpt lat="51.34018" lon="5.00239"></trkpt>
      <trkpt lat="51.34012" lon="5.00257"></trkpt>
      <trkpt lat="51.34005" lon="5.00273"></trkpt>
      <trkpt lat="51.33998" lon="5.00289"></trkpt>
      <trkpt lat="51.33990" lon="5.00305"></trkpt>
      <trkpt lat="51.33983" lon="5.00324"></trkpt>
      <trkpt lat="51.33977" lon="5.00341"></trkpt>
      <trkpt lat="51.33969" lon="5.00359"></trkpt>
      <trkpt lat="51.33963" lon="5.00376"></trkpt>
      <trkpt lat="51.33957" lon="5.00393"></trkpt>
      <trkpt lat="51.33949" lon="5.00409"></trkpt>
      <trkpt lat="51.33943" lon="5.00423"></trkpt>
      <trkpt lat="51.33935" lon="5.00439"></trkpt>
      <trkpt lat="51.33929" lon="5.00456"></trkpt>
      <trkpt lat="51.33923" lon="5.00474"></trkpt>
      <trkpt lat="51.33916" lon="5.00490"></trkpt>
      <trkpt lat="51.33910" lon="5.00506"></trkpt>
      <trkpt lat="51.33903" lon="5.00521"></trkpt>
      <trkpt lat="51.33898" lon="5.00524"></trkpt>
      <trkpt lat="51.33892" lon="5.00514"></trkpt>
      <trkpt lat="51.33881" lon="5.00503"></trkpt>
      <trkpt lat="51.33871" lon="5.00492"></trkpt>
      <trkpt lat="51.33860" lon="5.00481"></trkpt>
      <trkpt lat="51.33848" lon="5.00471"></trkpt>
      <trkpt lat="51.33837" lon="5.00461"></trkpt>
      <trkpt lat="51.33827" lon="5.00451"></trkpt>
      <trkpt lat="51.33816" lon="5.00448"></trkpt>
      <trkpt lat="51.33813" lon="5.00465"></trkpt>
      <trkpt lat="51.33815" lon="5.00484"></trkpt>
      <trkpt lat="51.33816" lon="5.00502"></trkpt>
      <trkpt lat="51.33818" lon="5.00520"></trkpt>
      <trkpt lat="51.33820" lon="5.00538"></trkpt>
      <trkpt lat="51.33822" lon="5.00556"></trkpt>
      <trkpt lat="51.33825" lon="5.00574"></trkpt>
      <trkpt lat="51.33827" lon="5.00593"></trkpt>
      <trkpt lat="51.33828" lon="5.00614"></trkpt>
      <trkpt lat="51.33830" lon="5.00633"></trkpt>
      <trkpt lat="51.33832" lon="5.00653"></trkpt>
      <trkpt lat="51.33835" lon="5.00672"></trkpt>
      <trkpt lat="51.33836" lon="5.00691"></trkpt>
      <trkpt lat="51.33836" lon="5.00709"></trkpt>
      <trkpt lat="51.33836" lon="5.00728"></trkpt>
      <trkpt lat="51.33837" lon="5.00747"></trkpt>
      <trkpt lat="51.33838" lon="5.00767"></trkpt>
      <trkpt lat="51.33841" lon="5.00785"></trkpt>
      <trkpt lat="51.33844" lon="5.00805"></trkpt>
      <trkpt lat="51.33846" lon="5.00825"></trkpt>
      <trkpt lat="51.33848" lon="5.00843"></trkpt>
      <trkpt lat="51.33849" lon="5.00862"></trkpt>
      <trkpt lat="51.33848" lon="5.00882"></trkpt>
      <trkpt lat="51.33851" lon="5.00901"></trkpt>
      <trkpt lat="51.33851" lon="5.00921"></trkpt>
      <trkpt lat="51.33852" lon="5.00939"></trkpt>
      <trkpt lat="51.33852" lon="5.00960"></trkpt>
      <trkpt lat="51.33852" lon="5.00979"></trkpt>
      <trkpt lat="51.33854" lon="5.00997"></trkpt>
      <trkpt lat="51.33855" lon="5.01016"></trkpt>
      <trkpt lat="51.33857" lon="5.01035"></trkpt>
      <trkpt lat="51.33862" lon="5.01053"></trkpt>
      <trkpt lat="51.33868" lon="5.01066"></trkpt>
      <trkpt lat="51.33870" lon="5.01085"></trkpt>
      <trkpt lat="51.33872" lon="5.01106"></trkpt>
      <trkpt lat="51.33874" lon="5.01127"></trkpt>
      <trkpt lat="51.33876" lon="5.01148"></trkpt>
      <trkpt lat="51.33878" lon="5.01168"></trkpt>
      <trkpt lat="51.33879" lon="5.01188"></trkpt>
      <trkpt lat="51.33882" lon="5.01207"></trkpt>
      <trkpt lat="51.33883" lon="5.01227"></trkpt>
      <trkpt lat="51.33884" lon="5.01242"></trkpt>
      <trkpt lat="51.33885" lon="5.01262"></trkpt>
      <trkpt lat="51.33886" lon="5.01282"></trkpt>
      <trkpt lat="51.33888" lon="5.01302"></trkpt>
      <trkpt lat="51.33890" lon="5.01320"></trkpt>
      <trkpt lat="51.33892" lon="5.01341"></trkpt>
      <trkpt lat="51.33894" lon="5.01362"></trkpt>
      <trkpt lat="51.33895" lon="5.01383"></trkpt>
      <trkpt lat="51.33897" lon="5.01404"></trkpt>
      <trkpt lat="51.33897" lon="5.01423"></trkpt>
      <trkpt lat="51.33899" lon="5.01442"></trkpt>
      <trkpt lat="51.33900" lon="5.01462"></trkpt>
      <trkpt lat="51.33902" lon="5.01482"></trkpt>
      <trkpt lat="51.33903" lon="5.01501"></trkpt>
      <trkpt lat="51.33904" lon="5.01521"></trkpt>
      <trkpt lat="51.33905" lon="5.01541"></trkpt>
      <trkpt lat="51.33906" lon="5.01561"></trkpt>
      <trkpt lat="51.33908" lon="5.01581"></trkpt>
      <trkpt lat="51.33909" lon="5.01601"></trkpt>
      <trkpt lat="51.33910" lon="5.01621"></trkpt>
      <trkpt lat="51.33911" lon="5.01641"></trkpt>
      <trkpt lat="51.33913" lon="5.01661"></trkpt>
      <trkpt lat="51.33916" lon="5.01682"></trkpt>
      <trkpt lat="51.33917" lon="5.01701"></trkpt>
      <trkpt lat="51.33919" lon="5.01721"></trkpt>
      <trkpt lat="51.33920" lon="5.01740"></trkpt>
      <trkpt lat="51.33922" lon="5.01761"></trkpt>
      <trkpt lat="51.33924" lon="5.01780"></trkpt>
      <trkpt lat="51.33925" lon="5.01799"></trkpt>
      <trkpt lat="51.33926" lon="5.01819"></trkpt>
      <trkpt lat="51.33927" lon="5.01839"></trkpt>
      <trkpt lat="51.33929" lon="5.01858"></trkpt>
      <trkpt lat="51.33930" lon="5.01877"></trkpt>
      <trkpt lat="51.33932" lon="5.01897"></trkpt>
      <trkpt lat="51.33934" lon="5.01916"></trkpt>
      <trkpt lat="51.33935" lon="5.01937"></trkpt>
      <trkpt lat="51.33938" lon="5.01953"></trkpt>
      <trkpt lat="51.33945" lon="5.01953"></trkpt>
      <trkpt lat="51.33955" lon="5.01945"></trkpt>
      <trkpt lat="51.33965" lon="5.01936"></trkpt>
      <trkpt lat="51.33976" lon="5.01929"></trkpt>
      <trkpt lat="51.33988" lon="5.01921"></trkpt>
      <trkpt lat="51.34000" lon="5.01913"></trkpt>
      <trkpt lat="51.34013" lon="5.01905"></trkpt>
      <trkpt lat="51.34025" lon="5.01898"></trkpt>
      <trkpt lat="51.34037" lon="5.01895"></trkpt>
      <trkpt lat="51.34048" lon="5.01906"></trkpt>
      <trkpt lat="51.34054" lon="5.01922"></trkpt>
      <trkpt lat="51.34058" lon="5.01939"></trkpt>
      <trkpt lat="51.34062" lon="5.01957"></trkpt>
      <trkpt lat="51.34067" lon="5.01973"></trkpt>
      <trkpt lat="51.34071" lon="5.01991"></trkpt>
      <trkpt lat="51.34074" lon="5.02010"></trkpt>
      <trkpt lat="51.34079" lon="5.02028"></trkpt>
      <trkpt lat="51.34083" lon="5.02046"></trkpt>
      <trkpt lat="51.34086" lon="5.02065"></trkpt>
      <trkpt lat="51.34091" lon="5.02083"></trkpt>
      <trkpt lat="51.34095" lon="5.02102"></trkpt>
      <trkpt lat="51.34100" lon="5.02121"></trkpt>
      <trkpt lat="51.34106" lon="5.02139"></trkpt>
      <trkpt lat="51.34111" lon="5.02154"></trkpt>
      <trkpt lat="51.34119" lon="5.02158"></trkpt>
      <trkpt lat="51.34131" lon="5.02154"></trkpt>
      <trkpt lat="51.34141" lon="5.02149"></trkpt>
      <trkpt lat="51.34152" lon="5.02142"></trkpt>
      <trkpt lat="51.34163" lon="5.02134"></trkpt>
      <trkpt lat="51.34174" lon="5.02127"></trkpt>
      <trkpt lat="51.34184" lon="5.02119"></trkpt>
      <trkpt lat="51.34196" lon="5.02112"></trkpt>
      <trkpt lat="51.34208" lon="5.02104"></trkpt>
      <trkpt lat="51.34219" lon="5.02097"></trkpt>
      <trkpt lat="51.34231" lon="5.02090"></trkpt>
      <trkpt lat="51.34243" lon="5.02084"></trkpt>
      <trkpt lat="51.34256" lon="5.02076"></trkpt>
      <trkpt lat="51.34268" lon="5.02069"></trkpt>
      <trkpt lat="51.34279" lon="5.02061"></trkpt>
      <trkpt lat="51.34291" lon="5.02054"></trkpt>
      <trkpt lat="51.34303" lon="5.02047"></trkpt>
      <trkpt lat="51.34314" lon="5.02040"></trkpt>
      <trkpt lat="51.34326" lon="5.02032"></trkpt>
      <trkpt lat="51.34338" lon="5.02025"></trkpt>
      <trkpt lat="51.34350" lon="5.02017"></trkpt>
      <trkpt lat="51.34361" lon="5.02010"></trkpt>
      <trkpt lat="51.34372" lon="5.02003"></trkpt>
      <trkpt lat="51.34383" lon="5.01995"></trkpt>
      <trkpt lat="51.34395" lon="5.01988"></trkpt>
      <trkpt lat="51.34405" lon="5.01981"></trkpt>
      <trkpt lat="51.34416" lon="5.01974"></trkpt>
      <trkpt lat="51.34427" lon="5.01965"></trkpt>
      <trkpt lat="51.34438" lon="5.01959"></trkpt>
      <trkpt lat="51.34450" lon="5.01955"></trkpt>
      <trkpt lat="51.34460" lon="5.01963"></trkpt>
      <trkpt lat="51.34462" lon="5.01969"></trkpt>
      <trkpt lat="51.34463" lon="5.01974"></trkpt>
      <trkpt lat="51.34465" lon="5.01984"></trkpt>
      <trkpt lat="51.34468" lon="5.01996"></trkpt>
      <trkpt lat="51.34472" lon="5.02014"></trkpt>
      <trkpt lat="51.34476" lon="5.02032"></trkpt>
      <trkpt lat="51.34481" lon="5.02052"></trkpt>
      <trkpt lat="51.34487" lon="5.02072"></trkpt>
      <trkpt lat="51.34493" lon="5.02093"></trkpt>
      <trkpt lat="51.34499" lon="5.02113"></trkpt>
      <trkpt lat="51.34504" lon="5.02133"></trkpt>
      <trkpt lat="51.34508" lon="5.02151"></trkpt>
      <trkpt lat="51.34513" lon="5.02169"></trkpt>
      <trkpt lat="51.34517" lon="5.02187"></trkpt>
      <trkpt lat="51.34522" lon="5.02205"></trkpt>
      <trkpt lat="51.34526" lon="5.02224"></trkpt>
      <trkpt lat="51.34530" lon="5.02243"></trkpt>
      <trkpt lat="51.34535" lon="5.02261"></trkpt>
      <trkpt lat="51.34540" lon="5.02280"></trkpt>
      <trkpt lat="51.34544" lon="5.02299"></trkpt>
      <trkpt lat="51.34549" lon="5.02318"></trkpt>
      <trkpt lat="51.34554" lon="5.02336"></trkpt>
      <trkpt lat="51.34558" lon="5.02354"></trkpt>
      <trkpt lat="51.34563" lon="5.02373"></trkpt>
      <trkpt lat="51.34567" lon="5.02391"></trkpt>
      <trkpt lat="51.34572" lon="5.02410"></trkpt>
      <trkpt lat="51.34577" lon="5.02428"></trkpt>
      <trkpt lat="51.34581" lon="5.02446"></trkpt>
      <trkpt lat="51.34586" lon="5.02466"></trkpt>
      <trkpt lat="51.34590" lon="5.02484"></trkpt>
      <trkpt lat="51.34595" lon="5.02503"></trkpt>
      <trkpt lat="51.34599" lon="5.02521"></trkpt>
      <trkpt lat="51.34604" lon="5.02539"></trkpt>
      <trkpt lat="51.34608" lon="5.02556"></trkpt>
      <trkpt lat="51.34613" lon="5.02574"></trkpt>
      <trkpt lat="51.34616" lon="5.02592"></trkpt>
      <trkpt lat="51.34621" lon="5.02609"></trkpt>
      <trkpt lat="51.34625" lon="5.02627"></trkpt>
      <trkpt lat="51.34629" lon="5.02647"></trkpt>
      <trkpt lat="51.34634" lon="5.02666"></trkpt>
      <trkpt lat="51.34637" lon="5.02683"></trkpt>
      <trkpt lat="51.34642" lon="5.02702"></trkpt>
      <trkpt lat="51.34647" lon="5.02721"></trkpt>
      <trkpt lat="51.34653" lon="5.02740"></trkpt>
      <trkpt lat="51.34657" lon="5.02759"></trkpt>
      <trkpt lat="51.34662" lon="5.02777"></trkpt>
      <trkpt lat="51.34666" lon="5.02796"></trkpt>
      <trkpt lat="51.34671" lon="5.02815"></trkpt>
      <trkpt lat="51.34675" lon="5.02833"></trkpt>
      <trkpt lat="51.34679" lon="5.02852"></trkpt>
      <trkpt lat="51.34684" lon="5.02870"></trkpt>
      <trkpt lat="51.34688" lon="5.02890"></trkpt>
      <trkpt lat="51.34693" lon="5.02909"></trkpt>
      <trkpt lat="51.34698" lon="5.02928"></trkpt>
      <trkpt lat="51.34703" lon="5.02947"></trkpt>
      <trkpt lat="51.34707" lon="5.02966"></trkpt>
      <trkpt lat="51.34711" lon="5.02984"></trkpt>
      <trkpt lat="51.34715" lon="5.03002"></trkpt>
      <trkpt lat="51.34719" lon="5.03016"></trkpt>
      <trkpt lat="51.34720" lon="5.03026"></trkpt>
      <trkpt lat="51.34720" lon="5.03031"></trkpt>
      <trkpt lat="51.34718" lon="5.03040"></trkpt>
      <trkpt lat="51.34712" lon="5.03046"></trkpt>
      <trkpt lat="51.34704" lon="5.03051"></trkpt>
      <trkpt lat="51.34697" lon="5.03056"></trkpt>
      <trkpt lat="51.34690" lon="5.03060"></trkpt>
      <trkpt lat="51.34684" lon="5.03065"></trkpt>
      <trkpt lat="51.34678" lon="5.03069"></trkpt>
      <trkpt lat="51.34671" lon="5.03072"></trkpt>
      <trkpt lat="51.34664" lon="5.03077"></trkpt>
      <trkpt lat="51.34657" lon="5.03081"></trkpt>
      <trkpt lat="51.34650" lon="5.03085"></trkpt>
      <trkpt lat="51.34642" lon="5.03090"></trkpt>
      <trkpt lat="51.34636" lon="5.03094"></trkpt>
      <trkpt lat="51.34629" lon="5.03098"></trkpt>
      <trkpt lat="51.34622" lon="5.03102"></trkpt>
      <trkpt lat="51.34615" lon="5.03107"></trkpt>
      <trkpt lat="51.34609" lon="5.03111"></trkpt>
      <trkpt lat="51.34603" lon="5.03114"></trkpt>
      <trkpt lat="51.34597" lon="5.03119"></trkpt>
      <trkpt lat="51.34591" lon="5.03123"></trkpt>
      <trkpt lat="51.34585" lon="5.03127"></trkpt>
      <trkpt lat="51.34580" lon="5.03131"></trkpt>
      <trkpt lat="51.34573" lon="5.03135"></trkpt>
      <trkpt lat="51.34568" lon="5.03139"></trkpt>
      <trkpt lat="51.34563" lon="5.03142"></trkpt>
      <trkpt lat="51.34559" lon="5.03144"></trkpt>
      <trkpt lat="51.34553" lon="5.03148"></trkpt>
      <trkpt lat="51.34544" lon="5.03153"></trkpt>
      <trkpt lat="51.34533" lon="5.03159"></trkpt>
      <trkpt lat="51.34522" lon="5.03167"></trkpt>
      <trkpt lat="51.34511" lon="5.03174"></trkpt>
      <trkpt lat="51.34499" lon="5.03181"></trkpt>
      <trkpt lat="51.34488" lon="5.03189"></trkpt>
      <trkpt lat="51.34476" lon="5.03197"></trkpt>
      <trkpt lat="51.34464" lon="5.03204"></trkpt>
      <trkpt lat="51.34452" lon="5.03211"></trkpt>
      <trkpt lat="51.34439" lon="5.03220"></trkpt>
      <trkpt lat="51.34427" lon="5.03227"></trkpt>
      <trkpt lat="51.34416" lon="5.03235"></trkpt>
      <trkpt lat="51.34404" lon="5.03242"></trkpt>
      <trkpt lat="51.34391" lon="5.03248"></trkpt>
      <trkpt lat="51.34380" lon="5.03257"></trkpt>
      <trkpt lat="51.34373" lon="5.03266"></trkpt>
      <trkpt lat="51.34365" lon="5.03274"></trkpt>
      <trkpt lat="51.34353" lon="5.03282"></trkpt>
      <trkpt lat="51.34341" lon="5.03289"></trkpt>
      <trkpt lat="51.34330" lon="5.03297"></trkpt>
      <trkpt lat="51.34318" lon="5.03303"></trkpt>
      <trkpt lat="51.34306" lon="5.03311"></trkpt>
      <trkpt lat="51.34294" lon="5.03318"></trkpt>
      <trkpt lat="51.34282" lon="5.03325"></trkpt>
      <trkpt lat="51.34271" lon="5.03332"></trkpt>
      <trkpt lat="51.34258" lon="5.03340"></trkpt>
      <trkpt lat="51.34246" lon="5.03348"></trkpt>
      <trkpt lat="51.34235" lon="5.03356"></trkpt>
      <trkpt lat="51.34223" lon="5.03363"></trkpt>
      <trkpt lat="51.34211" lon="5.03370"></trkpt>
      <trkpt lat="51.34200" lon="5.03377"></trkpt>
      <trkpt lat="51.34188" lon="5.03385"></trkpt>
      <trkpt lat="51.34176" lon="5.03392"></trkpt>
      <trkpt lat="51.34164" lon="5.03400"></trkpt>
      <trkpt lat="51.34153" lon="5.03408"></trkpt>
      <trkpt lat="51.34141" lon="5.03415"></trkpt>
      <trkpt lat="51.34129" lon="5.03422"></trkpt>
      <trkpt lat="51.34118" lon="5.03429"></trkpt>
      <trkpt lat="51.34106" lon="5.03436"></trkpt>
      <trkpt lat="51.34095" lon="5.03444"></trkpt>
      <trkpt lat="51.34082" lon="5.03450"></trkpt>
      <trkpt lat="51.34069" lon="5.03451"></trkpt>
      <trkpt lat="51.34056" lon="5.03448"></trkpt>
      <trkpt lat="51.34043" lon="5.03441"></trkpt>
      <trkpt lat="51.34031" lon="5.03435"></trkpt>
      <trkpt lat="51.34020" lon="5.03428"></trkpt>
      <trkpt lat="51.34007" lon="5.03422"></trkpt>
      <trkpt lat="51.33995" lon="5.03416"></trkpt>
      <trkpt lat="51.33983" lon="5.03409"></trkpt>
      <trkpt lat="51.33972" lon="5.03402"></trkpt>
      <trkpt lat="51.33960" lon="5.03396"></trkpt>
      <trkpt lat="51.33948" lon="5.03390"></trkpt>
      <trkpt lat="51.33936" lon="5.03383"></trkpt>
      <trkpt lat="51.33924" lon="5.03377"></trkpt>
      <trkpt lat="51.33913" lon="5.03370"></trkpt>
      <trkpt lat="51.33901" lon="5.03364"></trkpt>
      <trkpt lat="51.33889" lon="5.03358"></trkpt>
      <trkpt lat="51.33877" lon="5.03352"></trkpt>
      <trkpt lat="51.33865" lon="5.03345"></trkpt>
      <trkpt lat="51.33853" lon="5.03339"></trkpt>
      <trkpt lat="51.33841" lon="5.03334"></trkpt>
      <trkpt lat="51.33828" lon="5.03329"></trkpt>
      <trkpt lat="51.33816" lon="5.03323"></trkpt>
      <trkpt lat="51.33804" lon="5.03316"></trkpt>
      <trkpt lat="51.33791" lon="5.03308"></trkpt>
      <trkpt lat="51.33779" lon="5.03300"></trkpt>
      <trkpt lat="51.33767" lon="5.03292"></trkpt>
      <trkpt lat="51.33756" lon="5.03286"></trkpt>
      <trkpt lat="51.33745" lon="5.03277"></trkpt>
      <trkpt lat="51.33736" lon="5.03260"></trkpt>
      <trkpt lat="51.33734" lon="5.03240"></trkpt>
      <trkpt lat="51.33731" lon="5.03220"></trkpt>
      <trkpt lat="51.33728" lon="5.03202"></trkpt>
      <trkpt lat="51.33722" lon="5.03185"></trkpt>
      <trkpt lat="51.33720" lon="5.03167"></trkpt>
      <trkpt lat="51.33716" lon="5.03148"></trkpt>
      <trkpt lat="51.33712" lon="5.03129"></trkpt>
      <trkpt lat="51.33709" lon="5.03109"></trkpt>
      <trkpt lat="51.33706" lon="5.03088"></trkpt>
      <trkpt lat="51.33704" lon="5.03068"></trkpt>
      <trkpt lat="51.33700" lon="5.03048"></trkpt>
      <trkpt lat="51.33697" lon="5.03027"></trkpt>
      <trkpt lat="51.33693" lon="5.03007"></trkpt>
      <trkpt lat="51.33690" lon="5.02988"></trkpt>
      <trkpt lat="51.33686" lon="5.02969"></trkpt>
      <trkpt lat="51.33683" lon="5.02950"></trkpt>
      <trkpt lat="51.33679" lon="5.02930"></trkpt>
      <trkpt lat="51.33675" lon="5.02910"></trkpt>
      <trkpt lat="51.33672" lon="5.02891"></trkpt>
      <trkpt lat="51.33669" lon="5.02872"></trkpt>
      <trkpt lat="51.33666" lon="5.02853"></trkpt>
      <trkpt lat="51.33662" lon="5.02833"></trkpt>
      <trkpt lat="51.33658" lon="5.02814"></trkpt>
      <trkpt lat="51.33655" lon="5.02795"></trkpt>
      <trkpt lat="51.33652" lon="5.02776"></trkpt>
      <trkpt lat="51.33650" lon="5.02757"></trkpt>
      <trkpt lat="51.33646" lon="5.02738"></trkpt>
      <trkpt lat="51.33642" lon="5.02719"></trkpt>
      <trkpt lat="51.33639" lon="5.02700"></trkpt>
      <trkpt lat="51.33636" lon="5.02680"></trkpt>
      <trkpt lat="51.33634" lon="5.02661"></trkpt>
      <trkpt lat="51.33632" lon="5.02642"></trkpt>
      <trkpt lat="51.33629" lon="5.02623"></trkpt>
      <trkpt lat="51.33625" lon="5.02603"></trkpt>
      <trkpt lat="51.33621" lon="5.02584"></trkpt>
      <trkpt lat="51.33619" lon="5.02565"></trkpt>
      <trkpt lat="51.33615" lon="5.02545"></trkpt>
      <trkpt lat="51.33611" lon="5.02526"></trkpt>
      <trkpt lat="51.33611" lon="5.02506"></trkpt>
      <trkpt lat="51.33610" lon="5.02491"></trkpt>
      <trkpt lat="51.33608" lon="5.02484"></trkpt>
      <trkpt lat="51.33604" lon="5.02463"></trkpt>
      <trkpt lat="51.33600" lon="5.02443"></trkpt>
      <trkpt lat="51.33597" lon="5.02425"></trkpt>
      <trkpt lat="51.33594" lon="5.02405"></trkpt>
      <trkpt lat="51.33590" lon="5.02386"></trkpt>
      <trkpt lat="51.33587" lon="5.02378"></trkpt>
      <trkpt lat="51.33587" lon="5.02376"></trkpt>
      <trkpt lat="51.33586" lon="5.02375"></trkpt>
      <trkpt lat="51.33586" lon="5.02373"></trkpt>
      <trkpt lat="51.33586" lon="5.02371"></trkpt>
      <trkpt lat="51.33585" lon="5.02361"></trkpt>
      <trkpt lat="51.33584" lon="5.02340"></trkpt>
      <trkpt lat="51.33581" lon="5.02320"></trkpt>
      <trkpt lat="51.33578" lon="5.02300"></trkpt>
      <trkpt lat="51.33574" lon="5.02280"></trkpt>
      <trkpt lat="51.33570" lon="5.02259"></trkpt>
      <trkpt lat="51.33567" lon="5.02239"></trkpt>
      <trkpt lat="51.33562" lon="5.02220"></trkpt>
      <trkpt lat="51.33558" lon="5.02200"></trkpt>
      <trkpt lat="51.33554" lon="5.02180"></trkpt>
      <trkpt lat="51.33550" lon="5.02161"></trkpt>
      <trkpt lat="51.33546" lon="5.02141"></trkpt>
      <trkpt lat="51.33544" lon="5.02120"></trkpt>
      <trkpt lat="51.33541" lon="5.02100"></trkpt>
      <trkpt lat="51.33537" lon="5.02081"></trkpt>
      <trkpt lat="51.33533" lon="5.02061"></trkpt>
      <trkpt lat="51.33528" lon="5.02041"></trkpt>
      <trkpt lat="51.33525" lon="5.02021"></trkpt>
      <trkpt lat="51.33522" lon="5.02001"></trkpt>
      <trkpt lat="51.33518" lon="5.01981"></trkpt>
      <trkpt lat="51.33515" lon="5.01961"></trkpt>
      <trkpt lat="51.33511" lon="5.01942"></trkpt>
      <trkpt lat="51.33508" lon="5.01922"></trkpt>
      <trkpt lat="51.33505" lon="5.01901"></trkpt>
      <trkpt lat="51.33502" lon="5.01882"></trkpt>
      <trkpt lat="51.33499" lon="5.01861"></trkpt>
      <trkpt lat="51.33496" lon="5.01842"></trkpt>
      <trkpt lat="51.33492" lon="5.01822"></trkpt>
      <trkpt lat="51.33488" lon="5.01801"></trkpt>
      <trkpt lat="51.33484" lon="5.01781"></trkpt>
      <trkpt lat="51.33480" lon="5.01762"></trkpt>
      <trkpt lat="51.33477" lon="5.01742"></trkpt>
      <trkpt lat="51.33473" lon="5.01722"></trkpt>
      <trkpt lat="51.33470" lon="5.01702"></trkpt>
      <trkpt lat="51.33467" lon="5.01683"></trkpt>
      <trkpt lat="51.33464" lon="5.01664"></trkpt>
      <trkpt lat="51.33461" lon="5.01644"></trkpt>
      <trkpt lat="51.33458" lon="5.01625"></trkpt>
      <trkpt lat="51.33454" lon="5.01604"></trkpt>
      <trkpt lat="51.33450" lon="5.01585"></trkpt>
      <trkpt lat="51.33447" lon="5.01565"></trkpt>
      <trkpt lat="51.33444" lon="5.01544"></trkpt>
      <trkpt lat="51.33440" lon="5.01524"></trkpt>
      <trkpt lat="51.33436" lon="5.01504"></trkpt>
      <trkpt lat="51.33433" lon="5.01484"></trkpt>
      <trkpt lat="51.33430" lon="5.01464"></trkpt>
      <trkpt lat="51.33426" lon="5.01443"></trkpt>
      <trkpt lat="51.33423" lon="5.01424"></trkpt>
      <trkpt lat="51.33420" lon="5.01404"></trkpt>
      <trkpt lat="51.33417" lon="5.01384"></trkpt>
      <trkpt lat="51.33412" lon="5.01366"></trkpt>
      <trkpt lat="51.33409" lon="5.01346"></trkpt>
      <trkpt lat="51.33406" lon="5.01326"></trkpt>
      <trkpt lat="51.33403" lon="5.01306"></trkpt>
      <trkpt lat="51.33400" lon="5.01287"></trkpt>
      <trkpt lat="51.33397" lon="5.01268"></trkpt>
      <trkpt lat="51.33393" lon="5.01248"></trkpt>
      <trkpt lat="51.33390" lon="5.01229"></trkpt>
      <trkpt lat="51.33386" lon="5.01209"></trkpt>
      <trkpt lat="51.33382" lon="5.01189"></trkpt>
      <trkpt lat="51.33378" lon="5.01168"></trkpt>
      <trkpt lat="51.33374" lon="5.01149"></trkpt>
      <trkpt lat="51.33372" lon="5.01129"></trkpt>
      <trkpt lat="51.33368" lon="5.01109"></trkpt>
      <trkpt lat="51.33366" lon="5.01089"></trkpt>
      <trkpt lat="51.33362" lon="5.01068"></trkpt>
      <trkpt lat="51.33358" lon="5.01048"></trkpt>
      <trkpt lat="51.33355" lon="5.01028"></trkpt>
      <trkpt lat="51.33352" lon="5.01009"></trkpt>
      <trkpt lat="51.33349" lon="5.00989"></trkpt>
      <trkpt lat="51.33346" lon="5.00971"></trkpt>
      <trkpt lat="51.33342" lon="5.00952"></trkpt>
      <trkpt lat="51.33339" lon="5.00934"></trkpt>
      <trkpt lat="51.33337" lon="5.00914"></trkpt>
      <trkpt lat="51.33335" lon="5.00897"></trkpt>
      <trkpt lat="51.33343" lon="5.00883"></trkpt>
      <trkpt lat="51.33353" lon="5.00874"></trkpt>
      <trkpt lat="51.33354" lon="5.00875"></trkpt>
      <trkpt lat="51.33344" lon="5.00886"></trkpt>
      <trkpt lat="51.33334" lon="5.00898"></trkpt>
      <trkpt lat="51.33321" lon="5.00897"></trkpt>
      <trkpt lat="51.33308" lon="5.00890"></trkpt>
      <trkpt lat="51.33297" lon="5.00884"></trkpt>
      <trkpt lat="51.33287" lon="5.00876"></trkpt>
      <trkpt lat="51.33278" lon="5.00862"></trkpt>
      <trkpt lat="51.33268" lon="5.00848"></trkpt>
      <trkpt lat="51.33257" lon="5.00835"></trkpt>
      <trkpt lat="51.33247" lon="5.00822"></trkpt>
      <trkpt lat="51.33238" lon="5.00809"></trkpt>
      <trkpt lat="51.33229" lon="5.00797"></trkpt>
      <trkpt lat="51.33218" lon="5.00788"></trkpt>
      <trkpt lat="51.33209" lon="5.00786"></trkpt>
      <trkpt lat="51.33201" lon="5.00787"></trkpt>
      <trkpt lat="51.33196" lon="5.00786"></trkpt>
      <trkpt lat="51.33189" lon="5.00784"></trkpt>
      <trkpt lat="51.33182" lon="5.00781"></trkpt>
      <trkpt lat="51.33176" lon="5.00780"></trkpt>
      <trkpt lat="51.33171" lon="5.00780"></trkpt>
      <trkpt lat="51.33165" lon="5.00778"></trkpt>
      <trkpt lat="51.33158" lon="5.00776"></trkpt>
      <trkpt lat="51.33149" lon="5.00775"></trkpt>
      <trkpt lat="51.33137" lon="5.00774"></trkpt>
      <trkpt lat="51.33124" lon="5.00768"></trkpt>
      <trkpt lat="51.33111" lon="5.00764"></trkpt>
      <trkpt lat="51.33098" lon="5.00762"></trkpt>
      <trkpt lat="51.33085" lon="5.00758"></trkpt>
      <trkpt lat="51.33075" lon="5.00746"></trkpt>
      <trkpt lat="51.33070" lon="5.00726"></trkpt>
      <trkpt lat="51.33069" lon="5.00705"></trkpt>
      <trkpt lat="51.33068" lon="5.00684"></trkpt>
      <trkpt lat="51.33066" lon="5.00663"></trkpt>
      <trkpt lat="51.33065" lon="5.00642"></trkpt>
      <trkpt lat="51.33063" lon="5.00622"></trkpt>
      <trkpt lat="51.33061" lon="5.00603"></trkpt>
      <trkpt lat="51.33060" lon="5.00583"></trkpt>
      <trkpt lat="51.33057" lon="5.00563"></trkpt>
      <trkpt lat="51.33051" lon="5.00546"></trkpt>
      <trkpt lat="51.33041" lon="5.00533"></trkpt>
      <trkpt lat="51.33032" lon="5.00520"></trkpt>
      <trkpt lat="51.33023" lon="5.00506"></trkpt>
      <trkpt lat="51.33013" lon="5.00493"></trkpt>
      <trkpt lat="51.33004" lon="5.00480"></trkpt>
      <trkpt lat="51.32996" lon="5.00466"></trkpt>
      <trkpt lat="51.32987" lon="5.00451"></trkpt>
      <trkpt lat="51.32977" lon="5.00437"></trkpt>
      <trkpt lat="51.32970" lon="5.00420"></trkpt>
      <trkpt lat="51.32964" lon="5.00401"></trkpt>
      <trkpt lat="51.32961" lon="5.00381"></trkpt>
      <trkpt lat="51.32956" lon="5.00367"></trkpt>
      <trkpt lat="51.32958" lon="5.00361"></trkpt>
      <trkpt lat="51.32966" lon="5.00359"></trkpt>
      <trkpt lat="51.32980" lon="5.00356"></trkpt>
      <trkpt lat="51.32995" lon="5.00358"></trkpt>
      <trkpt lat="51.33009" lon="5.00362"></trkpt>
      <trkpt lat="51.33018" lon="5.00365"></trkpt>
      <trkpt lat="51.33014" lon="5.00365"></trkpt>
      <trkpt lat="51.33002" lon="5.00360"></trkpt>
      <trkpt lat="51.32989" lon="5.00357"></trkpt>
      <trkpt lat="51.32977" lon="5.00356"></trkpt>
      <trkpt lat="51.32966" lon="5.00358"></trkpt>
      <trkpt lat="51.32956" lon="5.00362"></trkpt>
      <trkpt lat="51.32944" lon="5.00364"></trkpt>
      <trkpt lat="51.32931" lon="5.00371"></trkpt>
      <trkpt lat="51.32918" lon="5.00376"></trkpt>
      <trkpt lat="51.32905" lon="5.00382"></trkpt>
      <trkpt lat="51.32892" lon="5.00387"></trkpt>
      <trkpt lat="51.32878" lon="5.00388"></trkpt>
      <trkpt lat="51.32865" lon="5.00388"></trkpt>
      <trkpt lat="51.32852" lon="5.00388"></trkpt>
      <trkpt lat="51.32840" lon="5.00385"></trkpt>
      <trkpt lat="51.32829" lon="5.00378"></trkpt>
      <trkpt lat="51.32818" lon="5.00366"></trkpt>
      <trkpt lat="51.32808" lon="5.00351"></trkpt>
      <trkpt lat="51.32799" lon="5.00340"></trkpt>
      <trkpt lat="51.32790" lon="5.00331"></trkpt>
      <trkpt lat="51.32783" lon="5.00332"></trkpt>
      <trkpt lat="51.32775" lon="5.00336"></trkpt>
      <trkpt lat="51.32769" lon="5.00341"></trkpt>
      <trkpt lat="51.32762" lon="5.00342"></trkpt>
      <trkpt lat="51.32759" lon="5.00343"></trkpt>
      <trkpt lat="51.32757" lon="5.00342"></trkpt>
      <trkpt lat="51.32755" lon="5.00341"></trkpt>
      <trkpt lat="51.32752" lon="5.00343"></trkpt>
      <trkpt lat="51.32752" lon="5.00342"></trkpt>
      <trkpt lat="51.32752" lon="5.00341"></trkpt>
      <trkpt lat="51.32751" lon="5.00341"></trkpt>
      <trkpt lat="51.32750" lon="5.00341"></trkpt>
      <trkpt lat="51.32747" lon="5.00341"></trkpt>
      <trkpt lat="51.32747" lon="5.00342"></trkpt>
      <trkpt lat="51.32749" lon="5.00342"></trkpt>
      <trkpt lat="51.32750" lon="5.00342"></trkpt>
      <trkpt lat="51.32751" lon="5.00342"></trkpt>
      <trkpt lat="51.32755" lon="5.00341"></trkpt>
      <trkpt lat="51.32770" lon="5.00335"></trkpt>
      <trkpt lat="51.32780" lon="5.00339"></trkpt>
      <trkpt lat="51.32784" lon="5.00362"></trkpt>
      <trkpt lat="51.32783" lon="5.00384"></trkpt>
      <trkpt lat="51.32780" lon="5.00404"></trkpt>
      <trkpt lat="51.32779" lon="5.00425"></trkpt>
      <trkpt lat="51.32778" lon="5.00446"></trkpt>
      <trkpt lat="51.32777" lon="5.00466"></trkpt>
      <trkpt lat="51.32774" lon="5.00486"></trkpt>
      <trkpt lat="51.32772" lon="5.00507"></trkpt>
      <trkpt lat="51.32770" lon="5.00525"></trkpt>
      <trkpt lat="51.32767" lon="5.00543"></trkpt>
      <trkpt lat="51.32764" lon="5.00562"></trkpt>
      <trkpt lat="51.32762" lon="5.00582"></trkpt>
      <trkpt lat="51.32760" lon="5.00602"></trkpt>
      <trkpt lat="51.32757" lon="5.00621"></trkpt>
      <trkpt lat="51.32754" lon="5.00640"></trkpt>
      <trkpt lat="51.32752" lon="5.00659"></trkpt>
      <trkpt lat="51.32750" lon="5.00680"></trkpt>
      <trkpt lat="51.32748" lon="5.00699"></trkpt>
      <trkpt lat="51.32745" lon="5.00719"></trkpt>
      <trkpt lat="51.32743" lon="5.00739"></trkpt>
      <trkpt lat="51.32741" lon="5.00759"></trkpt>
      <trkpt lat="51.32739" lon="5.00778"></trkpt>
      <trkpt lat="51.32737" lon="5.00798"></trkpt>
      <trkpt lat="51.32734" lon="5.00817"></trkpt>
      <trkpt lat="51.32732" lon="5.00837"></trkpt>
      <trkpt lat="51.32731" lon="5.00858"></trkpt>
      <trkpt lat="51.32729" lon="5.00879"></trkpt>
      <trkpt lat="51.32727" lon="5.00898"></trkpt>
      <trkpt lat="51.32725" lon="5.00919"></trkpt>
      <trkpt lat="51.32722" lon="5.00940"></trkpt>
      <trkpt lat="51.32720" lon="5.00960"></trkpt>
      <trkpt lat="51.32719" lon="5.00979"></trkpt>
      <trkpt lat="51.32716" lon="5.00999"></trkpt>
      <trkpt lat="51.32715" lon="5.01018"></trkpt>
      <trkpt lat="51.32713" lon="5.01036"></trkpt>
      <trkpt lat="51.32712" lon="5.01054"></trkpt>
      <trkpt lat="51.32709" lon="5.01073"></trkpt>
      <trkpt lat="51.32707" lon="5.01093"></trkpt>
      <trkpt lat="51.32706" lon="5.01113"></trkpt>
      <trkpt lat="51.32705" lon="5.01132"></trkpt>
      <trkpt lat="51.32703" lon="5.01151"></trkpt>
      <trkpt lat="51.32702" lon="5.01171"></trkpt>
      <trkpt lat="51.32700" lon="5.01191"></trkpt>
      <trkpt lat="51.32700" lon="5.01211"></trkpt>
      <trkpt lat="51.32697" lon="5.01230"></trkpt>
      <trkpt lat="51.32698" lon="5.01249"></trkpt>
      <trkpt lat="51.32698" lon="5.01270"></trkpt>
      <trkpt lat="51.32693" lon="5.01291"></trkpt>
      <trkpt lat="51.32689" lon="5.01312"></trkpt>
      <trkpt lat="51.32687" lon="5.01334"></trkpt>
      <trkpt lat="51.32684" lon="5.01355"></trkpt>
      <trkpt lat="51.32683" lon="5.01374"></trkpt>
      <trkpt lat="51.32683" lon="5.01395"></trkpt>
      <trkpt lat="51.32680" lon="5.01417"></trkpt>
      <trkpt lat="51.32678" lon="5.01436"></trkpt>
      <trkpt lat="51.32679" lon="5.01457"></trkpt>
      <trkpt lat="51.32677" lon="5.01476"></trkpt>
      <trkpt lat="51.32674" lon="5.01495"></trkpt>
      <trkpt lat="51.32672" lon="5.01514"></trkpt>
      <trkpt lat="51.32669" lon="5.01533"></trkpt>
      <trkpt lat="51.32665" lon="5.01552"></trkpt>
      <trkpt lat="51.32664" lon="5.01574"></trkpt>
      <trkpt lat="51.32662" lon="5.01595"></trkpt>
      <trkpt lat="51.32660" lon="5.01613"></trkpt>
      <trkpt lat="51.32659" lon="5.01632"></trkpt>
      <trkpt lat="51.32657" lon="5.01652"></trkpt>
      <trkpt lat="51.32656" lon="5.01672"></trkpt>
      <trkpt lat="51.32654" lon="5.01692"></trkpt>
      <trkpt lat="51.32653" lon="5.01711"></trkpt>
      <trkpt lat="51.32652" lon="5.01731"></trkpt>
      <trkpt lat="51.32652" lon="5.01752"></trkpt>
      <trkpt lat="51.32651" lon="5.01771"></trkpt>
      <trkpt lat="51.32651" lon="5.01791"></trkpt>
      <trkpt lat="51.32650" lon="5.01812"></trkpt>
      <trkpt lat="51.32649" lon="5.01832"></trkpt>
      <trkpt lat="51.32648" lon="5.01852"></trkpt>
      <trkpt lat="51.32648" lon="5.01871"></trkpt>
      <trkpt lat="51.32647" lon="5.01888"></trkpt>
      <trkpt lat="51.32647" lon="5.01901"></trkpt>
      <trkpt lat="51.32647" lon="5.01912"></trkpt>
      <trkpt lat="51.32647" lon="5.01923"></trkpt>
      <trkpt lat="51.32647" lon="5.01934"></trkpt>
      <trkpt lat="51.32647" lon="5.01944"></trkpt>
      <trkpt lat="51.32647" lon="5.01955"></trkpt>
      <trkpt lat="51.32648" lon="5.01965"></trkpt>
      <trkpt lat="51.32648" lon="5.01975"></trkpt>
      <trkpt lat="51.32647" lon="5.01984"></trkpt>
      <trkpt lat="51.32647" lon="5.01993"></trkpt>
      <trkpt lat="51.32647" lon="5.01997"></trkpt>
      <trkpt lat="51.32646" lon="5.02004"></trkpt>
      <trkpt lat="51.32647" lon="5.02016"></trkpt>
      <trkpt lat="51.32647" lon="5.02035"></trkpt>
      <trkpt lat="51.32647" lon="5.02055"></trkpt>
      <trkpt lat="51.32647" lon="5.02077"></trkpt>
      <trkpt lat="51.32647" lon="5.02098"></trkpt>
      <trkpt lat="51.32647" lon="5.02119"></trkpt>
      <trkpt lat="51.32646" lon="5.02139"></trkpt>
      <trkpt lat="51.32646" lon="5.02159"></trkpt>
      <trkpt lat="51.32646" lon="5.02179"></trkpt>
      <trkpt lat="51.32647" lon="5.02199"></trkpt>
      <trkpt lat="51.32646" lon="5.02219"></trkpt>
      <trkpt lat="51.32646" lon="5.02239"></trkpt>
      <trkpt lat="51.32646" lon="5.02259"></trkpt>
      <trkpt lat="51.32645" lon="5.02279"></trkpt>
      <trkpt lat="51.32643" lon="5.02298"></trkpt>
      <trkpt lat="51.32642" lon="5.02316"></trkpt>
      <trkpt lat="51.32638" lon="5.02337"></trkpt>
      <trkpt lat="51.32634" lon="5.02357"></trkpt>
      <trkpt lat="51.32631" lon="5.02376"></trkpt>
      <trkpt lat="51.32627" lon="5.02396"></trkpt>
      <trkpt lat="51.32624" lon="5.02415"></trkpt>
      <trkpt lat="51.32620" lon="5.02434"></trkpt>
      <trkpt lat="51.32617" lon="5.02454"></trkpt>
      <trkpt lat="51.32614" lon="5.02473"></trkpt>
      <trkpt lat="51.32609" lon="5.02492"></trkpt>
      <trkpt lat="51.32606" lon="5.02511"></trkpt>
      <trkpt lat="51.32603" lon="5.02531"></trkpt>
      <trkpt lat="51.32599" lon="5.02549"></trkpt>
      <trkpt lat="51.32595" lon="5.02568"></trkpt>
      <trkpt lat="51.32592" lon="5.02589"></trkpt>
      <trkpt lat="51.32588" lon="5.02608"></trkpt>
      <trkpt lat="51.32584" lon="5.02628"></trkpt>
      <trkpt lat="51.32578" lon="5.02644"></trkpt>
      <trkpt lat="51.32567" lon="5.02645"></trkpt>
      <trkpt lat="51.32555" lon="5.02637"></trkpt>
      <trkpt lat="51.32545" lon="5.02632"></trkpt>
      <trkpt lat="51.32543" lon="5.02649"></trkpt>
      <trkpt lat="51.32546" lon="5.02671"></trkpt>
      <trkpt lat="51.32550" lon="5.02690"></trkpt>
      <trkpt lat="51.32552" lon="5.02710"></trkpt>
      <trkpt lat="51.32555" lon="5.02729"></trkpt>
      <trkpt lat="51.32557" lon="5.02748"></trkpt>
      <trkpt lat="51.32558" lon="5.02767"></trkpt>
      <trkpt lat="51.32559" lon="5.02787"></trkpt>
      <trkpt lat="51.32560" lon="5.02807"></trkpt>
      <trkpt lat="51.32559" lon="5.02827"></trkpt>
      <trkpt lat="51.32558" lon="5.02849"></trkpt>
      <trkpt lat="51.32557" lon="5.02869"></trkpt>
      <trkpt lat="51.32554" lon="5.02888"></trkpt>
      <trkpt lat="51.32553" lon="5.02908"></trkpt>
      <trkpt lat="51.32552" lon="5.02928"></trkpt>
      <trkpt lat="51.32550" lon="5.02946"></trkpt>
      <trkpt lat="51.32542" lon="5.02956"></trkpt>
      <trkpt lat="51.32530" lon="5.02966"></trkpt>
      <trkpt lat="51.32519" lon="5.02975"></trkpt>
      <trkpt lat="51.32508" lon="5.02983"></trkpt>
      <trkpt lat="51.32496" lon="5.02992"></trkpt>
      <trkpt lat="51.32484" lon="5.02999"></trkpt>
      <trkpt lat="51.32472" lon="5.03005"></trkpt>
      <trkpt lat="51.32461" lon="5.03012"></trkpt>
      <trkpt lat="51.32449" lon="5.03021"></trkpt>
      <trkpt lat="51.32437" lon="5.03030"></trkpt>
      <trkpt lat="51.32425" lon="5.03037"></trkpt>
      <trkpt lat="51.32414" lon="5.03044"></trkpt>
      <trkpt lat="51.32402" lon="5.03050"></trkpt>
      <trkpt lat="51.32390" lon="5.03057"></trkpt>
      <trkpt lat="51.32379" lon="5.03064"></trkpt>
      <trkpt lat="51.32367" lon="5.03072"></trkpt>
      <trkpt lat="51.32355" lon="5.03080"></trkpt>
      <trkpt lat="51.32343" lon="5.03088"></trkpt>
      <trkpt lat="51.32331" lon="5.03096"></trkpt>
      <trkpt lat="51.32320" lon="5.03104"></trkpt>
      <trkpt lat="51.32308" lon="5.03111"></trkpt>
      <trkpt lat="51.32297" lon="5.03119"></trkpt>
      <trkpt lat="51.32284" lon="5.03126"></trkpt>
      <trkpt lat="51.32272" lon="5.03133"></trkpt>
      <trkpt lat="51.32260" lon="5.03141"></trkpt>
      <trkpt lat="51.32248" lon="5.03149"></trkpt>
      <trkpt lat="51.32236" lon="5.03156"></trkpt>
      <trkpt lat="51.32224" lon="5.03164"></trkpt>
      <trkpt lat="51.32213" lon="5.03174"></trkpt>
      <trkpt lat="51.32201" lon="5.03182"></trkpt>
      <trkpt lat="51.32189" lon="5.03189"></trkpt>
      <trkpt lat="51.32177" lon="5.03197"></trkpt>
      <trkpt lat="51.32165" lon="5.03204"></trkpt>
      <trkpt lat="51.32153" lon="5.03210"></trkpt>
      <trkpt lat="51.32142" lon="5.03218"></trkpt>
      <trkpt lat="51.32130" lon="5.03226"></trkpt>
      <trkpt lat="51.32118" lon="5.03234"></trkpt>
      <trkpt lat="51.32107" lon="5.03241"></trkpt>
      <trkpt lat="51.32095" lon="5.03248"></trkpt>
      <trkpt lat="51.32084" lon="5.03255"></trkpt>
      <trkpt lat="51.32072" lon="5.03262"></trkpt>
      <trkpt lat="51.32062" lon="5.03270"></trkpt>
      <trkpt lat="51.32051" lon="5.03278"></trkpt>
      <trkpt lat="51.32038" lon="5.03286"></trkpt>
      <trkpt lat="51.32026" lon="5.03295"></trkpt>
      <trkpt lat="51.32013" lon="5.03303"></trkpt>
      <trkpt lat="51.32002" lon="5.03311"></trkpt>
      <trkpt lat="51.31990" lon="5.03318"></trkpt>
      <trkpt lat="51.31978" lon="5.03325"></trkpt>
      <trkpt lat="51.31966" lon="5.03333"></trkpt>
      <trkpt lat="51.31954" lon="5.03341"></trkpt>
      <trkpt lat="51.31943" lon="5.03348"></trkpt>
      <trkpt lat="51.31930" lon="5.03355"></trkpt>
      <trkpt lat="51.31919" lon="5.03364"></trkpt>
      <trkpt lat="51.31907" lon="5.03372"></trkpt>
      <trkpt lat="51.31894" lon="5.03380"></trkpt>
      <trkpt lat="51.31882" lon="5.03387"></trkpt>
      <trkpt lat="51.31870" lon="5.03394"></trkpt>
      <trkpt lat="51.31858" lon="5.03402"></trkpt>
      <trkpt lat="51.31846" lon="5.03409"></trkpt>
      <trkpt lat="51.31834" lon="5.03417"></trkpt>
      <trkpt lat="51.31822" lon="5.03425"></trkpt>
      <trkpt lat="51.31810" lon="5.03433"></trkpt>
      <trkpt lat="51.31799" lon="5.03440"></trkpt>
      <trkpt lat="51.31787" lon="5.03448"></trkpt>
      <trkpt lat="51.31774" lon="5.03457"></trkpt>
      <trkpt lat="51.31762" lon="5.03463"></trkpt>
      <trkpt lat="51.31764" lon="5.03461"></trkpt>
      <trkpt lat="51.31778" lon="5.03462"></trkpt>
      <trkpt lat="51.31785" lon="5.03481"></trkpt>
      <trkpt lat="51.31792" lon="5.03503"></trkpt>
      <trkpt lat="51.31798" lon="5.03522"></trkpt>
      <trkpt lat="51.31804" lon="5.03540"></trkpt>
      <trkpt lat="51.31809" lon="5.03560"></trkpt>
      <trkpt lat="51.31814" lon="5.03578"></trkpt>
      <trkpt lat="51.31819" lon="5.03596"></trkpt>
      <trkpt lat="51.31824" lon="5.03614"></trkpt>
      <trkpt lat="51.31829" lon="5.03633"></trkpt>
      <trkpt lat="51.31834" lon="5.03652"></trkpt>
      <trkpt lat="51.31838" lon="5.03670"></trkpt>
      <trkpt lat="51.31844" lon="5.03689"></trkpt>
      <trkpt lat="51.31849" lon="5.03708"></trkpt>
      <trkpt lat="51.31853" lon="5.03727"></trkpt>
      <trkpt lat="51.31858" lon="5.03747"></trkpt>
      <trkpt lat="51.31864" lon="5.03765"></trkpt>
      <trkpt lat="51.31869" lon="5.03783"></trkpt>
      <trkpt lat="51.31874" lon="5.03802"></trkpt>
      <trkpt lat="51.31880" lon="5.03821"></trkpt>
      <trkpt lat="51.31885" lon="5.03840"></trkpt>
      <trkpt lat="51.31890" lon="5.03860"></trkpt>
      <trkpt lat="51.31896" lon="5.03879"></trkpt>
      <trkpt lat="51.31900" lon="5.03897"></trkpt>
      <trkpt lat="51.31905" lon="5.03915"></trkpt>
      <trkpt lat="51.31910" lon="5.03933"></trkpt>
      <trkpt lat="51.31915" lon="5.03951"></trkpt>
      <trkpt lat="51.31919" lon="5.03969"></trkpt>
      <trkpt lat="51.31923" lon="5.03987"></trkpt>
      <trkpt lat="51.31928" lon="5.04007"></trkpt>
      <trkpt lat="51.31933" lon="5.04026"></trkpt>
      <trkpt lat="51.31937" lon="5.04045"></trkpt>
      <trkpt lat="51.31942" lon="5.04064"></trkpt>
      <trkpt lat="51.31946" lon="5.04081"></trkpt>
      <trkpt lat="51.31951" lon="5.04099"></trkpt>
      <trkpt lat="51.31955" lon="5.04117"></trkpt>
      <trkpt lat="51.31959" lon="5.04135"></trkpt>
      <trkpt lat="51.31964" lon="5.04154"></trkpt>
      <trkpt lat="51.31969" lon="5.04172"></trkpt>
      <trkpt lat="51.31974" lon="5.04191"></trkpt>
      <trkpt lat="51.31978" lon="5.04210"></trkpt>
      <trkpt lat="51.31983" lon="5.04226"></trkpt>
      <trkpt lat="51.31989" lon="5.04244"></trkpt>
      <trkpt lat="51.31993" lon="5.04262"></trkpt>
      <trkpt lat="51.31995" lon="5.04281"></trkpt>
      <trkpt lat="51.31997" lon="5.04300"></trkpt>
      <trkpt lat="51.32001" lon="5.04318"></trkpt>
      <trkpt lat="51.32004" lon="5.04336"></trkpt>
      <trkpt lat="51.32008" lon="5.04353"></trkpt>
      <trkpt lat="51.32011" lon="5.04369"></trkpt>
      <trkpt lat="51.32014" lon="5.04386"></trkpt>
      <trkpt lat="51.32018" lon="5.04403"></trkpt>
      <trkpt lat="51.32021" lon="5.04419"></trkpt>
      <trkpt lat="51.32022" lon="5.04436"></trkpt>
      <trkpt lat="51.32020" lon="5.04454"></trkpt>
      <trkpt lat="51.32013" lon="5.04469"></trkpt>
      <trkpt lat="51.32004" lon="5.04483"></trkpt>
      <trkpt lat="51.31998" lon="5.04496"></trkpt>
      <trkpt lat="51.32002" lon="5.04515"></trkpt>
      <trkpt lat="51.32007" lon="5.04534"></trkpt>
      <trkpt lat="51.32011" lon="5.04553"></trkpt>
      <trkpt lat="51.32015" lon="5.04571"></trkpt>
      <trkpt lat="51.32019" lon="5.04590"></trkpt>
      <trkpt lat="51.32023" lon="5.04609"></trkpt>
      <trkpt lat="51.32028" lon="5.04627"></trkpt>
      <trkpt lat="51.32032" lon="5.04646"></trkpt>
      <trkpt lat="51.32037" lon="5.04660"></trkpt>
      <trkpt lat="51.32047" lon="5.04670"></trkpt>
      <trkpt lat="51.32059" lon="5.04677"></trkpt>
      <trkpt lat="51.32071" lon="5.04686"></trkpt>
      <trkpt lat="51.32082" lon="5.04696"></trkpt>
      <trkpt lat="51.32095" lon="5.04706"></trkpt>
      <trkpt lat="51.32107" lon="5.04713"></trkpt>
      <trkpt lat="51.32120" lon="5.04716"></trkpt>
      <trkpt lat="51.32132" lon="5.04719"></trkpt>
      <trkpt lat="51.32146" lon="5.04720"></trkpt>
      <trkpt lat="51.32159" lon="5.04722"></trkpt>
      <trkpt lat="51.32173" lon="5.04723"></trkpt>
      <trkpt lat="51.32186" lon="5.04727"></trkpt>
      <trkpt lat="51.32198" lon="5.04730"></trkpt>
      <trkpt lat="51.32210" lon="5.04731"></trkpt>
      <trkpt lat="51.32223" lon="5.04733"></trkpt>
      <trkpt lat="51.32237" lon="5.04736"></trkpt>
      <trkpt lat="51.32251" lon="5.04739"></trkpt>
      <trkpt lat="51.32265" lon="5.04742"></trkpt>
      <trkpt lat="51.32278" lon="5.04745"></trkpt>
      <trkpt lat="51.32291" lon="5.04748"></trkpt>
      <trkpt lat="51.32305" lon="5.04750"></trkpt>
      <trkpt lat="51.32318" lon="5.04751"></trkpt>
      <trkpt lat="51.32330" lon="5.04748"></trkpt>
      <trkpt lat="51.32335" lon="5.04730"></trkpt>
      <trkpt lat="51.32335" lon="5.04709"></trkpt>
      <trkpt lat="51.32335" lon="5.04689"></trkpt>
      <trkpt lat="51.32336" lon="5.04671"></trkpt>
      <trkpt lat="51.32336" lon="5.04653"></trkpt>
      <trkpt lat="51.32336" lon="5.04633"></trkpt>
      <trkpt lat="51.32336" lon="5.04613"></trkpt>
      <trkpt lat="51.32336" lon="5.04594"></trkpt>
      <trkpt lat="51.32338" lon="5.04577"></trkpt>
      <trkpt lat="51.32340" lon="5.04559"></trkpt>
      <trkpt lat="51.32342" lon="5.04539"></trkpt>
      <trkpt lat="51.32343" lon="5.04521"></trkpt>
      <trkpt lat="51.32344" lon="5.04501"></trkpt>
      <trkpt lat="51.32344" lon="5.04482"></trkpt>
      <trkpt lat="51.32346" lon="5.04463"></trkpt>
      <trkpt lat="51.32347" lon="5.04443"></trkpt>
      <trkpt lat="51.32348" lon="5.04423"></trkpt>
      <trkpt lat="51.32349" lon="5.04403"></trkpt>
      <trkpt lat="51.32350" lon="5.04384"></trkpt>
      <trkpt lat="51.32350" lon="5.04364"></trkpt>
      <trkpt lat="51.32351" lon="5.04344"></trkpt>
      <trkpt lat="51.32352" lon="5.04324"></trkpt>
      <trkpt lat="51.32352" lon="5.04304"></trkpt>
      <trkpt lat="51.32353" lon="5.04284"></trkpt>
      <trkpt lat="51.32355" lon="5.04263"></trkpt>
      <trkpt lat="51.32356" lon="5.04242"></trkpt>
      <trkpt lat="51.32357" lon="5.04223"></trkpt>
      <trkpt lat="51.32358" lon="5.04204"></trkpt>
      <trkpt lat="51.32359" lon="5.04184"></trkpt>
      <trkpt lat="51.32360" lon="5.04165"></trkpt>
      <trkpt lat="51.32361" lon="5.04146"></trkpt>
      <trkpt lat="51.32362" lon="5.04126"></trkpt>
      <trkpt lat="51.32363" lon="5.04105"></trkpt>
      <trkpt lat="51.32364" lon="5.04085"></trkpt>
      <trkpt lat="51.32365" lon="5.04065"></trkpt>
      <trkpt lat="51.32366" lon="5.04044"></trkpt>
      <trkpt lat="51.32367" lon="5.04024"></trkpt>
      <trkpt lat="51.32368" lon="5.04003"></trkpt>
      <trkpt lat="51.32370" lon="5.03982"></trkpt>
      <trkpt lat="51.32370" lon="5.03963"></trkpt>
      <trkpt lat="51.32372" lon="5.03942"></trkpt>
      <trkpt lat="51.32373" lon="5.03922"></trkpt>
      <trkpt lat="51.32374" lon="5.03901"></trkpt>
      <trkpt lat="51.32375" lon="5.03880"></trkpt>
      <trkpt lat="51.32376" lon="5.03859"></trkpt>
      <trkpt lat="51.32377" lon="5.03838"></trkpt>
      <trkpt lat="51.32378" lon="5.03816"></trkpt>
      <trkpt lat="51.32380" lon="5.03795"></trkpt>
      <trkpt lat="51.32381" lon="5.03774"></trkpt>
      <trkpt lat="51.32384" lon="5.03753"></trkpt>
      <trkpt lat="51.32387" lon="5.03732"></trkpt>
      <trkpt lat="51.32390" lon="5.03712"></trkpt>
      <trkpt lat="51.32393" lon="5.03692"></trkpt>
      <trkpt lat="51.32398" lon="5.03671"></trkpt>
      <trkpt lat="51.32402" lon="5.03651"></trkpt>
      <trkpt lat="51.32406" lon="5.03631"></trkpt>
      <trkpt lat="51.32410" lon="5.03611"></trkpt>
      <trkpt lat="51.32414" lon="5.03590"></trkpt>
      <trkpt lat="51.32417" lon="5.03571"></trkpt>
      <trkpt lat="51.32421" lon="5.03551"></trkpt>
      <trkpt lat="51.32425" lon="5.03531"></trkpt>
      <trkpt lat="51.32428" lon="5.03511"></trkpt>
      <trkpt lat="51.32432" lon="5.03491"></trkpt>
      <trkpt lat="51.32436" lon="5.03471"></trkpt>
      <trkpt lat="51.32440" lon="5.03451"></trkpt>
      <trkpt lat="51.32444" lon="5.03432"></trkpt>
      <trkpt lat="51.32448" lon="5.03412"></trkpt>
      <trkpt lat="51.32452" lon="5.03392"></trkpt>
      <trkpt lat="51.32456" lon="5.03372"></trkpt>
      <trkpt lat="51.32460" lon="5.03353"></trkpt>
      <trkpt lat="51.32465" lon="5.03334"></trkpt>
      <trkpt lat="51.32468" lon="5.03315"></trkpt>
      <trkpt lat="51.32471" lon="5.03297"></trkpt>
      <trkpt lat="51.32475" lon="5.03276"></trkpt>
      <trkpt lat="51.32478" lon="5.03258"></trkpt>
      <trkpt lat="51.32480" lon="5.03245"></trkpt>
      <trkpt lat="51.32482" lon="5.03236"></trkpt>
      <trkpt lat="51.32484" lon="5.03227"></trkpt>
      <trkpt lat="51.32486" lon="5.03217"></trkpt>
      <trkpt lat="51.32487" lon="5.03208"></trkpt>
      <trkpt lat="51.32489" lon="5.03199"></trkpt>
      <trkpt lat="51.32491" lon="5.03190"></trkpt>
      <trkpt lat="51.32492" lon="5.03179"></trkpt>
      <trkpt lat="51.32495" lon="5.03169"></trkpt>
      <trkpt lat="51.32497" lon="5.03160"></trkpt>
      <trkpt lat="51.32499" lon="5.03151"></trkpt>
      <trkpt lat="51.32501" lon="5.03143"></trkpt>
      <trkpt lat="51.32504" lon="5.03127"></trkpt>
      <trkpt lat="51.32507" lon="5.03107"></trkpt>
      <trkpt lat="51.32511" lon="5.03087"></trkpt>
      <trkpt lat="51.32515" lon="5.03067"></trkpt>
      <trkpt lat="51.32519" lon="5.03048"></trkpt>
      <trkpt lat="51.32522" lon="5.03029"></trkpt>
      <trkpt lat="51.32526" lon="5.03009"></trkpt>
      <trkpt lat="51.32532" lon="5.02990"></trkpt>
      <trkpt lat="51.32536" lon="5.02970"></trkpt>
      <trkpt lat="51.32543" lon="5.02953"></trkpt>
      <trkpt lat="51.32555" lon="5.02952"></trkpt>
      <trkpt lat="51.32565" lon="5.02964"></trkpt>
      <trkpt lat="51.32570" lon="5.02967"></trkpt>
      <trkpt lat="51.32579" lon="5.02970"></trkpt>
      <trkpt lat="51.32594" lon="5.02977"></trkpt>
      <trkpt lat="51.32607" lon="5.02984"></trkpt>
      <trkpt lat="51.32620" lon="5.02989"></trkpt>
      <trkpt lat="51.32633" lon="5.02994"></trkpt>
      <trkpt lat="51.32643" lon="5.03001"></trkpt>
      <trkpt lat="51.32655" lon="5.03008"></trkpt>
      <trkpt lat="51.32668" lon="5.03015"></trkpt>
      <trkpt lat="51.32676" lon="5.03015"></trkpt>
      <trkpt lat="51.32677" lon="5.03004"></trkpt>
      <trkpt lat="51.32677" lon="5.02995"></trkpt>
      <trkpt lat="51.32677" lon="5.02988"></trkpt>
      <trkpt lat="51.32680" lon="5.02965"></trkpt>
      <trkpt lat="51.32684" lon="5.02943"></trkpt>
      <trkpt lat="51.32692" lon="5.02924"></trkpt>
      <trkpt lat="51.32703" lon="5.02916"></trkpt>
      <trkpt lat="51.32716" lon="5.02921"></trkpt>
      <trkpt lat="51.32729" lon="5.02928"></trkpt>
      <trkpt lat="51.32743" lon="5.02930"></trkpt>
      <trkpt lat="51.32755" lon="5.02923"></trkpt>
      <trkpt lat="51.32761" lon="5.02906"></trkpt>
      <trkpt lat="51.32765" lon="5.02887"></trkpt>
      <trkpt lat="51.32768" lon="5.02867"></trkpt>
      <trkpt lat="51.32772" lon="5.02846"></trkpt>
      <trkpt lat="51.32776" lon="5.02827"></trkpt>
      <trkpt lat="51.32778" lon="5.02807"></trkpt>
      <trkpt lat="51.32779" lon="5.02787"></trkpt>
      <trkpt lat="51.32779" lon="5.02769"></trkpt>
      <trkpt lat="51.32775" lon="5.02760"></trkpt>
      <trkpt lat="51.32771" lon="5.02751"></trkpt>
      <trkpt lat="51.32775" lon="5.02737"></trkpt>
      <trkpt lat="51.32784" lon="5.02723"></trkpt>
      <trkpt lat="51.32797" lon="5.02715"></trkpt>
      <trkpt lat="51.32809" lon="5.02709"></trkpt>
      <trkpt lat="51.32824" lon="5.02703"></trkpt>
      <trkpt lat="51.32836" lon="5.02700"></trkpt>
      <trkpt lat="51.32849" lon="5.02695"></trkpt>
      <trkpt lat="51.32860" lon="5.02687"></trkpt>
      <trkpt lat="51.32872" lon="5.02680"></trkpt>
      <trkpt lat="51.32884" lon="5.02676"></trkpt>
      <trkpt lat="51.32896" lon="5.02671"></trkpt>
      <trkpt lat="51.32907" lon="5.02663"></trkpt>
      <trkpt lat="51.32919" lon="5.02657"></trkpt>
      <trkpt lat="51.32932" lon="5.02650"></trkpt>
      <trkpt lat="51.32944" lon="5.02646"></trkpt>
      <trkpt lat="51.32956" lon="5.02642"></trkpt>
      <trkpt lat="51.32969" lon="5.02636"></trkpt>
      <trkpt lat="51.32981" lon="5.02629"></trkpt>
      <trkpt lat="51.32994" lon="5.02624"></trkpt>
      <trkpt lat="51.33006" lon="5.02616"></trkpt>
      <trkpt lat="51.33019" lon="5.02611"></trkpt>
      <trkpt lat="51.33032" lon="5.02605"></trkpt>
      <trkpt lat="51.33045" lon="5.02599"></trkpt>
      <trkpt lat="51.33059" lon="5.02594"></trkpt>
      <trkpt lat="51.33072" lon="5.02588"></trkpt>
      <trkpt lat="51.33084" lon="5.02582"></trkpt>
      <trkpt lat="51.33095" lon="5.02576"></trkpt>
      <trkpt lat="51.33108" lon="5.02569"></trkpt>
      <trkpt lat="51.33120" lon="5.02563"></trkpt>
      <trkpt lat="51.33132" lon="5.02559"></trkpt>
      <trkpt lat="51.33144" lon="5.02553"></trkpt>
      <trkpt lat="51.33157" lon="5.02547"></trkpt>
      <trkpt lat="51.33169" lon="5.02542"></trkpt>
      <trkpt lat="51.33181" lon="5.02536"></trkpt>
      <trkpt lat="51.33194" lon="5.02530"></trkpt>
      <trkpt lat="51.33203" lon="5.02526"></trkpt>
      <trkpt lat="51.33213" lon="5.02522"></trkpt>
      <trkpt lat="51.33224" lon="5.02525"></trkpt>
      <trkpt lat="51.33230" lon="5.02543"></trkpt>
      <trkpt lat="51.33233" lon="5.02564"></trkpt>
      <trkpt lat="51.33237" lon="5.02584"></trkpt>
      <trkpt lat="51.33241" lon="5.02604"></trkpt>
      <trkpt lat="51.33244" lon="5.02624"></trkpt>
      <trkpt lat="51.33247" lon="5.02644"></trkpt>
      <trkpt lat="51.33251" lon="5.02665"></trkpt>
      <trkpt lat="51.33255" lon="5.02684"></trkpt>
      <trkpt lat="51.33257" lon="5.02704"></trkpt>
      <trkpt lat="51.33260" lon="5.02725"></trkpt>
      <trkpt lat="51.33265" lon="5.02745"></trkpt>
      <trkpt lat="51.33268" lon="5.02766"></trkpt>
      <trkpt lat="51.33271" lon="5.02786"></trkpt>
      <trkpt lat="51.33274" lon="5.02807"></trkpt>
      <trkpt lat="51.33278" lon="5.02827"></trkpt>
      <trkpt lat="51.33281" lon="5.02847"></trkpt>
      <trkpt lat="51.33285" lon="5.02868"></trkpt>
      <trkpt lat="51.33288" lon="5.02888"></trkpt>
      <trkpt lat="51.33292" lon="5.02908"></trkpt>
      <trkpt lat="51.33297" lon="5.02929"></trkpt>
      <trkpt lat="51.33301" lon="5.02948"></trkpt>
      <trkpt lat="51.33303" lon="5.02968"></trkpt>
      <trkpt lat="51.33307" lon="5.02988"></trkpt>
      <trkpt lat="51.33310" lon="5.03007"></trkpt>
      <trkpt lat="51.33310" lon="5.03027"></trkpt>
      <trkpt lat="51.33317" lon="5.03042"></trkpt>
      <trkpt lat="51.33329" lon="5.03051"></trkpt>
      <trkpt lat="51.33342" lon="5.03058"></trkpt>
      <trkpt lat="51.33354" lon="5.03066"></trkpt>
      <trkpt lat="51.33367" lon="5.03073"></trkpt>
      <trkpt lat="51.33379" lon="5.03080"></trkpt>
      <trkpt lat="51.33392" lon="5.03086"></trkpt>
      <trkpt lat="51.33404" lon="5.03093"></trkpt>
      <trkpt lat="51.33418" lon="5.03100"></trkpt>
      <trkpt lat="51.33430" lon="5.03106"></trkpt>
      <trkpt lat="51.33442" lon="5.03115"></trkpt>
      <trkpt lat="51.33446" lon="5.03133"></trkpt>
      <trkpt lat="51.33442" lon="5.03155"></trkpt>
      <trkpt lat="51.33437" lon="5.03176"></trkpt>
      <trkpt lat="51.33433" lon="5.03198"></trkpt>
      <trkpt lat="51.33430" lon="5.03219"></trkpt>
      <trkpt lat="51.33427" lon="5.03240"></trkpt>
      <trkpt lat="51.33422" lon="5.03259"></trkpt>
      <trkpt lat="51.33418" lon="5.03278"></trkpt>
      <trkpt lat="51.33412" lon="5.03296"></trkpt>
      <trkpt lat="51.33407" lon="5.03315"></trkpt>
      <trkpt lat="51.33403" lon="5.03334"></trkpt>
      <trkpt lat="51.33399" lon="5.03355"></trkpt>
      <trkpt lat="51.33396" lon="5.03375"></trkpt>
      <trkpt lat="51.33393" lon="5.03395"></trkpt>
      <trkpt lat="51.33399" lon="5.03412"></trkpt>
      <trkpt lat="51.33411" lon="5.03419"></trkpt>
      <trkpt lat="51.33423" lon="5.03425"></trkpt>
      <trkpt lat="51.33436" lon="5.03432"></trkpt>
      <trkpt lat="51.33449" lon="5.03439"></trkpt>
      <trkpt lat="51.33457" lon="5.03444"></trkpt>
      <trkpt lat="51.33454" lon="5.03443"></trkpt>
      <trkpt lat="51.33440" lon="5.03434"></trkpt>
      <trkpt lat="51.33427" lon="5.03427"></trkpt>
      <trkpt lat="51.33416" lon="5.03424"></trkpt>
      <trkpt lat="51.33409" lon="5.03439"></trkpt>
      <trkpt lat="51.33407" lon="5.03460"></trkpt>
      <trkpt lat="51.33407" lon="5.03480"></trkpt>
      <trkpt lat="51.33408" lon="5.03501"></trkpt>
      <trkpt lat="51.33409" lon="5.03523"></trkpt>
      <trkpt lat="51.33409" lon="5.03545"></trkpt>
      <trkpt lat="51.33411" lon="5.03566"></trkpt>
      <trkpt lat="51.33413" lon="5.03588"></trkpt>
      <trkpt lat="51.33414" lon="5.03608"></trkpt>
      <trkpt lat="51.33415" lon="5.03629"></trkpt>
      <trkpt lat="51.33415" lon="5.03650"></trkpt>
      <trkpt lat="51.33414" lon="5.03672"></trkpt>
      <trkpt lat="51.33413" lon="5.03693"></trkpt>
      <trkpt lat="51.33412" lon="5.03714"></trkpt>
      <trkpt lat="51.33409" lon="5.03734"></trkpt>
      <trkpt lat="51.33404" lon="5.03755"></trkpt>
      <trkpt lat="51.33400" lon="5.03775"></trkpt>
      <trkpt lat="51.33397" lon="5.03794"></trkpt>
      <trkpt lat="51.33394" lon="5.03813"></trkpt>
      <trkpt lat="51.33389" lon="5.03832"></trkpt>
      <trkpt lat="51.33386" lon="5.03851"></trkpt>
      <trkpt lat="51.33380" lon="5.03867"></trkpt>
      <trkpt lat="51.33370" lon="5.03872"></trkpt>
      <trkpt lat="51.33359" lon="5.03873"></trkpt>
      <trkpt lat="51.33348" lon="5.03865"></trkpt>
      <trkpt lat="51.33341" lon="5.03849"></trkpt>
      <trkpt lat="51.33332" lon="5.03838"></trkpt>
      <trkpt lat="51.33320" lon="5.03833"></trkpt>
      <trkpt lat="51.33310" lon="5.03823"></trkpt>
      <trkpt lat="51.33303" lon="5.03808"></trkpt>
      <trkpt lat="51.33295" lon="5.03793"></trkpt>
      <trkpt lat="51.33288" lon="5.03777"></trkpt>
      <trkpt lat="51.33282" lon="5.03762"></trkpt>
      <trkpt lat="51.33277" lon="5.03747"></trkpt>
      <trkpt lat="51.33270" lon="5.03734"></trkpt>
      <trkpt lat="51.33259" lon="5.03736"></trkpt>
      <trkpt lat="51.33248" lon="5.03743"></trkpt>
      <trkpt lat="51.33236" lon="5.03749"></trkpt>
      <trkpt lat="51.33227" lon="5.03753"></trkpt>
      <trkpt lat="51.33218" lon="5.03754"></trkpt>
      <trkpt lat="51.33205" lon="5.03753"></trkpt>
      <trkpt lat="51.33192" lon="5.03751"></trkpt>
      <trkpt lat="51.33179" lon="5.03752"></trkpt>
      <trkpt lat="51.33166" lon="5.03753"></trkpt>
      <trkpt lat="51.33154" lon="5.03760"></trkpt>
      <trkpt lat="51.33143" lon="5.03772"></trkpt>
      <trkpt lat="51.33131" lon="5.03782"></trkpt>
      <trkpt lat="51.33120" lon="5.03791"></trkpt>
      <trkpt lat="51.33109" lon="5.03801"></trkpt>
      <trkpt lat="51.33098" lon="5.03812"></trkpt>
      <trkpt lat="51.33088" lon="5.03825"></trkpt>
      <trkpt lat="51.33079" lon="5.03840"></trkpt>
      <trkpt lat="51.33067" lon="5.03845"></trkpt>
      <trkpt lat="51.33056" lon="5.03839"></trkpt>
      <trkpt lat="51.33044" lon="5.03831"></trkpt>
      <trkpt lat="51.33033" lon="5.03823"></trkpt>
      <trkpt lat="51.33025" lon="5.03816"></trkpt>
      <trkpt lat="51.33020" lon="5.03808"></trkpt>
      <trkpt lat="51.33019" lon="5.03787"></trkpt>
      <trkpt lat="51.33022" lon="5.03766"></trkpt>
      <trkpt lat="51.33026" lon="5.03750"></trkpt>
      <trkpt lat="51.33027" lon="5.03744"></trkpt>
      <trkpt lat="51.33032" lon="5.03725"></trkpt>
      <trkpt lat="51.33036" lon="5.03703"></trkpt>
      <trkpt lat="51.33040" lon="5.03682"></trkpt>
      <trkpt lat="51.33045" lon="5.03662"></trkpt>
      <trkpt lat="51.33049" lon="5.03641"></trkpt>
      <trkpt lat="51.33054" lon="5.03621"></trkpt>
      <trkpt lat="51.33059" lon="5.03602"></trkpt>
      <trkpt lat="51.33064" lon="5.03583"></trkpt>
      <trkpt lat="51.33068" lon="5.03562"></trkpt>
      <trkpt lat="51.33071" lon="5.03542"></trkpt>
      <trkpt lat="51.33071" lon="5.03521"></trkpt>
      <trkpt lat="51.33069" lon="5.03502"></trkpt>
      <trkpt lat="51.33070" lon="5.03481"></trkpt>
      <trkpt lat="51.33070" lon="5.03460"></trkpt>
      <trkpt lat="51.33069" lon="5.03439"></trkpt>
      <trkpt lat="51.33068" lon="5.03420"></trkpt>
      <trkpt lat="51.33067" lon="5.03400"></trkpt>
      <trkpt lat="51.33067" lon="5.03379"></trkpt>
      <trkpt lat="51.33067" lon="5.03357"></trkpt>
      <trkpt lat="51.33067" lon="5.03337"></trkpt>
      <trkpt lat="51.33067" lon="5.03317"></trkpt>
      <trkpt lat="51.33066" lon="5.03297"></trkpt>
      <trkpt lat="51.33066" lon="5.03275"></trkpt>
      <trkpt lat="51.33067" lon="5.03255"></trkpt>
      <trkpt lat="51.33064" lon="5.03239"></trkpt>
      <trkpt lat="51.33052" lon="5.03232"></trkpt>
      <trkpt lat="51.33040" lon="5.03227"></trkpt>
      <trkpt lat="51.33029" lon="5.03221"></trkpt>
      <trkpt lat="51.33018" lon="5.03213"></trkpt>
      <trkpt lat="51.33007" lon="5.03207"></trkpt>
      <trkpt lat="51.32996" lon="5.03201"></trkpt>
      <trkpt lat="51.32983" lon="5.03195"></trkpt>
      <trkpt lat="51.32970" lon="5.03188"></trkpt>
      <trkpt lat="51.32957" lon="5.03181"></trkpt>
      <trkpt lat="51.32946" lon="5.03175"></trkpt>
      <trkpt lat="51.32934" lon="5.03168"></trkpt>
      <trkpt lat="51.32923" lon="5.03162"></trkpt>
      <trkpt lat="51.32910" lon="5.03155"></trkpt>
      <trkpt lat="51.32898" lon="5.03148"></trkpt>
      <trkpt lat="51.32886" lon="5.03141"></trkpt>
      <trkpt lat="51.32873" lon="5.03135"></trkpt>
      <trkpt lat="51.32861" lon="5.03128"></trkpt>
      <trkpt lat="51.32849" lon="5.03122"></trkpt>
      <trkpt lat="51.32837" lon="5.03116"></trkpt>
      <trkpt lat="51.32826" lon="5.03109"></trkpt>
      <trkpt lat="51.32814" lon="5.03101"></trkpt>
      <trkpt lat="51.32801" lon="5.03094"></trkpt>
      <trkpt lat="51.32788" lon="5.03087"></trkpt>
      <trkpt lat="51.32776" lon="5.03081"></trkpt>
      <trkpt lat="51.32764" lon="5.03075"></trkpt>
      <trkpt lat="51.32751" lon="5.03070"></trkpt>
      <trkpt lat="51.32739" lon="5.03062"></trkpt>
      <trkpt lat="51.32727" lon="5.03056"></trkpt>
      <trkpt lat="51.32715" lon="5.03050"></trkpt>
      <trkpt lat="51.32703" lon="5.03044"></trkpt>
      <trkpt lat="51.32691" lon="5.03037"></trkpt>
      <trkpt lat="51.32679" lon="5.03030"></trkpt>
      <trkpt lat="51.32667" lon="5.03023"></trkpt>
      <trkpt lat="51.32654" lon="5.03015"></trkpt>
      <trkpt lat="51.32642" lon="5.03008"></trkpt>
      <trkpt lat="51.32630" lon="5.03001"></trkpt>
      <trkpt lat="51.32618" lon="5.02995"></trkpt>
      <trkpt lat="51.32606" lon="5.02989"></trkpt>
      <trkpt lat="51.32594" lon="5.02981"></trkpt>
      <trkpt lat="51.32582" lon="5.02975"></trkpt>
      <trkpt lat="51.32569" lon="5.02968"></trkpt>
      <trkpt lat="51.32558" lon="5.02958"></trkpt>
      <trkpt lat="51.32550" lon="5.02944"></trkpt>
      <trkpt lat="51.32547" lon="5.02924"></trkpt>
      <trkpt lat="51.32548" lon="5.02904"></trkpt>
      <trkpt lat="51.32549" lon="5.02885"></trkpt>
      <trkpt lat="51.32550" lon="5.02866"></trkpt>
      <trkpt lat="51.32551" lon="5.02846"></trkpt>
      <trkpt lat="51.32552" lon="5.02827"></trkpt>
      <trkpt lat="51.32553" lon="5.02808"></trkpt>
      <trkpt lat="51.32553" lon="5.02790"></trkpt>
      <trkpt lat="51.32553" lon="5.02771"></trkpt>
      <trkpt lat="51.32552" lon="5.02751"></trkpt>
      <trkpt lat="51.32551" lon="5.02732"></trkpt>
      <trkpt lat="51.32548" lon="5.02711"></trkpt>
      <trkpt lat="51.32545" lon="5.02692"></trkpt>
      <trkpt lat="51.32542" lon="5.02674"></trkpt>
      <trkpt lat="51.32539" lon="5.02656"></trkpt>
      <trkpt lat="51.32536" lon="5.02638"></trkpt>
      <trkpt lat="51.32537" lon="5.02629"></trkpt>
      <trkpt lat="51.32550" lon="5.02633"></trkpt>
      <trkpt lat="51.32563" lon="5.02640"></trkpt>
      <trkpt lat="51.32576" lon="5.02648"></trkpt>
      <trkpt lat="51.32584" lon="5.02641"></trkpt>
      <trkpt lat="51.32589" lon="5.02623"></trkpt>
      <trkpt lat="51.32593" lon="5.02602"></trkpt>
      <trkpt lat="51.32595" lon="5.02579"></trkpt>
      <trkpt lat="51.32598" lon="5.02559"></trkpt>
      <trkpt lat="51.32602" lon="5.02540"></trkpt>
      <trkpt lat="51.32606" lon="5.02520"></trkpt>
      <trkpt lat="51.32608" lon="5.02499"></trkpt>
      <trkpt lat="51.32612" lon="5.02478"></trkpt>
      <trkpt lat="51.32616" lon="5.02458"></trkpt>
      <trkpt lat="51.32619" lon="5.02437"></trkpt>
      <trkpt lat="51.32622" lon="5.02417"></trkpt>
      <trkpt lat="51.32626" lon="5.02397"></trkpt>
      <trkpt lat="51.32630" lon="5.02377"></trkpt>
      <trkpt lat="51.32633" lon="5.02357"></trkpt>
      <trkpt lat="51.32636" lon="5.02336"></trkpt>
      <trkpt lat="51.32640" lon="5.02317"></trkpt>
      <trkpt lat="51.32642" lon="5.02296"></trkpt>
      <trkpt lat="51.32643" lon="5.02275"></trkpt>
      <trkpt lat="51.32643" lon="5.02254"></trkpt>
      <trkpt lat="51.32643" lon="5.02233"></trkpt>
      <trkpt lat="51.32644" lon="5.02213"></trkpt>
      <trkpt lat="51.32644" lon="5.02193"></trkpt>
      <trkpt lat="51.32645" lon="5.02173"></trkpt>
      <trkpt lat="51.32644" lon="5.02152"></trkpt>
      <trkpt lat="51.32644" lon="5.02133"></trkpt>
      <trkpt lat="51.32644" lon="5.02114"></trkpt>
      <trkpt lat="51.32645" lon="5.02094"></trkpt>
      <trkpt lat="51.32645" lon="5.02075"></trkpt>
      <trkpt lat="51.32645" lon="5.02055"></trkpt>
      <trkpt lat="51.32645" lon="5.02034"></trkpt>
      <trkpt lat="51.32644" lon="5.02011"></trkpt>
      <trkpt lat="51.32645" lon="5.01990"></trkpt>
      <trkpt lat="51.32645" lon="5.01969"></trkpt>
      <trkpt lat="51.32646" lon="5.01948"></trkpt>
      <trkpt lat="51.32646" lon="5.01927"></trkpt>
      <trkpt lat="51.32649" lon="5.01906"></trkpt>
      <trkpt lat="51.32651" lon="5.01886"></trkpt>
      <trkpt lat="51.32651" lon="5.01865"></trkpt>
      <trkpt lat="51.32651" lon="5.01844"></trkpt>
      <trkpt lat="51.32652" lon="5.01824"></trkpt>
      <trkpt lat="51.32652" lon="5.01804"></trkpt>
      <trkpt lat="51.32653" lon="5.01783"></trkpt>
      <trkpt lat="51.32654" lon="5.01762"></trkpt>
      <trkpt lat="51.32654" lon="5.01741"></trkpt>
      <trkpt lat="51.32654" lon="5.01721"></trkpt>
      <trkpt lat="51.32656" lon="5.01702"></trkpt>
      <trkpt lat="51.32657" lon="5.01681"></trkpt>
      <trkpt lat="51.32657" lon="5.01661"></trkpt>
      <trkpt lat="51.32659" lon="5.01641"></trkpt>
      <trkpt lat="51.32662" lon="5.01622"></trkpt>
      <trkpt lat="51.32663" lon="5.01601"></trkpt>
      <trkpt lat="51.32664" lon="5.01580"></trkpt>
      <trkpt lat="51.32666" lon="5.01560"></trkpt>
      <trkpt lat="51.32666" lon="5.01540"></trkpt>
      <trkpt lat="51.32666" lon="5.01519"></trkpt>
      <trkpt lat="51.32668" lon="5.01498"></trkpt>
      <trkpt lat="51.32670" lon="5.01477"></trkpt>
      <trkpt lat="51.32673" lon="5.01456"></trkpt>
      <trkpt lat="51.32675" lon="5.01437"></trkpt>
      <trkpt lat="51.32677" lon="5.01416"></trkpt>
      <trkpt lat="51.32679" lon="5.01395"></trkpt>
      <trkpt lat="51.32683" lon="5.01374"></trkpt>
      <trkpt lat="51.32685" lon="5.01353"></trkpt>
      <trkpt lat="51.32687" lon="5.01331"></trkpt>
      <trkpt lat="51.32689" lon="5.01310"></trkpt>
      <trkpt lat="51.32691" lon="5.01290"></trkpt>
      <trkpt lat="51.32693" lon="5.01269"></trkpt>
      <trkpt lat="51.32695" lon="5.01248"></trkpt>
      <trkpt lat="51.32697" lon="5.01227"></trkpt>
      <trkpt lat="51.32699" lon="5.01206"></trkpt>
      <trkpt lat="51.32700" lon="5.01185"></trkpt>
      <trkpt lat="51.32702" lon="5.01163"></trkpt>
      <trkpt lat="51.32703" lon="5.01141"></trkpt>
      <trkpt lat="51.32703" lon="5.01119"></trkpt>
      <trkpt lat="51.32705" lon="5.01099"></trkpt>
      <trkpt lat="51.32707" lon="5.01079"></trkpt>
      <trkpt lat="51.32709" lon="5.01058"></trkpt>
      <trkpt lat="51.32712" lon="5.01038"></trkpt>
      <trkpt lat="51.32714" lon="5.01018"></trkpt>
      <trkpt lat="51.32716" lon="5.00997"></trkpt>
      <trkpt lat="51.32718" lon="5.00976"></trkpt>
      <trkpt lat="51.32721" lon="5.00956"></trkpt>
      <trkpt lat="51.32723" lon="5.00934"></trkpt>
      <trkpt lat="51.32726" lon="5.00912"></trkpt>
      <trkpt lat="51.32727" lon="5.00900"></trkpt>
    </trkseg>
  </trk>
</gpx>