<?xml version="1.0" encoding="UTF-8"?>
<gpx version="1.1" creator="jeffry.running" xmlns="http://www.topografix.com/GPX/1/1">
  <metadata><time>2026-09-02T09:19:26.233Z</time></metadata>
  <trk>
    <trkseg>
      <trkpt lat="51.20591" lon="4.44867"></trkpt>
      <trkpt lat="51.20596" lon="4.44873"></trkpt>
      <trkpt lat="51.20599" lon="4.44882"></trkpt>
      <trkpt lat="51.20603" lon="4.44889"></trkpt>
      <trkpt lat="51.20609" lon="4.44894"></trkpt>
      <trkpt lat="51.20616" lon="4.44896"></trkpt>
      <trkpt lat="51.20622" lon="4.44899"></trkpt>
      <trkpt lat="51.20626" lon="4.44912"></trkpt>
      <trkpt lat="51.20629" lon="4.44927"></trkpt>
      <trkpt lat="51.20631" lon="4.44936"></trkpt>
      <trkpt lat="51.20634" lon="4.44946"></trkpt>
      <trkpt lat="51.20635" lon="4.44958"></trkpt>
      <trkpt lat="51.20637" lon="4.44970"></trkpt>
      <trkpt lat="51.20638" lon="4.44981"></trkpt>
      <trkpt lat="51.20640" lon="4.44992"></trkpt>
      <trkpt lat="51.20641" lon="4.45002"></trkpt>
      <trkpt lat="51.20643" lon="4.45013"></trkpt>
      <trkpt lat="51.20644" lon="4.45024"></trkpt>
      <trkpt lat="51.20646" lon="4.45035"></trkpt>
      <trkpt lat="51.20647" lon="4.45054"></trkpt>
      <trkpt lat="51.20649" lon="4.45076"></trkpt>
      <trkpt lat="51.20650" lon="4.45091"></trkpt>
      <trkpt lat="51.20652" lon="4.45101"></trkpt>
      <trkpt lat="51.20654" lon="4.45118"></trkpt>
      <trkpt lat="51.20656" lon="4.45128"></trkpt>
      <trkpt lat="51.20659" lon="4.45140"></trkpt>
      <trkpt lat="51.20667" lon="4.45155"></trkpt>
      <trkpt lat="51.20675" lon="4.45160"></trkpt>
      <trkpt lat="51.20681" lon="4.45163"></trkpt>
      <trkpt lat="51.20687" lon="4.45166"></trkpt>
      <trkpt lat="51.20692" lon="4.45171"></trkpt>
      <trkpt lat="51.20697" lon="4.45180"></trkpt>
      <trkpt lat="51.20703" lon="4.45183"></trkpt>
      <trkpt lat="51.20709" lon="4.45183"></trkpt>
      <trkpt lat="51.20715" lon="4.45182"></trkpt>
      <trkpt lat="51.20721" lon="4.45181"></trkpt>
      <trkpt lat="51.20727" lon="4.45182"></trkpt>
      <trkpt lat="51.20734" lon="4.45184"></trkpt>
      <trkpt lat="51.20740" lon="4.45184"></trkpt>
      <trkpt lat="51.20746" lon="4.45184"></trkpt>
      <trkpt lat="51.20753" lon="4.45184"></trkpt>
      <trkpt lat="51.20759" lon="4.45183"></trkpt>
      <trkpt lat="51.20764" lon="4.45183"></trkpt>
      <trkpt lat="51.20771" lon="4.45183"></trkpt>
      <trkpt lat="51.20776" lon="4.45183"></trkpt>
      <trkpt lat="51.20782" lon="4.45182"></trkpt>
      <trkpt lat="51.20788" lon="4.45181"></trkpt>
      <trkpt lat="51.20794" lon="4.45181"></trkpt>
      <trkpt lat="51.20800" lon="4.45180"></trkpt>
      <trkpt lat="51.20805" lon="4.45179"></trkpt>
      <trkpt lat="51.20811" lon="4.45178"></trkpt>
      <trkpt lat="51.20816" lon="4.45177"></trkpt>
      <trkpt lat="51.20822" lon="4.45177"></trkpt>
      <trkpt lat="51.20827" lon="4.45177"></trkpt>
      <trkpt lat="51.20832" lon="4.45177"></trkpt>
      <trkpt lat="51.20834" lon="4.45180"></trkpt>
      <trkpt lat="51.20836" lon="4.45184"></trkpt>
      <trkpt lat="51.20839" lon="4.45185"></trkpt>
      <trkpt lat="51.20843" lon="4.45186"></trkpt>
      <trkpt lat="51.20848" lon="4.45187"></trkpt>
      <trkpt lat="51.20854" lon="4.45196"></trkpt>
      <trkpt lat="51.20861" lon="4.45203"></trkpt>
      <trkpt lat="51.20866" lon="4.45204"></trkpt>
      <trkpt lat="51.20872" lon="4.45206"></trkpt>
      <trkpt lat="51.20878" lon="4.45208"></trkpt>
      <trkpt lat="51.20883" lon="4.45210"></trkpt>
      <trkpt lat="51.20889" lon="4.45212"></trkpt>
      <trkpt lat="51.20894" lon="4.45213"></trkpt>
      <trkpt lat="51.20899" lon="4.45215"></trkpt>
      <trkpt lat="51.20905" lon="4.45217"></trkpt>
      <trkpt lat="51.20910" lon="4.45218"></trkpt>
      <trkpt lat="51.20916" lon="4.45221"></trkpt>
      <trkpt lat="51.20921" lon="4.45222"></trkpt>
      <trkpt lat="51.20927" lon="4.45223"></trkpt>
      <trkpt lat="51.20933" lon="4.45226"></trkpt>
      <trkpt lat="51.20939" lon="4.45233"></trkpt>
      <trkpt lat="51.20945" lon="4.45236"></trkpt>
      <trkpt lat="51.20950" lon="4.45238"></trkpt>
      <trkpt lat="51.20956" lon="4.45242"></trkpt>
      <trkpt lat="51.20961" lon="4.45246"></trkpt>
      <trkpt lat="51.20966" lon="4.45247"></trkpt>
      <trkpt lat="51.20971" lon="4.45249"></trkpt>
      <trkpt lat="51.20977" lon="4.45249"></trkpt>
      <trkpt lat="51.20983" lon="4.45250"></trkpt>
      <trkpt lat="51.20988" lon="4.45252"></trkpt>
      <trkpt lat="51.20993" lon="4.45254"></trkpt>
      <trkpt lat="51.20999" lon="4.45255"></trkpt>
      <trkpt lat="51.21004" lon="4.45253"></trkpt>
      <trkpt lat="51.21011" lon="4.45252"></trkpt>
      <trkpt lat="51.21016" lon="4.45252"></trkpt>
      <trkpt lat="51.21024" lon="4.45254"></trkpt>
      <trkpt lat="51.21032" lon="4.45258"></trkpt>
      <trkpt lat="51.21039" lon="4.45262"></trkpt>
      <trkpt lat="51.21047" lon="4.45267"></trkpt>
      <trkpt lat="51.21054" lon="4.45271"></trkpt>
      <trkpt lat="51.21061" lon="4.45277"></trkpt>
      <trkpt lat="51.21067" lon="4.45280"></trkpt>
      <trkpt lat="51.21073" lon="4.45280"></trkpt>
      <trkpt lat="51.21079" lon="4.45283"></trkpt>
      <trkpt lat="51.21085" lon="4.45292"></trkpt>
      <trkpt lat="51.21089" lon="4.45302"></trkpt>
      <trkpt lat="51.21091" lon="4.45313"></trkpt>
      <trkpt lat="51.21094" lon="4.45323"></trkpt>
      <trkpt lat="51.21096" lon="4.45332"></trkpt>
      <trkpt lat="51.21099" lon="4.45342"></trkpt>
      <trkpt lat="51.21101" lon="4.45351"></trkpt>
      <trkpt lat="51.21103" lon="4.45360"></trkpt>
      <trkpt lat="51.21106" lon="4.45369"></trkpt>
      <trkpt lat="51.21108" lon="4.45378"></trkpt>
      <trkpt lat="51.21111" lon="4.45387"></trkpt>
      <trkpt lat="51.21114" lon="4.45395"></trkpt>
      <trkpt lat="51.21116" lon="4.45404"></trkpt>
      <trkpt lat="51.21118" lon="4.45413"></trkpt>
      <trkpt lat="51.21121" lon="4.45421"></trkpt>
      <trkpt lat="51.21123" lon="4.45429"></trkpt>
      <trkpt lat="51.21126" lon="4.45437"></trkpt>
      <trkpt lat="51.21128" lon="4.45445"></trkpt>
      <trkpt lat="51.21130" lon="4.45454"></trkpt>
      <trkpt lat="51.21132" lon="4.45462"></trkpt>
      <trkpt lat="51.21134" lon="4.45470"></trkpt>
      <trkpt lat="51.21137" lon="4.45478"></trkpt>
      <trkpt lat="51.21139" lon="4.45487"></trkpt>
      <trkpt lat="51.21142" lon="4.45496"></trkpt>
      <trkpt lat="51.21144" lon="4.45504"></trkpt>
      <trkpt lat="51.21147" lon="4.45513"></trkpt>
      <trkpt lat="51.21149" lon="4.45521"></trkpt>
      <trkpt lat="51.21151" lon="4.45529"></trkpt>
      <trkpt lat="51.21153" lon="4.45537"></trkpt>
      <trkpt lat="51.21156" lon="4.45545"></trkpt>
      <trkpt lat="51.21158" lon="4.45553"></trkpt>
      <trkpt lat="51.21160" lon="4.45560"></trkpt>
      <trkpt lat="51.21164" lon="4.45566"></trkpt>
      <trkpt lat="51.21168" lon="4.45573"></trkpt>
      <trkpt lat="51.21172" lon="4.45580"></trkpt>
      <trkpt lat="51.21176" lon="4.45586"></trkpt>
      <trkpt lat="51.21180" lon="4.45591"></trkpt>
      <trkpt lat="51.21186" lon="4.45595"></trkpt>
      <trkpt lat="51.21192" lon="4.45599"></trkpt>
      <trkpt lat="51.21197" lon="4.45603"></trkpt>
      <trkpt lat="51.21202" lon="4.45607"></trkpt>
      <trkpt lat="51.21208" lon="4.45612"></trkpt>
      <trkpt lat="51.21212" lon="4.45617"></trkpt>
      <trkpt lat="51.21217" lon="4.45622"></trkpt>
      <trkpt lat="51.21223" lon="4.45626"></trkpt>
      <trkpt lat="51.21227" lon="4.45630"></trkpt>
      <trkpt lat="51.21233" lon="4.45633"></trkpt>
      <trkpt lat="51.21238" lon="4.45637"></trkpt>
      <trkpt lat="51.21244" lon="4.45641"></trkpt>
      <trkpt lat="51.21249" lon="4.45645"></trkpt>
      <trkpt lat="51.21255" lon="4.45647"></trkpt>
      <trkpt lat="51.21260" lon="4.45651"></trkpt>
      <trkpt lat="51.21265" lon="4.45656"></trkpt>
      <trkpt lat="51.21270" lon="4.45661"></trkpt>
      <trkpt lat="51.21275" lon="4.45665"></trkpt>
      <trkpt lat="51.21281" lon="4.45671"></trkpt>
      <trkpt lat="51.21286" lon="4.45676"></trkpt>
      <trkpt lat="51.21292" lon="4.45680"></trkpt>
      <trkpt lat="51.21298" lon="4.45684"></trkpt>
      <trkpt lat="51.21304" lon="4.45689"></trkpt>
      <trkpt lat="51.21308" lon="4.45695"></trkpt>
      <trkpt lat="51.21313" lon="4.45700"></trkpt>
      <trkpt lat="51.21318" lon="4.45706"></trkpt>
      <trkpt lat="51.21323" lon="4.45711"></trkpt>
      <trkpt lat="51.21327" lon="4.45717"></trkpt>
      <trkpt lat="51.21332" lon="4.45722"></trkpt>
      <trkpt lat="51.21336" lon="4.45729"></trkpt>
      <trkpt lat="51.21339" lon="4.45737"></trkpt>
      <trkpt lat="51.21342" lon="4.45746"></trkpt>
      <trkpt lat="51.21345" lon="4.45754"></trkpt>
      <trkpt lat="51.21348" lon="4.45762"></trkpt>
      <trkpt lat="51.21351" lon="4.45770"></trkpt>
      <trkpt lat="51.21354" lon="4.45778"></trkpt>
      <trkpt lat="51.21358" lon="4.45786"></trkpt>
      <trkpt lat="51.21360" lon="4.45794"></trkpt>
      <trkpt lat="51.21363" lon="4.45802"></trkpt>
      <trkpt lat="51.21366" lon="4.45810"></trkpt>
      <trkpt lat="51.21370" lon="4.45816"></trkpt>
      <trkpt lat="51.21376" lon="4.45820"></trkpt>
      <trkpt lat="51.21382" lon="4.45824"></trkpt>
      <trkpt lat="51.21388" lon="4.45826"></trkpt>
      <trkpt lat="51.21394" lon="4.45829"></trkpt>
      <trkpt lat="51.21396" lon="4.45837"></trkpt>
      <trkpt lat="51.21395" lon="4.45847"></trkpt>
      <trkpt lat="51.21394" lon="4.45857"></trkpt>
      <trkpt lat="51.21394" lon="4.45867"></trkpt>
      <trkpt lat="51.21395" lon="4.45877"></trkpt>
      <trkpt lat="51.21397" lon="4.45887"></trkpt>
      <trkpt lat="51.21400" lon="4.45896"></trkpt>
      <trkpt lat="51.21402" lon="4.45905"></trkpt>
      <trkpt lat="51.21406" lon="4.45912"></trkpt>
      <trkpt lat="51.21398" lon="4.45916"></trkpt>
      <trkpt lat="51.21384" lon="4.45919"></trkpt>
      <trkpt lat="51.21370" lon="4.45923"></trkpt>
      <trkpt lat="51.21357" lon="4.45926"></trkpt>
      <trkpt lat="51.21343" lon="4.45929"></trkpt>
      <trkpt lat="51.21329" lon="4.45933"></trkpt>
      <trkpt lat="51.21315" lon="4.45936"></trkpt>
      <trkpt lat="51.21301" lon="4.45939"></trkpt>
      <trkpt lat="51.21288" lon="4.45943"></trkpt>
      <trkpt lat="51.21318" lon="4.45963"></trkpt>
      <trkpt lat="51.21351" lon="4.45978"></trkpt>
      <trkpt lat="51.21359" lon="4.45993"></trkpt>
      <trkpt lat="51.21363" lon="4.46005"></trkpt>
      <trkpt lat="51.21365" lon="4.46015"></trkpt>
      <trkpt lat="51.21369" lon="4.46024"></trkpt>
      <trkpt lat="51.21372" lon="4.46034"></trkpt>
      <trkpt lat="51.21375" lon="4.46044"></trkpt>
      <trkpt lat="51.21379" lon="4.46053"></trkpt>
      <trkpt lat="51.21383" lon="4.46062"></trkpt>
      <trkpt lat="51.21386" lon="4.46071"></trkpt>
      <trkpt lat="51.21390" lon="4.46081"></trkpt>
      <trkpt lat="51.21393" lon="4.46090"></trkpt>
      <trkpt lat="51.21395" lon="4.46093"></trkpt>
      <trkpt lat="51.21399" lon="4.46105"></trkpt>
      <trkpt lat="51.21404" lon="4.46117"></trkpt>
      <trkpt lat="51.21408" lon="4.46126"></trkpt>
      <trkpt lat="51.21412" lon="4.46135"></trkpt>
      <trkpt lat="51.21416" lon="4.46144"></trkpt>
      <trkpt lat="51.21420" lon="4.46152"></trkpt>
      <trkpt lat="51.21424" lon="4.46160"></trkpt>
      <trkpt lat="51.21428" lon="4.46169"></trkpt>
      <trkpt lat="51.21431" lon="4.46177"></trkpt>
      <trkpt lat="51.21435" lon="4.46186"></trkpt>
      <trkpt lat="51.21439" lon="4.46195"></trkpt>
      <trkpt lat="51.21443" lon="4.46204"></trkpt>
      <trkpt lat="51.21447" lon="4.46212"></trkpt>
      <trkpt lat="51.21450" lon="4.46221"></trkpt>
      <trkpt lat="51.21454" lon="4.46230"></trkpt>
      <trkpt lat="51.21457" lon="4.46240"></trkpt>
      <trkpt lat="51.21460" lon="4.46249"></trkpt>
      <trkpt lat="51.21462" lon="4.46259"></trkpt>
      <trkpt lat="51.21465" lon="4.46268"></trkpt>
      <trkpt lat="51.21468" lon="4.46277"></trkpt>
      <trkpt lat="51.21472" lon="4.46285"></trkpt>
      <trkpt lat="51.21477" lon="4.46293"></trkpt>
      <trkpt lat="51.21482" lon="4.46301"></trkpt>
      <trkpt lat="51.21486" lon="4.46308"></trkpt>
      <trkpt lat="51.21491" lon="4.46315"></trkpt>
      <trkpt lat="51.21496" lon="4.46321"></trkpt>
      <trkpt lat="51.21502" lon="4.46325"></trkpt>
      <trkpt lat="51.21508" lon="4.46328"></trkpt>
      <trkpt lat="51.21512" lon="4.46333"></trkpt>
      <trkpt lat="51.21514" lon="4.46342"></trkpt>
      <trkpt lat="51.21515" lon="4.46351"></trkpt>
      <trkpt lat="51.21516" lon="4.46361"></trkpt>
      <trkpt lat="51.21517" lon="4.46371"></trkpt>
      <trkpt lat="51.21519" lon="4.46381"></trkpt>
      <trkpt lat="51.21523" lon="4.46390"></trkpt>
      <trkpt lat="51.21526" lon="4.46399"></trkpt>
      <trkpt lat="51.21529" lon="4.46409"></trkpt>
      <trkpt lat="51.21526" lon="4.46417"></trkpt>
      <trkpt lat="51.21522" lon="4.46423"></trkpt>
      <trkpt lat="51.21523" lon="4.46433"></trkpt>
      <trkpt lat="51.21529" lon="4.46446"></trkpt>
      <trkpt lat="51.21540" lon="4.46450"></trkpt>
      <trkpt lat="51.21550" lon="4.46450"></trkpt>
      <trkpt lat="51.21559" lon="4.46450"></trkpt>
      <trkpt lat="51.21566" lon="4.46453"></trkpt>
      <trkpt lat="51.21574" lon="4.46456"></trkpt>
      <trkpt lat="51.21580" lon="4.46461"></trkpt>
      <trkpt lat="51.21586" lon="4.46465"></trkpt>
      <trkpt lat="51.21592" lon="4.46468"></trkpt>
      <trkpt lat="51.21598" lon="4.46473"></trkpt>
      <trkpt lat="51.21607" lon="4.46478"></trkpt>
      <trkpt lat="51.21614" lon="4.46483"></trkpt>
      <trkpt lat="51.21620" lon="4.46489"></trkpt>
      <trkpt lat="51.21627" lon="4.46495"></trkpt>
      <trkpt lat="51.21634" lon="4.46502"></trkpt>
      <trkpt lat="51.21640" lon="4.46509"></trkpt>
      <trkpt lat="51.21647" lon="4.46517"></trkpt>
      <trkpt lat="51.21651" lon="4.46524"></trkpt>
      <trkpt lat="51.21657" lon="4.46530"></trkpt>
      <trkpt lat="51.21662" lon="4.46538"></trkpt>
      <trkpt lat="51.21667" lon="4.46546"></trkpt>
      <trkpt lat="51.21670" lon="4.46555"></trkpt>
      <trkpt lat="51.21673" lon="4.46564"></trkpt>
      <trkpt lat="51.21676" lon="4.46572"></trkpt>
      <trkpt lat="51.21680" lon="4.46578"></trkpt>
      <trkpt lat="51.21682" lon="4.46583"></trkpt>
      <trkpt lat="51.21686" lon="4.46587"></trkpt>
      <trkpt lat="51.21689" lon="4.46590"></trkpt>
      <trkpt lat="51.21689" lon="4.46594"></trkpt>
      <trkpt lat="51.21690" lon="4.46597"></trkpt>
      <trkpt lat="51.21690" lon="4.46600"></trkpt>
      <trkpt lat="51.21691" lon="4.46605"></trkpt>
      <trkpt lat="51.21691" lon="4.46609"></trkpt>
      <trkpt lat="51.21692" lon="4.46613"></trkpt>
      <trkpt lat="51.21695" lon="4.46620"></trkpt>
      <trkpt lat="51.21698" lon="4.46625"></trkpt>
      <trkpt lat="51.21700" lon="4.46631"></trkpt>
      <trkpt lat="51.21701" lon="4.46635"></trkpt>
      <trkpt lat="51.21702" lon="4.46640"></trkpt>
      <trkpt lat="51.21705" lon="4.46645"></trkpt>
      <trkpt lat="51.21707" lon="4.46651"></trkpt>
      <trkpt lat="51.21708" lon="4.46657"></trkpt>
      <trkpt lat="51.21710" lon="4.46664"></trkpt>
      <trkpt lat="51.21711" lon="4.46671"></trkpt>
      <trkpt lat="51.21712" lon="4.46678"></trkpt>
      <trkpt lat="51.21714" lon="4.46683"></trkpt>
      <trkpt lat="51.21714" lon="4.46689"></trkpt>
      <trkpt lat="51.21714" lon="4.46694"></trkpt>
      <trkpt lat="51.21713" lon="4.46698"></trkpt>
      <trkpt lat="51.21713" lon="4.46698"></trkpt>
      <trkpt lat="51.21714" lon="4.46698"></trkpt>
      <trkpt lat="51.21714" lon="4.46698"></trkpt>
      <trkpt lat="51.21714" lon="4.46698"></trkpt>
      <trkpt lat="51.21714" lon="4.46698"></trkpt>
      <trkpt lat="51.21714" lon="4.46698"></trkpt>
      <trkpt lat="51.21714" lon="4.46698"></trkpt>
      <trkpt lat="51.21714" lon="4.46698"></trkpt>
      <trkpt lat="51.21714" lon="4.46698"></trkpt>
      <trkpt lat="51.21714" lon="4.46698"></trkpt>
      <trkpt lat="51.21714" lon="4.46698"></trkpt>
      <trkpt lat="51.21714" lon="4.46698"></trkpt>
      <trkpt lat="51.21714" lon="4.46698"></trkpt>
      <trkpt lat="51.21715" lon="4.46698"></trkpt>
      <trkpt lat="51.21715" lon="4.46698"></trkpt>
      <trkpt lat="51.21715" lon="4.46698"></trkpt>
      <trkpt lat="51.21715" lon="4.46698"></trkpt>
      <trkpt lat="51.21715" lon="4.46698"></trkpt>
      <trkpt lat="51.21715" lon="4.46698"></trkpt>
      <trkpt lat="51.21715" lon="4.46698"></trkpt>
      <trkpt lat="51.21715" lon="4.46698"></trkpt>
      <trkpt lat="51.21715" lon="4.46698"></trkpt>
      <trkpt lat="51.21715" lon="4.46698"></trkpt>
      <trkpt lat="51.21715" lon="4.46698"></trkpt>
      <trkpt lat="51.21715" lon="4.46698"></trkpt>
      <trkpt lat="51.21719" lon="4.46701"></trkpt>
      <trkpt lat="51.21724" lon="4.46704"></trkpt>
      <trkpt lat="51.21729" lon="4.46706"></trkpt>
      <trkpt lat="51.21732" lon="4.46708"></trkpt>
      <trkpt lat="51.21734" lon="4.46709"></trkpt>
      <trkpt lat="51.21737" lon="4.46710"></trkpt>
      <trkpt lat="51.21741" lon="4.46710"></trkpt>
      <trkpt lat="51.21744" lon="4.46711"></trkpt>
      <trkpt lat="51.21748" lon="4.46712"></trkpt>
      <trkpt lat="51.21753" lon="4.46716"></trkpt>
      <trkpt lat="51.21756" lon="4.46726"></trkpt>
      <trkpt lat="51.21756" lon="4.46736"></trkpt>
      <trkpt lat="51.21756" lon="4.46746"></trkpt>
      <trkpt lat="51.21758" lon="4.46757"></trkpt>
      <trkpt lat="51.21759" lon="4.46769"></trkpt>
      <trkpt lat="51.21758" lon="4.46781"></trkpt>
      <trkpt lat="51.21757" lon="4.46792"></trkpt>
      <trkpt lat="51.21756" lon="4.46803"></trkpt>
      <trkpt lat="51.21756" lon="4.46814"></trkpt>
      <trkpt lat="51.21755" lon="4.46825"></trkpt>
      <trkpt lat="51.21754" lon="4.46836"></trkpt>
      <trkpt lat="51.21752" lon="4.46846"></trkpt>
      <trkpt lat="51.21752" lon="4.46856"></trkpt>
      <trkpt lat="51.21751" lon="4.46867"></trkpt>
      <trkpt lat="51.21750" lon="4.46877"></trkpt>
      <trkpt lat="51.21749" lon="4.46888"></trkpt>
      <trkpt lat="51.21749" lon="4.46898"></trkpt>
      <trkpt lat="51.21749" lon="4.46908"></trkpt>
      <trkpt lat="51.21749" lon="4.46918"></trkpt>
      <trkpt lat="51.21748" lon="4.46928"></trkpt>
      <trkpt lat="51.21747" lon="4.46938"></trkpt>
      <trkpt lat="51.21746" lon="4.46947"></trkpt>
      <trkpt lat="51.21745" lon="4.46957"></trkpt>
      <trkpt lat="51.21744" lon="4.46966"></trkpt>
      <trkpt lat="51.21743" lon="4.46973"></trkpt>
      <trkpt lat="51.21743" lon="4.46989"></trkpt>
      <trkpt lat="51.21742" lon="4.47000"></trkpt>
      <trkpt lat="51.21742" lon="4.47008"></trkpt>
      <trkpt lat="51.21742" lon="4.47018"></trkpt>
      <trkpt lat="51.21741" lon="4.47029"></trkpt>
      <trkpt lat="51.21740" lon="4.47038"></trkpt>
      <trkpt lat="51.21739" lon="4.47047"></trkpt>
      <trkpt lat="51.21740" lon="4.47055"></trkpt>
      <trkpt lat="51.21742" lon="4.47064"></trkpt>
      <trkpt lat="51.21743" lon="4.47071"></trkpt>
      <trkpt lat="51.21743" lon="4.47077"></trkpt>
      <trkpt lat="51.21742" lon="4.47087"></trkpt>
      <trkpt lat="51.21742" lon="4.47097"></trkpt>
      <trkpt lat="51.21742" lon="4.47107"></trkpt>
      <trkpt lat="51.21742" lon="4.47115"></trkpt>
      <trkpt lat="51.21741" lon="4.47122"></trkpt>
      <trkpt lat="51.21742" lon="4.47132"></trkpt>
      <trkpt lat="51.21741" lon="4.47143"></trkpt>
      <trkpt lat="51.21741" lon="4.47155"></trkpt>
      <trkpt lat="51.21740" lon="4.47166"></trkpt>
      <trkpt lat="51.21738" lon="4.47177"></trkpt>
      <trkpt lat="51.21737" lon="4.47188"></trkpt>
      <trkpt lat="51.21736" lon="4.47199"></trkpt>
      <trkpt lat="51.21736" lon="4.47210"></trkpt>
      <trkpt lat="51.21735" lon="4.47220"></trkpt>
      <trkpt lat="51.21736" lon="4.47230"></trkpt>
      <trkpt lat="51.21736" lon="4.47239"></trkpt>
      <trkpt lat="51.21736" lon="4.47249"></trkpt>
      <trkpt lat="51.21736" lon="4.47260"></trkpt>
      <trkpt lat="51.21736" lon="4.47271"></trkpt>
      <trkpt lat="51.21735" lon="4.47282"></trkpt>
      <trkpt lat="51.21735" lon="4.47292"></trkpt>
      <trkpt lat="51.21735" lon="4.47302"></trkpt>
      <trkpt lat="51.21734" lon="4.47313"></trkpt>
      <trkpt lat="51.21734" lon="4.47323"></trkpt>
      <trkpt lat="51.21733" lon="4.47334"></trkpt>
      <trkpt lat="51.21733" lon="4.47344"></trkpt>
      <trkpt lat="51.21732" lon="4.47354"></trkpt>
      <trkpt lat="51.21732" lon="4.47364"></trkpt>
      <trkpt lat="51.21732" lon="4.47373"></trkpt>
      <trkpt lat="51.21731" lon="4.47383"></trkpt>
      <trkpt lat="51.21730" lon="4.47393"></trkpt>
      <trkpt lat="51.21728" lon="4.47404"></trkpt>
      <trkpt lat="51.21728" lon="4.47413"></trkpt>
      <trkpt lat="51.21728" lon="4.47423"></trkpt>
      <trkpt lat="51.21727" lon="4.47433"></trkpt>
      <trkpt lat="51.21727" lon="4.47442"></trkpt>
      <trkpt lat="51.21727" lon="4.47452"></trkpt>
      <trkpt lat="51.21726" lon="4.47462"></trkpt>
      <trkpt lat="51.21725" lon="4.47472"></trkpt>
      <trkpt lat="51.21725" lon="4.47482"></trkpt>
      <trkpt lat="51.21725" lon="4.47492"></trkpt>
      <trkpt lat="51.21724" lon="4.47503"></trkpt>
      <trkpt lat="51.21724" lon="4.47513"></trkpt>
      <trkpt lat="51.21724" lon="4.47523"></trkpt>
      <trkpt lat="51.21724" lon="4.47533"></trkpt>
      <trkpt lat="51.21723" lon="4.47543"></trkpt>
      <trkpt lat="51.21723" lon="4.47553"></trkpt>
      <trkpt lat="51.21723" lon="4.47563"></trkpt>
      <trkpt lat="51.21723" lon="4.47574"></trkpt>
      <trkpt lat="51.21723" lon="4.47583"></trkpt>
      <trkpt lat="51.21721" lon="4.47594"></trkpt>
      <trkpt lat="51.21720" lon="4.47604"></trkpt>
      <trkpt lat="51.21720" lon="4.47615"></trkpt>
      <trkpt lat="51.21720" lon="4.47625"></trkpt>
      <trkpt lat="51.21720" lon="4.47636"></trkpt>
      <trkpt lat="51.21720" lon="4.47647"></trkpt>
      <trkpt lat="51.21720" lon="4.47658"></trkpt>
      <trkpt lat="51.21719" lon="4.47668"></trkpt>
      <trkpt lat="51.21719" lon="4.47679"></trkpt>
      <trkpt lat="51.21719" lon="4.47689"></trkpt>
      <trkpt lat="51.21718" lon="4.47699"></trkpt>
      <trkpt lat="51.21718" lon="4.47710"></trkpt>
      <trkpt lat="51.21717" lon="4.47721"></trkpt>
      <trkpt lat="51.21716" lon="4.47732"></trkpt>
      <trkpt lat="51.21715" lon="4.47743"></trkpt>
      <trkpt lat="51.21714" lon="4.47753"></trkpt>
      <trkpt lat="51.21714" lon="4.47764"></trkpt>
      <trkpt lat="51.21714" lon="4.47774"></trkpt>
      <trkpt lat="51.21714" lon="4.47784"></trkpt>
      <trkpt lat="51.21713" lon="4.47795"></trkpt>
      <trkpt lat="51.21712" lon="4.47804"></trkpt>
      <trkpt lat="51.21712" lon="4.47815"></trkpt>
      <trkpt lat="51.21711" lon="4.47825"></trkpt>
      <trkpt lat="51.21711" lon="4.47836"></trkpt>
      <trkpt lat="51.21710" lon="4.47846"></trkpt>
      <trkpt lat="51.21710" lon="4.47855"></trkpt>
      <trkpt lat="51.21710" lon="4.47865"></trkpt>
      <trkpt lat="51.21709" lon="4.47876"></trkpt>
      <trkpt lat="51.21709" lon="4.47886"></trkpt>
      <trkpt lat="51.21709" lon="4.47896"></trkpt>
      <trkpt lat="51.21708" lon="4.47907"></trkpt>
      <trkpt lat="51.21708" lon="4.47917"></trkpt>
      <trkpt lat="51.21708" lon="4.47927"></trkpt>
      <trkpt lat="51.21709" lon="4.47938"></trkpt>
      <trkpt lat="51.21709" lon="4.47948"></trkpt>
      <trkpt lat="51.21710" lon="4.47959"></trkpt>
      <trkpt lat="51.21709" lon="4.47969"></trkpt>
      <trkpt lat="51.21707" lon="4.47978"></trkpt>
      <trkpt lat="51.21707" lon="4.47988"></trkpt>
      <trkpt lat="51.21706" lon="4.47998"></trkpt>
      <trkpt lat="51.21705" lon="4.48008"></trkpt>
      <trkpt lat="51.21704" lon="4.48018"></trkpt>
      <trkpt lat="51.21704" lon="4.48028"></trkpt>
      <trkpt lat="51.21703" lon="4.48038"></trkpt>
      <trkpt lat="51.21703" lon="4.48048"></trkpt>
      <trkpt lat="51.21702" lon="4.48059"></trkpt>
      <trkpt lat="51.21702" lon="4.48070"></trkpt>
      <trkpt lat="51.21701" lon="4.48081"></trkpt>
      <trkpt lat="51.21700" lon="4.48092"></trkpt>
      <trkpt lat="51.21700" lon="4.48103"></trkpt>
      <trkpt lat="51.21700" lon="4.48113"></trkpt>
      <trkpt lat="51.21699" lon="4.48123"></trkpt>
      <trkpt lat="51.21700" lon="4.48132"></trkpt>
      <trkpt lat="51.21700" lon="4.48141"></trkpt>
      <trkpt lat="51.21701" lon="4.48151"></trkpt>
      <trkpt lat="51.21702" lon="4.48162"></trkpt>
      <trkpt lat="51.21702" lon="4.48172"></trkpt>
      <trkpt lat="51.21702" lon="4.48178"></trkpt>
      <trkpt lat="51.21702" lon="4.48181"></trkpt>
      <trkpt lat="51.21702" lon="4.48183"></trkpt>
      <trkpt lat="51.21702" lon="4.48185"></trkpt>
      <trkpt lat="51.21702" lon="4.48188"></trkpt>
      <trkpt lat="51.21702" lon="4.48190"></trkpt>
      <trkpt lat="51.21702" lon="4.48197"></trkpt>
      <trkpt lat="51.21704" lon="4.48207"></trkpt>
      <trkpt lat="51.21702" lon="4.48217"></trkpt>
      <trkpt lat="51.21699" lon="4.48225"></trkpt>
      <trkpt lat="51.21697" lon="4.48235"></trkpt>
      <trkpt lat="51.21696" lon="4.48245"></trkpt>
      <trkpt lat="51.21695" lon="4.48256"></trkpt>
      <trkpt lat="51.21693" lon="4.48267"></trkpt>
      <trkpt lat="51.21693" lon="4.48277"></trkpt>
      <trkpt lat="51.21693" lon="4.48288"></trkpt>
      <trkpt lat="51.21692" lon="4.48298"></trkpt>
      <trkpt lat="51.21691" lon="4.48307"></trkpt>
      <trkpt lat="51.21691" lon="4.48317"></trkpt>
      <trkpt lat="51.21691" lon="4.48327"></trkpt>
      <trkpt lat="51.21690" lon="4.48337"></trkpt>
      <trkpt lat="51.21690" lon="4.48347"></trkpt>
      <trkpt lat="51.21692" lon="4.48358"></trkpt>
      <trkpt lat="51.21695" lon="4.48366"></trkpt>
      <trkpt lat="51.21699" lon="4.48372"></trkpt>
      <trkpt lat="51.21704" lon="4.48378"></trkpt>
      <trkpt lat="51.21709" lon="4.48384"></trkpt>
      <trkpt lat="51.21714" lon="4.48389"></trkpt>
      <trkpt lat="51.21719" lon="4.48394"></trkpt>
      <trkpt lat="51.21725" lon="4.48399"></trkpt>
      <trkpt lat="51.21731" lon="4.48403"></trkpt>
      <trkpt lat="51.21737" lon="4.48408"></trkpt>
      <trkpt lat="51.21742" lon="4.48413"></trkpt>
      <trkpt lat="51.21747" lon="4.48418"></trkpt>
      <trkpt lat="51.21752" lon="4.48422"></trkpt>
      <trkpt lat="51.21758" lon="4.48427"></trkpt>
      <trkpt lat="51.21763" lon="4.48434"></trkpt>
      <trkpt lat="51.21765" lon="4.48444"></trkpt>
      <trkpt lat="51.21767" lon="4.48454"></trkpt>
      <trkpt lat="51.21768" lon="4.48464"></trkpt>
      <trkpt lat="51.21768" lon="4.48475"></trkpt>
      <trkpt lat="51.21769" lon="4.48483"></trkpt>
      <trkpt lat="51.21773" lon="4.48487"></trkpt>
      <trkpt lat="51.21778" lon="4.48488"></trkpt>
      <trkpt lat="51.21784" lon="4.48489"></trkpt>
      <trkpt lat="51.21791" lon="4.48490"></trkpt>
      <trkpt lat="51.21798" lon="4.48491"></trkpt>
      <trkpt lat="51.21804" lon="4.48491"></trkpt>
      <trkpt lat="51.21811" lon="4.48492"></trkpt>
      <trkpt lat="51.21818" lon="4.48493"></trkpt>
      <trkpt lat="51.21825" lon="4.48493"></trkpt>
      <trkpt lat="51.21832" lon="4.48494"></trkpt>
      <trkpt lat="51.21838" lon="4.48496"></trkpt>
      <trkpt lat="51.21844" lon="4.48498"></trkpt>
      <trkpt lat="51.21850" lon="4.48502"></trkpt>
      <trkpt lat="51.21855" lon="4.48509"></trkpt>
      <trkpt lat="51.21860" lon="4.48516"></trkpt>
      <trkpt lat="51.21864" lon="4.48525"></trkpt>
      <trkpt lat="51.21867" lon="4.48535"></trkpt>
      <trkpt lat="51.21868" lon="4.48545"></trkpt>
      <trkpt lat="51.21868" lon="4.48555"></trkpt>
      <trkpt lat="51.21867" lon="4.48565"></trkpt>
      <trkpt lat="51.21865" lon="4.48575"></trkpt>
      <trkpt lat="51.21864" lon="4.48585"></trkpt>
      <trkpt lat="51.21863" lon="4.48594"></trkpt>
      <trkpt lat="51.21862" lon="4.48603"></trkpt>
      <trkpt lat="51.21861" lon="4.48613"></trkpt>
      <trkpt lat="51.21860" lon="4.48623"></trkpt>
      <trkpt lat="51.21858" lon="4.48632"></trkpt>
      <trkpt lat="51.21857" lon="4.48642"></trkpt>
      <trkpt lat="51.21856" lon="4.48652"></trkpt>
      <trkpt lat="51.21855" lon="4.48663"></trkpt>
      <trkpt lat="51.21856" lon="4.48674"></trkpt>
      <trkpt lat="51.21857" lon="4.48684"></trkpt>
      <trkpt lat="51.21858" lon="4.48693"></trkpt>
      <trkpt lat="51.21859" lon="4.48701"></trkpt>
      <trkpt lat="51.21860" lon="4.48711"></trkpt>
      <trkpt lat="51.21861" lon="4.48723"></trkpt>
      <trkpt lat="51.21862" lon="4.48734"></trkpt>
      <trkpt lat="51.21863" lon="4.48745"></trkpt>
      <trkpt lat="51.21865" lon="4.48757"></trkpt>
      <trkpt lat="51.21865" lon="4.48768"></trkpt>
      <trkpt lat="51.21866" lon="4.48778"></trkpt>
      <trkpt lat="51.21866" lon="4.48789"></trkpt>
      <trkpt lat="51.21867" lon="4.48799"></trkpt>
      <trkpt lat="51.21867" lon="4.48810"></trkpt>
      <trkpt lat="51.21867" lon="4.48820"></trkpt>
      <trkpt lat="51.21867" lon="4.48831"></trkpt>
      <trkpt lat="51.21867" lon="4.48841"></trkpt>
      <trkpt lat="51.21867" lon="4.48851"></trkpt>
      <trkpt lat="51.21867" lon="4.48862"></trkpt>
      <trkpt lat="51.21867" lon="4.48872"></trkpt>
      <trkpt lat="51.21867" lon="4.48882"></trkpt>
      <trkpt lat="51.21867" lon="4.48893"></trkpt>
      <trkpt lat="51.21868" lon="4.48904"></trkpt>
      <trkpt lat="51.21868" lon="4.48915"></trkpt>
      <trkpt lat="51.21868" lon="4.48926"></trkpt>
      <trkpt lat="51.21868" lon="4.48936"></trkpt>
      <trkpt lat="51.21868" lon="4.48947"></trkpt>
      <trkpt lat="51.21869" lon="4.48957"></trkpt>
      <trkpt lat="51.21869" lon="4.48968"></trkpt>
      <trkpt lat="51.21869" lon="4.48978"></trkpt>
      <trkpt lat="51.21870" lon="4.48989"></trkpt>
      <trkpt lat="51.21870" lon="4.48999"></trkpt>
      <trkpt lat="51.21871" lon="4.49009"></trkpt>
      <trkpt lat="51.21871" lon="4.49020"></trkpt>
      <trkpt lat="51.21873" lon="4.49030"></trkpt>
      <trkpt lat="51.21875" lon="4.49040"></trkpt>
      <trkpt lat="51.21878" lon="4.49049"></trkpt>
      <trkpt lat="51.21881" lon="4.49058"></trkpt>
      <trkpt lat="51.21884" lon="4.49068"></trkpt>
      <trkpt lat="51.21887" lon="4.49077"></trkpt>
      <trkpt lat="51.21890" lon="4.49085"></trkpt>
      <trkpt lat="51.21893" lon="4.49094"></trkpt>
      <trkpt lat="51.21896" lon="4.49104"></trkpt>
      <trkpt lat="51.21901" lon="4.49111"></trkpt>
      <trkpt lat="51.21907" lon="4.49117"></trkpt>
      <trkpt lat="51.21912" lon="4.49124"></trkpt>
      <trkpt lat="51.21916" lon="4.49132"></trkpt>
      <trkpt lat="51.21920" lon="4.49140"></trkpt>
      <trkpt lat="51.21922" lon="4.49149"></trkpt>
      <trkpt lat="51.21924" lon="4.49159"></trkpt>
      <trkpt lat="51.21926" lon="4.49169"></trkpt>
      <trkpt lat="51.21928" lon="4.49178"></trkpt>
      <trkpt lat="51.21931" lon="4.49187"></trkpt>
      <trkpt lat="51.21936" lon="4.49193"></trkpt>
      <trkpt lat="51.21942" lon="4.49194"></trkpt>
      <trkpt lat="51.21942" lon="4.49197"></trkpt>
      <trkpt lat="51.21939" lon="4.49198"></trkpt>
      <trkpt lat="51.21939" lon="4.49197"></trkpt>
      <trkpt lat="51.21939" lon="4.49197"></trkpt>
      <trkpt lat="51.21940" lon="4.49197"></trkpt>
      <trkpt lat="51.21940" lon="4.49196"></trkpt>
      <trkpt lat="51.21940" lon="4.49196"></trkpt>
      <trkpt lat="51.21944" lon="4.49195"></trkpt>
      <trkpt lat="51.21950" lon="4.49195"></trkpt>
      <trkpt lat="51.21954" lon="4.49194"></trkpt>
      <trkpt lat="51.21958" lon="4.49193"></trkpt>
      <trkpt lat="51.21962" lon="4.49193"></trkpt>
      <trkpt lat="51.21966" lon="4.49192"></trkpt>
      <trkpt lat="51.21971" lon="4.49193"></trkpt>
      <trkpt lat="51.21975" lon="4.49192"></trkpt>
      <trkpt lat="51.21979" lon="4.49191"></trkpt>
      <trkpt lat="51.21984" lon="4.49190"></trkpt>
      <trkpt lat="51.21989" lon="4.49189"></trkpt>
      <trkpt lat="51.21992" lon="4.49187"></trkpt>
      <trkpt lat="51.21997" lon="4.49183"></trkpt>
      <trkpt lat="51.22001" lon="4.49180"></trkpt>
      <trkpt lat="51.22006" lon="4.49177"></trkpt>
      <trkpt lat="51.22010" lon="4.49174"></trkpt>
      <trkpt lat="51.22014" lon="4.49170"></trkpt>
      <trkpt lat="51.22018" lon="4.49167"></trkpt>
      <trkpt lat="51.22022" lon="4.49164"></trkpt>
      <trkpt lat="51.22026" lon="4.49161"></trkpt>
      <trkpt lat="51.22030" lon="4.49159"></trkpt>
      <trkpt lat="51.22036" lon="4.49160"></trkpt>
      <trkpt lat="51.22043" lon="4.49162"></trkpt>
      <trkpt lat="51.22050" lon="4.49164"></trkpt>
      <trkpt lat="51.22056" lon="4.49166"></trkpt>
      <trkpt lat="51.22064" lon="4.49168"></trkpt>
      <trkpt lat="51.22070" lon="4.49171"></trkpt>
      <trkpt lat="51.22077" lon="4.49173"></trkpt>
      <trkpt lat="51.22084" lon="4.49175"></trkpt>
      <trkpt lat="51.22091" lon="4.49176"></trkpt>
      <trkpt lat="51.22098" lon="4.49178"></trkpt>
      <trkpt lat="51.22105" lon="4.49179"></trkpt>
      <trkpt lat="51.22111" lon="4.49181"></trkpt>
      <trkpt lat="51.22118" lon="4.49183"></trkpt>
      <trkpt lat="51.22125" lon="4.49184"></trkpt>
      <trkpt lat="51.22132" lon="4.49186"></trkpt>
      <trkpt lat="51.22139" lon="4.49189"></trkpt>
      <trkpt lat="51.22146" lon="4.49191"></trkpt>
      <trkpt lat="51.22153" lon="4.49194"></trkpt>
      <trkpt lat="51.22159" lon="4.49199"></trkpt>
      <trkpt lat="51.22163" lon="4.49208"></trkpt>
      <trkpt lat="51.22168" lon="4.49215"></trkpt>
      <trkpt lat="51.22174" lon="4.49216"></trkpt>
      <trkpt lat="51.22181" lon="4.49213"></trkpt>
      <trkpt lat="51.22187" lon="4.49207"></trkpt>
      <trkpt lat="51.22191" lon="4.49199"></trkpt>
      <trkpt lat="51.22191" lon="4.49187"></trkpt>
      <trkpt lat="51.22194" lon="4.49182"></trkpt>
      <trkpt lat="51.22196" lon="4.49182"></trkpt>
      <trkpt lat="51.22196" lon="4.49181"></trkpt>
      <trkpt lat="51.22196" lon="4.49181"></trkpt>
      <trkpt lat="51.22197" lon="4.49181"></trkpt>
      <trkpt lat="51.22197" lon="4.49180"></trkpt>
      <trkpt lat="51.22198" lon="4.49180"></trkpt>
      <trkpt lat="51.22198" lon="4.49180"></trkpt>
      <trkpt lat="51.22199" lon="4.49179"></trkpt>
      <trkpt lat="51.22204" lon="4.49177"></trkpt>
      <trkpt lat="51.22212" lon="4.49174"></trkpt>
      <trkpt lat="51.22220" lon="4.49171"></trkpt>
      <trkpt lat="51.22227" lon="4.49169"></trkpt>
      <trkpt lat="51.22233" lon="4.49167"></trkpt>
      <trkpt lat="51.22238" lon="4.49166"></trkpt>
      <trkpt lat="51.22245" lon="4.49164"></trkpt>
      <trkpt lat="51.22251" lon="4.49161"></trkpt>
      <trkpt lat="51.22258" lon="4.49159"></trkpt>
      <trkpt lat="51.22264" lon="4.49155"></trkpt>
      <trkpt lat="51.22271" lon="4.49151"></trkpt>
      <trkpt lat="51.22277" lon="4.49150"></trkpt>
      <trkpt lat="51.22281" lon="4.49153"></trkpt>
      <trkpt lat="51.22283" lon="4.49156"></trkpt>
      <trkpt lat="51.22283" lon="4.49156"></trkpt>
      <trkpt lat="51.22283" lon="4.49156"></trkpt>
      <trkpt lat="51.22283" lon="4.49155"></trkpt>
      <trkpt lat="51.22283" lon="4.49155"></trkpt>
      <trkpt lat="51.22283" lon="4.49154"></trkpt>
      <trkpt lat="51.22283" lon="4.49154"></trkpt>
      <trkpt lat="51.22283" lon="4.49153"></trkpt>
      <trkpt lat="51.22283" lon="4.49153"></trkpt>
      <trkpt lat="51.22283" lon="4.49152"></trkpt>
      <trkpt lat="51.22284" lon="4.49149"></trkpt>
      <trkpt lat="51.22289" lon="4.49142"></trkpt>
      <trkpt lat="51.22296" lon="4.49139"></trkpt>
      <trkpt lat="51.22303" lon="4.49137"></trkpt>
      <trkpt lat="51.22309" lon="4.49134"></trkpt>
      <trkpt lat="51.22316" lon="4.49130"></trkpt>
      <trkpt lat="51.22323" lon="4.49127"></trkpt>
      <trkpt lat="51.22329" lon="4.49124"></trkpt>
      <trkpt lat="51.22335" lon="4.49121"></trkpt>
      <trkpt lat="51.22341" lon="4.49119"></trkpt>
      <trkpt lat="51.22348" lon="4.49118"></trkpt>
      <trkpt lat="51.22355" lon="4.49115"></trkpt>
      <trkpt lat="51.22361" lon="4.49112"></trkpt>
      <trkpt lat="51.22367" lon="4.49110"></trkpt>
      <trkpt lat="51.22373" lon="4.49108"></trkpt>
      <trkpt lat="51.22380" lon="4.49105"></trkpt>
      <trkpt lat="51.22385" lon="4.49102"></trkpt>
      <trkpt lat="51.22391" lon="4.49100"></trkpt>
      <trkpt lat="51.22398" lon="4.49098"></trkpt>
      <trkpt lat="51.22405" lon="4.49095"></trkpt>
      <trkpt lat="51.22412" lon="4.49093"></trkpt>
      <trkpt lat="51.22418" lon="4.49090"></trkpt>
      <trkpt lat="51.22425" lon="4.49087"></trkpt>
      <trkpt lat="51.22432" lon="4.49084"></trkpt>
      <trkpt lat="51.22439" lon="4.49081"></trkpt>
      <trkpt lat="51.22446" lon="4.49077"></trkpt>
      <trkpt lat="51.22453" lon="4.49073"></trkpt>
      <trkpt lat="51.22460" lon="4.49070"></trkpt>
      <trkpt lat="51.22467" lon="4.49068"></trkpt>
      <trkpt lat="51.22474" lon="4.49065"></trkpt>
      <trkpt lat="51.22481" lon="4.49061"></trkpt>
      <trkpt lat="51.22488" lon="4.49058"></trkpt>
      <trkpt lat="51.22496" lon="4.49055"></trkpt>
      <trkpt lat="51.22502" lon="4.49052"></trkpt>
      <trkpt lat="51.22509" lon="4.49050"></trkpt>
      <trkpt lat="51.22516" lon="4.49047"></trkpt>
      <trkpt lat="51.22523" lon="4.49043"></trkpt>
      <trkpt lat="51.22530" lon="4.49040"></trkpt>
      <trkpt lat="51.22537" lon="4.49037"></trkpt>
      <trkpt lat="51.22544" lon="4.49035"></trkpt>
      <trkpt lat="51.22551" lon="4.49032"></trkpt>
      <trkpt lat="51.22558" lon="4.49029"></trkpt>
      <trkpt lat="51.22565" lon="4.49026"></trkpt>
      <trkpt lat="51.22571" lon="4.49023"></trkpt>
      <trkpt lat="51.22578" lon="4.49021"></trkpt>
      <trkpt lat="51.22584" lon="4.49018"></trkpt>
      <trkpt lat="51.22591" lon="4.49014"></trkpt>
      <trkpt lat="51.22598" lon="4.49010"></trkpt>
      <trkpt lat="51.22604" lon="4.49008"></trkpt>
      <trkpt lat="51.22610" lon="4.49004"></trkpt>
      <trkpt lat="51.22617" lon="4.49001"></trkpt>
      <trkpt lat="51.22624" lon="4.48998"></trkpt>
      <trkpt lat="51.22630" lon="4.48995"></trkpt>
      <trkpt lat="51.22637" lon="4.48993"></trkpt>
      <trkpt lat="51.22643" lon="4.48990"></trkpt>
      <trkpt lat="51.22649" lon="4.48987"></trkpt>
      <trkpt lat="51.22655" lon="4.48984"></trkpt>
      <trkpt lat="51.22661" lon="4.48981"></trkpt>
      <trkpt lat="51.22667" lon="4.48978"></trkpt>
      <trkpt lat="51.22673" lon="4.48976"></trkpt>
      <trkpt lat="51.22679" lon="4.48974"></trkpt>
      <trkpt lat="51.22685" lon="4.48976"></trkpt>
      <trkpt lat="51.22688" lon="4.48985"></trkpt>
      <trkpt lat="51.22689" lon="4.48996"></trkpt>
      <trkpt lat="51.22690" lon="4.49005"></trkpt>
      <trkpt lat="51.22691" lon="4.49014"></trkpt>
      <trkpt lat="51.22692" lon="4.49024"></trkpt>
      <trkpt lat="51.22693" lon="4.49034"></trkpt>
      <trkpt lat="51.22694" lon="4.49045"></trkpt>
      <trkpt lat="51.22695" lon="4.49056"></trkpt>
      <trkpt lat="51.22696" lon="4.49066"></trkpt>
      <trkpt lat="51.22697" lon="4.49078"></trkpt>
      <trkpt lat="51.22698" lon="4.49089"></trkpt>
      <trkpt lat="51.22700" lon="4.49099"></trkpt>
      <trkpt lat="51.22700" lon="4.49109"></trkpt>
      <trkpt lat="51.22701" lon="4.49121"></trkpt>
      <trkpt lat="51.22703" lon="4.49132"></trkpt>
      <trkpt lat="51.22704" lon="4.49143"></trkpt>
      <trkpt lat="51.22706" lon="4.49153"></trkpt>
      <trkpt lat="51.22708" lon="4.49165"></trkpt>
      <trkpt lat="51.22708" lon="4.49176"></trkpt>
      <trkpt lat="51.22709" lon="4.49186"></trkpt>
      <trkpt lat="51.22709" lon="4.49197"></trkpt>
      <trkpt lat="51.22711" lon="4.49208"></trkpt>
      <trkpt lat="51.22711" lon="4.49218"></trkpt>
      <trkpt lat="51.22712" lon="4.49229"></trkpt>
      <trkpt lat="51.22714" lon="4.49240"></trkpt>
      <trkpt lat="51.22716" lon="4.49250"></trkpt>
      <trkpt lat="51.22718" lon="4.49260"></trkpt>
      <trkpt lat="51.22720" lon="4.49270"></trkpt>
      <trkpt lat="51.22722" lon="4.49281"></trkpt>
      <trkpt lat="51.22724" lon="4.49291"></trkpt>
      <trkpt lat="51.22725" lon="4.49302"></trkpt>
      <trkpt lat="51.22728" lon="4.49309"></trkpt>
      <trkpt lat="51.22733" lon="4.49312"></trkpt>
      <trkpt lat="51.22739" lon="4.49312"></trkpt>
      <trkpt lat="51.22744" lon="4.49311"></trkpt>
      <trkpt lat="51.22750" lon="4.49310"></trkpt>
      <trkpt lat="51.22756" lon="4.49310"></trkpt>
      <trkpt lat="51.22761" lon="4.49309"></trkpt>
      <trkpt lat="51.22767" lon="4.49307"></trkpt>
      <trkpt lat="51.22772" lon="4.49304"></trkpt>
      <trkpt lat="51.22778" lon="4.49301"></trkpt>
      <trkpt lat="51.22785" lon="4.49298"></trkpt>
      <trkpt lat="51.22792" lon="4.49296"></trkpt>
      <trkpt lat="51.22799" lon="4.49294"></trkpt>
      <trkpt lat="51.22806" lon="4.49293"></trkpt>
      <trkpt lat="51.22813" lon="4.49291"></trkpt>
      <trkpt lat="51.22819" lon="4.49290"></trkpt>
      <trkpt lat="51.22825" lon="4.49288"></trkpt>
      <trkpt lat="51.22832" lon="4.49287"></trkpt>
      <trkpt lat="51.22840" lon="4.49286"></trkpt>
      <trkpt lat="51.22847" lon="4.49283"></trkpt>
      <trkpt lat="51.22854" lon="4.49282"></trkpt>
      <trkpt lat="51.22861" lon="4.49280"></trkpt>
      <trkpt lat="51.22868" lon="4.49279"></trkpt>
      <trkpt lat="51.22874" lon="4.49278"></trkpt>
      <trkpt lat="51.22881" lon="4.49277"></trkpt>
      <trkpt lat="51.22888" lon="4.49275"></trkpt>
      <trkpt lat="51.22895" lon="4.49274"></trkpt>
      <trkpt lat="51.22902" lon="4.49274"></trkpt>
      <trkpt lat="51.22909" lon="4.49273"></trkpt>
      <trkpt lat="51.22917" lon="4.49271"></trkpt>
      <trkpt lat="51.22923" lon="4.49268"></trkpt>
      <trkpt lat="51.22930" lon="4.49265"></trkpt>
      <trkpt lat="51.22937" lon="4.49261"></trkpt>
      <trkpt lat="51.22943" lon="4.49255"></trkpt>
      <trkpt lat="51.22949" lon="4.49247"></trkpt>
      <trkpt lat="51.22954" lon="4.49239"></trkpt>
      <trkpt lat="51.22958" lon="4.49232"></trkpt>
      <trkpt lat="51.22962" lon="4.49224"></trkpt>
      <trkpt lat="51.22964" lon="4.49214"></trkpt>
      <trkpt lat="51.22964" lon="4.49205"></trkpt>
      <trkpt lat="51.22962" lon="4.49196"></trkpt>
      <trkpt lat="51.22962" lon="4.49186"></trkpt>
      <trkpt lat="51.22965" lon="4.49178"></trkpt>
      <trkpt lat="51.22970" lon="4.49177"></trkpt>
      <trkpt lat="51.22977" lon="4.49180"></trkpt>
      <trkpt lat="51.22984" lon="4.49184"></trkpt>
      <trkpt lat="51.22989" lon="4.49188"></trkpt>
      <trkpt lat="51.22995" lon="4.49187"></trkpt>
      <trkpt lat="51.23001" lon="4.49183"></trkpt>
      <trkpt lat="51.23008" lon="4.49181"></trkpt>
      <trkpt lat="51.23015" lon="4.49179"></trkpt>
      <trkpt lat="51.23022" lon="4.49179"></trkpt>
      <trkpt lat="51.23029" lon="4.49180"></trkpt>
      <trkpt lat="51.23036" lon="4.49180"></trkpt>
      <trkpt lat="51.23043" lon="4.49182"></trkpt>
      <trkpt lat="51.23049" lon="4.49183"></trkpt>
      <trkpt lat="51.23055" lon="4.49183"></trkpt>
      <trkpt lat="51.23061" lon="4.49184"></trkpt>
      <trkpt lat="51.23067" lon="4.49183"></trkpt>
      <trkpt lat="51.23070" lon="4.49176"></trkpt>
      <trkpt lat="51.23072" lon="4.49168"></trkpt>
      <trkpt lat="51.23074" lon="4.49162"></trkpt>
      <trkpt lat="51.23074" lon="4.49153"></trkpt>
      <trkpt lat="51.23076" lon="4.49143"></trkpt>
      <trkpt lat="51.23080" lon="4.49137"></trkpt>
      <trkpt lat="51.23084" lon="4.49131"></trkpt>
      <trkpt lat="51.23087" lon="4.49125"></trkpt>
      <trkpt lat="51.23089" lon="4.49120"></trkpt>
      <trkpt lat="51.23091" lon="4.49116"></trkpt>
      <trkpt lat="51.23093" lon="4.49113"></trkpt>
      <trkpt lat="51.23095" lon="4.49109"></trkpt>
      <trkpt lat="51.23098" lon="4.49107"></trkpt>
      <trkpt lat="51.23102" lon="4.49107"></trkpt>
      <trkpt lat="51.23104" lon="4.49106"></trkpt>
      <trkpt lat="51.23107" lon="4.49105"></trkpt>
      <trkpt lat="51.23110" lon="4.49104"></trkpt>
      <trkpt lat="51.23114" lon="4.49102"></trkpt>
      <trkpt lat="51.23118" lon="4.49103"></trkpt>
      <trkpt lat="51.23121" lon="4.49103"></trkpt>
      <trkpt lat="51.23125" lon="4.49103"></trkpt>
      <trkpt lat="51.23129" lon="4.49104"></trkpt>
      <trkpt lat="51.23132" lon="4.49104"></trkpt>
      <trkpt lat="51.23135" lon="4.49103"></trkpt>
      <trkpt lat="51.23138" lon="4.49102"></trkpt>
      <trkpt lat="51.23141" lon="4.49102"></trkpt>
      <trkpt lat="51.23144" lon="4.49101"></trkpt>
      <trkpt lat="51.23147" lon="4.49102"></trkpt>
      <trkpt lat="51.23150" lon="4.49104"></trkpt>
      <trkpt lat="51.23153" lon="4.49104"></trkpt>
      <trkpt lat="51.23157" lon="4.49105"></trkpt>
      <trkpt lat="51.23162" lon="4.49105"></trkpt>
      <trkpt lat="51.23168" lon="4.49104"></trkpt>
      <trkpt lat="51.23175" lon="4.49103"></trkpt>
      <trkpt lat="51.23181" lon="4.49108"></trkpt>
      <trkpt lat="51.23187" lon="4.49111"></trkpt>
      <trkpt lat="51.23194" lon="4.49112"></trkpt>
      <trkpt lat="51.23200" lon="4.49113"></trkpt>
      <trkpt lat="51.23206" lon="4.49112"></trkpt>
      <trkpt lat="51.23212" lon="4.49110"></trkpt>
      <trkpt lat="51.23218" lon="4.49111"></trkpt>
      <trkpt lat="51.23224" lon="4.49113"></trkpt>
      <trkpt lat="51.23231" lon="4.49115"></trkpt>
      <trkpt lat="51.23239" lon="4.49115"></trkpt>
      <trkpt lat="51.23247" lon="4.49112"></trkpt>
      <trkpt lat="51.23254" lon="4.49108"></trkpt>
      <trkpt lat="51.23261" lon="4.49102"></trkpt>
      <trkpt lat="51.23267" lon="4.49095"></trkpt>
      <trkpt lat="51.23272" lon="4.49088"></trkpt>
      <trkpt lat="51.23278" lon="4.49083"></trkpt>
      <trkpt lat="51.23284" lon="4.49076"></trkpt>
      <trkpt lat="51.23289" lon="4.49070"></trkpt>
      <trkpt lat="51.23295" lon="4.49065"></trkpt>
      <trkpt lat="51.23300" lon="4.49062"></trkpt>
      <trkpt lat="51.23305" lon="4.49058"></trkpt>
      <trkpt lat="51.23310" lon="4.49052"></trkpt>
      <trkpt lat="51.23315" lon="4.49046"></trkpt>
      <trkpt lat="51.23321" lon="4.49040"></trkpt>
      <trkpt lat="51.23327" lon="4.49035"></trkpt>
      <trkpt lat="51.23333" lon="4.49030"></trkpt>
      <trkpt lat="51.23338" lon="4.49024"></trkpt>
      <trkpt lat="51.23344" lon="4.49018"></trkpt>
      <trkpt lat="51.23350" lon="4.49012"></trkpt>
      <trkpt lat="51.23355" lon="4.49006"></trkpt>
      <trkpt lat="51.23361" lon="4.49000"></trkpt>
      <trkpt lat="51.23367" lon="4.48994"></trkpt>
      <trkpt lat="51.23373" lon="4.48988"></trkpt>
      <trkpt lat="51.23378" lon="4.48982"></trkpt>
      <trkpt lat="51.23384" lon="4.48977"></trkpt>
      <trkpt lat="51.23390" lon="4.48971"></trkpt>
      <trkpt lat="51.23395" lon="4.48965"></trkpt>
      <trkpt lat="51.23402" lon="4.48960"></trkpt>
      <trkpt lat="51.23408" lon="4.48956"></trkpt>
      <trkpt lat="51.23413" lon="4.48950"></trkpt>
      <trkpt lat="51.23419" lon="4.48943"></trkpt>
      <trkpt lat="51.23425" lon="4.48938"></trkpt>
      <trkpt lat="51.23431" lon="4.48932"></trkpt>
      <trkpt lat="51.23438" lon="4.48926"></trkpt>
      <trkpt lat="51.23444" lon="4.48921"></trkpt>
      <trkpt lat="51.23452" lon="4.48916"></trkpt>
      <trkpt lat="51.23458" lon="4.48910"></trkpt>
      <trkpt lat="51.23464" lon="4.48904"></trkpt>
      <trkpt lat="51.23470" lon="4.48898"></trkpt>
      <trkpt lat="51.23476" lon="4.48891"></trkpt>
      <trkpt lat="51.23482" lon="4.48884"></trkpt>
      <trkpt lat="51.23488" lon="4.48878"></trkpt>
      <trkpt lat="51.23494" lon="4.48873"></trkpt>
      <trkpt lat="51.23500" lon="4.48870"></trkpt>
      <trkpt lat="51.23507" lon="4.48869"></trkpt>
      <trkpt lat="51.23513" lon="4.48866"></trkpt>
      <trkpt lat="51.23519" lon="4.48861"></trkpt>
      <trkpt lat="51.23522" lon="4.48852"></trkpt>
      <trkpt lat="51.23522" lon="4.48841"></trkpt>
      <trkpt lat="51.23521" lon="4.48831"></trkpt>
      <trkpt lat="51.23523" lon="4.48822"></trkpt>
      <trkpt lat="51.23528" lon="4.48817"></trkpt>
      <trkpt lat="51.23534" lon="4.48816"></trkpt>
      <trkpt lat="51.23541" lon="4.48815"></trkpt>
      <trkpt lat="51.23548" lon="4.48814"></trkpt>
      <trkpt lat="51.23555" lon="4.48812"></trkpt>
      <trkpt lat="51.23561" lon="4.48809"></trkpt>
      <trkpt lat="51.23568" lon="4.48807"></trkpt>
      <trkpt lat="51.23575" lon="4.48805"></trkpt>
      <trkpt lat="51.23582" lon="4.48803"></trkpt>
      <trkpt lat="51.23587" lon="4.48801"></trkpt>
      <trkpt lat="51.23591" lon="4.48800"></trkpt>
      <trkpt lat="51.23595" lon="4.48799"></trkpt>
      <trkpt lat="51.23599" lon="4.48799"></trkpt>
      <trkpt lat="51.23602" lon="4.48799"></trkpt>
      <trkpt lat="51.23606" lon="4.48800"></trkpt>
      <trkpt lat="51.23608" lon="4.48801"></trkpt>
      <trkpt lat="51.23609" lon="4.48801"></trkpt>
      <trkpt lat="51.23609" lon="4.48801"></trkpt>
      <trkpt lat="51.23609" lon="4.48801"></trkpt>
      <trkpt lat="51.23609" lon="4.48801"></trkpt>
      <trkpt lat="51.23609" lon="4.48801"></trkpt>
      <trkpt lat="51.23610" lon="4.48801"></trkpt>
      <trkpt lat="51.23610" lon="4.48801"></trkpt>
      <trkpt lat="51.23610" lon="4.48801"></trkpt>
      <trkpt lat="51.23610" lon="4.48801"></trkpt>
      <trkpt lat="51.23610" lon="4.48801"></trkpt>
      <trkpt lat="51.23610" lon="4.48801"></trkpt>
      <trkpt lat="51.23610" lon="4.48801"></trkpt>
      <trkpt lat="51.23611" lon="4.48801"></trkpt>
      <trkpt lat="51.23611" lon="4.48801"></trkpt>
      <trkpt lat="51.23611" lon="4.48801"></trkpt>
      <trkpt lat="51.23611" lon="4.48801"></trkpt>
      <trkpt lat="51.23611" lon="4.48801"></trkpt>
      <trkpt lat="51.23611" lon="4.48801"></trkpt>
      <trkpt lat="51.23613" lon="4.48801"></trkpt>
      <trkpt lat="51.23622" lon="4.48800"></trkpt>
      <trkpt lat="51.23630" lon="4.48800"></trkpt>
      <trkpt lat="51.23638" lon="4.48798"></trkpt>
      <trkpt lat="51.23645" lon="4.48795"></trkpt>
      <trkpt lat="51.23651" lon="4.48789"></trkpt>
      <trkpt lat="51.23656" lon="4.48782"></trkpt>
      <trkpt lat="51.23662" lon="4.48775"></trkpt>
      <trkpt lat="51.23668" lon="4.48769"></trkpt>
      <trkpt lat="51.23674" lon="4.48764"></trkpt>
      <trkpt lat="51.23680" lon="4.48760"></trkpt>
      <trkpt lat="51.23686" lon="4.48757"></trkpt>
      <trkpt lat="51.23693" lon="4.48754"></trkpt>
      <trkpt lat="51.23699" lon="4.48751"></trkpt>
      <trkpt lat="51.23705" lon="4.48748"></trkpt>
      <trkpt lat="51.23711" lon="4.48745"></trkpt>
      <trkpt lat="51.23718" lon="4.48742"></trkpt>
      <trkpt lat="51.23724" lon="4.48738"></trkpt>
      <trkpt lat="51.23731" lon="4.48734"></trkpt>
      <trkpt lat="51.23737" lon="4.48731"></trkpt>
      <trkpt lat="51.23743" lon="4.48727"></trkpt>
      <trkpt lat="51.23749" lon="4.48723"></trkpt>
      <trkpt lat="51.23755" lon="4.48719"></trkpt>
      <trkpt lat="51.23762" lon="4.48716"></trkpt>
      <trkpt lat="51.23769" lon="4.48714"></trkpt>
      <trkpt lat="51.23775" lon="4.48711"></trkpt>
      <trkpt lat="51.23782" lon="4.48709"></trkpt>
      <trkpt lat="51.23788" lon="4.48707"></trkpt>
      <trkpt lat="51.23795" lon="4.48706"></trkpt>
      <trkpt lat="51.23802" lon="4.48704"></trkpt>
      <trkpt lat="51.23808" lon="4.48702"></trkpt>
      <trkpt lat="51.23815" lon="4.48701"></trkpt>
      <trkpt lat="51.23821" lon="4.48698"></trkpt>
      <trkpt lat="51.23828" lon="4.48695"></trkpt>
      <trkpt lat="51.23834" lon="4.48693"></trkpt>
      <trkpt lat="51.23841" lon="4.48690"></trkpt>
      <trkpt lat="51.23848" lon="4.48688"></trkpt>
      <trkpt lat="51.23854" lon="4.48686"></trkpt>
      <trkpt lat="51.23860" lon="4.48683"></trkpt>
      <trkpt lat="51.23867" lon="4.48681"></trkpt>
      <trkpt lat="51.23873" lon="4.48678"></trkpt>
      <trkpt lat="51.23879" lon="4.48675"></trkpt>
      <trkpt lat="51.23886" lon="4.48673"></trkpt>
      <trkpt lat="51.23892" lon="4.48672"></trkpt>
      <trkpt lat="51.23899" lon="4.48671"></trkpt>
      <trkpt lat="51.23905" lon="4.48669"></trkpt>
      <trkpt lat="51.23912" lon="4.48668"></trkpt>
      <trkpt lat="51.23918" lon="4.48666"></trkpt>
      <trkpt lat="51.23925" lon="4.48664"></trkpt>
      <trkpt lat="51.23932" lon="4.48663"></trkpt>
      <trkpt lat="51.23939" lon="4.48661"></trkpt>
      <trkpt lat="51.23945" lon="4.48660"></trkpt>
      <trkpt lat="51.23952" lon="4.48658"></trkpt>
      <trkpt lat="51.23958" lon="4.48656"></trkpt>
      <trkpt lat="51.23965" lon="4.48654"></trkpt>
      <trkpt lat="51.23971" lon="4.48653"></trkpt>
      <trkpt lat="51.23977" lon="4.48651"></trkpt>
      <trkpt lat="51.23984" lon="4.48650"></trkpt>
      <trkpt lat="51.23990" lon="4.48648"></trkpt>
      <trkpt lat="51.23997" lon="4.48646"></trkpt>
      <trkpt lat="51.24003" lon="4.48644"></trkpt>
      <trkpt lat="51.24010" lon="4.48642"></trkpt>
      <trkpt lat="51.24017" lon="4.48640"></trkpt>
      <trkpt lat="51.24024" lon="4.48639"></trkpt>
      <trkpt lat="51.24030" lon="4.48638"></trkpt>
      <trkpt lat="51.24037" lon="4.48636"></trkpt>
      <trkpt lat="51.24043" lon="4.48634"></trkpt>
      <trkpt lat="51.24049" lon="4.48633"></trkpt>
      <trkpt lat="51.24055" lon="4.48632"></trkpt>
      <trkpt lat="51.24061" lon="4.48631"></trkpt>
      <trkpt lat="51.24068" lon="4.48630"></trkpt>
      <trkpt lat="51.24074" lon="4.48629"></trkpt>
      <trkpt lat="51.24081" lon="4.48627"></trkpt>
      <trkpt lat="51.24089" lon="4.48625"></trkpt>
      <trkpt lat="51.24096" lon="4.48623"></trkpt>
      <trkpt lat="51.24103" lon="4.48621"></trkpt>
      <trkpt lat="51.24110" lon="4.48620"></trkpt>
      <trkpt lat="51.24117" lon="4.48619"></trkpt>
      <trkpt lat="51.24124" lon="4.48617"></trkpt>
      <trkpt lat="51.24131" lon="4.48617"></trkpt>
      <trkpt lat="51.24138" lon="4.48616"></trkpt>
      <trkpt lat="51.24145" lon="4.48613"></trkpt>
      <trkpt lat="51.24152" lon="4.48611"></trkpt>
      <trkpt lat="51.24158" lon="4.48609"></trkpt>
      <trkpt lat="51.24165" lon="4.48608"></trkpt>
      <trkpt lat="51.24172" lon="4.48607"></trkpt>
      <trkpt lat="51.24179" lon="4.48605"></trkpt>
      <trkpt lat="51.24186" lon="4.48603"></trkpt>
      <trkpt lat="51.24193" lon="4.48602"></trkpt>
      <trkpt lat="51.24201" lon="4.48601"></trkpt>
      <trkpt lat="51.24208" lon="4.48599"></trkpt>
      <trkpt lat="51.24215" lon="4.48597"></trkpt>
      <trkpt lat="51.24222" lon="4.48595"></trkpt>
      <trkpt lat="51.24228" lon="4.48593"></trkpt>
      <trkpt lat="51.24235" lon="4.48592"></trkpt>
      <trkpt lat="51.24242" lon="4.48590"></trkpt>
      <trkpt lat="51.24249" lon="4.48589"></trkpt>
      <trkpt lat="51.24256" lon="4.48587"></trkpt>
      <trkpt lat="51.24263" lon="4.48585"></trkpt>
      <trkpt lat="51.24270" lon="4.48583"></trkpt>
      <trkpt lat="51.24277" lon="4.48582"></trkpt>
      <trkpt lat="51.24283" lon="4.48580"></trkpt>
      <trkpt lat="51.24290" lon="4.48579"></trkpt>
      <trkpt lat="51.24297" lon="4.48577"></trkpt>
      <trkpt lat="51.24304" lon="4.48576"></trkpt>
      <trkpt lat="51.24311" lon="4.48575"></trkpt>
      <trkpt lat="51.24317" lon="4.48572"></trkpt>
      <trkpt lat="51.24324" lon="4.48571"></trkpt>
      <trkpt lat="51.24331" lon="4.48570"></trkpt>
      <trkpt lat="51.24338" lon="4.48569"></trkpt>
      <trkpt lat="51.24345" lon="4.48568"></trkpt>
      <trkpt lat="51.24351" lon="4.48566"></trkpt>
      <trkpt lat="51.24358" lon="4.48564"></trkpt>
      <trkpt lat="51.24364" lon="4.48563"></trkpt>
      <trkpt lat="51.24370" lon="4.48562"></trkpt>
      <trkpt lat="51.24377" lon="4.48561"></trkpt>
      <trkpt lat="51.24385" lon="4.48559"></trkpt>
      <trkpt lat="51.24393" lon="4.48559"></trkpt>
      <trkpt lat="51.24399" lon="4.48563"></trkpt>
      <trkpt lat="51.24405" lon="4.48570"></trkpt>
      <trkpt lat="51.24410" lon="4.48577"></trkpt>
      <trkpt lat="51.24409" lon="4.48587"></trkpt>
      <trkpt lat="51.24404" lon="4.48598"></trkpt>
      <trkpt lat="51.24399" lon="4.48607"></trkpt>
      <trkpt lat="51.24394" lon="4.48615"></trkpt>
      <trkpt lat="51.24390" lon="4.48624"></trkpt>
      <trkpt lat="51.24386" lon="4.48633"></trkpt>
      <trkpt lat="51.24382" lon="4.48642"></trkpt>
      <trkpt lat="51.24378" lon="4.48652"></trkpt>
      <trkpt lat="51.24376" lon="4.48661"></trkpt>
      <trkpt lat="51.24374" lon="4.48672"></trkpt>
      <trkpt lat="51.24371" lon="4.48682"></trkpt>
      <trkpt lat="51.24368" lon="4.48692"></trkpt>
      <trkpt lat="51.24366" lon="4.48701"></trkpt>
      <trkpt lat="51.24363" lon="4.48711"></trkpt>
      <trkpt lat="51.24360" lon="4.48720"></trkpt>
      <trkpt lat="51.24357" lon="4.48730"></trkpt>
      <trkpt lat="51.24355" lon="4.48740"></trkpt>
      <trkpt lat="51.24352" lon="4.48751"></trkpt>
      <trkpt lat="51.24350" lon="4.48761"></trkpt>
      <trkpt lat="51.24347" lon="4.48771"></trkpt>
      <trkpt lat="51.24345" lon="4.48781"></trkpt>
      <trkpt lat="51.24343" lon="4.48791"></trkpt>
      <trkpt lat="51.24340" lon="4.48800"></trkpt>
      <trkpt lat="51.24337" lon="4.48810"></trkpt>
      <trkpt lat="51.24336" lon="4.48821"></trkpt>
      <trkpt lat="51.24334" lon="4.48832"></trkpt>
      <trkpt lat="51.24332" lon="4.48842"></trkpt>
      <trkpt lat="51.24330" lon="4.48852"></trkpt>
      <trkpt lat="51.24327" lon="4.48862"></trkpt>
      <trkpt lat="51.24329" lon="4.48872"></trkpt>
      <trkpt lat="51.24333" lon="4.48880"></trkpt>
      <trkpt lat="51.24339" lon="4.48887"></trkpt>
      <trkpt lat="51.24344" lon="4.48893"></trkpt>
      <trkpt lat="51.24349" lon="4.48901"></trkpt>
      <trkpt lat="51.24353" lon="4.48909"></trkpt>
      <trkpt lat="51.24356" lon="4.48914"></trkpt>
      <trkpt lat="51.24358" lon="4.48923"></trkpt>
      <trkpt lat="51.24362" lon="4.48936"></trkpt>
      <trkpt lat="51.24365" lon="4.48949"></trkpt>
      <trkpt lat="51.24367" lon="4.48959"></trkpt>
      <trkpt lat="51.24372" lon="4.48968"></trkpt>
      <trkpt lat="51.24377" lon="4.48975"></trkpt>
      <trkpt lat="51.24383" lon="4.48981"></trkpt>
      <trkpt lat="51.24389" lon="4.48986"></trkpt>
      <trkpt lat="51.24396" lon="4.48986"></trkpt>
      <trkpt lat="51.24403" lon="4.48985"></trkpt>
      <trkpt lat="51.24410" lon="4.48983"></trkpt>
      <trkpt lat="51.24418" lon="4.48982"></trkpt>
      <trkpt lat="51.24424" lon="4.48981"></trkpt>
      <trkpt lat="51.24431" lon="4.48979"></trkpt>
      <trkpt lat="51.24439" lon="4.48976"></trkpt>
      <trkpt lat="51.24446" lon="4.48973"></trkpt>
      <trkpt lat="51.24453" lon="4.48970"></trkpt>
      <trkpt lat="51.24459" lon="4.48967"></trkpt>
      <trkpt lat="51.24465" lon="4.48965"></trkpt>
      <trkpt lat="51.24472" lon="4.48964"></trkpt>
      <trkpt lat="51.24478" lon="4.48966"></trkpt>
      <trkpt lat="51.24483" lon="4.48972"></trkpt>
      <trkpt lat="51.24487" lon="4.48981"></trkpt>
      <trkpt lat="51.24489" lon="4.48991"></trkpt>
      <trkpt lat="51.24492" lon="4.49002"></trkpt>
      <trkpt lat="51.24494" lon="4.49012"></trkpt>
      <trkpt lat="51.24495" lon="4.49023"></trkpt>
      <trkpt lat="51.24495" lon="4.49035"></trkpt>
      <trkpt lat="51.24494" lon="4.49047"></trkpt>
      <trkpt lat="51.24492" lon="4.49058"></trkpt>
      <trkpt lat="51.24489" lon="4.49069"></trkpt>
      <trkpt lat="51.24486" lon="4.49080"></trkpt>
      <trkpt lat="51.24483" lon="4.49091"></trkpt>
      <trkpt lat="51.24480" lon="4.49102"></trkpt>
      <trkpt lat="51.24476" lon="4.49112"></trkpt>
      <trkpt lat="51.24472" lon="4.49122"></trkpt>
      <trkpt lat="51.24469" lon="4.49132"></trkpt>
      <trkpt lat="51.24465" lon="4.49142"></trkpt>
      <trkpt lat="51.24462" lon="4.49151"></trkpt>
      <trkpt lat="51.24459" lon="4.49162"></trkpt>
      <trkpt lat="51.24457" lon="4.49173"></trkpt>
      <trkpt lat="51.24456" lon="4.49184"></trkpt>
      <trkpt lat="51.24453" lon="4.49194"></trkpt>
      <trkpt lat="51.24451" lon="4.49205"></trkpt>
      <trkpt lat="51.24450" lon="4.49216"></trkpt>
      <trkpt lat="51.24450" lon="4.49228"></trkpt>
      <trkpt lat="51.24452" lon="4.49239"></trkpt>
      <trkpt lat="51.24454" lon="4.49250"></trkpt>
      <trkpt lat="51.24455" lon="4.49261"></trkpt>
      <trkpt lat="51.24455" lon="4.49272"></trkpt>
      <trkpt lat="51.24455" lon="4.49283"></trkpt>
      <trkpt lat="51.24454" lon="4.49294"></trkpt>
      <trkpt lat="51.24454" lon="4.49305"></trkpt>
      <trkpt lat="51.24454" lon="4.49313"></trkpt>
      <trkpt lat="51.24453" lon="4.49323"></trkpt>
      <trkpt lat="51.24452" lon="4.49331"></trkpt>
      <trkpt lat="51.24450" lon="4.49340"></trkpt>
      <trkpt lat="51.24448" lon="4.49349"></trkpt>
      <trkpt lat="51.24447" lon="4.49357"></trkpt>
      <trkpt lat="51.24446" lon="4.49367"></trkpt>
      <trkpt lat="51.24445" lon="4.49377"></trkpt>
      <trkpt lat="51.24443" lon="4.49387"></trkpt>
      <trkpt lat="51.24442" lon="4.49398"></trkpt>
      <trkpt lat="51.24440" lon="4.49408"></trkpt>
      <trkpt lat="51.24438" lon="4.49418"></trkpt>
      <trkpt lat="51.24436" lon="4.49427"></trkpt>
      <trkpt lat="51.24434" lon="4.49438"></trkpt>
      <trkpt lat="51.24432" lon="4.49449"></trkpt>
      <trkpt lat="51.24430" lon="4.49458"></trkpt>
      <trkpt lat="51.24426" lon="4.49468"></trkpt>
      <trkpt lat="51.24422" lon="4.49477"></trkpt>
      <trkpt lat="51.24419" lon="4.49485"></trkpt>
      <trkpt lat="51.24416" lon="4.49494"></trkpt>
      <trkpt lat="51.24412" lon="4.49502"></trkpt>
      <trkpt lat="51.24406" lon="4.49508"></trkpt>
      <trkpt lat="51.24401" lon="4.49513"></trkpt>
      <trkpt lat="51.24396" lon="4.49520"></trkpt>
      <trkpt lat="51.24392" lon="4.49530"></trkpt>
      <trkpt lat="51.24389" lon="4.49541"></trkpt>
      <trkpt lat="51.24389" lon="4.49552"></trkpt>
      <trkpt lat="51.24391" lon="4.49562"></trkpt>
      <trkpt lat="51.24394" lon="4.49571"></trkpt>
      <trkpt lat="51.24397" lon="4.49579"></trkpt>
      <trkpt lat="51.24401" lon="4.49589"></trkpt>
      <trkpt lat="51.24404" lon="4.49598"></trkpt>
      <trkpt lat="51.24407" lon="4.49608"></trkpt>
      <trkpt lat="51.24411" lon="4.49616"></trkpt>
      <trkpt lat="51.24414" lon="4.49623"></trkpt>
      <trkpt lat="51.24417" lon="4.49630"></trkpt>
      <trkpt lat="51.24420" lon="4.49639"></trkpt>
      <trkpt lat="51.24424" lon="4.49648"></trkpt>
      <trkpt lat="51.24429" lon="4.49657"></trkpt>
      <trkpt lat="51.24433" lon="4.49666"></trkpt>
      <trkpt lat="51.24438" lon="4.49675"></trkpt>
      <trkpt lat="51.24443" lon="4.49682"></trkpt>
      <trkpt lat="51.24449" lon="4.49689"></trkpt>
      <trkpt lat="51.24455" lon="4.49697"></trkpt>
      <trkpt lat="51.24462" lon="4.49704"></trkpt>
      <trkpt lat="51.24468" lon="4.49710"></trkpt>
      <trkpt lat="51.24474" lon="4.49716"></trkpt>
      <trkpt lat="51.24480" lon="4.49722"></trkpt>
      <trkpt lat="51.24486" lon="4.49726"></trkpt>
      <trkpt lat="51.24492" lon="4.49730"></trkpt>
      <trkpt lat="51.24498" lon="4.49734"></trkpt>
      <trkpt lat="51.24504" lon="4.49737"></trkpt>
      <trkpt lat="51.24511" lon="4.49739"></trkpt>
      <trkpt lat="51.24517" lon="4.49737"></trkpt>
      <trkpt lat="51.24523" lon="4.49735"></trkpt>
      <trkpt lat="51.24528" lon="4.49735"></trkpt>
      <trkpt lat="51.24534" lon="4.49734"></trkpt>
      <trkpt lat="51.24541" lon="4.49734"></trkpt>
      <trkpt lat="51.24547" lon="4.49734"></trkpt>
      <trkpt lat="51.24554" lon="4.49734"></trkpt>
      <trkpt lat="51.24561" lon="4.49733"></trkpt>
      <trkpt lat="51.24569" lon="4.49734"></trkpt>
      <trkpt lat="51.24576" lon="4.49735"></trkpt>
      <trkpt lat="51.24583" lon="4.49736"></trkpt>
      <trkpt lat="51.24590" lon="4.49737"></trkpt>
      <trkpt lat="51.24596" lon="4.49737"></trkpt>
      <trkpt lat="51.24603" lon="4.49737"></trkpt>
      <trkpt lat="51.24610" lon="4.49738"></trkpt>
      <trkpt lat="51.24616" lon="4.49738"></trkpt>
      <trkpt lat="51.24623" lon="4.49738"></trkpt>
      <trkpt lat="51.24630" lon="4.49738"></trkpt>
      <trkpt lat="51.24636" lon="4.49738"></trkpt>
      <trkpt lat="51.24642" lon="4.49739"></trkpt>
      <trkpt lat="51.24649" lon="4.49739"></trkpt>
      <trkpt lat="51.24655" lon="4.49740"></trkpt>
      <trkpt lat="51.24662" lon="4.49741"></trkpt>
      <trkpt lat="51.24668" lon="4.49741"></trkpt>
      <trkpt lat="51.24675" lon="4.49741"></trkpt>
      <trkpt lat="51.24681" lon="4.49742"></trkpt>
      <trkpt lat="51.24688" lon="4.49743"></trkpt>
      <trkpt lat="51.24695" lon="4.49743"></trkpt>
      <trkpt lat="51.24702" lon="4.49744"></trkpt>
      <trkpt lat="51.24709" lon="4.49744"></trkpt>
      <trkpt lat="51.24715" lon="4.49745"></trkpt>
      <trkpt lat="51.24722" lon="4.49746"></trkpt>
      <trkpt lat="51.24728" lon="4.49746"></trkpt>
      <trkpt lat="51.24734" lon="4.49747"></trkpt>
      <trkpt lat="51.24741" lon="4.49747"></trkpt>
      <trkpt lat="51.24746" lon="4.49746"></trkpt>
      <trkpt lat="51.24751" lon="4.49745"></trkpt>
      <trkpt lat="51.24758" lon="4.49748"></trkpt>
      <trkpt lat="51.24766" lon="4.49749"></trkpt>
      <trkpt lat="51.24772" lon="4.49750"></trkpt>
      <trkpt lat="51.24779" lon="4.49751"></trkpt>
      <trkpt lat="51.24786" lon="4.49752"></trkpt>
      <trkpt lat="51.24792" lon="4.49752"></trkpt>
      <trkpt lat="51.24799" lon="4.49753"></trkpt>
      <trkpt lat="51.24805" lon="4.49755"></trkpt>
      <trkpt lat="51.24812" lon="4.49758"></trkpt>
      <trkpt lat="51.24818" lon="4.49760"></trkpt>
      <trkpt lat="51.24824" lon="4.49759"></trkpt>
      <trkpt lat="51.24830" lon="4.49761"></trkpt>
      <trkpt lat="51.24837" lon="4.49762"></trkpt>
      <trkpt lat="51.24844" lon="4.49765"></trkpt>
      <trkpt lat="51.24851" lon="4.49767"></trkpt>
      <trkpt lat="51.24858" lon="4.49768"></trkpt>
      <trkpt lat="51.24864" lon="4.49769"></trkpt>
      <trkpt lat="51.24870" lon="4.49770"></trkpt>
      <trkpt lat="51.24877" lon="4.49770"></trkpt>
      <trkpt lat="51.24883" lon="4.49770"></trkpt>
      <trkpt lat="51.24890" lon="4.49769"></trkpt>
      <trkpt lat="51.24896" lon="4.49769"></trkpt>
      <trkpt lat="51.24902" lon="4.49769"></trkpt>
      <trkpt lat="51.24908" lon="4.49770"></trkpt>
      <trkpt lat="51.24914" lon="4.49770"></trkpt>
      <trkpt lat="51.24916" lon="4.49773"></trkpt>
      <trkpt lat="51.24917" lon="4.49779"></trkpt>
      <trkpt lat="51.24921" lon="4.49788"></trkpt>
      <trkpt lat="51.24923" lon="4.49800"></trkpt>
      <trkpt lat="51.24925" lon="4.49812"></trkpt>
      <trkpt lat="51.24925" lon="4.49824"></trkpt>
      <trkpt lat="51.24923" lon="4.49836"></trkpt>
      <trkpt lat="51.24922" lon="4.49847"></trkpt>
      <trkpt lat="51.24922" lon="4.49858"></trkpt>
      <trkpt lat="51.24921" lon="4.49869"></trkpt>
      <trkpt lat="51.24920" lon="4.49880"></trkpt>
      <trkpt lat="51.24919" lon="4.49890"></trkpt>
      <trkpt lat="51.24919" lon="4.49901"></trkpt>
      <trkpt lat="51.24918" lon="4.49911"></trkpt>
      <trkpt lat="51.24918" lon="4.49922"></trkpt>
      <trkpt lat="51.24918" lon="4.49933"></trkpt>
      <trkpt lat="51.24918" lon="4.49943"></trkpt>
      <trkpt lat="51.24918" lon="4.49954"></trkpt>
      <trkpt lat="51.24918" lon="4.49965"></trkpt>
      <trkpt lat="51.24918" lon="4.49976"></trkpt>
      <trkpt lat="51.24919" lon="4.49986"></trkpt>
      <trkpt lat="51.24918" lon="4.49996"></trkpt>
      <trkpt lat="51.24918" lon="4.50007"></trkpt>
      <trkpt lat="51.24918" lon="4.50018"></trkpt>
      <trkpt lat="51.24918" lon="4.50028"></trkpt>
      <trkpt lat="51.24917" lon="4.50038"></trkpt>
      <trkpt lat="51.24918" lon="4.50047"></trkpt>
      <trkpt lat="51.24922" lon="4.50051"></trkpt>
      <trkpt lat="51.24928" lon="4.50056"></trkpt>
      <trkpt lat="51.24929" lon="4.50068"></trkpt>
      <trkpt lat="51.24929" lon="4.50080"></trkpt>
      <trkpt lat="51.24928" lon="4.50091"></trkpt>
      <trkpt lat="51.24929" lon="4.50103"></trkpt>
      <trkpt lat="51.24929" lon="4.50113"></trkpt>
      <trkpt lat="51.24930" lon="4.50123"></trkpt>
      <trkpt lat="51.24930" lon="4.50134"></trkpt>
      <trkpt lat="51.24930" lon="4.50145"></trkpt>
      <trkpt lat="51.24933" lon="4.50151"></trkpt>
      <trkpt lat="51.24939" lon="4.50152"></trkpt>
      <trkpt lat="51.24945" lon="4.50152"></trkpt>
      <trkpt lat="51.24952" lon="4.50151"></trkpt>
      <trkpt lat="51.24958" lon="4.50149"></trkpt>
      <trkpt lat="51.24965" lon="4.50148"></trkpt>
      <trkpt lat="51.24972" lon="4.50149"></trkpt>
      <trkpt lat="51.24978" lon="4.50150"></trkpt>
      <trkpt lat="51.24985" lon="4.50154"></trkpt>
      <trkpt lat="51.24991" lon="4.50161"></trkpt>
      <trkpt lat="51.24997" lon="4.50166"></trkpt>
      <trkpt lat="51.25003" lon="4.50172"></trkpt>
      <trkpt lat="51.25010" lon="4.50177"></trkpt>
      <trkpt lat="51.25016" lon="4.50182"></trkpt>
      <trkpt lat="51.25023" lon="4.50187"></trkpt>
      <trkpt lat="51.25030" lon="4.50191"></trkpt>
      <trkpt lat="51.25036" lon="4.50195"></trkpt>
      <trkpt lat="51.25043" lon="4.50200"></trkpt>
      <trkpt lat="51.25049" lon="4.50205"></trkpt>
      <trkpt lat="51.25055" lon="4.50213"></trkpt>
      <trkpt lat="51.25061" lon="4.50221"></trkpt>
      <trkpt lat="51.25067" lon="4.50226"></trkpt>
      <trkpt lat="51.25073" lon="4.50230"></trkpt>
      <trkpt lat="51.25079" lon="4.50233"></trkpt>
      <trkpt lat="51.25086" lon="4.50236"></trkpt>
      <trkpt lat="51.25093" lon="4.50239"></trkpt>
      <trkpt lat="51.25101" lon="4.50241"></trkpt>
      <trkpt lat="51.25107" lon="4.50243"></trkpt>
      <trkpt lat="51.25115" lon="4.50246"></trkpt>
      <trkpt lat="51.25121" lon="4.50249"></trkpt>
      <trkpt lat="51.25128" lon="4.50252"></trkpt>
      <trkpt lat="51.25134" lon="4.50258"></trkpt>
      <trkpt lat="51.25140" lon="4.50266"></trkpt>
      <trkpt lat="51.25146" lon="4.50273"></trkpt>
      <trkpt lat="51.25152" lon="4.50278"></trkpt>
      <trkpt lat="51.25159" lon="4.50280"></trkpt>
      <trkpt lat="51.25166" lon="4.50283"></trkpt>
      <trkpt lat="51.25173" lon="4.50286"></trkpt>
      <trkpt lat="51.25181" lon="4.50289"></trkpt>
      <trkpt lat="51.25188" lon="4.50292"></trkpt>
      <trkpt lat="51.25195" lon="4.50295"></trkpt>
      <trkpt lat="51.25201" lon="4.50297"></trkpt>
      <trkpt lat="51.25208" lon="4.50300"></trkpt>
      <trkpt lat="51.25215" lon="4.50301"></trkpt>
      <trkpt lat="51.25222" lon="4.50303"></trkpt>
      <trkpt lat="51.25229" lon="4.50306"></trkpt>
      <trkpt lat="51.25236" lon="4.50308"></trkpt>
      <trkpt lat="51.25243" lon="4.50310"></trkpt>
      <trkpt lat="51.25249" lon="4.50315"></trkpt>
      <trkpt lat="51.25251" lon="4.50326"></trkpt>
      <trkpt lat="51.25251" lon="4.50338"></trkpt>
      <trkpt lat="51.25250" lon="4.50350"></trkpt>
      <trkpt lat="51.25250" lon="4.50362"></trkpt>
      <trkpt lat="51.25249" lon="4.50374"></trkpt>
      <trkpt lat="51.25248" lon="4.50387"></trkpt>
      <trkpt lat="51.25248" lon="4.50400"></trkpt>
      <trkpt lat="51.25248" lon="4.50412"></trkpt>
      <trkpt lat="51.25249" lon="4.50424"></trkpt>
      <trkpt lat="51.25249" lon="4.50436"></trkpt>
      <trkpt lat="51.25250" lon="4.50448"></trkpt>
      <trkpt lat="51.25250" lon="4.50460"></trkpt>
      <trkpt lat="51.25249" lon="4.50472"></trkpt>
      <trkpt lat="51.25249" lon="4.50483"></trkpt>
      <trkpt lat="51.25249" lon="4.50495"></trkpt>
      <trkpt lat="51.25249" lon="4.50508"></trkpt>
      <trkpt lat="51.25248" lon="4.50520"></trkpt>
      <trkpt lat="51.25248" lon="4.50526"></trkpt>
    </trkseg>
  </trk>
</gpx>