<?xml version="1.0" encoding="UTF-8"?>
<gpx version="1.1" creator="jeffry.running" xmlns="http://www.topografix.com/GPX/1/1">
  <metadata><time>2026-08-21T12:30:34.134Z</time></metadata>
  <trk>
    <trkseg>
      <trkpt lat="51.20433" lon="4.44994"></trkpt>
      <trkpt lat="51.20428" lon="4.44994"></trkpt>
      <trkpt lat="51.20422" lon="4.44993"></trkpt>
      <trkpt lat="51.20415" lon="4.44994"></trkpt>
      <trkpt lat="51.20409" lon="4.44995"></trkpt>
      <trkpt lat="51.20403" lon="4.44996"></trkpt>
      <trkpt lat="51.20397" lon="4.44996"></trkpt>
      <trkpt lat="51.20390" lon="4.44996"></trkpt>
      <trkpt lat="51.20383" lon="4.44995"></trkpt>
      <trkpt lat="51.20376" lon="4.44993"></trkpt>
      <trkpt lat="51.20370" lon="4.44995"></trkpt>
      <trkpt lat="51.20365" lon="4.45002"></trkpt>
      <trkpt lat="51.20362" lon="4.45010"></trkpt>
      <trkpt lat="51.20358" lon="4.45016"></trkpt>
      <trkpt lat="51.20352" lon="4.45016"></trkpt>
      <trkpt lat="51.20346" lon="4.45014"></trkpt>
      <trkpt lat="51.20339" lon="4.45014"></trkpt>
      <trkpt lat="51.20334" lon="4.45015"></trkpt>
      <trkpt lat="51.20328" lon="4.45018"></trkpt>
      <trkpt lat="51.20321" lon="4.45018"></trkpt>
      <trkpt lat="51.20315" lon="4.45019"></trkpt>
      <trkpt lat="51.20309" lon="4.45019"></trkpt>
      <trkpt lat="51.20303" lon="4.45019"></trkpt>
      <trkpt lat="51.20297" lon="4.45019"></trkpt>
      <trkpt lat="51.20292" lon="4.45019"></trkpt>
      <trkpt lat="51.20286" lon="4.45021"></trkpt>
      <trkpt lat="51.20279" lon="4.45021"></trkpt>
      <trkpt lat="51.20272" lon="4.45021"></trkpt>
      <trkpt lat="51.20265" lon="4.45022"></trkpt>
      <trkpt lat="51.20258" lon="4.45022"></trkpt>
      <trkpt lat="51.20252" lon="4.45021"></trkpt>
      <trkpt lat="51.20246" lon="4.45020"></trkpt>
      <trkpt lat="51.20239" lon="4.45020"></trkpt>
      <trkpt lat="51.20233" lon="4.45020"></trkpt>
      <trkpt lat="51.20227" lon="4.45021"></trkpt>
      <trkpt lat="51.20220" lon="4.45021"></trkpt>
      <trkpt lat="51.20214" lon="4.45022"></trkpt>
      <trkpt lat="51.20208" lon="4.45023"></trkpt>
      <trkpt lat="51.20202" lon="4.45023"></trkpt>
      <trkpt lat="51.20196" lon="4.45023"></trkpt>
      <trkpt lat="51.20189" lon="4.45024"></trkpt>
      <trkpt lat="51.20183" lon="4.45026"></trkpt>
      <trkpt lat="51.20176" lon="4.45026"></trkpt>
      <trkpt lat="51.20170" lon="4.45025"></trkpt>
      <trkpt lat="51.20163" lon="4.45025"></trkpt>
      <trkpt lat="51.20157" lon="4.45024"></trkpt>
      <trkpt lat="51.20151" lon="4.45023"></trkpt>
      <trkpt lat="51.20145" lon="4.45018"></trkpt>
      <trkpt lat="51.20141" lon="4.45009"></trkpt>
      <trkpt lat="51.20136" lon="4.45001"></trkpt>
      <trkpt lat="51.20130" lon="4.45002"></trkpt>
      <trkpt lat="51.20124" lon="4.45002"></trkpt>
      <trkpt lat="51.20117" lon="4.45002"></trkpt>
      <trkpt lat="51.20111" lon="4.45001"></trkpt>
      <trkpt lat="51.20105" lon="4.45002"></trkpt>
      <trkpt lat="51.20099" lon="4.45001"></trkpt>
      <trkpt lat="51.20092" lon="4.44999"></trkpt>
      <trkpt lat="51.20086" lon="4.44999"></trkpt>
      <trkpt lat="51.20080" lon="4.44999"></trkpt>
      <trkpt lat="51.20073" lon="4.45001"></trkpt>
      <trkpt lat="51.20066" lon="4.45000"></trkpt>
      <trkpt lat="51.20060" lon="4.45000"></trkpt>
      <trkpt lat="51.20054" lon="4.45003"></trkpt>
      <trkpt lat="51.20047" lon="4.45003"></trkpt>
      <trkpt lat="51.20041" lon="4.45003"></trkpt>
      <trkpt lat="51.20035" lon="4.45002"></trkpt>
      <trkpt lat="51.20028" lon="4.45001"></trkpt>
      <trkpt lat="51.20021" lon="4.44999"></trkpt>
      <trkpt lat="51.20013" lon="4.44999"></trkpt>
      <trkpt lat="51.20003" lon="4.44998"></trkpt>
      <trkpt lat="51.19995" lon="4.44995"></trkpt>
      <trkpt lat="51.19987" lon="4.44995"></trkpt>
      <trkpt lat="51.19980" lon="4.44996"></trkpt>
      <trkpt lat="51.19973" lon="4.44995"></trkpt>
      <trkpt lat="51.19967" lon="4.44994"></trkpt>
      <trkpt lat="51.19959" lon="4.44992"></trkpt>
      <trkpt lat="51.19953" lon="4.44989"></trkpt>
      <trkpt lat="51.19947" lon="4.44987"></trkpt>
      <trkpt lat="51.19941" lon="4.44986"></trkpt>
      <trkpt lat="51.19935" lon="4.44984"></trkpt>
      <trkpt lat="51.19928" lon="4.44983"></trkpt>
      <trkpt lat="51.19921" lon="4.44981"></trkpt>
      <trkpt lat="51.19914" lon="4.44979"></trkpt>
      <trkpt lat="51.19908" lon="4.44978"></trkpt>
      <trkpt lat="51.19902" lon="4.44976"></trkpt>
      <trkpt lat="51.19895" lon="4.44975"></trkpt>
      <trkpt lat="51.19889" lon="4.44974"></trkpt>
      <trkpt lat="51.19882" lon="4.44973"></trkpt>
      <trkpt lat="51.19876" lon="4.44971"></trkpt>
      <trkpt lat="51.19870" lon="4.44970"></trkpt>
      <trkpt lat="51.19864" lon="4.44969"></trkpt>
      <trkpt lat="51.19858" lon="4.44966"></trkpt>
      <trkpt lat="51.19852" lon="4.44964"></trkpt>
      <trkpt lat="51.19846" lon="4.44962"></trkpt>
      <trkpt lat="51.19839" lon="4.44961"></trkpt>
      <trkpt lat="51.19833" lon="4.44959"></trkpt>
      <trkpt lat="51.19827" lon="4.44958"></trkpt>
      <trkpt lat="51.19820" lon="4.44956"></trkpt>
      <trkpt lat="51.19814" lon="4.44954"></trkpt>
      <trkpt lat="51.19807" lon="4.44952"></trkpt>
      <trkpt lat="51.19801" lon="4.44949"></trkpt>
      <trkpt lat="51.19794" lon="4.44948"></trkpt>
      <trkpt lat="51.19788" lon="4.44947"></trkpt>
      <trkpt lat="51.19781" lon="4.44945"></trkpt>
      <trkpt lat="51.19775" lon="4.44943"></trkpt>
      <trkpt lat="51.19769" lon="4.44940"></trkpt>
      <trkpt lat="51.19764" lon="4.44934"></trkpt>
      <trkpt lat="51.19758" lon="4.44930"></trkpt>
      <trkpt lat="51.19750" lon="4.44931"></trkpt>
      <trkpt lat="51.19743" lon="4.44934"></trkpt>
      <trkpt lat="51.19737" lon="4.44934"></trkpt>
      <trkpt lat="51.19731" lon="4.44932"></trkpt>
      <trkpt lat="51.19725" lon="4.44931"></trkpt>
      <trkpt lat="51.19719" lon="4.44929"></trkpt>
      <trkpt lat="51.19713" lon="4.44926"></trkpt>
      <trkpt lat="51.19706" lon="4.44924"></trkpt>
      <trkpt lat="51.19699" lon="4.44922"></trkpt>
      <trkpt lat="51.19693" lon="4.44920"></trkpt>
      <trkpt lat="51.19687" lon="4.44923"></trkpt>
      <trkpt lat="51.19683" lon="4.44927"></trkpt>
      <trkpt lat="51.19676" lon="4.44927"></trkpt>
      <trkpt lat="51.19671" lon="4.44927"></trkpt>
      <trkpt lat="51.19666" lon="4.44934"></trkpt>
      <trkpt lat="51.19662" lon="4.44942"></trkpt>
      <trkpt lat="51.19658" lon="4.44950"></trkpt>
      <trkpt lat="51.19657" lon="4.44960"></trkpt>
      <trkpt lat="51.19656" lon="4.44969"></trkpt>
      <trkpt lat="51.19654" lon="4.44977"></trkpt>
      <trkpt lat="51.19653" lon="4.44985"></trkpt>
      <trkpt lat="51.19650" lon="4.44993"></trkpt>
      <trkpt lat="51.19648" lon="4.45001"></trkpt>
      <trkpt lat="51.19646" lon="4.45009"></trkpt>
      <trkpt lat="51.19645" lon="4.45017"></trkpt>
      <trkpt lat="51.19644" lon="4.45027"></trkpt>
      <trkpt lat="51.19642" lon="4.45038"></trkpt>
      <trkpt lat="51.19640" lon="4.45047"></trkpt>
      <trkpt lat="51.19637" lon="4.45057"></trkpt>
      <trkpt lat="51.19636" lon="4.45068"></trkpt>
      <trkpt lat="51.19634" lon="4.45078"></trkpt>
      <trkpt lat="51.19632" lon="4.45088"></trkpt>
      <trkpt lat="51.19630" lon="4.45098"></trkpt>
      <trkpt lat="51.19629" lon="4.45107"></trkpt>
      <trkpt lat="51.19628" lon="4.45117"></trkpt>
      <trkpt lat="51.19627" lon="4.45126"></trkpt>
      <trkpt lat="51.19625" lon="4.45136"></trkpt>
      <trkpt lat="51.19623" lon="4.45147"></trkpt>
      <trkpt lat="51.19622" lon="4.45157"></trkpt>
      <trkpt lat="51.19621" lon="4.45166"></trkpt>
      <trkpt lat="51.19619" lon="4.45175"></trkpt>
      <trkpt lat="51.19614" lon="4.45182"></trkpt>
      <trkpt lat="51.19609" lon="4.45189"></trkpt>
      <trkpt lat="51.19605" lon="4.45198"></trkpt>
      <trkpt lat="51.19602" lon="4.45207"></trkpt>
      <trkpt lat="51.19597" lon="4.45214"></trkpt>
      <trkpt lat="51.19591" lon="4.45215"></trkpt>
      <trkpt lat="51.19584" lon="4.45213"></trkpt>
      <trkpt lat="51.19578" lon="4.45210"></trkpt>
      <trkpt lat="51.19573" lon="4.45206"></trkpt>
      <trkpt lat="51.19567" lon="4.45203"></trkpt>
      <trkpt lat="51.19561" lon="4.45201"></trkpt>
      <trkpt lat="51.19556" lon="4.45200"></trkpt>
      <trkpt lat="51.19550" lon="4.45198"></trkpt>
      <trkpt lat="51.19544" lon="4.45195"></trkpt>
      <trkpt lat="51.19538" lon="4.45193"></trkpt>
      <trkpt lat="51.19531" lon="4.45189"></trkpt>
      <trkpt lat="51.19524" lon="4.45186"></trkpt>
      <trkpt lat="51.19516" lon="4.45183"></trkpt>
      <trkpt lat="51.19509" lon="4.45180"></trkpt>
      <trkpt lat="51.19502" lon="4.45177"></trkpt>
      <trkpt lat="51.19496" lon="4.45175"></trkpt>
      <trkpt lat="51.19490" lon="4.45172"></trkpt>
      <trkpt lat="51.19484" lon="4.45170"></trkpt>
      <trkpt lat="51.19477" lon="4.45167"></trkpt>
      <trkpt lat="51.19471" lon="4.45164"></trkpt>
      <trkpt lat="51.19464" lon="4.45163"></trkpt>
      <trkpt lat="51.19458" lon="4.45161"></trkpt>
      <trkpt lat="51.19451" lon="4.45158"></trkpt>
      <trkpt lat="51.19445" lon="4.45155"></trkpt>
      <trkpt lat="51.19439" lon="4.45153"></trkpt>
      <trkpt lat="51.19433" lon="4.45151"></trkpt>
      <trkpt lat="51.19428" lon="4.45149"></trkpt>
      <trkpt lat="51.19422" lon="4.45147"></trkpt>
      <trkpt lat="51.19417" lon="4.45144"></trkpt>
      <trkpt lat="51.19412" lon="4.45141"></trkpt>
      <trkpt lat="51.19407" lon="4.45139"></trkpt>
      <trkpt lat="51.19401" lon="4.45139"></trkpt>
      <trkpt lat="51.19394" lon="4.45137"></trkpt>
      <trkpt lat="51.19388" lon="4.45134"></trkpt>
      <trkpt lat="51.19382" lon="4.45132"></trkpt>
      <trkpt lat="51.19376" lon="4.45130"></trkpt>
      <trkpt lat="51.19370" lon="4.45127"></trkpt>
      <trkpt lat="51.19364" lon="4.45124"></trkpt>
      <trkpt lat="51.19358" lon="4.45122"></trkpt>
      <trkpt lat="51.19352" lon="4.45119"></trkpt>
      <trkpt lat="51.19345" lon="4.45116"></trkpt>
      <trkpt lat="51.19340" lon="4.45114"></trkpt>
      <trkpt lat="51.19334" lon="4.45111"></trkpt>
      <trkpt lat="51.19327" lon="4.45109"></trkpt>
      <trkpt lat="51.19321" lon="4.45106"></trkpt>
      <trkpt lat="51.19315" lon="4.45104"></trkpt>
      <trkpt lat="51.19309" lon="4.45101"></trkpt>
      <trkpt lat="51.19303" lon="4.45099"></trkpt>
      <trkpt lat="51.19297" lon="4.45096"></trkpt>
      <trkpt lat="51.19291" lon="4.45094"></trkpt>
      <trkpt lat="51.19285" lon="4.45091"></trkpt>
      <trkpt lat="51.19279" lon="4.45089"></trkpt>
      <trkpt lat="51.19273" lon="4.45087"></trkpt>
      <trkpt lat="51.19267" lon="4.45084"></trkpt>
      <trkpt lat="51.19261" lon="4.45082"></trkpt>
      <trkpt lat="51.19255" lon="4.45080"></trkpt>
      <trkpt lat="51.19249" lon="4.45077"></trkpt>
      <trkpt lat="51.19243" lon="4.45074"></trkpt>
      <trkpt lat="51.19237" lon="4.45072"></trkpt>
      <trkpt lat="51.19231" lon="4.45069"></trkpt>
      <trkpt lat="51.19225" lon="4.45066"></trkpt>
      <trkpt lat="51.19219" lon="4.45062"></trkpt>
      <trkpt lat="51.19213" lon="4.45059"></trkpt>
      <trkpt lat="51.19207" lon="4.45054"></trkpt>
      <trkpt lat="51.19202" lon="4.45050"></trkpt>
      <trkpt lat="51.19196" lon="4.45046"></trkpt>
      <trkpt lat="51.19191" lon="4.45041"></trkpt>
      <trkpt lat="51.19186" lon="4.45036"></trkpt>
      <trkpt lat="51.19180" lon="4.45032"></trkpt>
      <trkpt lat="51.19175" lon="4.45028"></trkpt>
      <trkpt lat="51.19170" lon="4.45024"></trkpt>
      <trkpt lat="51.19165" lon="4.45020"></trkpt>
      <trkpt lat="51.19159" lon="4.45016"></trkpt>
      <trkpt lat="51.19153" lon="4.45014"></trkpt>
      <trkpt lat="51.19147" lon="4.45009"></trkpt>
      <trkpt lat="51.19142" lon="4.45004"></trkpt>
      <trkpt lat="51.19137" lon="4.44998"></trkpt>
      <trkpt lat="51.19131" lon="4.44994"></trkpt>
      <trkpt lat="51.19125" lon="4.44990"></trkpt>
      <trkpt lat="51.19120" lon="4.44986"></trkpt>
      <trkpt lat="51.19115" lon="4.44981"></trkpt>
      <trkpt lat="51.19111" lon="4.44977"></trkpt>
      <trkpt lat="51.19106" lon="4.44972"></trkpt>
      <trkpt lat="51.19101" lon="4.44966"></trkpt>
      <trkpt lat="51.19095" lon="4.44961"></trkpt>
      <trkpt lat="51.19089" lon="4.44955"></trkpt>
      <trkpt lat="51.19083" lon="4.44950"></trkpt>
      <trkpt lat="51.19078" lon="4.44945"></trkpt>
      <trkpt lat="51.19073" lon="4.44943"></trkpt>
      <trkpt lat="51.19066" lon="4.44942"></trkpt>
      <trkpt lat="51.19060" lon="4.44941"></trkpt>
      <trkpt lat="51.19054" lon="4.44940"></trkpt>
      <trkpt lat="51.19047" lon="4.44941"></trkpt>
      <trkpt lat="51.19041" lon="4.44938"></trkpt>
      <trkpt lat="51.19035" lon="4.44934"></trkpt>
      <trkpt lat="51.19028" lon="4.44935"></trkpt>
      <trkpt lat="51.19022" lon="4.44936"></trkpt>
      <trkpt lat="51.19015" lon="4.44937"></trkpt>
      <trkpt lat="51.19009" lon="4.44937"></trkpt>
      <trkpt lat="51.19003" lon="4.44937"></trkpt>
      <trkpt lat="51.18996" lon="4.44936"></trkpt>
      <trkpt lat="51.18989" lon="4.44936"></trkpt>
      <trkpt lat="51.18982" lon="4.44935"></trkpt>
      <trkpt lat="51.18976" lon="4.44934"></trkpt>
      <trkpt lat="51.18970" lon="4.44933"></trkpt>
      <trkpt lat="51.18963" lon="4.44933"></trkpt>
      <trkpt lat="51.18957" lon="4.44933"></trkpt>
      <trkpt lat="51.18952" lon="4.44931"></trkpt>
      <trkpt lat="51.18945" lon="4.44931"></trkpt>
      <trkpt lat="51.18939" lon="4.44930"></trkpt>
      <trkpt lat="51.18933" lon="4.44929"></trkpt>
      <trkpt lat="51.18926" lon="4.44929"></trkpt>
      <trkpt lat="51.18921" lon="4.44929"></trkpt>
      <trkpt lat="51.18914" lon="4.44930"></trkpt>
      <trkpt lat="51.18908" lon="4.44929"></trkpt>
      <trkpt lat="51.18901" lon="4.44927"></trkpt>
      <trkpt lat="51.18894" lon="4.44923"></trkpt>
      <trkpt lat="51.18886" lon="4.44921"></trkpt>
      <trkpt lat="51.18880" lon="4.44919"></trkpt>
      <trkpt lat="51.18873" lon="4.44920"></trkpt>
      <trkpt lat="51.18868" lon="4.44923"></trkpt>
      <trkpt lat="51.18863" lon="4.44929"></trkpt>
      <trkpt lat="51.18858" lon="4.44936"></trkpt>
      <trkpt lat="51.18853" lon="4.44943"></trkpt>
      <trkpt lat="51.18849" lon="4.44949"></trkpt>
      <trkpt lat="51.18844" lon="4.44956"></trkpt>
      <trkpt lat="51.18839" lon="4.44962"></trkpt>
      <trkpt lat="51.18834" lon="4.44969"></trkpt>
      <trkpt lat="51.18829" lon="4.44976"></trkpt>
      <trkpt lat="51.18824" lon="4.44982"></trkpt>
      <trkpt lat="51.18820" lon="4.44988"></trkpt>
      <trkpt lat="51.18815" lon="4.44994"></trkpt>
      <trkpt lat="51.18810" lon="4.45001"></trkpt>
      <trkpt lat="51.18805" lon="4.45007"></trkpt>
      <trkpt lat="51.18801" lon="4.45014"></trkpt>
      <trkpt lat="51.18796" lon="4.45021"></trkpt>
      <trkpt lat="51.18791" lon="4.45029"></trkpt>
      <trkpt lat="51.18787" lon="4.45036"></trkpt>
      <trkpt lat="51.18782" lon="4.45043"></trkpt>
      <trkpt lat="51.18777" lon="4.45050"></trkpt>
      <trkpt lat="51.18772" lon="4.45058"></trkpt>
      <trkpt lat="51.18767" lon="4.45065"></trkpt>
      <trkpt lat="51.18762" lon="4.45071"></trkpt>
      <trkpt lat="51.18756" lon="4.45076"></trkpt>
      <trkpt lat="51.18751" lon="4.45081"></trkpt>
      <trkpt lat="51.18747" lon="4.45088"></trkpt>
      <trkpt lat="51.18743" lon="4.45096"></trkpt>
      <trkpt lat="51.18739" lon="4.45103"></trkpt>
      <trkpt lat="51.18735" lon="4.45111"></trkpt>
      <trkpt lat="51.18731" lon="4.45119"></trkpt>
      <trkpt lat="51.18727" lon="4.45127"></trkpt>
      <trkpt lat="51.18724" lon="4.45135"></trkpt>
      <trkpt lat="51.18720" lon="4.45144"></trkpt>
      <trkpt lat="51.18716" lon="4.45152"></trkpt>
      <trkpt lat="51.18713" lon="4.45160"></trkpt>
      <trkpt lat="51.18709" lon="4.45169"></trkpt>
      <trkpt lat="51.18706" lon="4.45176"></trkpt>
      <trkpt lat="51.18702" lon="4.45184"></trkpt>
      <trkpt lat="51.18698" lon="4.45193"></trkpt>
      <trkpt lat="51.18695" lon="4.45201"></trkpt>
      <trkpt lat="51.18691" lon="4.45210"></trkpt>
      <trkpt lat="51.18688" lon="4.45218"></trkpt>
      <trkpt lat="51.18684" lon="4.45226"></trkpt>
      <trkpt lat="51.18680" lon="4.45235"></trkpt>
      <trkpt lat="51.18677" lon="4.45243"></trkpt>
      <trkpt lat="51.18673" lon="4.45251"></trkpt>
      <trkpt lat="51.18670" lon="4.45260"></trkpt>
      <trkpt lat="51.18665" lon="4.45267"></trkpt>
      <trkpt lat="51.18661" lon="4.45276"></trkpt>
      <trkpt lat="51.18657" lon="4.45284"></trkpt>
      <trkpt lat="51.18653" lon="4.45293"></trkpt>
      <trkpt lat="51.18650" lon="4.45301"></trkpt>
      <trkpt lat="51.18645" lon="4.45309"></trkpt>
      <trkpt lat="51.18641" lon="4.45317"></trkpt>
      <trkpt lat="51.18637" lon="4.45325"></trkpt>
      <trkpt lat="51.18633" lon="4.45333"></trkpt>
      <trkpt lat="51.18628" lon="4.45341"></trkpt>
      <trkpt lat="51.18624" lon="4.45350"></trkpt>
      <trkpt lat="51.18620" lon="4.45358"></trkpt>
      <trkpt lat="51.18616" lon="4.45366"></trkpt>
      <trkpt lat="51.18612" lon="4.45375"></trkpt>
      <trkpt lat="51.18608" lon="4.45383"></trkpt>
      <trkpt lat="51.18604" lon="4.45392"></trkpt>
      <trkpt lat="51.18600" lon="4.45400"></trkpt>
      <trkpt lat="51.18596" lon="4.45408"></trkpt>
      <trkpt lat="51.18592" lon="4.45416"></trkpt>
      <trkpt lat="51.18588" lon="4.45424"></trkpt>
      <trkpt lat="51.18584" lon="4.45432"></trkpt>
      <trkpt lat="51.18580" lon="4.45440"></trkpt>
      <trkpt lat="51.18576" lon="4.45448"></trkpt>
      <trkpt lat="51.18572" lon="4.45456"></trkpt>
      <trkpt lat="51.18568" lon="4.45464"></trkpt>
      <trkpt lat="51.18564" lon="4.45471"></trkpt>
      <trkpt lat="51.18560" lon="4.45479"></trkpt>
      <trkpt lat="51.18556" lon="4.45487"></trkpt>
      <trkpt lat="51.18552" lon="4.45495"></trkpt>
      <trkpt lat="51.18548" lon="4.45502"></trkpt>
      <trkpt lat="51.18544" lon="4.45510"></trkpt>
      <trkpt lat="51.18540" lon="4.45517"></trkpt>
      <trkpt lat="51.18536" lon="4.45525"></trkpt>
      <trkpt lat="51.18532" lon="4.45533"></trkpt>
      <trkpt lat="51.18528" lon="4.45540"></trkpt>
      <trkpt lat="51.18524" lon="4.45549"></trkpt>
      <trkpt lat="51.18518" lon="4.45564"></trkpt>
      <trkpt lat="51.18513" lon="4.45574"></trkpt>
      <trkpt lat="51.18509" lon="4.45583"></trkpt>
      <trkpt lat="51.18505" lon="4.45590"></trkpt>
      <trkpt lat="51.18501" lon="4.45599"></trkpt>
      <trkpt lat="51.18497" lon="4.45607"></trkpt>
      <trkpt lat="51.18493" lon="4.45615"></trkpt>
      <trkpt lat="51.18489" lon="4.45623"></trkpt>
      <trkpt lat="51.18485" lon="4.45632"></trkpt>
      <trkpt lat="51.18481" lon="4.45640"></trkpt>
      <trkpt lat="51.18477" lon="4.45648"></trkpt>
      <trkpt lat="51.18474" lon="4.45657"></trkpt>
      <trkpt lat="51.18469" lon="4.45665"></trkpt>
      <trkpt lat="51.18465" lon="4.45673"></trkpt>
      <trkpt lat="51.18461" lon="4.45682"></trkpt>
      <trkpt lat="51.18457" lon="4.45690"></trkpt>
      <trkpt lat="51.18454" lon="4.45698"></trkpt>
      <trkpt lat="51.18450" lon="4.45707"></trkpt>
      <trkpt lat="51.18446" lon="4.45715"></trkpt>
      <trkpt lat="51.18442" lon="4.45723"></trkpt>
      <trkpt lat="51.18438" lon="4.45731"></trkpt>
      <trkpt lat="51.18434" lon="4.45739"></trkpt>
      <trkpt lat="51.18430" lon="4.45747"></trkpt>
      <trkpt lat="51.18426" lon="4.45755"></trkpt>
      <trkpt lat="51.18422" lon="4.45763"></trkpt>
      <trkpt lat="51.18418" lon="4.45771"></trkpt>
      <trkpt lat="51.18413" lon="4.45779"></trkpt>
      <trkpt lat="51.18409" lon="4.45786"></trkpt>
      <trkpt lat="51.18405" lon="4.45794"></trkpt>
      <trkpt lat="51.18400" lon="4.45802"></trkpt>
      <trkpt lat="51.18397" lon="4.45810"></trkpt>
      <trkpt lat="51.18392" lon="4.45818"></trkpt>
      <trkpt lat="51.18388" lon="4.45826"></trkpt>
      <trkpt lat="51.18383" lon="4.45835"></trkpt>
      <trkpt lat="51.18379" lon="4.45843"></trkpt>
      <trkpt lat="51.18375" lon="4.45852"></trkpt>
      <trkpt lat="51.18370" lon="4.45860"></trkpt>
      <trkpt lat="51.18366" lon="4.45868"></trkpt>
      <trkpt lat="51.18362" lon="4.45877"></trkpt>
      <trkpt lat="51.18358" lon="4.45885"></trkpt>
      <trkpt lat="51.18354" lon="4.45894"></trkpt>
      <trkpt lat="51.18350" lon="4.45902"></trkpt>
      <trkpt lat="51.18346" lon="4.45910"></trkpt>
      <trkpt lat="51.18343" lon="4.45917"></trkpt>
      <trkpt lat="51.18339" lon="4.45926"></trkpt>
      <trkpt lat="51.18335" lon="4.45934"></trkpt>
      <trkpt lat="51.18331" lon="4.45943"></trkpt>
      <trkpt lat="51.18327" lon="4.45951"></trkpt>
      <trkpt lat="51.18324" lon="4.45958"></trkpt>
      <trkpt lat="51.18320" lon="4.45966"></trkpt>
      <trkpt lat="51.18316" lon="4.45975"></trkpt>
      <trkpt lat="51.18312" lon="4.45983"></trkpt>
      <trkpt lat="51.18308" lon="4.45992"></trkpt>
      <trkpt lat="51.18304" lon="4.46001"></trkpt>
      <trkpt lat="51.18300" lon="4.46009"></trkpt>
      <trkpt lat="51.18297" lon="4.46017"></trkpt>
      <trkpt lat="51.18293" lon="4.46026"></trkpt>
      <trkpt lat="51.18290" lon="4.46035"></trkpt>
      <trkpt lat="51.18286" lon="4.46044"></trkpt>
      <trkpt lat="51.18283" lon="4.46053"></trkpt>
      <trkpt lat="51.18280" lon="4.46062"></trkpt>
      <trkpt lat="51.18276" lon="4.46070"></trkpt>
      <trkpt lat="51.18273" lon="4.46079"></trkpt>
      <trkpt lat="51.18270" lon="4.46088"></trkpt>
      <trkpt lat="51.18266" lon="4.46097"></trkpt>
      <trkpt lat="51.18263" lon="4.46106"></trkpt>
      <trkpt lat="51.18260" lon="4.46115"></trkpt>
      <trkpt lat="51.18257" lon="4.46124"></trkpt>
      <trkpt lat="51.18253" lon="4.46133"></trkpt>
      <trkpt lat="51.18249" lon="4.46142"></trkpt>
      <trkpt lat="51.18246" lon="4.46151"></trkpt>
      <trkpt lat="51.18242" lon="4.46160"></trkpt>
      <trkpt lat="51.18238" lon="4.46169"></trkpt>
      <trkpt lat="51.18235" lon="4.46178"></trkpt>
      <trkpt lat="51.18232" lon="4.46188"></trkpt>
      <trkpt lat="51.18229" lon="4.46197"></trkpt>
      <trkpt lat="51.18226" lon="4.46206"></trkpt>
      <trkpt lat="51.18222" lon="4.46214"></trkpt>
      <trkpt lat="51.18219" lon="4.46223"></trkpt>
      <trkpt lat="51.18216" lon="4.46232"></trkpt>
      <trkpt lat="51.18212" lon="4.46241"></trkpt>
      <trkpt lat="51.18209" lon="4.46250"></trkpt>
      <trkpt lat="51.18206" lon="4.46258"></trkpt>
      <trkpt lat="51.18202" lon="4.46267"></trkpt>
      <trkpt lat="51.18199" lon="4.46276"></trkpt>
      <trkpt lat="51.18196" lon="4.46285"></trkpt>
      <trkpt lat="51.18192" lon="4.46293"></trkpt>
      <trkpt lat="51.18188" lon="4.46302"></trkpt>
      <trkpt lat="51.18185" lon="4.46311"></trkpt>
      <trkpt lat="51.18181" lon="4.46319"></trkpt>
      <trkpt lat="51.18177" lon="4.46328"></trkpt>
      <trkpt lat="51.18174" lon="4.46336"></trkpt>
      <trkpt lat="51.18170" lon="4.46345"></trkpt>
      <trkpt lat="51.18167" lon="4.46352"></trkpt>
      <trkpt lat="51.18163" lon="4.46360"></trkpt>
      <trkpt lat="51.18159" lon="4.46369"></trkpt>
      <trkpt lat="51.18155" lon="4.46377"></trkpt>
      <trkpt lat="51.18152" lon="4.46386"></trkpt>
      <trkpt lat="51.18148" lon="4.46395"></trkpt>
      <trkpt lat="51.18144" lon="4.46403"></trkpt>
      <trkpt lat="51.18140" lon="4.46412"></trkpt>
      <trkpt lat="51.18136" lon="4.46421"></trkpt>
      <trkpt lat="51.18133" lon="4.46430"></trkpt>
      <trkpt lat="51.18130" lon="4.46439"></trkpt>
      <trkpt lat="51.18127" lon="4.46447"></trkpt>
      <trkpt lat="51.18124" lon="4.46456"></trkpt>
      <trkpt lat="51.18120" lon="4.46465"></trkpt>
      <trkpt lat="51.18117" lon="4.46474"></trkpt>
      <trkpt lat="51.18114" lon="4.46483"></trkpt>
      <trkpt lat="51.18110" lon="4.46493"></trkpt>
      <trkpt lat="51.18107" lon="4.46502"></trkpt>
      <trkpt lat="51.18104" lon="4.46511"></trkpt>
      <trkpt lat="51.18101" lon="4.46519"></trkpt>
      <trkpt lat="51.18098" lon="4.46528"></trkpt>
      <trkpt lat="51.18094" lon="4.46537"></trkpt>
      <trkpt lat="51.18091" lon="4.46546"></trkpt>
      <trkpt lat="51.18087" lon="4.46555"></trkpt>
      <trkpt lat="51.18084" lon="4.46565"></trkpt>
      <trkpt lat="51.18081" lon="4.46574"></trkpt>
      <trkpt lat="51.18078" lon="4.46583"></trkpt>
      <trkpt lat="51.18082" lon="4.46591"></trkpt>
      <trkpt lat="51.18088" lon="4.46596"></trkpt>
      <trkpt lat="51.18094" lon="4.46601"></trkpt>
      <trkpt lat="51.18100" lon="4.46606"></trkpt>
      <trkpt lat="51.18106" lon="4.46612"></trkpt>
      <trkpt lat="51.18111" lon="4.46619"></trkpt>
      <trkpt lat="51.18117" lon="4.46624"></trkpt>
      <trkpt lat="51.18122" lon="4.46630"></trkpt>
      <trkpt lat="51.18128" lon="4.46636"></trkpt>
      <trkpt lat="51.18133" lon="4.46642"></trkpt>
      <trkpt lat="51.18139" lon="4.46648"></trkpt>
      <trkpt lat="51.18144" lon="4.46654"></trkpt>
      <trkpt lat="51.18150" lon="4.46660"></trkpt>
      <trkpt lat="51.18156" lon="4.46666"></trkpt>
      <trkpt lat="51.18162" lon="4.46671"></trkpt>
      <trkpt lat="51.18167" lon="4.46677"></trkpt>
      <trkpt lat="51.18173" lon="4.46684"></trkpt>
      <trkpt lat="51.18178" lon="4.46690"></trkpt>
      <trkpt lat="51.18184" lon="4.46697"></trkpt>
      <trkpt lat="51.18189" lon="4.46703"></trkpt>
      <trkpt lat="51.18194" lon="4.46709"></trkpt>
      <trkpt lat="51.18200" lon="4.46715"></trkpt>
      <trkpt lat="51.18205" lon="4.46721"></trkpt>
      <trkpt lat="51.18211" lon="4.46727"></trkpt>
      <trkpt lat="51.18216" lon="4.46733"></trkpt>
      <trkpt lat="51.18221" lon="4.46739"></trkpt>
      <trkpt lat="51.18226" lon="4.46745"></trkpt>
      <trkpt lat="51.18232" lon="4.46751"></trkpt>
      <trkpt lat="51.18237" lon="4.46757"></trkpt>
      <trkpt lat="51.18242" lon="4.46763"></trkpt>
      <trkpt lat="51.18247" lon="4.46769"></trkpt>
      <trkpt lat="51.18252" lon="4.46776"></trkpt>
      <trkpt lat="51.18257" lon="4.46783"></trkpt>
      <trkpt lat="51.18259" lon="4.46792"></trkpt>
      <trkpt lat="51.18256" lon="4.46799"></trkpt>
      <trkpt lat="51.18253" lon="4.46798"></trkpt>
      <trkpt lat="51.18249" lon="4.46791"></trkpt>
      <trkpt lat="51.18244" lon="4.46788"></trkpt>
      <trkpt lat="51.18243" lon="4.46789"></trkpt>
      <trkpt lat="51.18247" lon="4.46793"></trkpt>
      <trkpt lat="51.18252" lon="4.46796"></trkpt>
      <trkpt lat="51.18254" lon="4.46798"></trkpt>
      <trkpt lat="51.18253" lon="4.46797"></trkpt>
      <trkpt lat="51.18252" lon="4.46797"></trkpt>
      <trkpt lat="51.18252" lon="4.46796"></trkpt>
      <trkpt lat="51.18251" lon="4.46797"></trkpt>
      <trkpt lat="51.18248" lon="4.46806"></trkpt>
      <trkpt lat="51.18245" lon="4.46819"></trkpt>
      <trkpt lat="51.18244" lon="4.46831"></trkpt>
      <trkpt lat="51.18240" lon="4.46835"></trkpt>
      <trkpt lat="51.18235" lon="4.46830"></trkpt>
      <trkpt lat="51.18230" lon="4.46824"></trkpt>
      <trkpt lat="51.18224" lon="4.46819"></trkpt>
      <trkpt lat="51.18219" lon="4.46813"></trkpt>
      <trkpt lat="51.18213" lon="4.46808"></trkpt>
      <trkpt lat="51.18208" lon="4.46802"></trkpt>
      <trkpt lat="51.18203" lon="4.46796"></trkpt>
      <trkpt lat="51.18198" lon="4.46790"></trkpt>
      <trkpt lat="51.18192" lon="4.46786"></trkpt>
      <trkpt lat="51.18188" lon="4.46791"></trkpt>
      <trkpt lat="51.18183" lon="4.46801"></trkpt>
      <trkpt lat="51.18179" lon="4.46809"></trkpt>
      <trkpt lat="51.18175" lon="4.46818"></trkpt>
      <trkpt lat="51.18171" lon="4.46827"></trkpt>
      <trkpt lat="51.18166" lon="4.46835"></trkpt>
      <trkpt lat="51.18162" lon="4.46843"></trkpt>
      <trkpt lat="51.18158" lon="4.46851"></trkpt>
      <trkpt lat="51.18154" lon="4.46859"></trkpt>
      <trkpt lat="51.18150" lon="4.46867"></trkpt>
      <trkpt lat="51.18145" lon="4.46875"></trkpt>
      <trkpt lat="51.18141" lon="4.46883"></trkpt>
      <trkpt lat="51.18136" lon="4.46891"></trkpt>
      <trkpt lat="51.18131" lon="4.46898"></trkpt>
      <trkpt lat="51.18126" lon="4.46906"></trkpt>
      <trkpt lat="51.18122" lon="4.46914"></trkpt>
      <trkpt lat="51.18118" lon="4.46921"></trkpt>
      <trkpt lat="51.18119" lon="4.46929"></trkpt>
      <trkpt lat="51.18123" lon="4.46937"></trkpt>
      <trkpt lat="51.18130" lon="4.46943"></trkpt>
      <trkpt lat="51.18136" lon="4.46950"></trkpt>
      <trkpt lat="51.18140" lon="4.46958"></trkpt>
      <trkpt lat="51.18145" lon="4.46964"></trkpt>
      <trkpt lat="51.18151" lon="4.46971"></trkpt>
      <trkpt lat="51.18156" lon="4.46978"></trkpt>
      <trkpt lat="51.18161" lon="4.46985"></trkpt>
      <trkpt lat="51.18166" lon="4.46992"></trkpt>
      <trkpt lat="51.18170" lon="4.46999"></trkpt>
      <trkpt lat="51.18175" lon="4.47005"></trkpt>
      <trkpt lat="51.18180" lon="4.47011"></trkpt>
      <trkpt lat="51.18187" lon="4.47014"></trkpt>
      <trkpt lat="51.18193" lon="4.47015"></trkpt>
      <trkpt lat="51.18199" lon="4.47018"></trkpt>
      <trkpt lat="51.18205" lon="4.47023"></trkpt>
      <trkpt lat="51.18210" lon="4.47029"></trkpt>
      <trkpt lat="51.18215" lon="4.47036"></trkpt>
      <trkpt lat="51.18218" lon="4.47044"></trkpt>
      <trkpt lat="51.18221" lon="4.47053"></trkpt>
      <trkpt lat="51.18224" lon="4.47063"></trkpt>
      <trkpt lat="51.18225" lon="4.47071"></trkpt>
      <trkpt lat="51.18227" lon="4.47079"></trkpt>
      <trkpt lat="51.18228" lon="4.47087"></trkpt>
      <trkpt lat="51.18230" lon="4.47094"></trkpt>
      <trkpt lat="51.18231" lon="4.47098"></trkpt>
      <trkpt lat="51.18232" lon="4.47103"></trkpt>
      <trkpt lat="51.18233" lon="4.47108"></trkpt>
      <trkpt lat="51.18233" lon="4.47115"></trkpt>
      <trkpt lat="51.18230" lon="4.47123"></trkpt>
      <trkpt lat="51.18227" lon="4.47132"></trkpt>
      <trkpt lat="51.18223" lon="4.47141"></trkpt>
      <trkpt lat="51.18219" lon="4.47149"></trkpt>
      <trkpt lat="51.18216" lon="4.47158"></trkpt>
      <trkpt lat="51.18212" lon="4.47165"></trkpt>
      <trkpt lat="51.18207" lon="4.47171"></trkpt>
      <trkpt lat="51.18201" lon="4.47175"></trkpt>
      <trkpt lat="51.18196" lon="4.47181"></trkpt>
      <trkpt lat="51.18193" lon="4.47190"></trkpt>
      <trkpt lat="51.18191" lon="4.47200"></trkpt>
      <trkpt lat="51.18192" lon="4.47211"></trkpt>
      <trkpt lat="51.18195" lon="4.47219"></trkpt>
      <trkpt lat="51.18199" lon="4.47227"></trkpt>
      <trkpt lat="51.18202" lon="4.47236"></trkpt>
      <trkpt lat="51.18203" lon="4.47247"></trkpt>
      <trkpt lat="51.18202" lon="4.47257"></trkpt>
      <trkpt lat="51.18199" lon="4.47267"></trkpt>
      <trkpt lat="51.18196" lon="4.47277"></trkpt>
      <trkpt lat="51.18196" lon="4.47288"></trkpt>
      <trkpt lat="51.18197" lon="4.47299"></trkpt>
      <trkpt lat="51.18196" lon="4.47306"></trkpt>
      <trkpt lat="51.18197" lon="4.47308"></trkpt>
      <trkpt lat="51.18200" lon="4.47312"></trkpt>
      <trkpt lat="51.18203" lon="4.47323"></trkpt>
      <trkpt lat="51.18207" lon="4.47333"></trkpt>
      <trkpt lat="51.18210" lon="4.47342"></trkpt>
      <trkpt lat="51.18213" lon="4.47351"></trkpt>
      <trkpt lat="51.18216" lon="4.47359"></trkpt>
      <trkpt lat="51.18221" lon="4.47368"></trkpt>
      <trkpt lat="51.18225" lon="4.47376"></trkpt>
      <trkpt lat="51.18229" lon="4.47385"></trkpt>
      <trkpt lat="51.18233" lon="4.47393"></trkpt>
      <trkpt lat="51.18237" lon="4.47400"></trkpt>
      <trkpt lat="51.18241" lon="4.47408"></trkpt>
      <trkpt lat="51.18246" lon="4.47417"></trkpt>
      <trkpt lat="51.18250" lon="4.47425"></trkpt>
      <trkpt lat="51.18254" lon="4.47433"></trkpt>
      <trkpt lat="51.18258" lon="4.47441"></trkpt>
      <trkpt lat="51.18264" lon="4.47446"></trkpt>
      <trkpt lat="51.18269" lon="4.47452"></trkpt>
      <trkpt lat="51.18275" lon="4.47458"></trkpt>
      <trkpt lat="51.18280" lon="4.47464"></trkpt>
      <trkpt lat="51.18286" lon="4.47469"></trkpt>
      <trkpt lat="51.18291" lon="4.47474"></trkpt>
      <trkpt lat="51.18297" lon="4.47480"></trkpt>
      <trkpt lat="51.18302" lon="4.47485"></trkpt>
      <trkpt lat="51.18307" lon="4.47490"></trkpt>
      <trkpt lat="51.18313" lon="4.47496"></trkpt>
      <trkpt lat="51.18318" lon="4.47502"></trkpt>
      <trkpt lat="51.18324" lon="4.47508"></trkpt>
      <trkpt lat="51.18329" lon="4.47514"></trkpt>
      <trkpt lat="51.18335" lon="4.47520"></trkpt>
      <trkpt lat="51.18341" lon="4.47525"></trkpt>
      <trkpt lat="51.18346" lon="4.47529"></trkpt>
      <trkpt lat="51.18351" lon="4.47528"></trkpt>
      <trkpt lat="51.18355" lon="4.47521"></trkpt>
      <trkpt lat="51.18359" lon="4.47514"></trkpt>
      <trkpt lat="51.18364" lon="4.47507"></trkpt>
      <trkpt lat="51.18368" lon="4.47499"></trkpt>
      <trkpt lat="51.18373" lon="4.47492"></trkpt>
      <trkpt lat="51.18377" lon="4.47484"></trkpt>
      <trkpt lat="51.18381" lon="4.47477"></trkpt>
      <trkpt lat="51.18385" lon="4.47470"></trkpt>
      <trkpt lat="51.18386" lon="4.47469"></trkpt>
      <trkpt lat="51.18385" lon="4.47475"></trkpt>
      <trkpt lat="51.18389" lon="4.47482"></trkpt>
      <trkpt lat="51.18393" lon="4.47490"></trkpt>
      <trkpt lat="51.18398" lon="4.47497"></trkpt>
      <trkpt lat="51.18402" lon="4.47505"></trkpt>
      <trkpt lat="51.18406" lon="4.47512"></trkpt>
      <trkpt lat="51.18411" lon="4.47519"></trkpt>
      <trkpt lat="51.18415" lon="4.47525"></trkpt>
      <trkpt lat="51.18420" lon="4.47531"></trkpt>
      <trkpt lat="51.18425" lon="4.47538"></trkpt>
      <trkpt lat="51.18430" lon="4.47545"></trkpt>
      <trkpt lat="51.18435" lon="4.47552"></trkpt>
      <trkpt lat="51.18438" lon="4.47560"></trkpt>
      <trkpt lat="51.18442" lon="4.47567"></trkpt>
      <trkpt lat="51.18446" lon="4.47575"></trkpt>
      <trkpt lat="51.18450" lon="4.47583"></trkpt>
      <trkpt lat="51.18454" lon="4.47591"></trkpt>
      <trkpt lat="51.18459" lon="4.47597"></trkpt>
      <trkpt lat="51.18465" lon="4.47600"></trkpt>
      <trkpt lat="51.18472" lon="4.47604"></trkpt>
      <trkpt lat="51.18478" lon="4.47607"></trkpt>
      <trkpt lat="51.18483" lon="4.47612"></trkpt>
      <trkpt lat="51.18489" lon="4.47616"></trkpt>
      <trkpt lat="51.18495" lon="4.47621"></trkpt>
      <trkpt lat="51.18501" lon="4.47625"></trkpt>
      <trkpt lat="51.18507" lon="4.47629"></trkpt>
      <trkpt lat="51.18513" lon="4.47633"></trkpt>
      <trkpt lat="51.18519" lon="4.47637"></trkpt>
      <trkpt lat="51.18525" lon="4.47642"></trkpt>
      <trkpt lat="51.18532" lon="4.47646"></trkpt>
      <trkpt lat="51.18538" lon="4.47650"></trkpt>
      <trkpt lat="51.18544" lon="4.47655"></trkpt>
      <trkpt lat="51.18550" lon="4.47659"></trkpt>
      <trkpt lat="51.18555" lon="4.47663"></trkpt>
      <trkpt lat="51.18561" lon="4.47666"></trkpt>
      <trkpt lat="51.18566" lon="4.47671"></trkpt>
      <trkpt lat="51.18572" lon="4.47675"></trkpt>
      <trkpt lat="51.18579" lon="4.47679"></trkpt>
      <trkpt lat="51.18586" lon="4.47682"></trkpt>
      <trkpt lat="51.18592" lon="4.47686"></trkpt>
      <trkpt lat="51.18598" lon="4.47691"></trkpt>
      <trkpt lat="51.18604" lon="4.47694"></trkpt>
      <trkpt lat="51.18610" lon="4.47695"></trkpt>
      <trkpt lat="51.18616" lon="4.47694"></trkpt>
      <trkpt lat="51.18622" lon="4.47690"></trkpt>
      <trkpt lat="51.18628" lon="4.47685"></trkpt>
      <trkpt lat="51.18635" lon="4.47680"></trkpt>
      <trkpt lat="51.18641" lon="4.47675"></trkpt>
      <trkpt lat="51.18647" lon="4.47670"></trkpt>
      <trkpt lat="51.18653" lon="4.47666"></trkpt>
      <trkpt lat="51.18659" lon="4.47662"></trkpt>
      <trkpt lat="51.18665" lon="4.47657"></trkpt>
      <trkpt lat="51.18672" lon="4.47652"></trkpt>
      <trkpt lat="51.18678" lon="4.47647"></trkpt>
      <trkpt lat="51.18685" lon="4.47642"></trkpt>
      <trkpt lat="51.18691" lon="4.47638"></trkpt>
      <trkpt lat="51.18697" lon="4.47634"></trkpt>
      <trkpt lat="51.18704" lon="4.47628"></trkpt>
      <trkpt lat="51.18710" lon="4.47624"></trkpt>
      <trkpt lat="51.18716" lon="4.47619"></trkpt>
      <trkpt lat="51.18722" lon="4.47615"></trkpt>
      <trkpt lat="51.18728" lon="4.47610"></trkpt>
      <trkpt lat="51.18735" lon="4.47605"></trkpt>
      <trkpt lat="51.18741" lon="4.47602"></trkpt>
      <trkpt lat="51.18748" lon="4.47598"></trkpt>
      <trkpt lat="51.18754" lon="4.47596"></trkpt>
      <trkpt lat="51.18761" lon="4.47596"></trkpt>
      <trkpt lat="51.18768" lon="4.47597"></trkpt>
      <trkpt lat="51.18774" lon="4.47597"></trkpt>
      <trkpt lat="51.18781" lon="4.47597"></trkpt>
      <trkpt lat="51.18787" lon="4.47596"></trkpt>
      <trkpt lat="51.18793" lon="4.47590"></trkpt>
      <trkpt lat="51.18798" lon="4.47583"></trkpt>
      <trkpt lat="51.18802" lon="4.47576"></trkpt>
      <trkpt lat="51.18806" lon="4.47575"></trkpt>
      <trkpt lat="51.18807" lon="4.47575"></trkpt>
      <trkpt lat="51.18808" lon="4.47573"></trkpt>
      <trkpt lat="51.18812" lon="4.47569"></trkpt>
      <trkpt lat="51.18820" lon="4.47568"></trkpt>
      <trkpt lat="51.18827" lon="4.47570"></trkpt>
      <trkpt lat="51.18834" lon="4.47572"></trkpt>
      <trkpt lat="51.18841" lon="4.47575"></trkpt>
      <trkpt lat="51.18848" lon="4.47578"></trkpt>
      <trkpt lat="51.18855" lon="4.47582"></trkpt>
      <trkpt lat="51.18862" lon="4.47586"></trkpt>
      <trkpt lat="51.18868" lon="4.47589"></trkpt>
      <trkpt lat="51.18875" lon="4.47588"></trkpt>
      <trkpt lat="51.18881" lon="4.47584"></trkpt>
      <trkpt lat="51.18887" lon="4.47577"></trkpt>
      <trkpt lat="51.18892" lon="4.47570"></trkpt>
      <trkpt lat="51.18898" lon="4.47563"></trkpt>
      <trkpt lat="51.18903" lon="4.47556"></trkpt>
      <trkpt lat="51.18909" lon="4.47549"></trkpt>
      <trkpt lat="51.18914" lon="4.47542"></trkpt>
      <trkpt lat="51.18920" lon="4.47536"></trkpt>
      <trkpt lat="51.18926" lon="4.47531"></trkpt>
      <trkpt lat="51.18933" lon="4.47526"></trkpt>
      <trkpt lat="51.18940" lon="4.47523"></trkpt>
      <trkpt lat="51.18947" lon="4.47524"></trkpt>
      <trkpt lat="51.18953" lon="4.47528"></trkpt>
      <trkpt lat="51.18959" lon="4.47534"></trkpt>
      <trkpt lat="51.18965" lon="4.47539"></trkpt>
      <trkpt lat="51.18971" lon="4.47544"></trkpt>
      <trkpt lat="51.18976" lon="4.47549"></trkpt>
      <trkpt lat="51.18982" lon="4.47554"></trkpt>
      <trkpt lat="51.18988" lon="4.47558"></trkpt>
      <trkpt lat="51.18994" lon="4.47563"></trkpt>
      <trkpt lat="51.18999" lon="4.47568"></trkpt>
      <trkpt lat="51.19005" lon="4.47573"></trkpt>
      <trkpt lat="51.19011" lon="4.47577"></trkpt>
      <trkpt lat="51.19018" lon="4.47580"></trkpt>
      <trkpt lat="51.19025" lon="4.47583"></trkpt>
      <trkpt lat="51.19032" lon="4.47584"></trkpt>
      <trkpt lat="51.19039" lon="4.47586"></trkpt>
      <trkpt lat="51.19045" lon="4.47590"></trkpt>
      <trkpt lat="51.19051" lon="4.47595"></trkpt>
      <trkpt lat="51.19057" lon="4.47600"></trkpt>
      <trkpt lat="51.19063" lon="4.47605"></trkpt>
      <trkpt lat="51.19069" lon="4.47609"></trkpt>
      <trkpt lat="51.19075" lon="4.47615"></trkpt>
      <trkpt lat="51.19081" lon="4.47620"></trkpt>
      <trkpt lat="51.19087" lon="4.47625"></trkpt>
      <trkpt lat="51.19093" lon="4.47630"></trkpt>
      <trkpt lat="51.19099" lon="4.47633"></trkpt>
      <trkpt lat="51.19106" lon="4.47634"></trkpt>
      <trkpt lat="51.19113" lon="4.47637"></trkpt>
      <trkpt lat="51.19119" lon="4.47642"></trkpt>
      <trkpt lat="51.19126" lon="4.47647"></trkpt>
      <trkpt lat="51.19132" lon="4.47652"></trkpt>
      <trkpt lat="51.19138" lon="4.47657"></trkpt>
      <trkpt lat="51.19144" lon="4.47662"></trkpt>
      <trkpt lat="51.19150" lon="4.47667"></trkpt>
      <trkpt lat="51.19154" lon="4.47671"></trkpt>
      <trkpt lat="51.19156" lon="4.47677"></trkpt>
      <trkpt lat="51.19157" lon="4.47683"></trkpt>
      <trkpt lat="51.19159" lon="4.47688"></trkpt>
      <trkpt lat="51.19160" lon="4.47692"></trkpt>
      <trkpt lat="51.19156" lon="4.47685"></trkpt>
      <trkpt lat="51.19142" lon="4.47663"></trkpt>
      <trkpt lat="51.19134" lon="4.47655"></trkpt>
      <trkpt lat="51.19128" lon="4.47650"></trkpt>
      <trkpt lat="51.19121" lon="4.47645"></trkpt>
      <trkpt lat="51.19115" lon="4.47639"></trkpt>
      <trkpt lat="51.19109" lon="4.47636"></trkpt>
      <trkpt lat="51.19104" lon="4.47639"></trkpt>
      <trkpt lat="51.19104" lon="4.47650"></trkpt>
      <trkpt lat="51.19103" lon="4.47660"></trkpt>
      <trkpt lat="51.19104" lon="4.47671"></trkpt>
      <trkpt lat="51.19104" lon="4.47683"></trkpt>
      <trkpt lat="51.19104" lon="4.47694"></trkpt>
      <trkpt lat="51.19104" lon="4.47706"></trkpt>
      <trkpt lat="51.19102" lon="4.47720"></trkpt>
      <trkpt lat="51.19091" lon="4.47731"></trkpt>
      <trkpt lat="51.19083" lon="4.47734"></trkpt>
      <trkpt lat="51.19076" lon="4.47736"></trkpt>
      <trkpt lat="51.19069" lon="4.47738"></trkpt>
      <trkpt lat="51.19062" lon="4.47741"></trkpt>
      <trkpt lat="51.19056" lon="4.47744"></trkpt>
      <trkpt lat="51.19049" lon="4.47746"></trkpt>
      <trkpt lat="51.19042" lon="4.47749"></trkpt>
      <trkpt lat="51.19036" lon="4.47752"></trkpt>
      <trkpt lat="51.19029" lon="4.47756"></trkpt>
      <trkpt lat="51.19023" lon="4.47760"></trkpt>
      <trkpt lat="51.19017" lon="4.47764"></trkpt>
      <trkpt lat="51.19011" lon="4.47768"></trkpt>
      <trkpt lat="51.19005" lon="4.47772"></trkpt>
      <trkpt lat="51.18999" lon="4.47779"></trkpt>
      <trkpt lat="51.18994" lon="4.47786"></trkpt>
      <trkpt lat="51.18989" lon="4.47794"></trkpt>
      <trkpt lat="51.18985" lon="4.47803"></trkpt>
      <trkpt lat="51.18981" lon="4.47812"></trkpt>
      <trkpt lat="51.18977" lon="4.47820"></trkpt>
      <trkpt lat="51.18972" lon="4.47828"></trkpt>
      <trkpt lat="51.18968" lon="4.47837"></trkpt>
      <trkpt lat="51.18964" lon="4.47845"></trkpt>
      <trkpt lat="51.18959" lon="4.47854"></trkpt>
      <trkpt lat="51.18955" lon="4.47863"></trkpt>
      <trkpt lat="51.18951" lon="4.47872"></trkpt>
      <trkpt lat="51.18947" lon="4.47882"></trkpt>
      <trkpt lat="51.18944" lon="4.47892"></trkpt>
      <trkpt lat="51.18942" lon="4.47902"></trkpt>
      <trkpt lat="51.18939" lon="4.47912"></trkpt>
      <trkpt lat="51.18936" lon="4.47922"></trkpt>
      <trkpt lat="51.18936" lon="4.47931"></trkpt>
      <trkpt lat="51.18941" lon="4.47937"></trkpt>
      <trkpt lat="51.18947" lon="4.47937"></trkpt>
      <trkpt lat="51.18954" lon="4.47935"></trkpt>
      <trkpt lat="51.18961" lon="4.47937"></trkpt>
      <trkpt lat="51.18968" lon="4.47940"></trkpt>
      <trkpt lat="51.18974" lon="4.47943"></trkpt>
      <trkpt lat="51.18980" lon="4.47947"></trkpt>
      <trkpt lat="51.18986" lon="4.47953"></trkpt>
      <trkpt lat="51.18991" lon="4.47961"></trkpt>
      <trkpt lat="51.18996" lon="4.47970"></trkpt>
      <trkpt lat="51.19001" lon="4.47979"></trkpt>
      <trkpt lat="51.19005" lon="4.47987"></trkpt>
      <trkpt lat="51.19009" lon="4.47996"></trkpt>
      <trkpt lat="51.19014" lon="4.48004"></trkpt>
      <trkpt lat="51.19018" lon="4.48013"></trkpt>
      <trkpt lat="51.19023" lon="4.48021"></trkpt>
      <trkpt lat="51.19028" lon="4.48027"></trkpt>
      <trkpt lat="51.19033" lon="4.48034"></trkpt>
      <trkpt lat="51.19038" lon="4.48042"></trkpt>
      <trkpt lat="51.19044" lon="4.48045"></trkpt>
      <trkpt lat="51.19050" lon="4.48043"></trkpt>
      <trkpt lat="51.19056" lon="4.48040"></trkpt>
      <trkpt lat="51.19063" lon="4.48040"></trkpt>
      <trkpt lat="51.19069" lon="4.48042"></trkpt>
      <trkpt lat="51.19075" lon="4.48045"></trkpt>
      <trkpt lat="51.19082" lon="4.48048"></trkpt>
      <trkpt lat="51.19088" lon="4.48050"></trkpt>
      <trkpt lat="51.19094" lon="4.48053"></trkpt>
      <trkpt lat="51.19101" lon="4.48055"></trkpt>
      <trkpt lat="51.19107" lon="4.48057"></trkpt>
      <trkpt lat="51.19114" lon="4.48060"></trkpt>
      <trkpt lat="51.19121" lon="4.48062"></trkpt>
      <trkpt lat="51.19128" lon="4.48065"></trkpt>
      <trkpt lat="51.19134" lon="4.48068"></trkpt>
      <trkpt lat="51.19141" lon="4.48071"></trkpt>
      <trkpt lat="51.19148" lon="4.48073"></trkpt>
      <trkpt lat="51.19154" lon="4.48076"></trkpt>
      <trkpt lat="51.19161" lon="4.48078"></trkpt>
      <trkpt lat="51.19167" lon="4.48081"></trkpt>
      <trkpt lat="51.19174" lon="4.48084"></trkpt>
      <trkpt lat="51.19181" lon="4.48086"></trkpt>
      <trkpt lat="51.19187" lon="4.48088"></trkpt>
      <trkpt lat="51.19194" lon="4.48093"></trkpt>
      <trkpt lat="51.19200" lon="4.48099"></trkpt>
      <trkpt lat="51.19206" lon="4.48105"></trkpt>
      <trkpt lat="51.19212" lon="4.48111"></trkpt>
      <trkpt lat="51.19218" lon="4.48118"></trkpt>
      <trkpt lat="51.19224" lon="4.48124"></trkpt>
      <trkpt lat="51.19229" lon="4.48130"></trkpt>
      <trkpt lat="51.19235" lon="4.48137"></trkpt>
      <trkpt lat="51.19241" lon="4.48143"></trkpt>
      <trkpt lat="51.19246" lon="4.48150"></trkpt>
      <trkpt lat="51.19251" lon="4.48157"></trkpt>
      <trkpt lat="51.19256" lon="4.48165"></trkpt>
      <trkpt lat="51.19261" lon="4.48172"></trkpt>
      <trkpt lat="51.19266" lon="4.48180"></trkpt>
      <trkpt lat="51.19271" lon="4.48187"></trkpt>
      <trkpt lat="51.19276" lon="4.48195"></trkpt>
      <trkpt lat="51.19281" lon="4.48202"></trkpt>
      <trkpt lat="51.19285" lon="4.48210"></trkpt>
      <trkpt lat="51.19290" lon="4.48218"></trkpt>
      <trkpt lat="51.19295" lon="4.48226"></trkpt>
      <trkpt lat="51.19300" lon="4.48234"></trkpt>
      <trkpt lat="51.19306" lon="4.48242"></trkpt>
      <trkpt lat="51.19311" lon="4.48249"></trkpt>
      <trkpt lat="51.19315" lon="4.48256"></trkpt>
      <trkpt lat="51.19319" lon="4.48255"></trkpt>
      <trkpt lat="51.19324" lon="4.48248"></trkpt>
      <trkpt lat="51.19330" lon="4.48241"></trkpt>
      <trkpt lat="51.19336" lon="4.48237"></trkpt>
      <trkpt lat="51.19343" lon="4.48237"></trkpt>
      <trkpt lat="51.19350" lon="4.48239"></trkpt>
      <trkpt lat="51.19353" lon="4.48236"></trkpt>
      <trkpt lat="51.19354" lon="4.48235"></trkpt>
      <trkpt lat="51.19354" lon="4.48235"></trkpt>
      <trkpt lat="51.19355" lon="4.48235"></trkpt>
      <trkpt lat="51.19355" lon="4.48234"></trkpt>
      <trkpt lat="51.19355" lon="4.48234"></trkpt>
      <trkpt lat="51.19358" lon="4.48235"></trkpt>
      <trkpt lat="51.19366" lon="4.48233"></trkpt>
      <trkpt lat="51.19373" lon="4.48227"></trkpt>
      <trkpt lat="51.19379" lon="4.48221"></trkpt>
      <trkpt lat="51.19384" lon="4.48214"></trkpt>
      <trkpt lat="51.19389" lon="4.48206"></trkpt>
      <trkpt lat="51.19394" lon="4.48200"></trkpt>
      <trkpt lat="51.19400" lon="4.48193"></trkpt>
      <trkpt lat="51.19406" lon="4.48187"></trkpt>
      <trkpt lat="51.19411" lon="4.48182"></trkpt>
      <trkpt lat="51.19416" lon="4.48180"></trkpt>
      <trkpt lat="51.19423" lon="4.48182"></trkpt>
      <trkpt lat="51.19429" lon="4.48188"></trkpt>
      <trkpt lat="51.19435" lon="4.48191"></trkpt>
      <trkpt lat="51.19441" lon="4.48195"></trkpt>
      <trkpt lat="51.19447" lon="4.48198"></trkpt>
      <trkpt lat="51.19454" lon="4.48203"></trkpt>
      <trkpt lat="51.19460" lon="4.48204"></trkpt>
      <trkpt lat="51.19464" lon="4.48202"></trkpt>
      <trkpt lat="51.19468" lon="4.48202"></trkpt>
      <trkpt lat="51.19474" lon="4.48205"></trkpt>
      <trkpt lat="51.19478" lon="4.48213"></trkpt>
      <trkpt lat="51.19484" lon="4.48219"></trkpt>
      <trkpt lat="51.19491" lon="4.48221"></trkpt>
      <trkpt lat="51.19497" lon="4.48222"></trkpt>
      <trkpt lat="51.19504" lon="4.48224"></trkpt>
      <trkpt lat="51.19511" lon="4.48225"></trkpt>
      <trkpt lat="51.19518" lon="4.48228"></trkpt>
      <trkpt lat="51.19524" lon="4.48229"></trkpt>
      <trkpt lat="51.19531" lon="4.48230"></trkpt>
      <trkpt lat="51.19538" lon="4.48231"></trkpt>
      <trkpt lat="51.19545" lon="4.48231"></trkpt>
      <trkpt lat="51.19551" lon="4.48232"></trkpt>
      <trkpt lat="51.19556" lon="4.48228"></trkpt>
      <trkpt lat="51.19559" lon="4.48219"></trkpt>
      <trkpt lat="51.19560" lon="4.48209"></trkpt>
      <trkpt lat="51.19562" lon="4.48200"></trkpt>
      <trkpt lat="51.19565" lon="4.48190"></trkpt>
      <trkpt lat="51.19567" lon="4.48180"></trkpt>
      <trkpt lat="51.19568" lon="4.48170"></trkpt>
      <trkpt lat="51.19570" lon="4.48160"></trkpt>
      <trkpt lat="51.19571" lon="4.48150"></trkpt>
      <trkpt lat="51.19573" lon="4.48140"></trkpt>
      <trkpt lat="51.19574" lon="4.48129"></trkpt>
      <trkpt lat="51.19575" lon="4.48119"></trkpt>
      <trkpt lat="51.19577" lon="4.48109"></trkpt>
      <trkpt lat="51.19578" lon="4.48100"></trkpt>
      <trkpt lat="51.19580" lon="4.48090"></trkpt>
      <trkpt lat="51.19582" lon="4.48081"></trkpt>
      <trkpt lat="51.19583" lon="4.48071"></trkpt>
      <trkpt lat="51.19584" lon="4.48059"></trkpt>
      <trkpt lat="51.19586" lon="4.48046"></trkpt>
      <trkpt lat="51.19588" lon="4.48032"></trkpt>
      <trkpt lat="51.19591" lon="4.48019"></trkpt>
      <trkpt lat="51.19596" lon="4.48011"></trkpt>
      <trkpt lat="51.19603" lon="4.48006"></trkpt>
      <trkpt lat="51.19609" lon="4.48001"></trkpt>
      <trkpt lat="51.19616" lon="4.47995"></trkpt>
      <trkpt lat="51.19622" lon="4.47990"></trkpt>
      <trkpt lat="51.19625" lon="4.47978"></trkpt>
      <trkpt lat="51.19626" lon="4.47964"></trkpt>
      <trkpt lat="51.19627" lon="4.47952"></trkpt>
      <trkpt lat="51.19627" lon="4.47940"></trkpt>
      <trkpt lat="51.19627" lon="4.47928"></trkpt>
      <trkpt lat="51.19629" lon="4.47917"></trkpt>
      <trkpt lat="51.19630" lon="4.47907"></trkpt>
      <trkpt lat="51.19631" lon="4.47896"></trkpt>
      <trkpt lat="51.19633" lon="4.47886"></trkpt>
      <trkpt lat="51.19634" lon="4.47875"></trkpt>
      <trkpt lat="51.19634" lon="4.47865"></trkpt>
      <trkpt lat="51.19635" lon="4.47854"></trkpt>
      <trkpt lat="51.19637" lon="4.47844"></trkpt>
      <trkpt lat="51.19638" lon="4.47833"></trkpt>
      <trkpt lat="51.19640" lon="4.47823"></trkpt>
      <trkpt lat="51.19641" lon="4.47813"></trkpt>
      <trkpt lat="51.19643" lon="4.47803"></trkpt>
      <trkpt lat="51.19646" lon="4.47793"></trkpt>
      <trkpt lat="51.19648" lon="4.47783"></trkpt>
      <trkpt lat="51.19649" lon="4.47773"></trkpt>
      <trkpt lat="51.19650" lon="4.47762"></trkpt>
      <trkpt lat="51.19652" lon="4.47751"></trkpt>
      <trkpt lat="51.19653" lon="4.47740"></trkpt>
      <trkpt lat="51.19656" lon="4.47731"></trkpt>
      <trkpt lat="51.19658" lon="4.47721"></trkpt>
      <trkpt lat="51.19660" lon="4.47711"></trkpt>
      <trkpt lat="51.19663" lon="4.47700"></trkpt>
      <trkpt lat="51.19664" lon="4.47690"></trkpt>
      <trkpt lat="51.19666" lon="4.47680"></trkpt>
      <trkpt lat="51.19669" lon="4.47670"></trkpt>
      <trkpt lat="51.19671" lon="4.47660"></trkpt>
      <trkpt lat="51.19673" lon="4.47650"></trkpt>
      <trkpt lat="51.19676" lon="4.47641"></trkpt>
      <trkpt lat="51.19678" lon="4.47631"></trkpt>
      <trkpt lat="51.19681" lon="4.47621"></trkpt>
      <trkpt lat="51.19683" lon="4.47611"></trkpt>
      <trkpt lat="51.19685" lon="4.47601"></trkpt>
      <trkpt lat="51.19687" lon="4.47590"></trkpt>
      <trkpt lat="51.19690" lon="4.47581"></trkpt>
      <trkpt lat="51.19693" lon="4.47571"></trkpt>
      <trkpt lat="51.19695" lon="4.47561"></trkpt>
      <trkpt lat="51.19697" lon="4.47551"></trkpt>
      <trkpt lat="51.19699" lon="4.47541"></trkpt>
      <trkpt lat="51.19701" lon="4.47531"></trkpt>
      <trkpt lat="51.19703" lon="4.47521"></trkpt>
      <trkpt lat="51.19706" lon="4.47512"></trkpt>
      <trkpt lat="51.19710" lon="4.47503"></trkpt>
      <trkpt lat="51.19713" lon="4.47494"></trkpt>
      <trkpt lat="51.19715" lon="4.47483"></trkpt>
      <trkpt lat="51.19719" lon="4.47473"></trkpt>
      <trkpt lat="51.19722" lon="4.47463"></trkpt>
      <trkpt lat="51.19725" lon="4.47454"></trkpt>
      <trkpt lat="51.19728" lon="4.47445"></trkpt>
      <trkpt lat="51.19732" lon="4.47437"></trkpt>
      <trkpt lat="51.19735" lon="4.47427"></trkpt>
      <trkpt lat="51.19738" lon="4.47418"></trkpt>
      <trkpt lat="51.19741" lon="4.47408"></trkpt>
      <trkpt lat="51.19744" lon="4.47399"></trkpt>
      <trkpt lat="51.19746" lon="4.47390"></trkpt>
      <trkpt lat="51.19749" lon="4.47380"></trkpt>
      <trkpt lat="51.19751" lon="4.47370"></trkpt>
      <trkpt lat="51.19754" lon="4.47360"></trkpt>
      <trkpt lat="51.19756" lon="4.47350"></trkpt>
      <trkpt lat="51.19759" lon="4.47340"></trkpt>
      <trkpt lat="51.19761" lon="4.47330"></trkpt>
      <trkpt lat="51.19764" lon="4.47320"></trkpt>
      <trkpt lat="51.19766" lon="4.47310"></trkpt>
      <trkpt lat="51.19769" lon="4.47301"></trkpt>
      <trkpt lat="51.19772" lon="4.47291"></trkpt>
      <trkpt lat="51.19774" lon="4.47281"></trkpt>
      <trkpt lat="51.19777" lon="4.47272"></trkpt>
      <trkpt lat="51.19779" lon="4.47262"></trkpt>
      <trkpt lat="51.19782" lon="4.47252"></trkpt>
      <trkpt lat="51.19784" lon="4.47243"></trkpt>
      <trkpt lat="51.19788" lon="4.47233"></trkpt>
      <trkpt lat="51.19790" lon="4.47224"></trkpt>
      <trkpt lat="51.19792" lon="4.47214"></trkpt>
      <trkpt lat="51.19794" lon="4.47204"></trkpt>
      <trkpt lat="51.19796" lon="4.47194"></trkpt>
      <trkpt lat="51.19797" lon="4.47185"></trkpt>
      <trkpt lat="51.19799" lon="4.47175"></trkpt>
      <trkpt lat="51.19802" lon="4.47166"></trkpt>
      <trkpt lat="51.19805" lon="4.47157"></trkpt>
      <trkpt lat="51.19808" lon="4.47147"></trkpt>
      <trkpt lat="51.19810" lon="4.47137"></trkpt>
      <trkpt lat="51.19813" lon="4.47128"></trkpt>
      <trkpt lat="51.19815" lon="4.47118"></trkpt>
      <trkpt lat="51.19816" lon="4.47108"></trkpt>
      <trkpt lat="51.19817" lon="4.47097"></trkpt>
      <trkpt lat="51.19819" lon="4.47088"></trkpt>
      <trkpt lat="51.19822" lon="4.47078"></trkpt>
      <trkpt lat="51.19824" lon="4.47068"></trkpt>
      <trkpt lat="51.19826" lon="4.47058"></trkpt>
      <trkpt lat="51.19829" lon="4.47049"></trkpt>
      <trkpt lat="51.19832" lon="4.47040"></trkpt>
      <trkpt lat="51.19835" lon="4.47030"></trkpt>
      <trkpt lat="51.19837" lon="4.47021"></trkpt>
      <trkpt lat="51.19841" lon="4.47014"></trkpt>
      <trkpt lat="51.19841" lon="4.47008"></trkpt>
      <trkpt lat="51.19835" lon="4.47003"></trkpt>
      <trkpt lat="51.19829" lon="4.46998"></trkpt>
      <trkpt lat="51.19823" lon="4.46994"></trkpt>
      <trkpt lat="51.19817" lon="4.46990"></trkpt>
      <trkpt lat="51.19811" lon="4.46986"></trkpt>
      <trkpt lat="51.19805" lon="4.46982"></trkpt>
      <trkpt lat="51.19798" lon="4.46978"></trkpt>
      <trkpt lat="51.19792" lon="4.46975"></trkpt>
      <trkpt lat="51.19785" lon="4.46972"></trkpt>
      <trkpt lat="51.19779" lon="4.46969"></trkpt>
      <trkpt lat="51.19772" lon="4.46967"></trkpt>
      <trkpt lat="51.19765" lon="4.46966"></trkpt>
      <trkpt lat="51.19759" lon="4.46964"></trkpt>
      <trkpt lat="51.19753" lon="4.46962"></trkpt>
      <trkpt lat="51.19747" lon="4.46958"></trkpt>
      <trkpt lat="51.19746" lon="4.46949"></trkpt>
      <trkpt lat="51.19748" lon="4.46940"></trkpt>
      <trkpt lat="51.19751" lon="4.46930"></trkpt>
      <trkpt lat="51.19754" lon="4.46921"></trkpt>
      <trkpt lat="51.19756" lon="4.46911"></trkpt>
      <trkpt lat="51.19759" lon="4.46901"></trkpt>
      <trkpt lat="51.19761" lon="4.46890"></trkpt>
      <trkpt lat="51.19764" lon="4.46879"></trkpt>
      <trkpt lat="51.19766" lon="4.46869"></trkpt>
      <trkpt lat="51.19768" lon="4.46858"></trkpt>
      <trkpt lat="51.19771" lon="4.46849"></trkpt>
      <trkpt lat="51.19774" lon="4.46839"></trkpt>
      <trkpt lat="51.19776" lon="4.46829"></trkpt>
      <trkpt lat="51.19779" lon="4.46819"></trkpt>
      <trkpt lat="51.19781" lon="4.46809"></trkpt>
      <trkpt lat="51.19784" lon="4.46799"></trkpt>
      <trkpt lat="51.19787" lon="4.46789"></trkpt>
      <trkpt lat="51.19789" lon="4.46779"></trkpt>
      <trkpt lat="51.19793" lon="4.46773"></trkpt>
      <trkpt lat="51.19799" lon="4.46775"></trkpt>
      <trkpt lat="51.19805" lon="4.46780"></trkpt>
      <trkpt lat="51.19811" lon="4.46787"></trkpt>
      <trkpt lat="51.19816" lon="4.46791"></trkpt>
      <trkpt lat="51.19821" lon="4.46786"></trkpt>
      <trkpt lat="51.19823" lon="4.46776"></trkpt>
      <trkpt lat="51.19825" lon="4.46767"></trkpt>
      <trkpt lat="51.19827" lon="4.46757"></trkpt>
      <trkpt lat="51.19829" lon="4.46746"></trkpt>
      <trkpt lat="51.19832" lon="4.46736"></trkpt>
      <trkpt lat="51.19835" lon="4.46726"></trkpt>
      <trkpt lat="51.19839" lon="4.46717"></trkpt>
      <trkpt lat="51.19843" lon="4.46707"></trkpt>
      <trkpt lat="51.19846" lon="4.46698"></trkpt>
      <trkpt lat="51.19849" lon="4.46688"></trkpt>
      <trkpt lat="51.19852" lon="4.46679"></trkpt>
      <trkpt lat="51.19855" lon="4.46669"></trkpt>
      <trkpt lat="51.19858" lon="4.46660"></trkpt>
      <trkpt lat="51.19860" lon="4.46651"></trkpt>
      <trkpt lat="51.19860" lon="4.46642"></trkpt>
      <trkpt lat="51.19857" lon="4.46638"></trkpt>
      <trkpt lat="51.19852" lon="4.46634"></trkpt>
      <trkpt lat="51.19846" lon="4.46631"></trkpt>
      <trkpt lat="51.19839" lon="4.46627"></trkpt>
      <trkpt lat="51.19833" lon="4.46624"></trkpt>
      <trkpt lat="51.19826" lon="4.46621"></trkpt>
      <trkpt lat="51.19820" lon="4.46618"></trkpt>
      <trkpt lat="51.19814" lon="4.46614"></trkpt>
      <trkpt lat="51.19808" lon="4.46612"></trkpt>
      <trkpt lat="51.19801" lon="4.46612"></trkpt>
      <trkpt lat="51.19795" lon="4.46612"></trkpt>
      <trkpt lat="51.19788" lon="4.46612"></trkpt>
      <trkpt lat="51.19782" lon="4.46613"></trkpt>
      <trkpt lat="51.19776" lon="4.46613"></trkpt>
      <trkpt lat="51.19770" lon="4.46613"></trkpt>
      <trkpt lat="51.19765" lon="4.46613"></trkpt>
      <trkpt lat="51.19759" lon="4.46613"></trkpt>
      <trkpt lat="51.19752" lon="4.46613"></trkpt>
      <trkpt lat="51.19745" lon="4.46613"></trkpt>
      <trkpt lat="51.19739" lon="4.46613"></trkpt>
      <trkpt lat="51.19733" lon="4.46607"></trkpt>
      <trkpt lat="51.19731" lon="4.46597"></trkpt>
      <trkpt lat="51.19730" lon="4.46586"></trkpt>
      <trkpt lat="51.19729" lon="4.46575"></trkpt>
      <trkpt lat="51.19729" lon="4.46565"></trkpt>
      <trkpt lat="51.19729" lon="4.46554"></trkpt>
      <trkpt lat="51.19729" lon="4.46543"></trkpt>
      <trkpt lat="51.19729" lon="4.46532"></trkpt>
      <trkpt lat="51.19731" lon="4.46522"></trkpt>
      <trkpt lat="51.19731" lon="4.46511"></trkpt>
      <trkpt lat="51.19728" lon="4.46502"></trkpt>
      <trkpt lat="51.19721" lon="4.46497"></trkpt>
      <trkpt lat="51.19715" lon="4.46495"></trkpt>
      <trkpt lat="51.19708" lon="4.46494"></trkpt>
      <trkpt lat="51.19701" lon="4.46492"></trkpt>
      <trkpt lat="51.19694" lon="4.46490"></trkpt>
      <trkpt lat="51.19687" lon="4.46488"></trkpt>
      <trkpt lat="51.19680" lon="4.46486"></trkpt>
      <trkpt lat="51.19673" lon="4.46484"></trkpt>
      <trkpt lat="51.19667" lon="4.46477"></trkpt>
      <trkpt lat="51.19662" lon="4.46469"></trkpt>
      <trkpt lat="51.19659" lon="4.46459"></trkpt>
      <trkpt lat="51.19658" lon="4.46449"></trkpt>
      <trkpt lat="51.19659" lon="4.46438"></trkpt>
      <trkpt lat="51.19662" lon="4.46427"></trkpt>
      <trkpt lat="51.19665" lon="4.46417"></trkpt>
      <trkpt lat="51.19668" lon="4.46408"></trkpt>
      <trkpt lat="51.19672" lon="4.46396"></trkpt>
      <trkpt lat="51.19675" lon="4.46385"></trkpt>
      <trkpt lat="51.19677" lon="4.46375"></trkpt>
      <trkpt lat="51.19679" lon="4.46364"></trkpt>
      <trkpt lat="51.19682" lon="4.46353"></trkpt>
      <trkpt lat="51.19684" lon="4.46344"></trkpt>
      <trkpt lat="51.19686" lon="4.46335"></trkpt>
      <trkpt lat="51.19686" lon="4.46325"></trkpt>
      <trkpt lat="51.19684" lon="4.46314"></trkpt>
      <trkpt lat="51.19683" lon="4.46303"></trkpt>
      <trkpt lat="51.19682" lon="4.46293"></trkpt>
      <trkpt lat="51.19681" lon="4.46284"></trkpt>
      <trkpt lat="51.19680" lon="4.46274"></trkpt>
      <trkpt lat="51.19683" lon="4.46265"></trkpt>
      <trkpt lat="51.19688" lon="4.46259"></trkpt>
      <trkpt lat="51.19694" lon="4.46254"></trkpt>
      <trkpt lat="51.19702" lon="4.46253"></trkpt>
      <trkpt lat="51.19708" lon="4.46249"></trkpt>
      <trkpt lat="51.19714" lon="4.46244"></trkpt>
      <trkpt lat="51.19720" lon="4.46239"></trkpt>
      <trkpt lat="51.19726" lon="4.46233"></trkpt>
      <trkpt lat="51.19731" lon="4.46226"></trkpt>
      <trkpt lat="51.19735" lon="4.46218"></trkpt>
      <trkpt lat="51.19740" lon="4.46210"></trkpt>
      <trkpt lat="51.19745" lon="4.46202"></trkpt>
      <trkpt lat="51.19750" lon="4.46193"></trkpt>
      <trkpt lat="51.19756" lon="4.46188"></trkpt>
      <trkpt lat="51.19762" lon="4.46184"></trkpt>
      <trkpt lat="51.19769" lon="4.46181"></trkpt>
      <trkpt lat="51.19776" lon="4.46178"></trkpt>
      <trkpt lat="51.19781" lon="4.46174"></trkpt>
      <trkpt lat="51.19788" lon="4.46171"></trkpt>
      <trkpt lat="51.19795" lon="4.46168"></trkpt>
      <trkpt lat="51.19802" lon="4.46166"></trkpt>
      <trkpt lat="51.19809" lon="4.46163"></trkpt>
      <trkpt lat="51.19816" lon="4.46160"></trkpt>
      <trkpt lat="51.19823" lon="4.46157"></trkpt>
      <trkpt lat="51.19831" lon="4.46154"></trkpt>
      <trkpt lat="51.19837" lon="4.46150"></trkpt>
      <trkpt lat="51.19843" lon="4.46143"></trkpt>
      <trkpt lat="51.19849" lon="4.46135"></trkpt>
      <trkpt lat="51.19853" lon="4.46127"></trkpt>
      <trkpt lat="51.19859" lon="4.46121"></trkpt>
      <trkpt lat="51.19867" lon="4.46117"></trkpt>
      <trkpt lat="51.19874" lon="4.46113"></trkpt>
      <trkpt lat="51.19877" lon="4.46105"></trkpt>
      <trkpt lat="51.19877" lon="4.46095"></trkpt>
      <trkpt lat="51.19878" lon="4.46084"></trkpt>
      <trkpt lat="51.19881" lon="4.46074"></trkpt>
      <trkpt lat="51.19883" lon="4.46062"></trkpt>
      <trkpt lat="51.19883" lon="4.46051"></trkpt>
      <trkpt lat="51.19883" lon="4.46040"></trkpt>
      <trkpt lat="51.19885" lon="4.46029"></trkpt>
      <trkpt lat="51.19888" lon="4.46019"></trkpt>
      <trkpt lat="51.19888" lon="4.46010"></trkpt>
      <trkpt lat="51.19884" lon="4.46001"></trkpt>
      <trkpt lat="51.19882" lon="4.45990"></trkpt>
      <trkpt lat="51.19882" lon="4.45979"></trkpt>
      <trkpt lat="51.19881" lon="4.45968"></trkpt>
      <trkpt lat="51.19881" lon="4.45957"></trkpt>
      <trkpt lat="51.19881" lon="4.45946"></trkpt>
      <trkpt lat="51.19881" lon="4.45935"></trkpt>
      <trkpt lat="51.19881" lon="4.45925"></trkpt>
      <trkpt lat="51.19880" lon="4.45914"></trkpt>
      <trkpt lat="51.19880" lon="4.45904"></trkpt>
      <trkpt lat="51.19880" lon="4.45893"></trkpt>
      <trkpt lat="51.19879" lon="4.45882"></trkpt>
      <trkpt lat="51.19879" lon="4.45872"></trkpt>
      <trkpt lat="51.19879" lon="4.45861"></trkpt>
      <trkpt lat="51.19879" lon="4.45850"></trkpt>
      <trkpt lat="51.19878" lon="4.45839"></trkpt>
      <trkpt lat="51.19878" lon="4.45828"></trkpt>
      <trkpt lat="51.19878" lon="4.45816"></trkpt>
      <trkpt lat="51.19878" lon="4.45805"></trkpt>
      <trkpt lat="51.19877" lon="4.45795"></trkpt>
      <trkpt lat="51.19878" lon="4.45784"></trkpt>
      <trkpt lat="51.19878" lon="4.45775"></trkpt>
      <trkpt lat="51.19880" lon="4.45773"></trkpt>
      <trkpt lat="51.19885" lon="4.45776"></trkpt>
      <trkpt lat="51.19892" lon="4.45779"></trkpt>
      <trkpt lat="51.19898" lon="4.45780"></trkpt>
      <trkpt lat="51.19905" lon="4.45780"></trkpt>
      <trkpt lat="51.19912" lon="4.45781"></trkpt>
      <trkpt lat="51.19918" lon="4.45782"></trkpt>
      <trkpt lat="51.19926" lon="4.45782"></trkpt>
      <trkpt lat="51.19934" lon="4.45782"></trkpt>
      <trkpt lat="51.19942" lon="4.45782"></trkpt>
      <trkpt lat="51.19949" lon="4.45781"></trkpt>
      <trkpt lat="51.19957" lon="4.45781"></trkpt>
      <trkpt lat="51.19964" lon="4.45782"></trkpt>
      <trkpt lat="51.19971" lon="4.45783"></trkpt>
      <trkpt lat="51.19978" lon="4.45783"></trkpt>
      <trkpt lat="51.19985" lon="4.45781"></trkpt>
      <trkpt lat="51.19992" lon="4.45779"></trkpt>
      <trkpt lat="51.19999" lon="4.45776"></trkpt>
      <trkpt lat="51.20004" lon="4.45769"></trkpt>
      <trkpt lat="51.20010" lon="4.45761"></trkpt>
      <trkpt lat="51.20016" lon="4.45754"></trkpt>
      <trkpt lat="51.20024" lon="4.45750"></trkpt>
      <trkpt lat="51.20032" lon="4.45752"></trkpt>
      <trkpt lat="51.20040" lon="4.45756"></trkpt>
      <trkpt lat="51.20047" lon="4.45755"></trkpt>
      <trkpt lat="51.20055" lon="4.45750"></trkpt>
      <trkpt lat="51.20061" lon="4.45742"></trkpt>
      <trkpt lat="51.20066" lon="4.45734"></trkpt>
      <trkpt lat="51.20073" lon="4.45725"></trkpt>
      <trkpt lat="51.20079" lon="4.45717"></trkpt>
      <trkpt lat="51.20086" lon="4.45709"></trkpt>
      <trkpt lat="51.20091" lon="4.45700"></trkpt>
      <trkpt lat="51.20097" lon="4.45691"></trkpt>
      <trkpt lat="51.20103" lon="4.45683"></trkpt>
      <trkpt lat="51.20109" lon="4.45677"></trkpt>
      <trkpt lat="51.20115" lon="4.45669"></trkpt>
      <trkpt lat="51.20118" lon="4.45657"></trkpt>
      <trkpt lat="51.20119" lon="4.45644"></trkpt>
      <trkpt lat="51.20118" lon="4.45631"></trkpt>
      <trkpt lat="51.20117" lon="4.45618"></trkpt>
      <trkpt lat="51.20115" lon="4.45607"></trkpt>
      <trkpt lat="51.20114" lon="4.45595"></trkpt>
      <trkpt lat="51.20112" lon="4.45583"></trkpt>
      <trkpt lat="51.20112" lon="4.45570"></trkpt>
      <trkpt lat="51.20114" lon="4.45558"></trkpt>
      <trkpt lat="51.20116" lon="4.45547"></trkpt>
      <trkpt lat="51.20118" lon="4.45536"></trkpt>
      <trkpt lat="51.20120" lon="4.45524"></trkpt>
      <trkpt lat="51.20123" lon="4.45513"></trkpt>
      <trkpt lat="51.20126" lon="4.45501"></trkpt>
      <trkpt lat="51.20129" lon="4.45490"></trkpt>
      <trkpt lat="51.20132" lon="4.45478"></trkpt>
      <trkpt lat="51.20134" lon="4.45466"></trkpt>
      <trkpt lat="51.20136" lon="4.45453"></trkpt>
      <trkpt lat="51.20138" lon="4.45442"></trkpt>
      <trkpt lat="51.20140" lon="4.45431"></trkpt>
      <trkpt lat="51.20141" lon="4.45421"></trkpt>
      <trkpt lat="51.20140" lon="4.45409"></trkpt>
      <trkpt lat="51.20140" lon="4.45398"></trkpt>
      <trkpt lat="51.20142" lon="4.45387"></trkpt>
      <trkpt lat="51.20144" lon="4.45375"></trkpt>
      <trkpt lat="51.20146" lon="4.45362"></trkpt>
      <trkpt lat="51.20148" lon="4.45349"></trkpt>
      <trkpt lat="51.20150" lon="4.45338"></trkpt>
      <trkpt lat="51.20154" lon="4.45327"></trkpt>
      <trkpt lat="51.20158" lon="4.45316"></trkpt>
      <trkpt lat="51.20161" lon="4.45305"></trkpt>
      <trkpt lat="51.20164" lon="4.45293"></trkpt>
      <trkpt lat="51.20167" lon="4.45283"></trkpt>
      <trkpt lat="51.20172" lon="4.45276"></trkpt>
      <trkpt lat="51.20178" lon="4.45268"></trkpt>
      <trkpt lat="51.20184" lon="4.45258"></trkpt>
      <trkpt lat="51.20188" lon="4.45245"></trkpt>
      <trkpt lat="51.20191" lon="4.45232"></trkpt>
      <trkpt lat="51.20193" lon="4.45218"></trkpt>
      <trkpt lat="51.20196" lon="4.45206"></trkpt>
      <trkpt lat="51.20198" lon="4.45195"></trkpt>
      <trkpt lat="51.20200" lon="4.45183"></trkpt>
      <trkpt lat="51.20204" lon="4.45172"></trkpt>
      <trkpt lat="51.20211" lon="4.45166"></trkpt>
      <trkpt lat="51.20219" lon="4.45166"></trkpt>
      <trkpt lat="51.20227" lon="4.45167"></trkpt>
      <trkpt lat="51.20235" lon="4.45168"></trkpt>
      <trkpt lat="51.20243" lon="4.45169"></trkpt>
      <trkpt lat="51.20251" lon="4.45171"></trkpt>
      <trkpt lat="51.20260" lon="4.45173"></trkpt>
      <trkpt lat="51.20268" lon="4.45175"></trkpt>
      <trkpt lat="51.20276" lon="4.45177"></trkpt>
      <trkpt lat="51.20284" lon="4.45180"></trkpt>
      <trkpt lat="51.20292" lon="4.45184"></trkpt>
      <trkpt lat="51.20300" lon="4.45187"></trkpt>
      <trkpt lat="51.20308" lon="4.45191"></trkpt>
      <trkpt lat="51.20316" lon="4.45194"></trkpt>
      <trkpt lat="51.20325" lon="4.45196"></trkpt>
      <trkpt lat="51.20333" lon="4.45196"></trkpt>
      <trkpt lat="51.20341" lon="4.45193"></trkpt>
      <trkpt lat="51.20349" lon="4.45188"></trkpt>
      <trkpt lat="51.20356" lon="4.45184"></trkpt>
      <trkpt lat="51.20364" lon="4.45182"></trkpt>
      <trkpt lat="51.20372" lon="4.45181"></trkpt>
      <trkpt lat="51.20380" lon="4.45179"></trkpt>
      <trkpt lat="51.20389" lon="4.45176"></trkpt>
      <trkpt lat="51.20398" lon="4.45175"></trkpt>
      <trkpt lat="51.20406" lon="4.45176"></trkpt>
      <trkpt lat="51.20413" lon="4.45177"></trkpt>
      <trkpt lat="51.20422" lon="4.45177"></trkpt>
      <trkpt lat="51.20430" lon="4.45178"></trkpt>
      <trkpt lat="51.20438" lon="4.45178"></trkpt>
      <trkpt lat="51.20446" lon="4.45178"></trkpt>
      <trkpt lat="51.20453" lon="4.45175"></trkpt>
      <trkpt lat="51.20460" lon="4.45171"></trkpt>
      <trkpt lat="51.20469" lon="4.45165"></trkpt>
      <trkpt lat="51.20475" lon="4.45160"></trkpt>
      <trkpt lat="51.20481" lon="4.45155"></trkpt>
      <trkpt lat="51.20487" lon="4.45149"></trkpt>
      <trkpt lat="51.20495" lon="4.45142"></trkpt>
      <trkpt lat="51.20501" lon="4.45136"></trkpt>
      <trkpt lat="51.20506" lon="4.45131"></trkpt>
    </trkseg>
  </trk>
</gpx>