<?xml version="1.0" encoding="UTF-8"?>
<gpx version="1.1" creator="jeffry.running" xmlns="http://www.topografix.com/GPX/1/1">
  <metadata><time>2026-08-26T10:41:42.079Z</time></metadata>
  <trk>
    <trkseg>
      <trkpt lat="51.20371" lon="4.45026"></trkpt>
      <trkpt lat="51.20368" lon="4.45030"></trkpt>
      <trkpt lat="51.20365" lon="4.45036"></trkpt>
      <trkpt lat="51.20362" lon="4.45041"></trkpt>
      <trkpt lat="51.20359" lon="4.45047"></trkpt>
      <trkpt lat="51.20356" lon="4.45052"></trkpt>
      <trkpt lat="51.20354" lon="4.45056"></trkpt>
      <trkpt lat="51.20351" lon="4.45061"></trkpt>
      <trkpt lat="51.20348" lon="4.45065"></trkpt>
      <trkpt lat="51.20345" lon="4.45069"></trkpt>
      <trkpt lat="51.20342" lon="4.45073"></trkpt>
      <trkpt lat="51.20338" lon="4.45076"></trkpt>
      <trkpt lat="51.20334" lon="4.45079"></trkpt>
      <trkpt lat="51.20330" lon="4.45083"></trkpt>
      <trkpt lat="51.20325" lon="4.45085"></trkpt>
      <trkpt lat="51.20321" lon="4.45086"></trkpt>
      <trkpt lat="51.20317" lon="4.45085"></trkpt>
      <trkpt lat="51.20312" lon="4.45085"></trkpt>
      <trkpt lat="51.20308" lon="4.45084"></trkpt>
      <trkpt lat="51.20304" lon="4.45082"></trkpt>
      <trkpt lat="51.20300" lon="4.45080"></trkpt>
      <trkpt lat="51.20296" lon="4.45078"></trkpt>
      <trkpt lat="51.20292" lon="4.45075"></trkpt>
      <trkpt lat="51.20289" lon="4.45073"></trkpt>
      <trkpt lat="51.20285" lon="4.45071"></trkpt>
      <trkpt lat="51.20281" lon="4.45069"></trkpt>
      <trkpt lat="51.20277" lon="4.45068"></trkpt>
      <trkpt lat="51.20273" lon="4.45066"></trkpt>
      <trkpt lat="51.20269" lon="4.45066"></trkpt>
      <trkpt lat="51.20265" lon="4.45065"></trkpt>
      <trkpt lat="51.20262" lon="4.45064"></trkpt>
      <trkpt lat="51.20257" lon="4.45064"></trkpt>
      <trkpt lat="51.20253" lon="4.45062"></trkpt>
      <trkpt lat="51.20249" lon="4.45060"></trkpt>
      <trkpt lat="51.20245" lon="4.45058"></trkpt>
      <trkpt lat="51.20240" lon="4.45059"></trkpt>
      <trkpt lat="51.20236" lon="4.45059"></trkpt>
      <trkpt lat="51.20231" lon="4.45059"></trkpt>
      <trkpt lat="51.20227" lon="4.45059"></trkpt>
      <trkpt lat="51.20222" lon="4.45060"></trkpt>
      <trkpt lat="51.20218" lon="4.45060"></trkpt>
      <trkpt lat="51.20214" lon="4.45061"></trkpt>
      <trkpt lat="51.20210" lon="4.45062"></trkpt>
      <trkpt lat="51.20206" lon="4.45061"></trkpt>
      <trkpt lat="51.20203" lon="4.45061"></trkpt>
      <trkpt lat="51.20199" lon="4.45061"></trkpt>
      <trkpt lat="51.20195" lon="4.45061"></trkpt>
      <trkpt lat="51.20191" lon="4.45060"></trkpt>
      <trkpt lat="51.20187" lon="4.45060"></trkpt>
      <trkpt lat="51.20182" lon="4.45060"></trkpt>
      <trkpt lat="51.20178" lon="4.45059"></trkpt>
      <trkpt lat="51.20174" lon="4.45059"></trkpt>
      <trkpt lat="51.20170" lon="4.45058"></trkpt>
      <trkpt lat="51.20165" lon="4.45057"></trkpt>
      <trkpt lat="51.20161" lon="4.45055"></trkpt>
      <trkpt lat="51.20157" lon="4.45054"></trkpt>
      <trkpt lat="51.20152" lon="4.45053"></trkpt>
      <trkpt lat="51.20147" lon="4.45052"></trkpt>
      <trkpt lat="51.20143" lon="4.45051"></trkpt>
      <trkpt lat="51.20139" lon="4.45050"></trkpt>
      <trkpt lat="51.20135" lon="4.45049"></trkpt>
      <trkpt lat="51.20131" lon="4.45047"></trkpt>
      <trkpt lat="51.20126" lon="4.45047"></trkpt>
      <trkpt lat="51.20122" lon="4.45045"></trkpt>
      <trkpt lat="51.20117" lon="4.45044"></trkpt>
      <trkpt lat="51.20113" lon="4.45043"></trkpt>
      <trkpt lat="51.20108" lon="4.45041"></trkpt>
      <trkpt lat="51.20104" lon="4.45041"></trkpt>
      <trkpt lat="51.20100" lon="4.45040"></trkpt>
      <trkpt lat="51.20096" lon="4.45041"></trkpt>
      <trkpt lat="51.20092" lon="4.45043"></trkpt>
      <trkpt lat="51.20088" lon="4.45045"></trkpt>
      <trkpt lat="51.20084" lon="4.45047"></trkpt>
      <trkpt lat="51.20080" lon="4.45050"></trkpt>
      <trkpt lat="51.20076" lon="4.45052"></trkpt>
      <trkpt lat="51.20072" lon="4.45055"></trkpt>
      <trkpt lat="51.20068" lon="4.45058"></trkpt>
      <trkpt lat="51.20064" lon="4.45062"></trkpt>
      <trkpt lat="51.20060" lon="4.45065"></trkpt>
      <trkpt lat="51.20056" lon="4.45068"></trkpt>
      <trkpt lat="51.20052" lon="4.45071"></trkpt>
      <trkpt lat="51.20049" lon="4.45074"></trkpt>
      <trkpt lat="51.20045" lon="4.45077"></trkpt>
      <trkpt lat="51.20041" lon="4.45081"></trkpt>
      <trkpt lat="51.20037" lon="4.45083"></trkpt>
      <trkpt lat="51.20033" lon="4.45084"></trkpt>
      <trkpt lat="51.20028" lon="4.45083"></trkpt>
      <trkpt lat="51.20024" lon="4.45082"></trkpt>
      <trkpt lat="51.20020" lon="4.45081"></trkpt>
      <trkpt lat="51.20016" lon="4.45080"></trkpt>
      <trkpt lat="51.20012" lon="4.45079"></trkpt>
      <trkpt lat="51.20008" lon="4.45078"></trkpt>
      <trkpt lat="51.20003" lon="4.45078"></trkpt>
      <trkpt lat="51.19999" lon="4.45078"></trkpt>
      <trkpt lat="51.19994" lon="4.45080"></trkpt>
      <trkpt lat="51.19991" lon="4.45084"></trkpt>
      <trkpt lat="51.19988" lon="4.45089"></trkpt>
      <trkpt lat="51.19985" lon="4.45094"></trkpt>
      <trkpt lat="51.19982" lon="4.45098"></trkpt>
      <trkpt lat="51.19980" lon="4.45102"></trkpt>
      <trkpt lat="51.19977" lon="4.45106"></trkpt>
      <trkpt lat="51.19974" lon="4.45110"></trkpt>
      <trkpt lat="51.19971" lon="4.45114"></trkpt>
      <trkpt lat="51.19969" lon="4.45118"></trkpt>
      <trkpt lat="51.19968" lon="4.45122"></trkpt>
      <trkpt lat="51.19966" lon="4.45128"></trkpt>
      <trkpt lat="51.19964" lon="4.45133"></trkpt>
      <trkpt lat="51.19962" lon="4.45138"></trkpt>
      <trkpt lat="51.19959" lon="4.45142"></trkpt>
      <trkpt lat="51.19957" lon="4.45146"></trkpt>
      <trkpt lat="51.19956" lon="4.45152"></trkpt>
      <trkpt lat="51.19956" lon="4.45158"></trkpt>
      <trkpt lat="51.19958" lon="4.45164"></trkpt>
      <trkpt lat="51.19957" lon="4.45172"></trkpt>
      <trkpt lat="51.19954" lon="4.45178"></trkpt>
      <trkpt lat="51.19951" lon="4.45184"></trkpt>
      <trkpt lat="51.19949" lon="4.45189"></trkpt>
      <trkpt lat="51.19946" lon="4.45194"></trkpt>
      <trkpt lat="51.19944" lon="4.45199"></trkpt>
      <trkpt lat="51.19941" lon="4.45204"></trkpt>
      <trkpt lat="51.19937" lon="4.45210"></trkpt>
      <trkpt lat="51.19933" lon="4.45215"></trkpt>
      <trkpt lat="51.19931" lon="4.45221"></trkpt>
      <trkpt lat="51.19929" lon="4.45226"></trkpt>
      <trkpt lat="51.19927" lon="4.45232"></trkpt>
      <trkpt lat="51.19925" lon="4.45238"></trkpt>
      <trkpt lat="51.19924" lon="4.45246"></trkpt>
      <trkpt lat="51.19922" lon="4.45252"></trkpt>
      <trkpt lat="51.19921" lon="4.45259"></trkpt>
      <trkpt lat="51.19920" lon="4.45265"></trkpt>
      <trkpt lat="51.19920" lon="4.45273"></trkpt>
      <trkpt lat="51.19919" lon="4.45280"></trkpt>
      <trkpt lat="51.19918" lon="4.45286"></trkpt>
      <trkpt lat="51.19918" lon="4.45293"></trkpt>
      <trkpt lat="51.19917" lon="4.45300"></trkpt>
      <trkpt lat="51.19915" lon="4.45306"></trkpt>
      <trkpt lat="51.19913" lon="4.45312"></trkpt>
      <trkpt lat="51.19910" lon="4.45318"></trkpt>
      <trkpt lat="51.19908" lon="4.45324"></trkpt>
      <trkpt lat="51.19907" lon="4.45329"></trkpt>
      <trkpt lat="51.19905" lon="4.45335"></trkpt>
      <trkpt lat="51.19903" lon="4.45340"></trkpt>
      <trkpt lat="51.19901" lon="4.45348"></trkpt>
      <trkpt lat="51.19899" lon="4.45354"></trkpt>
      <trkpt lat="51.19897" lon="4.45361"></trkpt>
      <trkpt lat="51.19896" lon="4.45367"></trkpt>
      <trkpt lat="51.19895" lon="4.45374"></trkpt>
      <trkpt lat="51.19895" lon="4.45382"></trkpt>
      <trkpt lat="51.19895" lon="4.45389"></trkpt>
      <trkpt lat="51.19895" lon="4.45396"></trkpt>
      <trkpt lat="51.19895" lon="4.45403"></trkpt>
      <trkpt lat="51.19897" lon="4.45409"></trkpt>
      <trkpt lat="51.19898" lon="4.45415"></trkpt>
      <trkpt lat="51.19899" lon="4.45422"></trkpt>
      <trkpt lat="51.19901" lon="4.45427"></trkpt>
      <trkpt lat="51.19905" lon="4.45432"></trkpt>
      <trkpt lat="51.19907" lon="4.45436"></trkpt>
      <trkpt lat="51.19910" lon="4.45440"></trkpt>
      <trkpt lat="51.19914" lon="4.45444"></trkpt>
      <trkpt lat="51.19917" lon="4.45448"></trkpt>
      <trkpt lat="51.19921" lon="4.45451"></trkpt>
      <trkpt lat="51.19925" lon="4.45454"></trkpt>
      <trkpt lat="51.19929" lon="4.45456"></trkpt>
      <trkpt lat="51.19934" lon="4.45458"></trkpt>
      <trkpt lat="51.19939" lon="4.45460"></trkpt>
      <trkpt lat="51.19943" lon="4.45461"></trkpt>
      <trkpt lat="51.19947" lon="4.45462"></trkpt>
      <trkpt lat="51.19951" lon="4.45461"></trkpt>
      <trkpt lat="51.19955" lon="4.45461"></trkpt>
      <trkpt lat="51.19959" lon="4.45459"></trkpt>
      <trkpt lat="51.19963" lon="4.45457"></trkpt>
      <trkpt lat="51.19967" lon="4.45455"></trkpt>
      <trkpt lat="51.19971" lon="4.45453"></trkpt>
      <trkpt lat="51.19976" lon="4.45451"></trkpt>
      <trkpt lat="51.19980" lon="4.45449"></trkpt>
      <trkpt lat="51.19985" lon="4.45451"></trkpt>
      <trkpt lat="51.19989" lon="4.45454"></trkpt>
      <trkpt lat="51.19992" lon="4.45458"></trkpt>
      <trkpt lat="51.19996" lon="4.45460"></trkpt>
      <trkpt lat="51.20000" lon="4.45463"></trkpt>
      <trkpt lat="51.20004" lon="4.45467"></trkpt>
      <trkpt lat="51.20007" lon="4.45471"></trkpt>
      <trkpt lat="51.20011" lon="4.45474"></trkpt>
      <trkpt lat="51.20015" lon="4.45477"></trkpt>
      <trkpt lat="51.20019" lon="4.45480"></trkpt>
      <trkpt lat="51.20022" lon="4.45484"></trkpt>
      <trkpt lat="51.20025" lon="4.45488"></trkpt>
      <trkpt lat="51.20029" lon="4.45490"></trkpt>
      <trkpt lat="51.20033" lon="4.45494"></trkpt>
      <trkpt lat="51.20037" lon="4.45499"></trkpt>
      <trkpt lat="51.20040" lon="4.45504"></trkpt>
      <trkpt lat="51.20042" lon="4.45511"></trkpt>
      <trkpt lat="51.20041" lon="4.45518"></trkpt>
      <trkpt lat="51.20040" lon="4.45525"></trkpt>
      <trkpt lat="51.20039" lon="4.45532"></trkpt>
      <trkpt lat="51.20039" lon="4.45538"></trkpt>
      <trkpt lat="51.20040" lon="4.45544"></trkpt>
      <trkpt lat="51.20041" lon="4.45550"></trkpt>
      <trkpt lat="51.20043" lon="4.45556"></trkpt>
      <trkpt lat="51.20046" lon="4.45562"></trkpt>
      <trkpt lat="51.20049" lon="4.45568"></trkpt>
      <trkpt lat="51.20050" lon="4.45574"></trkpt>
      <trkpt lat="51.20050" lon="4.45580"></trkpt>
      <trkpt lat="51.20050" lon="4.45587"></trkpt>
      <trkpt lat="51.20051" lon="4.45593"></trkpt>
      <trkpt lat="51.20050" lon="4.45600"></trkpt>
      <trkpt lat="51.20050" lon="4.45606"></trkpt>
      <trkpt lat="51.20049" lon="4.45613"></trkpt>
      <trkpt lat="51.20048" lon="4.45620"></trkpt>
      <trkpt lat="51.20048" lon="4.45627"></trkpt>
      <trkpt lat="51.20047" lon="4.45635"></trkpt>
      <trkpt lat="51.20045" lon="4.45641"></trkpt>
      <trkpt lat="51.20043" lon="4.45647"></trkpt>
      <trkpt lat="51.20042" lon="4.45653"></trkpt>
      <trkpt lat="51.20040" lon="4.45660"></trkpt>
      <trkpt lat="51.20039" lon="4.45666"></trkpt>
      <trkpt lat="51.20036" lon="4.45672"></trkpt>
      <trkpt lat="51.20034" lon="4.45677"></trkpt>
      <trkpt lat="51.20032" lon="4.45682"></trkpt>
      <trkpt lat="51.20030" lon="4.45686"></trkpt>
      <trkpt lat="51.20028" lon="4.45692"></trkpt>
      <trkpt lat="51.20026" lon="4.45697"></trkpt>
      <trkpt lat="51.20026" lon="4.45704"></trkpt>
      <trkpt lat="51.20024" lon="4.45710"></trkpt>
      <trkpt lat="51.20023" lon="4.45717"></trkpt>
      <trkpt lat="51.20021" lon="4.45724"></trkpt>
      <trkpt lat="51.20021" lon="4.45731"></trkpt>
      <trkpt lat="51.20022" lon="4.45738"></trkpt>
      <trkpt lat="51.20024" lon="4.45745"></trkpt>
      <trkpt lat="51.20026" lon="4.45750"></trkpt>
      <trkpt lat="51.20030" lon="4.45754"></trkpt>
      <trkpt lat="51.20034" lon="4.45756"></trkpt>
      <trkpt lat="51.20039" lon="4.45756"></trkpt>
      <trkpt lat="51.20043" lon="4.45754"></trkpt>
      <trkpt lat="51.20047" lon="4.45751"></trkpt>
      <trkpt lat="51.20051" lon="4.45747"></trkpt>
      <trkpt lat="51.20054" lon="4.45742"></trkpt>
      <trkpt lat="51.20057" lon="4.45738"></trkpt>
      <trkpt lat="51.20060" lon="4.45733"></trkpt>
      <trkpt lat="51.20063" lon="4.45727"></trkpt>
      <trkpt lat="51.20066" lon="4.45722"></trkpt>
      <trkpt lat="51.20069" lon="4.45717"></trkpt>
      <trkpt lat="51.20072" lon="4.45713"></trkpt>
      <trkpt lat="51.20075" lon="4.45709"></trkpt>
      <trkpt lat="51.20078" lon="4.45705"></trkpt>
      <trkpt lat="51.20082" lon="4.45700"></trkpt>
      <trkpt lat="51.20085" lon="4.45695"></trkpt>
      <trkpt lat="51.20089" lon="4.45690"></trkpt>
      <trkpt lat="51.20093" lon="4.45684"></trkpt>
      <trkpt lat="51.20096" lon="4.45679"></trkpt>
      <trkpt lat="51.20100" lon="4.45675"></trkpt>
      <trkpt lat="51.20103" lon="4.45671"></trkpt>
      <trkpt lat="51.20107" lon="4.45668"></trkpt>
      <trkpt lat="51.20110" lon="4.45663"></trkpt>
      <trkpt lat="51.20112" lon="4.45657"></trkpt>
      <trkpt lat="51.20114" lon="4.45650"></trkpt>
      <trkpt lat="51.20114" lon="4.45644"></trkpt>
      <trkpt lat="51.20114" lon="4.45637"></trkpt>
      <trkpt lat="51.20113" lon="4.45629"></trkpt>
      <trkpt lat="51.20113" lon="4.45621"></trkpt>
      <trkpt lat="51.20112" lon="4.45614"></trkpt>
      <trkpt lat="51.20111" lon="4.45606"></trkpt>
      <trkpt lat="51.20110" lon="4.45599"></trkpt>
      <trkpt lat="51.20109" lon="4.45593"></trkpt>
      <trkpt lat="51.20109" lon="4.45586"></trkpt>
      <trkpt lat="51.20108" lon="4.45579"></trkpt>
      <trkpt lat="51.20108" lon="4.45572"></trkpt>
      <trkpt lat="51.20109" lon="4.45565"></trkpt>
      <trkpt lat="51.20111" lon="4.45558"></trkpt>
      <trkpt lat="51.20113" lon="4.45551"></trkpt>
      <trkpt lat="51.20115" lon="4.45544"></trkpt>
      <trkpt lat="51.20117" lon="4.45538"></trkpt>
      <trkpt lat="51.20118" lon="4.45532"></trkpt>
      <trkpt lat="51.20119" lon="4.45526"></trkpt>
      <trkpt lat="51.20120" lon="4.45519"></trkpt>
      <trkpt lat="51.20122" lon="4.45512"></trkpt>
      <trkpt lat="51.20124" lon="4.45506"></trkpt>
      <trkpt lat="51.20126" lon="4.45501"></trkpt>
      <trkpt lat="51.20127" lon="4.45495"></trkpt>
      <trkpt lat="51.20129" lon="4.45490"></trkpt>
      <trkpt lat="51.20131" lon="4.45484"></trkpt>
      <trkpt lat="51.20132" lon="4.45478"></trkpt>
      <trkpt lat="51.20134" lon="4.45471"></trkpt>
      <trkpt lat="51.20136" lon="4.45465"></trkpt>
      <trkpt lat="51.20137" lon="4.45458"></trkpt>
      <trkpt lat="51.20139" lon="4.45450"></trkpt>
      <trkpt lat="51.20140" lon="4.45444"></trkpt>
      <trkpt lat="51.20142" lon="4.45437"></trkpt>
      <trkpt lat="51.20143" lon="4.45430"></trkpt>
      <trkpt lat="51.20143" lon="4.45423"></trkpt>
      <trkpt lat="51.20142" lon="4.45416"></trkpt>
      <trkpt lat="51.20142" lon="4.45410"></trkpt>
      <trkpt lat="51.20141" lon="4.45403"></trkpt>
      <trkpt lat="51.20141" lon="4.45396"></trkpt>
      <trkpt lat="51.20142" lon="4.45390"></trkpt>
      <trkpt lat="51.20142" lon="4.45384"></trkpt>
      <trkpt lat="51.20143" lon="4.45377"></trkpt>
      <trkpt lat="51.20143" lon="4.45370"></trkpt>
      <trkpt lat="51.20144" lon="4.45364"></trkpt>
      <trkpt lat="51.20146" lon="4.45358"></trkpt>
      <trkpt lat="51.20148" lon="4.45352"></trkpt>
      <trkpt lat="51.20150" lon="4.45346"></trkpt>
      <trkpt lat="51.20152" lon="4.45340"></trkpt>
      <trkpt lat="51.20154" lon="4.45334"></trkpt>
      <trkpt lat="51.20156" lon="4.45329"></trkpt>
      <trkpt lat="51.20158" lon="4.45323"></trkpt>
      <trkpt lat="51.20160" lon="4.45317"></trkpt>
      <trkpt lat="51.20162" lon="4.45311"></trkpt>
      <trkpt lat="51.20164" lon="4.45305"></trkpt>
      <trkpt lat="51.20166" lon="4.45299"></trkpt>
      <trkpt lat="51.20168" lon="4.45294"></trkpt>
      <trkpt lat="51.20170" lon="4.45288"></trkpt>
      <trkpt lat="51.20172" lon="4.45282"></trkpt>
      <trkpt lat="51.20175" lon="4.45278"></trkpt>
      <trkpt lat="51.20179" lon="4.45274"></trkpt>
      <trkpt lat="51.20183" lon="4.45270"></trkpt>
      <trkpt lat="51.20187" lon="4.45264"></trkpt>
      <trkpt lat="51.20190" lon="4.45259"></trkpt>
      <trkpt lat="51.20192" lon="4.45253"></trkpt>
      <trkpt lat="51.20193" lon="4.45247"></trkpt>
      <trkpt lat="51.20195" lon="4.45240"></trkpt>
      <trkpt lat="51.20196" lon="4.45234"></trkpt>
      <trkpt lat="51.20197" lon="4.45227"></trkpt>
      <trkpt lat="51.20198" lon="4.45220"></trkpt>
      <trkpt lat="51.20199" lon="4.45214"></trkpt>
      <trkpt lat="51.20200" lon="4.45208"></trkpt>
      <trkpt lat="51.20201" lon="4.45201"></trkpt>
      <trkpt lat="51.20202" lon="4.45195"></trkpt>
      <trkpt lat="51.20203" lon="4.45188"></trkpt>
      <trkpt lat="51.20204" lon="4.45182"></trkpt>
      <trkpt lat="51.20206" lon="4.45176"></trkpt>
      <trkpt lat="51.20209" lon="4.45171"></trkpt>
      <trkpt lat="51.20213" lon="4.45168"></trkpt>
      <trkpt lat="51.20217" lon="4.45168"></trkpt>
      <trkpt lat="51.20221" lon="4.45168"></trkpt>
      <trkpt lat="51.20226" lon="4.45169"></trkpt>
      <trkpt lat="51.20231" lon="4.45171"></trkpt>
      <trkpt lat="51.20234" lon="4.45172"></trkpt>
      <trkpt lat="51.20239" lon="4.45172"></trkpt>
      <trkpt lat="51.20243" lon="4.45172"></trkpt>
      <trkpt lat="51.20247" lon="4.45172"></trkpt>
      <trkpt lat="51.20251" lon="4.45172"></trkpt>
      <trkpt lat="51.20255" lon="4.45172"></trkpt>
      <trkpt lat="51.20259" lon="4.45173"></trkpt>
      <trkpt lat="51.20263" lon="4.45174"></trkpt>
      <trkpt lat="51.20267" lon="4.45175"></trkpt>
      <trkpt lat="51.20271" lon="4.45177"></trkpt>
      <trkpt lat="51.20275" lon="4.45178"></trkpt>
      <trkpt lat="51.20279" lon="4.45180"></trkpt>
      <trkpt lat="51.20283" lon="4.45180"></trkpt>
      <trkpt lat="51.20287" lon="4.45181"></trkpt>
      <trkpt lat="51.20291" lon="4.45184"></trkpt>
      <trkpt lat="51.20295" lon="4.45186"></trkpt>
      <trkpt lat="51.20299" lon="4.45187"></trkpt>
      <trkpt lat="51.20303" lon="4.45189"></trkpt>
      <trkpt lat="51.20307" lon="4.45190"></trkpt>
      <trkpt lat="51.20311" lon="4.45189"></trkpt>
      <trkpt lat="51.20315" lon="4.45188"></trkpt>
      <trkpt lat="51.20319" lon="4.45188"></trkpt>
      <trkpt lat="51.20323" lon="4.45186"></trkpt>
      <trkpt lat="51.20326" lon="4.45182"></trkpt>
      <trkpt lat="51.20328" lon="4.45176"></trkpt>
      <trkpt lat="51.20331" lon="4.45169"></trkpt>
      <trkpt lat="51.20332" lon="4.45164"></trkpt>
      <trkpt lat="51.20333" lon="4.45157"></trkpt>
      <trkpt lat="51.20333" lon="4.45151"></trkpt>
      <trkpt lat="51.20332" lon="4.45144"></trkpt>
      <trkpt lat="51.20331" lon="4.45138"></trkpt>
      <trkpt lat="51.20329" lon="4.45131"></trkpt>
      <trkpt lat="51.20327" lon="4.45126"></trkpt>
      <trkpt lat="51.20325" lon="4.45120"></trkpt>
      <trkpt lat="51.20322" lon="4.45115"></trkpt>
      <trkpt lat="51.20319" lon="4.45110"></trkpt>
      <trkpt lat="51.20317" lon="4.45104"></trkpt>
      <trkpt lat="51.20314" lon="4.45098"></trkpt>
      <trkpt lat="51.20311" lon="4.45092"></trkpt>
      <trkpt lat="51.20307" lon="4.45087"></trkpt>
      <trkpt lat="51.20303" lon="4.45083"></trkpt>
      <trkpt lat="51.20299" lon="4.45080"></trkpt>
      <trkpt lat="51.20294" lon="4.45078"></trkpt>
      <trkpt lat="51.20289" lon="4.45075"></trkpt>
      <trkpt lat="51.20285" lon="4.45073"></trkpt>
      <trkpt lat="51.20281" lon="4.45072"></trkpt>
      <trkpt lat="51.20277" lon="4.45070"></trkpt>
      <trkpt lat="51.20272" lon="4.45069"></trkpt>
      <trkpt lat="51.20268" lon="4.45068"></trkpt>
      <trkpt lat="51.20263" lon="4.45066"></trkpt>
      <trkpt lat="51.20258" lon="4.45065"></trkpt>
      <trkpt lat="51.20254" lon="4.45064"></trkpt>
      <trkpt lat="51.20248" lon="4.45063"></trkpt>
      <trkpt lat="51.20243" lon="4.45062"></trkpt>
      <trkpt lat="51.20238" lon="4.45060"></trkpt>
      <trkpt lat="51.20234" lon="4.45059"></trkpt>
      <trkpt lat="51.20231" lon="4.45058"></trkpt>
      <trkpt lat="51.20227" lon="4.45058"></trkpt>
      <trkpt lat="51.20223" lon="4.45057"></trkpt>
      <trkpt lat="51.20219" lon="4.45057"></trkpt>
      <trkpt lat="51.20215" lon="4.45057"></trkpt>
      <trkpt lat="51.20211" lon="4.45057"></trkpt>
      <trkpt lat="51.20207" lon="4.45058"></trkpt>
      <trkpt lat="51.20203" lon="4.45058"></trkpt>
      <trkpt lat="51.20198" lon="4.45058"></trkpt>
      <trkpt lat="51.20194" lon="4.45058"></trkpt>
      <trkpt lat="51.20189" lon="4.45058"></trkpt>
      <trkpt lat="51.20185" lon="4.45057"></trkpt>
      <trkpt lat="51.20180" lon="4.45056"></trkpt>
      <trkpt lat="51.20176" lon="4.45055"></trkpt>
      <trkpt lat="51.20172" lon="4.45054"></trkpt>
      <trkpt lat="51.20168" lon="4.45053"></trkpt>
      <trkpt lat="51.20164" lon="4.45052"></trkpt>
      <trkpt lat="51.20160" lon="4.45052"></trkpt>
      <trkpt lat="51.20156" lon="4.45052"></trkpt>
      <trkpt lat="51.20151" lon="4.45052"></trkpt>
      <trkpt lat="51.20147" lon="4.45052"></trkpt>
      <trkpt lat="51.20143" lon="4.45051"></trkpt>
      <trkpt lat="51.20139" lon="4.45049"></trkpt>
      <trkpt lat="51.20135" lon="4.45047"></trkpt>
      <trkpt lat="51.20131" lon="4.45046"></trkpt>
      <trkpt lat="51.20126" lon="4.45045"></trkpt>
      <trkpt lat="51.20121" lon="4.45045"></trkpt>
      <trkpt lat="51.20117" lon="4.45044"></trkpt>
      <trkpt lat="51.20113" lon="4.45042"></trkpt>
      <trkpt lat="51.20109" lon="4.45041"></trkpt>
      <trkpt lat="51.20105" lon="4.45040"></trkpt>
      <trkpt lat="51.20100" lon="4.45041"></trkpt>
      <trkpt lat="51.20095" lon="4.45041"></trkpt>
      <trkpt lat="51.20091" lon="4.45042"></trkpt>
      <trkpt lat="51.20087" lon="4.45044"></trkpt>
      <trkpt lat="51.20083" lon="4.45045"></trkpt>
      <trkpt lat="51.20080" lon="4.45047"></trkpt>
      <trkpt lat="51.20077" lon="4.45050"></trkpt>
      <trkpt lat="51.20074" lon="4.45052"></trkpt>
      <trkpt lat="51.20071" lon="4.45054"></trkpt>
      <trkpt lat="51.20067" lon="4.45057"></trkpt>
      <trkpt lat="51.20064" lon="4.45059"></trkpt>
      <trkpt lat="51.20061" lon="4.45062"></trkpt>
      <trkpt lat="51.20058" lon="4.45064"></trkpt>
      <trkpt lat="51.20054" lon="4.45066"></trkpt>
      <trkpt lat="51.20050" lon="4.45069"></trkpt>
      <trkpt lat="51.20047" lon="4.45072"></trkpt>
      <trkpt lat="51.20043" lon="4.45075"></trkpt>
      <trkpt lat="51.20039" lon="4.45077"></trkpt>
      <trkpt lat="51.20036" lon="4.45079"></trkpt>
      <trkpt lat="51.20033" lon="4.45078"></trkpt>
      <trkpt lat="51.20029" lon="4.45078"></trkpt>
      <trkpt lat="51.20025" lon="4.45079"></trkpt>
      <trkpt lat="51.20021" lon="4.45079"></trkpt>
      <trkpt lat="51.20016" lon="4.45079"></trkpt>
      <trkpt lat="51.20011" lon="4.45079"></trkpt>
      <trkpt lat="51.20006" lon="4.45080"></trkpt>
      <trkpt lat="51.20002" lon="4.45081"></trkpt>
      <trkpt lat="51.19997" lon="4.45082"></trkpt>
      <trkpt lat="51.19993" lon="4.45085"></trkpt>
      <trkpt lat="51.19989" lon="4.45088"></trkpt>
      <trkpt lat="51.19987" lon="4.45093"></trkpt>
      <trkpt lat="51.19984" lon="4.45097"></trkpt>
      <trkpt lat="51.19981" lon="4.45101"></trkpt>
      <trkpt lat="51.19978" lon="4.45105"></trkpt>
      <trkpt lat="51.19975" lon="4.45109"></trkpt>
      <trkpt lat="51.19971" lon="4.45113"></trkpt>
      <trkpt lat="51.19968" lon="4.45117"></trkpt>
      <trkpt lat="51.19966" lon="4.45123"></trkpt>
      <trkpt lat="51.19964" lon="4.45128"></trkpt>
      <trkpt lat="51.19961" lon="4.45134"></trkpt>
      <trkpt lat="51.19958" lon="4.45139"></trkpt>
      <trkpt lat="51.19955" lon="4.45143"></trkpt>
      <trkpt lat="51.19953" lon="4.45147"></trkpt>
      <trkpt lat="51.19951" lon="4.45151"></trkpt>
      <trkpt lat="51.19948" lon="4.45155"></trkpt>
      <trkpt lat="51.19946" lon="4.45159"></trkpt>
      <trkpt lat="51.19944" lon="4.45164"></trkpt>
      <trkpt lat="51.19943" lon="4.45168"></trkpt>
      <trkpt lat="51.19944" lon="4.45173"></trkpt>
      <trkpt lat="51.19943" lon="4.45177"></trkpt>
      <trkpt lat="51.19942" lon="4.45182"></trkpt>
      <trkpt lat="51.19940" lon="4.45187"></trkpt>
      <trkpt lat="51.19937" lon="4.45191"></trkpt>
      <trkpt lat="51.19935" lon="4.45196"></trkpt>
      <trkpt lat="51.19933" lon="4.45200"></trkpt>
      <trkpt lat="51.19931" lon="4.45204"></trkpt>
      <trkpt lat="51.19931" lon="4.45211"></trkpt>
      <trkpt lat="51.19929" lon="4.45218"></trkpt>
      <trkpt lat="51.19928" lon="4.45225"></trkpt>
      <trkpt lat="51.19928" lon="4.45232"></trkpt>
      <trkpt lat="51.19927" lon="4.45239"></trkpt>
      <trkpt lat="51.19926" lon="4.45245"></trkpt>
      <trkpt lat="51.19925" lon="4.45252"></trkpt>
      <trkpt lat="51.19923" lon="4.45258"></trkpt>
      <trkpt lat="51.19922" lon="4.45264"></trkpt>
      <trkpt lat="51.19921" lon="4.45270"></trkpt>
      <trkpt lat="51.19919" lon="4.45277"></trkpt>
      <trkpt lat="51.19917" lon="4.45284"></trkpt>
      <trkpt lat="51.19916" lon="4.45291"></trkpt>
      <trkpt lat="51.19914" lon="4.45297"></trkpt>
      <trkpt lat="51.19912" lon="4.45303"></trkpt>
      <trkpt lat="51.19910" lon="4.45310"></trkpt>
      <trkpt lat="51.19908" lon="4.45316"></trkpt>
      <trkpt lat="51.19906" lon="4.45323"></trkpt>
      <trkpt lat="51.19903" lon="4.45329"></trkpt>
      <trkpt lat="51.19901" lon="4.45335"></trkpt>
      <trkpt lat="51.19899" lon="4.45340"></trkpt>
      <trkpt lat="51.19897" lon="4.45346"></trkpt>
      <trkpt lat="51.19895" lon="4.45353"></trkpt>
      <trkpt lat="51.19894" lon="4.45361"></trkpt>
      <trkpt lat="51.19894" lon="4.45368"></trkpt>
      <trkpt lat="51.19893" lon="4.45376"></trkpt>
      <trkpt lat="51.19892" lon="4.45383"></trkpt>
      <trkpt lat="51.19892" lon="4.45390"></trkpt>
      <trkpt lat="51.19892" lon="4.45396"></trkpt>
      <trkpt lat="51.19893" lon="4.45403"></trkpt>
      <trkpt lat="51.19894" lon="4.45409"></trkpt>
      <trkpt lat="51.19895" lon="4.45416"></trkpt>
      <trkpt lat="51.19897" lon="4.45422"></trkpt>
      <trkpt lat="51.19900" lon="4.45428"></trkpt>
      <trkpt lat="51.19903" lon="4.45433"></trkpt>
      <trkpt lat="51.19907" lon="4.45439"></trkpt>
      <trkpt lat="51.19910" lon="4.45443"></trkpt>
      <trkpt lat="51.19913" lon="4.45447"></trkpt>
      <trkpt lat="51.19916" lon="4.45451"></trkpt>
      <trkpt lat="51.19920" lon="4.45455"></trkpt>
      <trkpt lat="51.19924" lon="4.45457"></trkpt>
      <trkpt lat="51.19927" lon="4.45460"></trkpt>
      <trkpt lat="51.19931" lon="4.45462"></trkpt>
      <trkpt lat="51.19934" lon="4.45463"></trkpt>
      <trkpt lat="51.19939" lon="4.45465"></trkpt>
      <trkpt lat="51.19944" lon="4.45466"></trkpt>
      <trkpt lat="51.19948" lon="4.45468"></trkpt>
      <trkpt lat="51.19953" lon="4.45468"></trkpt>
      <trkpt lat="51.19957" lon="4.45467"></trkpt>
      <trkpt lat="51.19961" lon="4.45466"></trkpt>
      <trkpt lat="51.19965" lon="4.45465"></trkpt>
      <trkpt lat="51.19970" lon="4.45462"></trkpt>
      <trkpt lat="51.19974" lon="4.45459"></trkpt>
      <trkpt lat="51.19980" lon="4.45458"></trkpt>
      <trkpt lat="51.19984" lon="4.45459"></trkpt>
      <trkpt lat="51.19989" lon="4.45462"></trkpt>
      <trkpt lat="51.19993" lon="4.45465"></trkpt>
      <trkpt lat="51.19998" lon="4.45468"></trkpt>
      <trkpt lat="51.20002" lon="4.45471"></trkpt>
      <trkpt lat="51.20006" lon="4.45474"></trkpt>
      <trkpt lat="51.20010" lon="4.45477"></trkpt>
      <trkpt lat="51.20014" lon="4.45479"></trkpt>
      <trkpt lat="51.20018" lon="4.45481"></trkpt>
      <trkpt lat="51.20023" lon="4.45483"></trkpt>
      <trkpt lat="51.20027" lon="4.45485"></trkpt>
      <trkpt lat="51.20031" lon="4.45488"></trkpt>
      <trkpt lat="51.20035" lon="4.45492"></trkpt>
      <trkpt lat="51.20039" lon="4.45496"></trkpt>
      <trkpt lat="51.20043" lon="4.45500"></trkpt>
      <trkpt lat="51.20045" lon="4.45506"></trkpt>
      <trkpt lat="51.20045" lon="4.45513"></trkpt>
      <trkpt lat="51.20043" lon="4.45520"></trkpt>
      <trkpt lat="51.20042" lon="4.45526"></trkpt>
      <trkpt lat="51.20041" lon="4.45533"></trkpt>
      <trkpt lat="51.20041" lon="4.45540"></trkpt>
      <trkpt lat="51.20040" lon="4.45547"></trkpt>
      <trkpt lat="51.20041" lon="4.45553"></trkpt>
      <trkpt lat="51.20044" lon="4.45558"></trkpt>
      <trkpt lat="51.20046" lon="4.45563"></trkpt>
      <trkpt lat="51.20048" lon="4.45569"></trkpt>
      <trkpt lat="51.20049" lon="4.45576"></trkpt>
      <trkpt lat="51.20050" lon="4.45582"></trkpt>
      <trkpt lat="51.20052" lon="4.45588"></trkpt>
      <trkpt lat="51.20052" lon="4.45595"></trkpt>
      <trkpt lat="51.20053" lon="4.45602"></trkpt>
      <trkpt lat="51.20053" lon="4.45608"></trkpt>
      <trkpt lat="51.20052" lon="4.45615"></trkpt>
      <trkpt lat="51.20051" lon="4.45621"></trkpt>
      <trkpt lat="51.20050" lon="4.45627"></trkpt>
      <trkpt lat="51.20049" lon="4.45634"></trkpt>
      <trkpt lat="51.20047" lon="4.45641"></trkpt>
      <trkpt lat="51.20045" lon="4.45648"></trkpt>
      <trkpt lat="51.20043" lon="4.45654"></trkpt>
      <trkpt lat="51.20041" lon="4.45660"></trkpt>
      <trkpt lat="51.20038" lon="4.45666"></trkpt>
      <trkpt lat="51.20036" lon="4.45671"></trkpt>
      <trkpt lat="51.20034" lon="4.45677"></trkpt>
      <trkpt lat="51.20031" lon="4.45683"></trkpt>
      <trkpt lat="51.20029" lon="4.45689"></trkpt>
      <trkpt lat="51.20026" lon="4.45694"></trkpt>
      <trkpt lat="51.20024" lon="4.45699"></trkpt>
      <trkpt lat="51.20022" lon="4.45705"></trkpt>
      <trkpt lat="51.20021" lon="4.45711"></trkpt>
      <trkpt lat="51.20019" lon="4.45718"></trkpt>
      <trkpt lat="51.20018" lon="4.45725"></trkpt>
      <trkpt lat="51.20019" lon="4.45732"></trkpt>
      <trkpt lat="51.20020" lon="4.45738"></trkpt>
      <trkpt lat="51.20022" lon="4.45744"></trkpt>
      <trkpt lat="51.20026" lon="4.45750"></trkpt>
      <trkpt lat="51.20030" lon="4.45754"></trkpt>
      <trkpt lat="51.20035" lon="4.45756"></trkpt>
      <trkpt lat="51.20042" lon="4.45755"></trkpt>
      <trkpt lat="51.20046" lon="4.45752"></trkpt>
      <trkpt lat="51.20050" lon="4.45747"></trkpt>
      <trkpt lat="51.20054" lon="4.45742"></trkpt>
      <trkpt lat="51.20057" lon="4.45736"></trkpt>
      <trkpt lat="51.20060" lon="4.45731"></trkpt>
      <trkpt lat="51.20062" lon="4.45726"></trkpt>
      <trkpt lat="51.20065" lon="4.45721"></trkpt>
      <trkpt lat="51.20069" lon="4.45716"></trkpt>
      <trkpt lat="51.20072" lon="4.45711"></trkpt>
      <trkpt lat="51.20076" lon="4.45705"></trkpt>
      <trkpt lat="51.20079" lon="4.45700"></trkpt>
      <trkpt lat="51.20083" lon="4.45695"></trkpt>
      <trkpt lat="51.20086" lon="4.45691"></trkpt>
      <trkpt lat="51.20090" lon="4.45687"></trkpt>
      <trkpt lat="51.20094" lon="4.45682"></trkpt>
      <trkpt lat="51.20098" lon="4.45678"></trkpt>
      <trkpt lat="51.20102" lon="4.45675"></trkpt>
      <trkpt lat="51.20106" lon="4.45671"></trkpt>
      <trkpt lat="51.20110" lon="4.45666"></trkpt>
      <trkpt lat="51.20112" lon="4.45661"></trkpt>
      <trkpt lat="51.20114" lon="4.45654"></trkpt>
      <trkpt lat="51.20116" lon="4.45647"></trkpt>
      <trkpt lat="51.20116" lon="4.45640"></trkpt>
      <trkpt lat="51.20116" lon="4.45633"></trkpt>
      <trkpt lat="51.20116" lon="4.45625"></trkpt>
      <trkpt lat="51.20116" lon="4.45617"></trkpt>
      <trkpt lat="51.20114" lon="4.45611"></trkpt>
      <trkpt lat="51.20113" lon="4.45604"></trkpt>
      <trkpt lat="51.20112" lon="4.45598"></trkpt>
      <trkpt lat="51.20110" lon="4.45591"></trkpt>
      <trkpt lat="51.20109" lon="4.45583"></trkpt>
      <trkpt lat="51.20109" lon="4.45576"></trkpt>
      <trkpt lat="51.20109" lon="4.45568"></trkpt>
      <trkpt lat="51.20109" lon="4.45561"></trkpt>
      <trkpt lat="51.20110" lon="4.45555"></trkpt>
      <trkpt lat="51.20111" lon="4.45547"></trkpt>
      <trkpt lat="51.20112" lon="4.45539"></trkpt>
      <trkpt lat="51.20114" lon="4.45533"></trkpt>
      <trkpt lat="51.20116" lon="4.45526"></trkpt>
      <trkpt lat="51.20118" lon="4.45520"></trkpt>
      <trkpt lat="51.20120" lon="4.45513"></trkpt>
      <trkpt lat="51.20123" lon="4.45506"></trkpt>
      <trkpt lat="51.20125" lon="4.45500"></trkpt>
      <trkpt lat="51.20127" lon="4.45492"></trkpt>
      <trkpt lat="51.20129" lon="4.45486"></trkpt>
      <trkpt lat="51.20131" lon="4.45480"></trkpt>
      <trkpt lat="51.20133" lon="4.45473"></trkpt>
      <trkpt lat="51.20135" lon="4.45465"></trkpt>
      <trkpt lat="51.20138" lon="4.45459"></trkpt>
      <trkpt lat="51.20140" lon="4.45452"></trkpt>
      <trkpt lat="51.20141" lon="4.45445"></trkpt>
      <trkpt lat="51.20143" lon="4.45437"></trkpt>
      <trkpt lat="51.20144" lon="4.45430"></trkpt>
      <trkpt lat="51.20144" lon="4.45423"></trkpt>
      <trkpt lat="51.20144" lon="4.45416"></trkpt>
      <trkpt lat="51.20143" lon="4.45408"></trkpt>
      <trkpt lat="51.20142" lon="4.45401"></trkpt>
      <trkpt lat="51.20143" lon="4.45393"></trkpt>
      <trkpt lat="51.20143" lon="4.45386"></trkpt>
      <trkpt lat="51.20144" lon="4.45379"></trkpt>
      <trkpt lat="51.20145" lon="4.45371"></trkpt>
      <trkpt lat="51.20145" lon="4.45363"></trkpt>
      <trkpt lat="51.20146" lon="4.45357"></trkpt>
      <trkpt lat="51.20147" lon="4.45350"></trkpt>
      <trkpt lat="51.20148" lon="4.45344"></trkpt>
      <trkpt lat="51.20150" lon="4.45338"></trkpt>
      <trkpt lat="51.20152" lon="4.45332"></trkpt>
      <trkpt lat="51.20154" lon="4.45325"></trkpt>
      <trkpt lat="51.20156" lon="4.45318"></trkpt>
      <trkpt lat="51.20158" lon="4.45311"></trkpt>
      <trkpt lat="51.20160" lon="4.45303"></trkpt>
      <trkpt lat="51.20162" lon="4.45296"></trkpt>
      <trkpt lat="51.20164" lon="4.45290"></trkpt>
      <trkpt lat="51.20167" lon="4.45285"></trkpt>
      <trkpt lat="51.20171" lon="4.45281"></trkpt>
      <trkpt lat="51.20176" lon="4.45278"></trkpt>
      <trkpt lat="51.20180" lon="4.45274"></trkpt>
      <trkpt lat="51.20183" lon="4.45270"></trkpt>
      <trkpt lat="51.20187" lon="4.45264"></trkpt>
      <trkpt lat="51.20190" lon="4.45258"></trkpt>
      <trkpt lat="51.20191" lon="4.45251"></trkpt>
      <trkpt lat="51.20193" lon="4.45244"></trkpt>
      <trkpt lat="51.20194" lon="4.45237"></trkpt>
      <trkpt lat="51.20195" lon="4.45230"></trkpt>
      <trkpt lat="51.20196" lon="4.45223"></trkpt>
      <trkpt lat="51.20197" lon="4.45216"></trkpt>
      <trkpt lat="51.20199" lon="4.45209"></trkpt>
      <trkpt lat="51.20200" lon="4.45202"></trkpt>
      <trkpt lat="51.20201" lon="4.45195"></trkpt>
      <trkpt lat="51.20202" lon="4.45189"></trkpt>
      <trkpt lat="51.20204" lon="4.45182"></trkpt>
      <trkpt lat="51.20206" lon="4.45176"></trkpt>
      <trkpt lat="51.20210" lon="4.45173"></trkpt>
      <trkpt lat="51.20214" lon="4.45171"></trkpt>
      <trkpt lat="51.20218" lon="4.45171"></trkpt>
      <trkpt lat="51.20222" lon="4.45171"></trkpt>
      <trkpt lat="51.20227" lon="4.45171"></trkpt>
      <trkpt lat="51.20232" lon="4.45171"></trkpt>
      <trkpt lat="51.20236" lon="4.45171"></trkpt>
      <trkpt lat="51.20240" lon="4.45172"></trkpt>
      <trkpt lat="51.20244" lon="4.45173"></trkpt>
      <trkpt lat="51.20248" lon="4.45174"></trkpt>
      <trkpt lat="51.20253" lon="4.45174"></trkpt>
      <trkpt lat="51.20257" lon="4.45175"></trkpt>
      <trkpt lat="51.20262" lon="4.45176"></trkpt>
      <trkpt lat="51.20266" lon="4.45177"></trkpt>
      <trkpt lat="51.20271" lon="4.45178"></trkpt>
      <trkpt lat="51.20275" lon="4.45179"></trkpt>
      <trkpt lat="51.20279" lon="4.45181"></trkpt>
      <trkpt lat="51.20284" lon="4.45183"></trkpt>
      <trkpt lat="51.20288" lon="4.45185"></trkpt>
      <trkpt lat="51.20292" lon="4.45187"></trkpt>
      <trkpt lat="51.20296" lon="4.45189"></trkpt>
      <trkpt lat="51.20301" lon="4.45191"></trkpt>
      <trkpt lat="51.20305" lon="4.45192"></trkpt>
      <trkpt lat="51.20309" lon="4.45195"></trkpt>
      <trkpt lat="51.20313" lon="4.45196"></trkpt>
      <trkpt lat="51.20317" lon="4.45196"></trkpt>
      <trkpt lat="51.20321" lon="4.45194"></trkpt>
      <trkpt lat="51.20325" lon="4.45190"></trkpt>
      <trkpt lat="51.20328" lon="4.45185"></trkpt>
      <trkpt lat="51.20330" lon="4.45179"></trkpt>
      <trkpt lat="51.20332" lon="4.45173"></trkpt>
      <trkpt lat="51.20334" lon="4.45167"></trkpt>
      <trkpt lat="51.20335" lon="4.45160"></trkpt>
      <trkpt lat="51.20335" lon="4.45154"></trkpt>
      <trkpt lat="51.20335" lon="4.45147"></trkpt>
      <trkpt lat="51.20334" lon="4.45141"></trkpt>
      <trkpt lat="51.20332" lon="4.45133"></trkpt>
      <trkpt lat="51.20330" lon="4.45126"></trkpt>
      <trkpt lat="51.20328" lon="4.45120"></trkpt>
      <trkpt lat="51.20326" lon="4.45114"></trkpt>
      <trkpt lat="51.20324" lon="4.45109"></trkpt>
      <trkpt lat="51.20321" lon="4.45104"></trkpt>
      <trkpt lat="51.20317" lon="4.45098"></trkpt>
      <trkpt lat="51.20314" lon="4.45092"></trkpt>
      <trkpt lat="51.20310" lon="4.45086"></trkpt>
      <trkpt lat="51.20306" lon="4.45083"></trkpt>
      <trkpt lat="51.20302" lon="4.45080"></trkpt>
      <trkpt lat="51.20297" lon="4.45077"></trkpt>
      <trkpt lat="51.20293" lon="4.45075"></trkpt>
      <trkpt lat="51.20288" lon="4.45073"></trkpt>
      <trkpt lat="51.20283" lon="4.45071"></trkpt>
      <trkpt lat="51.20278" lon="4.45069"></trkpt>
      <trkpt lat="51.20274" lon="4.45068"></trkpt>
      <trkpt lat="51.20270" lon="4.45067"></trkpt>
      <trkpt lat="51.20265" lon="4.45066"></trkpt>
      <trkpt lat="51.20260" lon="4.45065"></trkpt>
      <trkpt lat="51.20256" lon="4.45063"></trkpt>
      <trkpt lat="51.20251" lon="4.45063"></trkpt>
      <trkpt lat="51.20246" lon="4.45062"></trkpt>
      <trkpt lat="51.20242" lon="4.45061"></trkpt>
      <trkpt lat="51.20237" lon="4.45061"></trkpt>
      <trkpt lat="51.20233" lon="4.45060"></trkpt>
      <trkpt lat="51.20228" lon="4.45060"></trkpt>
      <trkpt lat="51.20223" lon="4.45057"></trkpt>
      <trkpt lat="51.20219" lon="4.45057"></trkpt>
      <trkpt lat="51.20215" lon="4.45056"></trkpt>
      <trkpt lat="51.20210" lon="4.45056"></trkpt>
      <trkpt lat="51.20205" lon="4.45056"></trkpt>
      <trkpt lat="51.20200" lon="4.45058"></trkpt>
      <trkpt lat="51.20195" lon="4.45058"></trkpt>
      <trkpt lat="51.20190" lon="4.45058"></trkpt>
      <trkpt lat="51.20186" lon="4.45059"></trkpt>
      <trkpt lat="51.20182" lon="4.45059"></trkpt>
      <trkpt lat="51.20178" lon="4.45058"></trkpt>
      <trkpt lat="51.20174" lon="4.45057"></trkpt>
      <trkpt lat="51.20170" lon="4.45057"></trkpt>
      <trkpt lat="51.20165" lon="4.45056"></trkpt>
      <trkpt lat="51.20161" lon="4.45055"></trkpt>
      <trkpt lat="51.20158" lon="4.45054"></trkpt>
      <trkpt lat="51.20153" lon="4.45053"></trkpt>
      <trkpt lat="51.20150" lon="4.45052"></trkpt>
      <trkpt lat="51.20146" lon="4.45051"></trkpt>
      <trkpt lat="51.20142" lon="4.45049"></trkpt>
      <trkpt lat="51.20137" lon="4.45048"></trkpt>
      <trkpt lat="51.20132" lon="4.45047"></trkpt>
      <trkpt lat="51.20127" lon="4.45047"></trkpt>
      <trkpt lat="51.20123" lon="4.45046"></trkpt>
      <trkpt lat="51.20119" lon="4.45044"></trkpt>
      <trkpt lat="51.20114" lon="4.45044"></trkpt>
      <trkpt lat="51.20110" lon="4.45045"></trkpt>
      <trkpt lat="51.20105" lon="4.45046"></trkpt>
      <trkpt lat="51.20101" lon="4.45046"></trkpt>
      <trkpt lat="51.20096" lon="4.45048"></trkpt>
      <trkpt lat="51.20092" lon="4.45050"></trkpt>
      <trkpt lat="51.20087" lon="4.45051"></trkpt>
      <trkpt lat="51.20082" lon="4.45052"></trkpt>
      <trkpt lat="51.20077" lon="4.45055"></trkpt>
      <trkpt lat="51.20072" lon="4.45057"></trkpt>
      <trkpt lat="51.20068" lon="4.45060"></trkpt>
      <trkpt lat="51.20065" lon="4.45062"></trkpt>
      <trkpt lat="51.20061" lon="4.45064"></trkpt>
      <trkpt lat="51.20056" lon="4.45067"></trkpt>
      <trkpt lat="51.20052" lon="4.45070"></trkpt>
      <trkpt lat="51.20048" lon="4.45072"></trkpt>
      <trkpt lat="51.20044" lon="4.45076"></trkpt>
      <trkpt lat="51.20041" lon="4.45079"></trkpt>
      <trkpt lat="51.20037" lon="4.45081"></trkpt>
      <trkpt lat="51.20033" lon="4.45079"></trkpt>
      <trkpt lat="51.20028" lon="4.45079"></trkpt>
      <trkpt lat="51.20024" lon="4.45079"></trkpt>
      <trkpt lat="51.20020" lon="4.45079"></trkpt>
      <trkpt lat="51.20015" lon="4.45078"></trkpt>
      <trkpt lat="51.20010" lon="4.45078"></trkpt>
      <trkpt lat="51.20004" lon="4.45079"></trkpt>
      <trkpt lat="51.20000" lon="4.45080"></trkpt>
      <trkpt lat="51.19995" lon="4.45084"></trkpt>
      <trkpt lat="51.19991" lon="4.45088"></trkpt>
      <trkpt lat="51.19988" lon="4.45094"></trkpt>
      <trkpt lat="51.19985" lon="4.45099"></trkpt>
      <trkpt lat="51.19981" lon="4.45103"></trkpt>
      <trkpt lat="51.19977" lon="4.45109"></trkpt>
      <trkpt lat="51.19973" lon="4.45114"></trkpt>
      <trkpt lat="51.19970" lon="4.45118"></trkpt>
      <trkpt lat="51.19967" lon="4.45124"></trkpt>
      <trkpt lat="51.19964" lon="4.45130"></trkpt>
      <trkpt lat="51.19962" lon="4.45135"></trkpt>
      <trkpt lat="51.19960" lon="4.45140"></trkpt>
      <trkpt lat="51.19957" lon="4.45144"></trkpt>
      <trkpt lat="51.19954" lon="4.45147"></trkpt>
      <trkpt lat="51.19952" lon="4.45151"></trkpt>
      <trkpt lat="51.19950" lon="4.45155"></trkpt>
      <trkpt lat="51.19947" lon="4.45160"></trkpt>
      <trkpt lat="51.19945" lon="4.45167"></trkpt>
      <trkpt lat="51.19944" lon="4.45174"></trkpt>
      <trkpt lat="51.19942" lon="4.45180"></trkpt>
      <trkpt lat="51.19940" lon="4.45187"></trkpt>
      <trkpt lat="51.19937" lon="4.45191"></trkpt>
      <trkpt lat="51.19935" lon="4.45196"></trkpt>
      <trkpt lat="51.19932" lon="4.45201"></trkpt>
      <trkpt lat="51.19930" lon="4.45207"></trkpt>
      <trkpt lat="51.19928" lon="4.45214"></trkpt>
      <trkpt lat="51.19927" lon="4.45221"></trkpt>
      <trkpt lat="51.19926" lon="4.45228"></trkpt>
      <trkpt lat="51.19925" lon="4.45235"></trkpt>
      <trkpt lat="51.19923" lon="4.45242"></trkpt>
      <trkpt lat="51.19922" lon="4.45249"></trkpt>
      <trkpt lat="51.19921" lon="4.45256"></trkpt>
      <trkpt lat="51.19919" lon="4.45262"></trkpt>
      <trkpt lat="51.19918" lon="4.45269"></trkpt>
      <trkpt lat="51.19918" lon="4.45277"></trkpt>
      <trkpt lat="51.19917" lon="4.45285"></trkpt>
      <trkpt lat="51.19916" lon="4.45293"></trkpt>
      <trkpt lat="51.19915" lon="4.45300"></trkpt>
      <trkpt lat="51.19913" lon="4.45308"></trkpt>
      <trkpt lat="51.19910" lon="4.45314"></trkpt>
      <trkpt lat="51.19907" lon="4.45321"></trkpt>
      <trkpt lat="51.19905" lon="4.45328"></trkpt>
      <trkpt lat="51.19904" lon="4.45335"></trkpt>
      <trkpt lat="51.19902" lon="4.45341"></trkpt>
      <trkpt lat="51.19900" lon="4.45349"></trkpt>
      <trkpt lat="51.19898" lon="4.45356"></trkpt>
      <trkpt lat="51.19897" lon="4.45364"></trkpt>
      <trkpt lat="51.19896" lon="4.45372"></trkpt>
      <trkpt lat="51.19896" lon="4.45380"></trkpt>
      <trkpt lat="51.19897" lon="4.45387"></trkpt>
      <trkpt lat="51.19897" lon="4.45394"></trkpt>
      <trkpt lat="51.19898" lon="4.45402"></trkpt>
      <trkpt lat="51.19899" lon="4.45409"></trkpt>
      <trkpt lat="51.19900" lon="4.45416"></trkpt>
      <trkpt lat="51.19901" lon="4.45423"></trkpt>
      <trkpt lat="51.19903" lon="4.45430"></trkpt>
      <trkpt lat="51.19907" lon="4.45435"></trkpt>
      <trkpt lat="51.19911" lon="4.45441"></trkpt>
      <trkpt lat="51.19914" lon="4.45446"></trkpt>
      <trkpt lat="51.19918" lon="4.45450"></trkpt>
      <trkpt lat="51.19922" lon="4.45453"></trkpt>
      <trkpt lat="51.19926" lon="4.45456"></trkpt>
      <trkpt lat="51.19930" lon="4.45459"></trkpt>
      <trkpt lat="51.19934" lon="4.45462"></trkpt>
      <trkpt lat="51.19940" lon="4.45463"></trkpt>
      <trkpt lat="51.19946" lon="4.45465"></trkpt>
      <trkpt lat="51.19951" lon="4.45466"></trkpt>
      <trkpt lat="51.19955" lon="4.45466"></trkpt>
      <trkpt lat="51.19959" lon="4.45466"></trkpt>
      <trkpt lat="51.19964" lon="4.45466"></trkpt>
      <trkpt lat="51.19968" lon="4.45467"></trkpt>
      <trkpt lat="51.19972" lon="4.45466"></trkpt>
      <trkpt lat="51.19977" lon="4.45464"></trkpt>
      <trkpt lat="51.19982" lon="4.45461"></trkpt>
      <trkpt lat="51.19986" lon="4.45462"></trkpt>
      <trkpt lat="51.19991" lon="4.45465"></trkpt>
      <trkpt lat="51.19996" lon="4.45468"></trkpt>
      <trkpt lat="51.20000" lon="4.45470"></trkpt>
      <trkpt lat="51.20005" lon="4.45473"></trkpt>
      <trkpt lat="51.20009" lon="4.45476"></trkpt>
      <trkpt lat="51.20014" lon="4.45479"></trkpt>
      <trkpt lat="51.20018" lon="4.45482"></trkpt>
      <trkpt lat="51.20022" lon="4.45485"></trkpt>
      <trkpt lat="51.20026" lon="4.45488"></trkpt>
      <trkpt lat="51.20030" lon="4.45491"></trkpt>
      <trkpt lat="51.20034" lon="4.45495"></trkpt>
      <trkpt lat="51.20039" lon="4.45499"></trkpt>
      <trkpt lat="51.20043" lon="4.45504"></trkpt>
      <trkpt lat="51.20045" lon="4.45510"></trkpt>
      <trkpt lat="51.20045" lon="4.45517"></trkpt>
      <trkpt lat="51.20044" lon="4.45524"></trkpt>
      <trkpt lat="51.20043" lon="4.45530"></trkpt>
      <trkpt lat="51.20042" lon="4.45538"></trkpt>
      <trkpt lat="51.20042" lon="4.45546"></trkpt>
      <trkpt lat="51.20043" lon="4.45553"></trkpt>
      <trkpt lat="51.20045" lon="4.45560"></trkpt>
      <trkpt lat="51.20047" lon="4.45566"></trkpt>
      <trkpt lat="51.20049" lon="4.45571"></trkpt>
      <trkpt lat="51.20051" lon="4.45577"></trkpt>
      <trkpt lat="51.20051" lon="4.45584"></trkpt>
      <trkpt lat="51.20051" lon="4.45592"></trkpt>
      <trkpt lat="51.20051" lon="4.45599"></trkpt>
      <trkpt lat="51.20051" lon="4.45606"></trkpt>
      <trkpt lat="51.20051" lon="4.45614"></trkpt>
      <trkpt lat="51.20051" lon="4.45621"></trkpt>
      <trkpt lat="51.20049" lon="4.45629"></trkpt>
      <trkpt lat="51.20047" lon="4.45637"></trkpt>
      <trkpt lat="51.20046" lon="4.45644"></trkpt>
      <trkpt lat="51.20044" lon="4.45652"></trkpt>
      <trkpt lat="51.20042" lon="4.45659"></trkpt>
      <trkpt lat="51.20040" lon="4.45666"></trkpt>
      <trkpt lat="51.20037" lon="4.45672"></trkpt>
      <trkpt lat="51.20035" lon="4.45677"></trkpt>
      <trkpt lat="51.20034" lon="4.45683"></trkpt>
      <trkpt lat="51.20031" lon="4.45690"></trkpt>
      <trkpt lat="51.20029" lon="4.45696"></trkpt>
      <trkpt lat="51.20027" lon="4.45703"></trkpt>
      <trkpt lat="51.20026" lon="4.45710"></trkpt>
      <trkpt lat="51.20024" lon="4.45718"></trkpt>
      <trkpt lat="51.20022" lon="4.45725"></trkpt>
      <trkpt lat="51.20020" lon="4.45732"></trkpt>
      <trkpt lat="51.20020" lon="4.45740"></trkpt>
      <trkpt lat="51.20021" lon="4.45748"></trkpt>
      <trkpt lat="51.20024" lon="4.45754"></trkpt>
      <trkpt lat="51.20028" lon="4.45759"></trkpt>
      <trkpt lat="51.20032" lon="4.45761"></trkpt>
      <trkpt lat="51.20036" lon="4.45760"></trkpt>
      <trkpt lat="51.20041" lon="4.45758"></trkpt>
      <trkpt lat="51.20046" lon="4.45754"></trkpt>
      <trkpt lat="51.20049" lon="4.45749"></trkpt>
      <trkpt lat="51.20053" lon="4.45743"></trkpt>
      <trkpt lat="51.20057" lon="4.45738"></trkpt>
      <trkpt lat="51.20060" lon="4.45732"></trkpt>
      <trkpt lat="51.20064" lon="4.45727"></trkpt>
      <trkpt lat="51.20068" lon="4.45722"></trkpt>
      <trkpt lat="51.20071" lon="4.45716"></trkpt>
      <trkpt lat="51.20075" lon="4.45711"></trkpt>
      <trkpt lat="51.20080" lon="4.45706"></trkpt>
      <trkpt lat="51.20083" lon="4.45701"></trkpt>
      <trkpt lat="51.20087" lon="4.45697"></trkpt>
      <trkpt lat="51.20091" lon="4.45692"></trkpt>
      <trkpt lat="51.20095" lon="4.45687"></trkpt>
      <trkpt lat="51.20099" lon="4.45683"></trkpt>
      <trkpt lat="51.20103" lon="4.45678"></trkpt>
      <trkpt lat="51.20107" lon="4.45673"></trkpt>
      <trkpt lat="51.20110" lon="4.45667"></trkpt>
      <trkpt lat="51.20112" lon="4.45660"></trkpt>
      <trkpt lat="51.20114" lon="4.45651"></trkpt>
      <trkpt lat="51.20115" lon="4.45643"></trkpt>
      <trkpt lat="51.20115" lon="4.45635"></trkpt>
      <trkpt lat="51.20115" lon="4.45628"></trkpt>
      <trkpt lat="51.20115" lon="4.45621"></trkpt>
      <trkpt lat="51.20114" lon="4.45614"></trkpt>
      <trkpt lat="51.20112" lon="4.45606"></trkpt>
      <trkpt lat="51.20111" lon="4.45598"></trkpt>
      <trkpt lat="51.20111" lon="4.45591"></trkpt>
      <trkpt lat="51.20110" lon="4.45584"></trkpt>
      <trkpt lat="51.20111" lon="4.45576"></trkpt>
      <trkpt lat="51.20111" lon="4.45569"></trkpt>
      <trkpt lat="51.20113" lon="4.45563"></trkpt>
      <trkpt lat="51.20115" lon="4.45557"></trkpt>
      <trkpt lat="51.20117" lon="4.45551"></trkpt>
      <trkpt lat="51.20119" lon="4.45543"></trkpt>
      <trkpt lat="51.20121" lon="4.45534"></trkpt>
      <trkpt lat="51.20123" lon="4.45525"></trkpt>
      <trkpt lat="51.20124" lon="4.45517"></trkpt>
      <trkpt lat="51.20126" lon="4.45509"></trkpt>
      <trkpt lat="51.20128" lon="4.45501"></trkpt>
      <trkpt lat="51.20130" lon="4.45493"></trkpt>
      <trkpt lat="51.20132" lon="4.45486"></trkpt>
      <trkpt lat="51.20133" lon="4.45479"></trkpt>
      <trkpt lat="51.20135" lon="4.45471"></trkpt>
      <trkpt lat="51.20137" lon="4.45463"></trkpt>
      <trkpt lat="51.20139" lon="4.45455"></trkpt>
      <trkpt lat="51.20140" lon="4.45447"></trkpt>
      <trkpt lat="51.20142" lon="4.45439"></trkpt>
      <trkpt lat="51.20143" lon="4.45432"></trkpt>
      <trkpt lat="51.20144" lon="4.45424"></trkpt>
      <trkpt lat="51.20143" lon="4.45416"></trkpt>
      <trkpt lat="51.20143" lon="4.45409"></trkpt>
      <trkpt lat="51.20142" lon="4.45401"></trkpt>
      <trkpt lat="51.20143" lon="4.45393"></trkpt>
      <trkpt lat="51.20143" lon="4.45384"></trkpt>
      <trkpt lat="51.20145" lon="4.45377"></trkpt>
      <trkpt lat="51.20147" lon="4.45370"></trkpt>
      <trkpt lat="51.20149" lon="4.45362"></trkpt>
      <trkpt lat="51.20150" lon="4.45355"></trkpt>
      <trkpt lat="51.20151" lon="4.45346"></trkpt>
      <trkpt lat="51.20152" lon="4.45338"></trkpt>
      <trkpt lat="51.20155" lon="4.45331"></trkpt>
      <trkpt lat="51.20157" lon="4.45324"></trkpt>
      <trkpt lat="51.20159" lon="4.45317"></trkpt>
      <trkpt lat="51.20161" lon="4.45308"></trkpt>
      <trkpt lat="51.20163" lon="4.45300"></trkpt>
      <trkpt lat="51.20165" lon="4.45293"></trkpt>
      <trkpt lat="51.20168" lon="4.45287"></trkpt>
      <trkpt lat="51.20172" lon="4.45283"></trkpt>
      <trkpt lat="51.20176" lon="4.45278"></trkpt>
      <trkpt lat="51.20180" lon="4.45273"></trkpt>
      <trkpt lat="51.20183" lon="4.45266"></trkpt>
      <trkpt lat="51.20186" lon="4.45258"></trkpt>
      <trkpt lat="51.20188" lon="4.45250"></trkpt>
      <trkpt lat="51.20191" lon="4.45241"></trkpt>
      <trkpt lat="51.20193" lon="4.45231"></trkpt>
      <trkpt lat="51.20195" lon="4.45222"></trkpt>
      <trkpt lat="51.20196" lon="4.45213"></trkpt>
      <trkpt lat="51.20198" lon="4.45204"></trkpt>
      <trkpt lat="51.20200" lon="4.45196"></trkpt>
      <trkpt lat="51.20201" lon="4.45187"></trkpt>
      <trkpt lat="51.20203" lon="4.45179"></trkpt>
      <trkpt lat="51.20207" lon="4.45173"></trkpt>
    </trkseg>
  </trk>
</gpx>