<?xml version="1.0" encoding="UTF-8"?>
<gpx version="1.1" creator="jeffry.running" xmlns="http://www.topografix.com/GPX/1/1">
  <metadata><time>2026-09-04T16:53:26.041Z</time></metadata>
  <trk>
    <trkseg>
      <trkpt lat="51.20466" lon="4.44963"></trkpt>
      <trkpt lat="51.20457" lon="4.44985"></trkpt>
      <trkpt lat="51.20454" lon="4.44989"></trkpt>
      <trkpt lat="51.20452" lon="4.44989"></trkpt>
      <trkpt lat="51.20449" lon="4.44989"></trkpt>
      <trkpt lat="51.20446" lon="4.44989"></trkpt>
      <trkpt lat="51.20444" lon="4.44989"></trkpt>
      <trkpt lat="51.20441" lon="4.44984"></trkpt>
      <trkpt lat="51.20438" lon="4.44980"></trkpt>
      <trkpt lat="51.20436" lon="4.44975"></trkpt>
      <trkpt lat="51.20433" lon="4.44971"></trkpt>
      <trkpt lat="51.20430" lon="4.44966"></trkpt>
      <trkpt lat="51.20428" lon="4.44962"></trkpt>
      <trkpt lat="51.20426" lon="4.44968"></trkpt>
      <trkpt lat="51.20425" lon="4.44966"></trkpt>
      <trkpt lat="51.20423" lon="4.44964"></trkpt>
      <trkpt lat="51.20422" lon="4.44962"></trkpt>
      <trkpt lat="51.20423" lon="4.44956"></trkpt>
      <trkpt lat="51.20423" lon="4.44951"></trkpt>
      <trkpt lat="51.20420" lon="4.44944"></trkpt>
      <trkpt lat="51.20417" lon="4.44949"></trkpt>
      <trkpt lat="51.20415" lon="4.44949"></trkpt>
      <trkpt lat="51.20412" lon="4.44949"></trkpt>
      <trkpt lat="51.20410" lon="4.44950"></trkpt>
      <trkpt lat="51.20408" lon="4.44949"></trkpt>
      <trkpt lat="51.20406" lon="4.44948"></trkpt>
      <trkpt lat="51.20404" lon="4.44948"></trkpt>
      <trkpt lat="51.20412" lon="4.44974"></trkpt>
      <trkpt lat="51.20408" lon="4.44971"></trkpt>
      <trkpt lat="51.20406" lon="4.44970"></trkpt>
      <trkpt lat="51.20405" lon="4.44973"></trkpt>
      <trkpt lat="51.20404" lon="4.44975"></trkpt>
      <trkpt lat="51.20403" lon="4.44979"></trkpt>
      <trkpt lat="51.20403" lon="4.44998"></trkpt>
      <trkpt lat="51.20400" lon="4.45008"></trkpt>
      <trkpt lat="51.20398" lon="4.45011"></trkpt>
      <trkpt lat="51.20397" lon="4.45014"></trkpt>
      <trkpt lat="51.20395" lon="4.45016"></trkpt>
      <trkpt lat="51.20393" lon="4.45018"></trkpt>
      <trkpt lat="51.20392" lon="4.45020"></trkpt>
      <trkpt lat="51.20390" lon="4.45022"></trkpt>
      <trkpt lat="51.20388" lon="4.45024"></trkpt>
      <trkpt lat="51.20386" lon="4.45028"></trkpt>
      <trkpt lat="51.20385" lon="4.45031"></trkpt>
      <trkpt lat="51.20383" lon="4.45035"></trkpt>
      <trkpt lat="51.20381" lon="4.45039"></trkpt>
      <trkpt lat="51.20381" lon="4.45042"></trkpt>
      <trkpt lat="51.20379" lon="4.45045"></trkpt>
      <trkpt lat="51.20378" lon="4.45047"></trkpt>
      <trkpt lat="51.20376" lon="4.45049"></trkpt>
      <trkpt lat="51.20375" lon="4.45051"></trkpt>
      <trkpt lat="51.20373" lon="4.45054"></trkpt>
      <trkpt lat="51.20371" lon="4.45057"></trkpt>
      <trkpt lat="51.20370" lon="4.45060"></trkpt>
      <trkpt lat="51.20369" lon="4.45063"></trkpt>
      <trkpt lat="51.20367" lon="4.45065"></trkpt>
      <trkpt lat="51.20366" lon="4.45067"></trkpt>
      <trkpt lat="51.20364" lon="4.45070"></trkpt>
      <trkpt lat="51.20363" lon="4.45072"></trkpt>
      <trkpt lat="51.20361" lon="4.45074"></trkpt>
      <trkpt lat="51.20360" lon="4.45076"></trkpt>
      <trkpt lat="51.20358" lon="4.45077"></trkpt>
      <trkpt lat="51.20357" lon="4.45078"></trkpt>
      <trkpt lat="51.20355" lon="4.45080"></trkpt>
      <trkpt lat="51.20353" lon="4.45081"></trkpt>
      <trkpt lat="51.20350" lon="4.45082"></trkpt>
      <trkpt lat="51.20348" lon="4.45083"></trkpt>
      <trkpt lat="51.20346" lon="4.45084"></trkpt>
      <trkpt lat="51.20344" lon="4.45085"></trkpt>
      <trkpt lat="51.20342" lon="4.45086"></trkpt>
      <trkpt lat="51.20339" lon="4.45086"></trkpt>
      <trkpt lat="51.20336" lon="4.45086"></trkpt>
      <trkpt lat="51.20334" lon="4.45086"></trkpt>
      <trkpt lat="51.20331" lon="4.45086"></trkpt>
      <trkpt lat="51.20329" lon="4.45089"></trkpt>
      <trkpt lat="51.20326" lon="4.45088"></trkpt>
      <trkpt lat="51.20323" lon="4.45087"></trkpt>
      <trkpt lat="51.20321" lon="4.45086"></trkpt>
      <trkpt lat="51.20318" lon="4.45084"></trkpt>
      <trkpt lat="51.20316" lon="4.45082"></trkpt>
      <trkpt lat="51.20313" lon="4.45079"></trkpt>
      <trkpt lat="51.20310" lon="4.45077"></trkpt>
      <trkpt lat="51.20308" lon="4.45075"></trkpt>
      <trkpt lat="51.20306" lon="4.45074"></trkpt>
      <trkpt lat="51.20303" lon="4.45072"></trkpt>
      <trkpt lat="51.20301" lon="4.45071"></trkpt>
      <trkpt lat="51.20299" lon="4.45069"></trkpt>
      <trkpt lat="51.20296" lon="4.45067"></trkpt>
      <trkpt lat="51.20293" lon="4.45067"></trkpt>
      <trkpt lat="51.20291" lon="4.45067"></trkpt>
      <trkpt lat="51.20289" lon="4.45066"></trkpt>
      <trkpt lat="51.20286" lon="4.45066"></trkpt>
      <trkpt lat="51.20284" lon="4.45065"></trkpt>
      <trkpt lat="51.20281" lon="4.45065"></trkpt>
      <trkpt lat="51.20279" lon="4.45064"></trkpt>
      <trkpt lat="51.20277" lon="4.45064"></trkpt>
      <trkpt lat="51.20274" lon="4.45064"></trkpt>
      <trkpt lat="51.20272" lon="4.45063"></trkpt>
      <trkpt lat="51.20269" lon="4.45063"></trkpt>
      <trkpt lat="51.20267" lon="4.45062"></trkpt>
      <trkpt lat="51.20264" lon="4.45062"></trkpt>
      <trkpt lat="51.20262" lon="4.45062"></trkpt>
      <trkpt lat="51.20260" lon="4.45061"></trkpt>
      <trkpt lat="51.20257" lon="4.45061"></trkpt>
      <trkpt lat="51.20255" lon="4.45060"></trkpt>
      <trkpt lat="51.20252" lon="4.45060"></trkpt>
      <trkpt lat="51.20250" lon="4.45060"></trkpt>
      <trkpt lat="51.20248" lon="4.45059"></trkpt>
      <trkpt lat="51.20245" lon="4.45059"></trkpt>
      <trkpt lat="51.20243" lon="4.45059"></trkpt>
      <trkpt lat="51.20241" lon="4.45058"></trkpt>
      <trkpt lat="51.20238" lon="4.45058"></trkpt>
      <trkpt lat="51.20236" lon="4.45058"></trkpt>
      <trkpt lat="51.20234" lon="4.45058"></trkpt>
      <trkpt lat="51.20231" lon="4.45058"></trkpt>
      <trkpt lat="51.20229" lon="4.45059"></trkpt>
      <trkpt lat="51.20227" lon="4.45059"></trkpt>
      <trkpt lat="51.20225" lon="4.45058"></trkpt>
      <trkpt lat="51.20223" lon="4.45058"></trkpt>
      <trkpt lat="51.20221" lon="4.45058"></trkpt>
      <trkpt lat="51.20219" lon="4.45058"></trkpt>
      <trkpt lat="51.20217" lon="4.45058"></trkpt>
      <trkpt lat="51.20215" lon="4.45058"></trkpt>
      <trkpt lat="51.20213" lon="4.45058"></trkpt>
      <trkpt lat="51.20211" lon="4.45058"></trkpt>
      <trkpt lat="51.20209" lon="4.45058"></trkpt>
      <trkpt lat="51.20207" lon="4.45058"></trkpt>
      <trkpt lat="51.20205" lon="4.45058"></trkpt>
      <trkpt lat="51.20203" lon="4.45058"></trkpt>
      <trkpt lat="51.20201" lon="4.45058"></trkpt>
      <trkpt lat="51.20199" lon="4.45057"></trkpt>
      <trkpt lat="51.20197" lon="4.45057"></trkpt>
      <trkpt lat="51.20196" lon="4.45057"></trkpt>
      <trkpt lat="51.20194" lon="4.45057"></trkpt>
      <trkpt lat="51.20192" lon="4.45057"></trkpt>
      <trkpt lat="51.20190" lon="4.45057"></trkpt>
      <trkpt lat="51.20188" lon="4.45057"></trkpt>
      <trkpt lat="51.20186" lon="4.45057"></trkpt>
      <trkpt lat="51.20184" lon="4.45056"></trkpt>
      <trkpt lat="51.20182" lon="4.45056"></trkpt>
      <trkpt lat="51.20180" lon="4.45056"></trkpt>
      <trkpt lat="51.20177" lon="4.45055"></trkpt>
      <trkpt lat="51.20175" lon="4.45055"></trkpt>
      <trkpt lat="51.20173" lon="4.45055"></trkpt>
      <trkpt lat="51.20171" lon="4.45055"></trkpt>
      <trkpt lat="51.20169" lon="4.45055"></trkpt>
      <trkpt lat="51.20167" lon="4.45055"></trkpt>
      <trkpt lat="51.20165" lon="4.45054"></trkpt>
      <trkpt lat="51.20163" lon="4.45054"></trkpt>
      <trkpt lat="51.20160" lon="4.45053"></trkpt>
      <trkpt lat="51.20158" lon="4.45053"></trkpt>
      <trkpt lat="51.20156" lon="4.45053"></trkpt>
      <trkpt lat="51.20153" lon="4.45053"></trkpt>
      <trkpt lat="51.20151" lon="4.45053"></trkpt>
      <trkpt lat="51.20149" lon="4.45052"></trkpt>
      <trkpt lat="51.20146" lon="4.45052"></trkpt>
      <trkpt lat="51.20144" lon="4.45052"></trkpt>
      <trkpt lat="51.20142" lon="4.45051"></trkpt>
      <trkpt lat="51.20140" lon="4.45050"></trkpt>
      <trkpt lat="51.20138" lon="4.45050"></trkpt>
      <trkpt lat="51.20136" lon="4.45049"></trkpt>
      <trkpt lat="51.20134" lon="4.45048"></trkpt>
      <trkpt lat="51.20132" lon="4.45048"></trkpt>
      <trkpt lat="51.20130" lon="4.45048"></trkpt>
      <trkpt lat="51.20128" lon="4.45047"></trkpt>
      <trkpt lat="51.20126" lon="4.45046"></trkpt>
      <trkpt lat="51.20124" lon="4.45045"></trkpt>
      <trkpt lat="51.20122" lon="4.45045"></trkpt>
      <trkpt lat="51.20120" lon="4.45044"></trkpt>
      <trkpt lat="51.20118" lon="4.45044"></trkpt>
      <trkpt lat="51.20115" lon="4.45043"></trkpt>
      <trkpt lat="51.20113" lon="4.45043"></trkpt>
      <trkpt lat="51.20112" lon="4.45042"></trkpt>
      <trkpt lat="51.20110" lon="4.45042"></trkpt>
      <trkpt lat="51.20108" lon="4.45042"></trkpt>
      <trkpt lat="51.20106" lon="4.45042"></trkpt>
      <trkpt lat="51.20104" lon="4.45041"></trkpt>
      <trkpt lat="51.20102" lon="4.45041"></trkpt>
      <trkpt lat="51.20099" lon="4.45042"></trkpt>
      <trkpt lat="51.20097" lon="4.45042"></trkpt>
      <trkpt lat="51.20094" lon="4.45042"></trkpt>
      <trkpt lat="51.20092" lon="4.45043"></trkpt>
      <trkpt lat="51.20090" lon="4.45044"></trkpt>
      <trkpt lat="51.20088" lon="4.45044"></trkpt>
      <trkpt lat="51.20086" lon="4.45046"></trkpt>
      <trkpt lat="51.20084" lon="4.45047"></trkpt>
      <trkpt lat="51.20082" lon="4.45048"></trkpt>
      <trkpt lat="51.20080" lon="4.45049"></trkpt>
      <trkpt lat="51.20079" lon="4.45050"></trkpt>
      <trkpt lat="51.20077" lon="4.45052"></trkpt>
      <trkpt lat="51.20075" lon="4.45053"></trkpt>
      <trkpt lat="51.20073" lon="4.45054"></trkpt>
      <trkpt lat="51.20071" lon="4.45054"></trkpt>
      <trkpt lat="51.20069" lon="4.45056"></trkpt>
      <trkpt lat="51.20067" lon="4.45058"></trkpt>
      <trkpt lat="51.20065" lon="4.45059"></trkpt>
      <trkpt lat="51.20063" lon="4.45061"></trkpt>
      <trkpt lat="51.20061" lon="4.45062"></trkpt>
      <trkpt lat="51.20059" lon="4.45063"></trkpt>
      <trkpt lat="51.20058" lon="4.45064"></trkpt>
      <trkpt lat="51.20056" lon="4.45066"></trkpt>
      <trkpt lat="51.20053" lon="4.45067"></trkpt>
      <trkpt lat="51.20051" lon="4.45068"></trkpt>
      <trkpt lat="51.20049" lon="4.45070"></trkpt>
      <trkpt lat="51.20047" lon="4.45071"></trkpt>
      <trkpt lat="51.20045" lon="4.45072"></trkpt>
      <trkpt lat="51.20044" lon="4.45074"></trkpt>
      <trkpt lat="51.20042" lon="4.45076"></trkpt>
      <trkpt lat="51.20040" lon="4.45078"></trkpt>
      <trkpt lat="51.20039" lon="4.45080"></trkpt>
      <trkpt lat="51.20037" lon="4.45082"></trkpt>
      <trkpt lat="51.20035" lon="4.45084"></trkpt>
      <trkpt lat="51.20034" lon="4.45086"></trkpt>
      <trkpt lat="51.20032" lon="4.45087"></trkpt>
      <trkpt lat="51.20030" lon="4.45089"></trkpt>
      <trkpt lat="51.20028" lon="4.45091"></trkpt>
      <trkpt lat="51.20027" lon="4.45093"></trkpt>
      <trkpt lat="51.20025" lon="4.45094"></trkpt>
      <trkpt lat="51.20024" lon="4.45096"></trkpt>
      <trkpt lat="51.20021" lon="4.45098"></trkpt>
      <trkpt lat="51.20020" lon="4.45099"></trkpt>
      <trkpt lat="51.20018" lon="4.45100"></trkpt>
      <trkpt lat="51.20016" lon="4.45102"></trkpt>
      <trkpt lat="51.20014" lon="4.45104"></trkpt>
      <trkpt lat="51.20012" lon="4.45105"></trkpt>
      <trkpt lat="51.20010" lon="4.45106"></trkpt>
      <trkpt lat="51.20008" lon="4.45107"></trkpt>
      <trkpt lat="51.20007" lon="4.45109"></trkpt>
      <trkpt lat="51.20005" lon="4.45111"></trkpt>
      <trkpt lat="51.20003" lon="4.45113"></trkpt>
      <trkpt lat="51.20001" lon="4.45115"></trkpt>
      <trkpt lat="51.19999" lon="4.45117"></trkpt>
      <trkpt lat="51.19997" lon="4.45119"></trkpt>
      <trkpt lat="51.19996" lon="4.45121"></trkpt>
      <trkpt lat="51.19994" lon="4.45123"></trkpt>
      <trkpt lat="51.19991" lon="4.45125"></trkpt>
      <trkpt lat="51.19990" lon="4.45127"></trkpt>
      <trkpt lat="51.19988" lon="4.45129"></trkpt>
      <trkpt lat="51.19986" lon="4.45131"></trkpt>
      <trkpt lat="51.19984" lon="4.45133"></trkpt>
      <trkpt lat="51.19982" lon="4.45135"></trkpt>
      <trkpt lat="51.19981" lon="4.45137"></trkpt>
      <trkpt lat="51.19979" lon="4.45139"></trkpt>
      <trkpt lat="51.19978" lon="4.45142"></trkpt>
      <trkpt lat="51.19976" lon="4.45144"></trkpt>
      <trkpt lat="51.19974" lon="4.45146"></trkpt>
      <trkpt lat="51.19973" lon="4.45149"></trkpt>
      <trkpt lat="51.19971" lon="4.45151"></trkpt>
      <trkpt lat="51.19970" lon="4.45152"></trkpt>
      <trkpt lat="51.19969" lon="4.45154"></trkpt>
      <trkpt lat="51.19967" lon="4.45156"></trkpt>
      <trkpt lat="51.19966" lon="4.45157"></trkpt>
      <trkpt lat="51.19965" lon="4.45159"></trkpt>
      <trkpt lat="51.19963" lon="4.45161"></trkpt>
      <trkpt lat="51.19962" lon="4.45163"></trkpt>
      <trkpt lat="51.19961" lon="4.45166"></trkpt>
      <trkpt lat="51.19959" lon="4.45168"></trkpt>
      <trkpt lat="51.19957" lon="4.45170"></trkpt>
      <trkpt lat="51.19956" lon="4.45172"></trkpt>
      <trkpt lat="51.19954" lon="4.45174"></trkpt>
      <trkpt lat="51.19952" lon="4.45176"></trkpt>
      <trkpt lat="51.19951" lon="4.45179"></trkpt>
      <trkpt lat="51.19950" lon="4.45181"></trkpt>
      <trkpt lat="51.19949" lon="4.45184"></trkpt>
      <trkpt lat="51.19948" lon="4.45186"></trkpt>
      <trkpt lat="51.19947" lon="4.45189"></trkpt>
      <trkpt lat="51.19945" lon="4.45191"></trkpt>
      <trkpt lat="51.19944" lon="4.45193"></trkpt>
      <trkpt lat="51.19942" lon="4.45196"></trkpt>
      <trkpt lat="51.19941" lon="4.45199"></trkpt>
      <trkpt lat="51.19939" lon="4.45202"></trkpt>
      <trkpt lat="51.19938" lon="4.45205"></trkpt>
      <trkpt lat="51.19937" lon="4.45208"></trkpt>
      <trkpt lat="51.19935" lon="4.45211"></trkpt>
      <trkpt lat="51.19935" lon="4.45214"></trkpt>
      <trkpt lat="51.19933" lon="4.45216"></trkpt>
      <trkpt lat="51.19932" lon="4.45219"></trkpt>
      <trkpt lat="51.19931" lon="4.45222"></trkpt>
      <trkpt lat="51.19930" lon="4.45225"></trkpt>
      <trkpt lat="51.19929" lon="4.45228"></trkpt>
      <trkpt lat="51.19929" lon="4.45231"></trkpt>
      <trkpt lat="51.19929" lon="4.45234"></trkpt>
      <trkpt lat="51.19928" lon="4.45237"></trkpt>
      <trkpt lat="51.19927" lon="4.45240"></trkpt>
      <trkpt lat="51.19926" lon="4.45243"></trkpt>
      <trkpt lat="51.19925" lon="4.45246"></trkpt>
      <trkpt lat="51.19925" lon="4.45250"></trkpt>
      <trkpt lat="51.19924" lon="4.45253"></trkpt>
      <trkpt lat="51.19923" lon="4.45256"></trkpt>
      <trkpt lat="51.19922" lon="4.45260"></trkpt>
      <trkpt lat="51.19921" lon="4.45263"></trkpt>
      <trkpt lat="51.19920" lon="4.45266"></trkpt>
      <trkpt lat="51.19919" lon="4.45269"></trkpt>
      <trkpt lat="51.19919" lon="4.45273"></trkpt>
      <trkpt lat="51.19919" lon="4.45277"></trkpt>
      <trkpt lat="51.19919" lon="4.45280"></trkpt>
      <trkpt lat="51.19918" lon="4.45283"></trkpt>
      <trkpt lat="51.19918" lon="4.45287"></trkpt>
      <trkpt lat="51.19918" lon="4.45290"></trkpt>
      <trkpt lat="51.19918" lon="4.45293"></trkpt>
      <trkpt lat="51.19918" lon="4.45296"></trkpt>
      <trkpt lat="51.19918" lon="4.45299"></trkpt>
      <trkpt lat="51.19917" lon="4.45301"></trkpt>
      <trkpt lat="51.19917" lon="4.45304"></trkpt>
      <trkpt lat="51.19916" lon="4.45307"></trkpt>
      <trkpt lat="51.19916" lon="4.45309"></trkpt>
      <trkpt lat="51.19915" lon="4.45312"></trkpt>
      <trkpt lat="51.19913" lon="4.45314"></trkpt>
      <trkpt lat="51.19912" lon="4.45317"></trkpt>
      <trkpt lat="51.19911" lon="4.45320"></trkpt>
      <trkpt lat="51.19910" lon="4.45323"></trkpt>
      <trkpt lat="51.19909" lon="4.45325"></trkpt>
      <trkpt lat="51.19908" lon="4.45328"></trkpt>
      <trkpt lat="51.19906" lon="4.45331"></trkpt>
      <trkpt lat="51.19905" lon="4.45334"></trkpt>
      <trkpt lat="51.19905" lon="4.45338"></trkpt>
      <trkpt lat="51.19903" lon="4.45342"></trkpt>
      <trkpt lat="51.19903" lon="4.45345"></trkpt>
      <trkpt lat="51.19902" lon="4.45349"></trkpt>
      <trkpt lat="51.19901" lon="4.45353"></trkpt>
      <trkpt lat="51.19900" lon="4.45357"></trkpt>
      <trkpt lat="51.19899" lon="4.45361"></trkpt>
      <trkpt lat="51.19899" lon="4.45365"></trkpt>
      <trkpt lat="51.19899" lon="4.45368"></trkpt>
      <trkpt lat="51.19899" lon="4.45372"></trkpt>
      <trkpt lat="51.19898" lon="4.45376"></trkpt>
      <trkpt lat="51.19897" lon="4.45379"></trkpt>
      <trkpt lat="51.19897" lon="4.45383"></trkpt>
      <trkpt lat="51.19897" lon="4.45386"></trkpt>
      <trkpt lat="51.19897" lon="4.45389"></trkpt>
      <trkpt lat="51.19896" lon="4.45393"></trkpt>
      <trkpt lat="51.19896" lon="4.45397"></trkpt>
      <trkpt lat="51.19896" lon="4.45400"></trkpt>
      <trkpt lat="51.19897" lon="4.45404"></trkpt>
      <trkpt lat="51.19897" lon="4.45407"></trkpt>
      <trkpt lat="51.19898" lon="4.45411"></trkpt>
      <trkpt lat="51.19898" lon="4.45413"></trkpt>
      <trkpt lat="51.19899" lon="4.45417"></trkpt>
      <trkpt lat="51.19900" lon="4.45420"></trkpt>
      <trkpt lat="51.19902" lon="4.45423"></trkpt>
      <trkpt lat="51.19903" lon="4.45426"></trkpt>
      <trkpt lat="51.19906" lon="4.45429"></trkpt>
      <trkpt lat="51.19907" lon="4.45432"></trkpt>
      <trkpt lat="51.19908" lon="4.45434"></trkpt>
      <trkpt lat="51.19910" lon="4.45437"></trkpt>
      <trkpt lat="51.19912" lon="4.45439"></trkpt>
      <trkpt lat="51.19914" lon="4.45442"></trkpt>
      <trkpt lat="51.19915" lon="4.45444"></trkpt>
      <trkpt lat="51.19917" lon="4.45446"></trkpt>
      <trkpt lat="51.19919" lon="4.45448"></trkpt>
      <trkpt lat="51.19920" lon="4.45450"></trkpt>
      <trkpt lat="51.19922" lon="4.45452"></trkpt>
      <trkpt lat="51.19924" lon="4.45453"></trkpt>
      <trkpt lat="51.19926" lon="4.45455"></trkpt>
      <trkpt lat="51.19928" lon="4.45456"></trkpt>
      <trkpt lat="51.19929" lon="4.45457"></trkpt>
      <trkpt lat="51.19932" lon="4.45458"></trkpt>
      <trkpt lat="51.19934" lon="4.45459"></trkpt>
      <trkpt lat="51.19936" lon="4.45460"></trkpt>
      <trkpt lat="51.19938" lon="4.45461"></trkpt>
      <trkpt lat="51.19940" lon="4.45462"></trkpt>
      <trkpt lat="51.19942" lon="4.45462"></trkpt>
      <trkpt lat="51.19944" lon="4.45463"></trkpt>
      <trkpt lat="51.19946" lon="4.45463"></trkpt>
      <trkpt lat="51.19948" lon="4.45463"></trkpt>
      <trkpt lat="51.19950" lon="4.45464"></trkpt>
      <trkpt lat="51.19952" lon="4.45464"></trkpt>
      <trkpt lat="51.19954" lon="4.45464"></trkpt>
      <trkpt lat="51.19956" lon="4.45464"></trkpt>
      <trkpt lat="51.19958" lon="4.45464"></trkpt>
      <trkpt lat="51.19960" lon="4.45464"></trkpt>
      <trkpt lat="51.19962" lon="4.45463"></trkpt>
      <trkpt lat="51.19964" lon="4.45463"></trkpt>
      <trkpt lat="51.19967" lon="4.45462"></trkpt>
      <trkpt lat="51.19969" lon="4.45461"></trkpt>
      <trkpt lat="51.19971" lon="4.45461"></trkpt>
      <trkpt lat="51.19973" lon="4.45460"></trkpt>
      <trkpt lat="51.19975" lon="4.45459"></trkpt>
      <trkpt lat="51.19978" lon="4.45457"></trkpt>
      <trkpt lat="51.19979" lon="4.45456"></trkpt>
      <trkpt lat="51.19982" lon="4.45455"></trkpt>
      <trkpt lat="51.19984" lon="4.45455"></trkpt>
      <trkpt lat="51.19987" lon="4.45456"></trkpt>
      <trkpt lat="51.19988" lon="4.45458"></trkpt>
      <trkpt lat="51.19991" lon="4.45459"></trkpt>
      <trkpt lat="51.19993" lon="4.45461"></trkpt>
      <trkpt lat="51.19995" lon="4.45462"></trkpt>
      <trkpt lat="51.19997" lon="4.45463"></trkpt>
      <trkpt lat="51.20000" lon="4.45465"></trkpt>
      <trkpt lat="51.20002" lon="4.45467"></trkpt>
      <trkpt lat="51.20004" lon="4.45468"></trkpt>
      <trkpt lat="51.20005" lon="4.45470"></trkpt>
      <trkpt lat="51.20007" lon="4.45471"></trkpt>
      <trkpt lat="51.20010" lon="4.45473"></trkpt>
      <trkpt lat="51.20012" lon="4.45474"></trkpt>
      <trkpt lat="51.20014" lon="4.45477"></trkpt>
      <trkpt lat="51.20016" lon="4.45478"></trkpt>
      <trkpt lat="51.20018" lon="4.45480"></trkpt>
      <trkpt lat="51.20020" lon="4.45481"></trkpt>
      <trkpt lat="51.20022" lon="4.45483"></trkpt>
      <trkpt lat="51.20024" lon="4.45484"></trkpt>
      <trkpt lat="51.20026" lon="4.45486"></trkpt>
      <trkpt lat="51.20029" lon="4.45487"></trkpt>
      <trkpt lat="51.20031" lon="4.45489"></trkpt>
      <trkpt lat="51.20033" lon="4.45491"></trkpt>
      <trkpt lat="51.20035" lon="4.45492"></trkpt>
      <trkpt lat="51.20038" lon="4.45494"></trkpt>
      <trkpt lat="51.20040" lon="4.45495"></trkpt>
      <trkpt lat="51.20043" lon="4.45497"></trkpt>
      <trkpt lat="51.20045" lon="4.45500"></trkpt>
      <trkpt lat="51.20047" lon="4.45503"></trkpt>
      <trkpt lat="51.20047" lon="4.45506"></trkpt>
      <trkpt lat="51.20046" lon="4.45510"></trkpt>
      <trkpt lat="51.20046" lon="4.45514"></trkpt>
      <trkpt lat="51.20045" lon="4.45517"></trkpt>
      <trkpt lat="51.20044" lon="4.45522"></trkpt>
      <trkpt lat="51.20043" lon="4.45525"></trkpt>
      <trkpt lat="51.20042" lon="4.45528"></trkpt>
      <trkpt lat="51.20041" lon="4.45532"></trkpt>
      <trkpt lat="51.20040" lon="4.45536"></trkpt>
      <trkpt lat="51.20040" lon="4.45540"></trkpt>
      <trkpt lat="51.20040" lon="4.45544"></trkpt>
      <trkpt lat="51.20040" lon="4.45548"></trkpt>
      <trkpt lat="51.20041" lon="4.45551"></trkpt>
      <trkpt lat="51.20043" lon="4.45555"></trkpt>
      <trkpt lat="51.20044" lon="4.45559"></trkpt>
      <trkpt lat="51.20045" lon="4.45562"></trkpt>
      <trkpt lat="51.20046" lon="4.45565"></trkpt>
      <trkpt lat="51.20047" lon="4.45568"></trkpt>
      <trkpt lat="51.20048" lon="4.45572"></trkpt>
      <trkpt lat="51.20050" lon="4.45576"></trkpt>
      <trkpt lat="51.20051" lon="4.45579"></trkpt>
      <trkpt lat="51.20051" lon="4.45584"></trkpt>
      <trkpt lat="51.20051" lon="4.45587"></trkpt>
      <trkpt lat="51.20051" lon="4.45591"></trkpt>
      <trkpt lat="51.20052" lon="4.45596"></trkpt>
      <trkpt lat="51.20053" lon="4.45600"></trkpt>
      <trkpt lat="51.20053" lon="4.45603"></trkpt>
      <trkpt lat="51.20053" lon="4.45606"></trkpt>
      <trkpt lat="51.20054" lon="4.45609"></trkpt>
      <trkpt lat="51.20054" lon="4.45613"></trkpt>
      <trkpt lat="51.20054" lon="4.45616"></trkpt>
      <trkpt lat="51.20054" lon="4.45621"></trkpt>
      <trkpt lat="51.20053" lon="4.45625"></trkpt>
      <trkpt lat="51.20053" lon="4.45629"></trkpt>
      <trkpt lat="51.20053" lon="4.45632"></trkpt>
      <trkpt lat="51.20052" lon="4.45636"></trkpt>
      <trkpt lat="51.20051" lon="4.45640"></trkpt>
      <trkpt lat="51.20050" lon="4.45644"></trkpt>
      <trkpt lat="51.20049" lon="4.45648"></trkpt>
      <trkpt lat="51.20048" lon="4.45652"></trkpt>
      <trkpt lat="51.20047" lon="4.45656"></trkpt>
      <trkpt lat="51.20046" lon="4.45659"></trkpt>
      <trkpt lat="51.20045" lon="4.45662"></trkpt>
      <trkpt lat="51.20045" lon="4.45665"></trkpt>
      <trkpt lat="51.20044" lon="4.45668"></trkpt>
      <trkpt lat="51.20043" lon="4.45671"></trkpt>
      <trkpt lat="51.20042" lon="4.45674"></trkpt>
      <trkpt lat="51.20041" lon="4.45677"></trkpt>
      <trkpt lat="51.20040" lon="4.45680"></trkpt>
      <trkpt lat="51.20039" lon="4.45683"></trkpt>
      <trkpt lat="51.20038" lon="4.45686"></trkpt>
      <trkpt lat="51.20037" lon="4.45689"></trkpt>
      <trkpt lat="51.20036" lon="4.45692"></trkpt>
      <trkpt lat="51.20035" lon="4.45695"></trkpt>
      <trkpt lat="51.20034" lon="4.45698"></trkpt>
      <trkpt lat="51.20033" lon="4.45701"></trkpt>
      <trkpt lat="51.20032" lon="4.45705"></trkpt>
      <trkpt lat="51.20031" lon="4.45708"></trkpt>
      <trkpt lat="51.20030" lon="4.45712"></trkpt>
      <trkpt lat="51.20028" lon="4.45715"></trkpt>
      <trkpt lat="51.20028" lon="4.45718"></trkpt>
      <trkpt lat="51.20027" lon="4.45722"></trkpt>
      <trkpt lat="51.20026" lon="4.45726"></trkpt>
      <trkpt lat="51.20025" lon="4.45730"></trkpt>
      <trkpt lat="51.20024" lon="4.45733"></trkpt>
      <trkpt lat="51.20023" lon="4.45736"></trkpt>
      <trkpt lat="51.20022" lon="4.45739"></trkpt>
      <trkpt lat="51.20021" lon="4.45742"></trkpt>
      <trkpt lat="51.20019" lon="4.45746"></trkpt>
      <trkpt lat="51.20018" lon="4.45748"></trkpt>
      <trkpt lat="51.20017" lon="4.45751"></trkpt>
      <trkpt lat="51.20015" lon="4.45753"></trkpt>
      <trkpt lat="51.20014" lon="4.45756"></trkpt>
      <trkpt lat="51.20012" lon="4.45758"></trkpt>
      <trkpt lat="51.20010" lon="4.45760"></trkpt>
      <trkpt lat="51.20008" lon="4.45762"></trkpt>
      <trkpt lat="51.20007" lon="4.45765"></trkpt>
      <trkpt lat="51.20005" lon="4.45767"></trkpt>
      <trkpt lat="51.20003" lon="4.45770"></trkpt>
      <trkpt lat="51.20001" lon="4.45772"></trkpt>
      <trkpt lat="51.19999" lon="4.45776"></trkpt>
      <trkpt lat="51.19998" lon="4.45779"></trkpt>
      <trkpt lat="51.19998" lon="4.45783"></trkpt>
      <trkpt lat="51.19998" lon="4.45787"></trkpt>
      <trkpt lat="51.19997" lon="4.45791"></trkpt>
      <trkpt lat="51.19997" lon="4.45794"></trkpt>
      <trkpt lat="51.19996" lon="4.45798"></trkpt>
      <trkpt lat="51.19996" lon="4.45802"></trkpt>
      <trkpt lat="51.19995" lon="4.45806"></trkpt>
      <trkpt lat="51.19994" lon="4.45809"></trkpt>
      <trkpt lat="51.19992" lon="4.45812"></trkpt>
      <trkpt lat="51.19991" lon="4.45815"></trkpt>
      <trkpt lat="51.19990" lon="4.45818"></trkpt>
      <trkpt lat="51.19989" lon="4.45822"></trkpt>
      <trkpt lat="51.19988" lon="4.45825"></trkpt>
      <trkpt lat="51.19987" lon="4.45828"></trkpt>
      <trkpt lat="51.19987" lon="4.45832"></trkpt>
      <trkpt lat="51.19987" lon="4.45836"></trkpt>
      <trkpt lat="51.19988" lon="4.45840"></trkpt>
      <trkpt lat="51.19988" lon="4.45843"></trkpt>
      <trkpt lat="51.19988" lon="4.45847"></trkpt>
      <trkpt lat="51.19989" lon="4.45850"></trkpt>
      <trkpt lat="51.19989" lon="4.45854"></trkpt>
      <trkpt lat="51.19989" lon="4.45857"></trkpt>
      <trkpt lat="51.19989" lon="4.45861"></trkpt>
      <trkpt lat="51.19990" lon="4.45864"></trkpt>
      <trkpt lat="51.19991" lon="4.45868"></trkpt>
      <trkpt lat="51.19991" lon="4.45872"></trkpt>
      <trkpt lat="51.19992" lon="4.45875"></trkpt>
      <trkpt lat="51.19992" lon="4.45879"></trkpt>
      <trkpt lat="51.19992" lon="4.45883"></trkpt>
      <trkpt lat="51.19993" lon="4.45887"></trkpt>
      <trkpt lat="51.19993" lon="4.45891"></trkpt>
      <trkpt lat="51.19994" lon="4.45895"></trkpt>
      <trkpt lat="51.19994" lon="4.45898"></trkpt>
      <trkpt lat="51.19995" lon="4.45902"></trkpt>
      <trkpt lat="51.19996" lon="4.45906"></trkpt>
      <trkpt lat="51.19996" lon="4.45909"></trkpt>
      <trkpt lat="51.19998" lon="4.45913"></trkpt>
      <trkpt lat="51.19998" lon="4.45917"></trkpt>
      <trkpt lat="51.19999" lon="4.45920"></trkpt>
      <trkpt lat="51.19999" lon="4.45924"></trkpt>
      <trkpt lat="51.20000" lon="4.45927"></trkpt>
      <trkpt lat="51.20000" lon="4.45931"></trkpt>
      <trkpt lat="51.20001" lon="4.45934"></trkpt>
      <trkpt lat="51.20002" lon="4.45937"></trkpt>
      <trkpt lat="51.20003" lon="4.45941"></trkpt>
      <trkpt lat="51.20005" lon="4.45943"></trkpt>
      <trkpt lat="51.20007" lon="4.45946"></trkpt>
      <trkpt lat="51.20008" lon="4.45948"></trkpt>
      <trkpt lat="51.20010" lon="4.45949"></trkpt>
      <trkpt lat="51.20012" lon="4.45951"></trkpt>
      <trkpt lat="51.20014" lon="4.45954"></trkpt>
      <trkpt lat="51.20014" lon="4.45957"></trkpt>
      <trkpt lat="51.20014" lon="4.45961"></trkpt>
      <trkpt lat="51.20015" lon="4.45964"></trkpt>
      <trkpt lat="51.20015" lon="4.45968"></trkpt>
      <trkpt lat="51.20014" lon="4.45971"></trkpt>
      <trkpt lat="51.20014" lon="4.45972"></trkpt>
      <trkpt lat="51.20014" lon="4.45974"></trkpt>
      <trkpt lat="51.20014" lon="4.45974"></trkpt>
      <trkpt lat="51.20014" lon="4.45974"></trkpt>
      <trkpt lat="51.20014" lon="4.45974"></trkpt>
      <trkpt lat="51.20014" lon="4.45974"></trkpt>
      <trkpt lat="51.20014" lon="4.45974"></trkpt>
      <trkpt lat="51.20014" lon="4.45975"></trkpt>
      <trkpt lat="51.20014" lon="4.45975"></trkpt>
      <trkpt lat="51.20014" lon="4.45975"></trkpt>
      <trkpt lat="51.20014" lon="4.45975"></trkpt>
      <trkpt lat="51.20014" lon="4.45975"></trkpt>
      <trkpt lat="51.20014" lon="4.45975"></trkpt>
      <trkpt lat="51.20014" lon="4.45975"></trkpt>
      <trkpt lat="51.20014" lon="4.45975"></trkpt>
      <trkpt lat="51.20014" lon="4.45975"></trkpt>
      <trkpt lat="51.20014" lon="4.45976"></trkpt>
      <trkpt lat="51.20014" lon="4.45976"></trkpt>
      <trkpt lat="51.20014" lon="4.45976"></trkpt>
      <trkpt lat="51.20013" lon="4.45976"></trkpt>
      <trkpt lat="51.20013" lon="4.45976"></trkpt>
      <trkpt lat="51.20013" lon="4.45976"></trkpt>
      <trkpt lat="51.20013" lon="4.45976"></trkpt>
      <trkpt lat="51.20013" lon="4.45976"></trkpt>
      <trkpt lat="51.20013" lon="4.45976"></trkpt>
      <trkpt lat="51.20013" lon="4.45977"></trkpt>
      <trkpt lat="51.20013" lon="4.45977"></trkpt>
      <trkpt lat="51.20013" lon="4.45977"></trkpt>
      <trkpt lat="51.20013" lon="4.45977"></trkpt>
      <trkpt lat="51.20013" lon="4.45977"></trkpt>
      <trkpt lat="51.20013" lon="4.45977"></trkpt>
      <trkpt lat="51.20013" lon="4.45977"></trkpt>
      <trkpt lat="51.20013" lon="4.45977"></trkpt>
      <trkpt lat="51.20013" lon="4.45977"></trkpt>
      <trkpt lat="51.20013" lon="4.45978"></trkpt>
      <trkpt lat="51.20013" lon="4.45978"></trkpt>
      <trkpt lat="51.20012" lon="4.45978"></trkpt>
      <trkpt lat="51.20012" lon="4.45978"></trkpt>
      <trkpt lat="51.20012" lon="4.45978"></trkpt>
      <trkpt lat="51.20011" lon="4.45981"></trkpt>
      <trkpt lat="51.20010" lon="4.45986"></trkpt>
      <trkpt lat="51.20008" lon="4.45991"></trkpt>
      <trkpt lat="51.20007" lon="4.45996"></trkpt>
      <trkpt lat="51.20005" lon="4.46002"></trkpt>
      <trkpt lat="51.20004" lon="4.46006"></trkpt>
      <trkpt lat="51.20004" lon="4.46011"></trkpt>
      <trkpt lat="51.20004" lon="4.46015"></trkpt>
      <trkpt lat="51.20005" lon="4.46019"></trkpt>
      <trkpt lat="51.20006" lon="4.46023"></trkpt>
      <trkpt lat="51.20007" lon="4.46027"></trkpt>
      <trkpt lat="51.20008" lon="4.46031"></trkpt>
      <trkpt lat="51.20008" lon="4.46035"></trkpt>
      <trkpt lat="51.20009" lon="4.46039"></trkpt>
      <trkpt lat="51.20009" lon="4.46043"></trkpt>
      <trkpt lat="51.20010" lon="4.46048"></trkpt>
      <trkpt lat="51.20010" lon="4.46052"></trkpt>
      <trkpt lat="51.20010" lon="4.46056"></trkpt>
      <trkpt lat="51.20011" lon="4.46061"></trkpt>
      <trkpt lat="51.20011" lon="4.46065"></trkpt>
      <trkpt lat="51.20012" lon="4.46069"></trkpt>
      <trkpt lat="51.20012" lon="4.46073"></trkpt>
      <trkpt lat="51.20013" lon="4.46077"></trkpt>
      <trkpt lat="51.20013" lon="4.46081"></trkpt>
      <trkpt lat="51.20013" lon="4.46085"></trkpt>
      <trkpt lat="51.20014" lon="4.46089"></trkpt>
      <trkpt lat="51.20014" lon="4.46093"></trkpt>
      <trkpt lat="51.20014" lon="4.46097"></trkpt>
      <trkpt lat="51.20015" lon="4.46101"></trkpt>
      <trkpt lat="51.20015" lon="4.46105"></trkpt>
      <trkpt lat="51.20016" lon="4.46109"></trkpt>
      <trkpt lat="51.20016" lon="4.46114"></trkpt>
      <trkpt lat="51.20017" lon="4.46118"></trkpt>
      <trkpt lat="51.20017" lon="4.46122"></trkpt>
      <trkpt lat="51.20018" lon="4.46126"></trkpt>
      <trkpt lat="51.20019" lon="4.46130"></trkpt>
      <trkpt lat="51.20019" lon="4.46134"></trkpt>
      <trkpt lat="51.20019" lon="4.46138"></trkpt>
      <trkpt lat="51.20020" lon="4.46143"></trkpt>
      <trkpt lat="51.20020" lon="4.46147"></trkpt>
      <trkpt lat="51.20021" lon="4.46151"></trkpt>
      <trkpt lat="51.20021" lon="4.46155"></trkpt>
      <trkpt lat="51.20022" lon="4.46159"></trkpt>
      <trkpt lat="51.20022" lon="4.46163"></trkpt>
      <trkpt lat="51.20023" lon="4.46167"></trkpt>
      <trkpt lat="51.20023" lon="4.46171"></trkpt>
      <trkpt lat="51.20024" lon="4.46175"></trkpt>
      <trkpt lat="51.20024" lon="4.46179"></trkpt>
      <trkpt lat="51.20024" lon="4.46183"></trkpt>
      <trkpt lat="51.20024" lon="4.46187"></trkpt>
      <trkpt lat="51.20025" lon="4.46191"></trkpt>
      <trkpt lat="51.20025" lon="4.46195"></trkpt>
      <trkpt lat="51.20025" lon="4.46199"></trkpt>
      <trkpt lat="51.20026" lon="4.46203"></trkpt>
      <trkpt lat="51.20026" lon="4.46207"></trkpt>
      <trkpt lat="51.20027" lon="4.46210"></trkpt>
      <trkpt lat="51.20027" lon="4.46215"></trkpt>
      <trkpt lat="51.20027" lon="4.46219"></trkpt>
      <trkpt lat="51.20027" lon="4.46223"></trkpt>
      <trkpt lat="51.20028" lon="4.46228"></trkpt>
      <trkpt lat="51.20028" lon="4.46232"></trkpt>
      <trkpt lat="51.20029" lon="4.46236"></trkpt>
      <trkpt lat="51.20029" lon="4.46240"></trkpt>
      <trkpt lat="51.20030" lon="4.46244"></trkpt>
      <trkpt lat="51.20030" lon="4.46248"></trkpt>
      <trkpt lat="51.20030" lon="4.46252"></trkpt>
      <trkpt lat="51.20031" lon="4.46256"></trkpt>
      <trkpt lat="51.20031" lon="4.46260"></trkpt>
      <trkpt lat="51.20031" lon="4.46264"></trkpt>
      <trkpt lat="51.20032" lon="4.46268"></trkpt>
      <trkpt lat="51.20032" lon="4.46272"></trkpt>
      <trkpt lat="51.20032" lon="4.46276"></trkpt>
      <trkpt lat="51.20033" lon="4.46280"></trkpt>
      <trkpt lat="51.20033" lon="4.46285"></trkpt>
      <trkpt lat="51.20033" lon="4.46288"></trkpt>
      <trkpt lat="51.20034" lon="4.46292"></trkpt>
      <trkpt lat="51.20034" lon="4.46296"></trkpt>
      <trkpt lat="51.20035" lon="4.46300"></trkpt>
      <trkpt lat="51.20035" lon="4.46304"></trkpt>
      <trkpt lat="51.20036" lon="4.46308"></trkpt>
      <trkpt lat="51.20036" lon="4.46312"></trkpt>
      <trkpt lat="51.20037" lon="4.46316"></trkpt>
      <trkpt lat="51.20037" lon="4.46320"></trkpt>
      <trkpt lat="51.20037" lon="4.46324"></trkpt>
      <trkpt lat="51.20038" lon="4.46328"></trkpt>
      <trkpt lat="51.20038" lon="4.46332"></trkpt>
      <trkpt lat="51.20039" lon="4.46336"></trkpt>
      <trkpt lat="51.20040" lon="4.46340"></trkpt>
      <trkpt lat="51.20040" lon="4.46344"></trkpt>
      <trkpt lat="51.20040" lon="4.46348"></trkpt>
      <trkpt lat="51.20041" lon="4.46352"></trkpt>
      <trkpt lat="51.20041" lon="4.46356"></trkpt>
      <trkpt lat="51.20041" lon="4.46360"></trkpt>
      <trkpt lat="51.20042" lon="4.46364"></trkpt>
      <trkpt lat="51.20043" lon="4.46368"></trkpt>
      <trkpt lat="51.20044" lon="4.46373"></trkpt>
      <trkpt lat="51.20044" lon="4.46377"></trkpt>
      <trkpt lat="51.20045" lon="4.46381"></trkpt>
      <trkpt lat="51.20045" lon="4.46384"></trkpt>
      <trkpt lat="51.20045" lon="4.46389"></trkpt>
      <trkpt lat="51.20046" lon="4.46393"></trkpt>
      <trkpt lat="51.20046" lon="4.46397"></trkpt>
      <trkpt lat="51.20046" lon="4.46401"></trkpt>
      <trkpt lat="51.20046" lon="4.46406"></trkpt>
      <trkpt lat="51.20046" lon="4.46410"></trkpt>
      <trkpt lat="51.20047" lon="4.46414"></trkpt>
      <trkpt lat="51.20047" lon="4.46418"></trkpt>
      <trkpt lat="51.20047" lon="4.46423"></trkpt>
      <trkpt lat="51.20048" lon="4.46427"></trkpt>
      <trkpt lat="51.20048" lon="4.46431"></trkpt>
      <trkpt lat="51.20048" lon="4.46435"></trkpt>
      <trkpt lat="51.20049" lon="4.46439"></trkpt>
      <trkpt lat="51.20049" lon="4.46443"></trkpt>
      <trkpt lat="51.20050" lon="4.46446"></trkpt>
      <trkpt lat="51.20050" lon="4.46451"></trkpt>
      <trkpt lat="51.20051" lon="4.46454"></trkpt>
      <trkpt lat="51.20051" lon="4.46459"></trkpt>
      <trkpt lat="51.20052" lon="4.46463"></trkpt>
      <trkpt lat="51.20052" lon="4.46467"></trkpt>
      <trkpt lat="51.20051" lon="4.46471"></trkpt>
      <trkpt lat="51.20050" lon="4.46475"></trkpt>
      <trkpt lat="51.20050" lon="4.46479"></trkpt>
      <trkpt lat="51.20049" lon="4.46483"></trkpt>
      <trkpt lat="51.20048" lon="4.46487"></trkpt>
      <trkpt lat="51.20048" lon="4.46491"></trkpt>
      <trkpt lat="51.20047" lon="4.46495"></trkpt>
      <trkpt lat="51.20046" lon="4.46499"></trkpt>
      <trkpt lat="51.20045" lon="4.46503"></trkpt>
      <trkpt lat="51.20044" lon="4.46507"></trkpt>
      <trkpt lat="51.20043" lon="4.46511"></trkpt>
      <trkpt lat="51.20042" lon="4.46514"></trkpt>
      <trkpt lat="51.20040" lon="4.46516"></trkpt>
      <trkpt lat="51.20038" lon="4.46517"></trkpt>
      <trkpt lat="51.20036" lon="4.46519"></trkpt>
      <trkpt lat="51.20033" lon="4.46518"></trkpt>
      <trkpt lat="51.20031" lon="4.46518"></trkpt>
      <trkpt lat="51.20028" lon="4.46517"></trkpt>
      <trkpt lat="51.20026" lon="4.46517"></trkpt>
      <trkpt lat="51.20023" lon="4.46516"></trkpt>
      <trkpt lat="51.20021" lon="4.46516"></trkpt>
      <trkpt lat="51.20019" lon="4.46515"></trkpt>
      <trkpt lat="51.20016" lon="4.46515"></trkpt>
      <trkpt lat="51.20014" lon="4.46514"></trkpt>
      <trkpt lat="51.20011" lon="4.46514"></trkpt>
      <trkpt lat="51.20009" lon="4.46513"></trkpt>
      <trkpt lat="51.20007" lon="4.46513"></trkpt>
      <trkpt lat="51.20004" lon="4.46512"></trkpt>
      <trkpt lat="51.20002" lon="4.46512"></trkpt>
      <trkpt lat="51.19999" lon="4.46511"></trkpt>
      <trkpt lat="51.19997" lon="4.46511"></trkpt>
      <trkpt lat="51.19995" lon="4.46510"></trkpt>
      <trkpt lat="51.19992" lon="4.46510"></trkpt>
      <trkpt lat="51.19989" lon="4.46511"></trkpt>
      <trkpt lat="51.19986" lon="4.46511"></trkpt>
      <trkpt lat="51.19984" lon="4.46510"></trkpt>
      <trkpt lat="51.19981" lon="4.46509"></trkpt>
      <trkpt lat="51.19978" lon="4.46509"></trkpt>
      <trkpt lat="51.19976" lon="4.46507"></trkpt>
      <trkpt lat="51.19974" lon="4.46507"></trkpt>
      <trkpt lat="51.19971" lon="4.46506"></trkpt>
      <trkpt lat="51.19969" lon="4.46506"></trkpt>
      <trkpt lat="51.19966" lon="4.46505"></trkpt>
      <trkpt lat="51.19964" lon="4.46505"></trkpt>
      <trkpt lat="51.19961" lon="4.46504"></trkpt>
      <trkpt lat="51.19958" lon="4.46504"></trkpt>
      <trkpt lat="51.19956" lon="4.46503"></trkpt>
      <trkpt lat="51.19953" lon="4.46503"></trkpt>
      <trkpt lat="51.19950" lon="4.46502"></trkpt>
      <trkpt lat="51.19948" lon="4.46502"></trkpt>
      <trkpt lat="51.19945" lon="4.46502"></trkpt>
      <trkpt lat="51.19942" lon="4.46503"></trkpt>
      <trkpt lat="51.19939" lon="4.46504"></trkpt>
      <trkpt lat="51.19937" lon="4.46504"></trkpt>
      <trkpt lat="51.19934" lon="4.46505"></trkpt>
      <trkpt lat="51.19931" lon="4.46505"></trkpt>
      <trkpt lat="51.19929" lon="4.46506"></trkpt>
      <trkpt lat="51.19926" lon="4.46507"></trkpt>
      <trkpt lat="51.19923" lon="4.46505"></trkpt>
      <trkpt lat="51.19919" lon="4.46505"></trkpt>
      <trkpt lat="51.19917" lon="4.46505"></trkpt>
      <trkpt lat="51.19914" lon="4.46504"></trkpt>
      <trkpt lat="51.19911" lon="4.46504"></trkpt>
      <trkpt lat="51.19908" lon="4.46503"></trkpt>
      <trkpt lat="51.19905" lon="4.46502"></trkpt>
      <trkpt lat="51.19903" lon="4.46502"></trkpt>
      <trkpt lat="51.19900" lon="4.46501"></trkpt>
      <trkpt lat="51.19897" lon="4.46500"></trkpt>
      <trkpt lat="51.19894" lon="4.46500"></trkpt>
      <trkpt lat="51.19892" lon="4.46499"></trkpt>
      <trkpt lat="51.19889" lon="4.46499"></trkpt>
      <trkpt lat="51.19886" lon="4.46498"></trkpt>
      <trkpt lat="51.19883" lon="4.46498"></trkpt>
      <trkpt lat="51.19880" lon="4.46497"></trkpt>
      <trkpt lat="51.19878" lon="4.46497"></trkpt>
      <trkpt lat="51.19875" lon="4.46496"></trkpt>
      <trkpt lat="51.19873" lon="4.46495"></trkpt>
      <trkpt lat="51.19870" lon="4.46495"></trkpt>
      <trkpt lat="51.19867" lon="4.46495"></trkpt>
      <trkpt lat="51.19864" lon="4.46495"></trkpt>
      <trkpt lat="51.19862" lon="4.46495"></trkpt>
      <trkpt lat="51.19859" lon="4.46494"></trkpt>
      <trkpt lat="51.19857" lon="4.46494"></trkpt>
      <trkpt lat="51.19854" lon="4.46493"></trkpt>
      <trkpt lat="51.19852" lon="4.46492"></trkpt>
      <trkpt lat="51.19849" lon="4.46492"></trkpt>
      <trkpt lat="51.19847" lon="4.46492"></trkpt>
      <trkpt lat="51.19844" lon="4.46492"></trkpt>
      <trkpt lat="51.19842" lon="4.46492"></trkpt>
      <trkpt lat="51.19839" lon="4.46493"></trkpt>
      <trkpt lat="51.19836" lon="4.46493"></trkpt>
      <trkpt lat="51.19834" lon="4.46493"></trkpt>
      <trkpt lat="51.19831" lon="4.46494"></trkpt>
      <trkpt lat="51.19828" lon="4.46494"></trkpt>
      <trkpt lat="51.19826" lon="4.46495"></trkpt>
      <trkpt lat="51.19823" lon="4.46495"></trkpt>
      <trkpt lat="51.19820" lon="4.46496"></trkpt>
      <trkpt lat="51.19818" lon="4.46496"></trkpt>
      <trkpt lat="51.19815" lon="4.46497"></trkpt>
      <trkpt lat="51.19812" lon="4.46497"></trkpt>
      <trkpt lat="51.19810" lon="4.46498"></trkpt>
      <trkpt lat="51.19808" lon="4.46498"></trkpt>
      <trkpt lat="51.19805" lon="4.46498"></trkpt>
      <trkpt lat="51.19803" lon="4.46498"></trkpt>
      <trkpt lat="51.19800" lon="4.46498"></trkpt>
      <trkpt lat="51.19798" lon="4.46499"></trkpt>
      <trkpt lat="51.19795" lon="4.46499"></trkpt>
      <trkpt lat="51.19793" lon="4.46499"></trkpt>
      <trkpt lat="51.19790" lon="4.46499"></trkpt>
      <trkpt lat="51.19788" lon="4.46499"></trkpt>
      <trkpt lat="51.19785" lon="4.46499"></trkpt>
      <trkpt lat="51.19783" lon="4.46500"></trkpt>
      <trkpt lat="51.19780" lon="4.46500"></trkpt>
      <trkpt lat="51.19778" lon="4.46500"></trkpt>
      <trkpt lat="51.19776" lon="4.46500"></trkpt>
      <trkpt lat="51.19774" lon="4.46499"></trkpt>
      <trkpt lat="51.19771" lon="4.46499"></trkpt>
      <trkpt lat="51.19769" lon="4.46499"></trkpt>
      <trkpt lat="51.19767" lon="4.46499"></trkpt>
      <trkpt lat="51.19764" lon="4.46498"></trkpt>
      <trkpt lat="51.19762" lon="4.46498"></trkpt>
      <trkpt lat="51.19760" lon="4.46498"></trkpt>
      <trkpt lat="51.19758" lon="4.46498"></trkpt>
      <trkpt lat="51.19755" lon="4.46498"></trkpt>
      <trkpt lat="51.19753" lon="4.46498"></trkpt>
      <trkpt lat="51.19750" lon="4.46498"></trkpt>
      <trkpt lat="51.19748" lon="4.46499"></trkpt>
      <trkpt lat="51.19745" lon="4.46497"></trkpt>
      <trkpt lat="51.19743" lon="4.46496"></trkpt>
      <trkpt lat="51.19740" lon="4.46496"></trkpt>
      <trkpt lat="51.19738" lon="4.46496"></trkpt>
      <trkpt lat="51.19735" lon="4.46495"></trkpt>
      <trkpt lat="51.19732" lon="4.46495"></trkpt>
      <trkpt lat="51.19729" lon="4.46494"></trkpt>
      <trkpt lat="51.19726" lon="4.46493"></trkpt>
      <trkpt lat="51.19724" lon="4.46493"></trkpt>
      <trkpt lat="51.19721" lon="4.46492"></trkpt>
      <trkpt lat="51.19718" lon="4.46492"></trkpt>
      <trkpt lat="51.19716" lon="4.46492"></trkpt>
      <trkpt lat="51.19713" lon="4.46491"></trkpt>
      <trkpt lat="51.19710" lon="4.46491"></trkpt>
      <trkpt lat="51.19708" lon="4.46491"></trkpt>
      <trkpt lat="51.19705" lon="4.46491"></trkpt>
      <trkpt lat="51.19703" lon="4.46491"></trkpt>
      <trkpt lat="51.19700" lon="4.46489"></trkpt>
      <trkpt lat="51.19698" lon="4.46489"></trkpt>
      <trkpt lat="51.19696" lon="4.46488"></trkpt>
      <trkpt lat="51.19693" lon="4.46487"></trkpt>
      <trkpt lat="51.19691" lon="4.46487"></trkpt>
      <trkpt lat="51.19688" lon="4.46486"></trkpt>
      <trkpt lat="51.19686" lon="4.46485"></trkpt>
      <trkpt lat="51.19683" lon="4.46485"></trkpt>
      <trkpt lat="51.19681" lon="4.46485"></trkpt>
      <trkpt lat="51.19678" lon="4.46484"></trkpt>
      <trkpt lat="51.19675" lon="4.46484"></trkpt>
      <trkpt lat="51.19672" lon="4.46483"></trkpt>
      <trkpt lat="51.19670" lon="4.46483"></trkpt>
      <trkpt lat="51.19667" lon="4.46482"></trkpt>
      <trkpt lat="51.19665" lon="4.46481"></trkpt>
      <trkpt lat="51.19662" lon="4.46480"></trkpt>
      <trkpt lat="51.19659" lon="4.46480"></trkpt>
      <trkpt lat="51.19657" lon="4.46480"></trkpt>
      <trkpt lat="51.19654" lon="4.46479"></trkpt>
      <trkpt lat="51.19651" lon="4.46479"></trkpt>
      <trkpt lat="51.19649" lon="4.46478"></trkpt>
      <trkpt lat="51.19646" lon="4.46478"></trkpt>
      <trkpt lat="51.19643" lon="4.46478"></trkpt>
      <trkpt lat="51.19641" lon="4.46477"></trkpt>
      <trkpt lat="51.19638" lon="4.46476"></trkpt>
      <trkpt lat="51.19636" lon="4.46475"></trkpt>
      <trkpt lat="51.19633" lon="4.46475"></trkpt>
      <trkpt lat="51.19630" lon="4.46475"></trkpt>
      <trkpt lat="51.19628" lon="4.46474"></trkpt>
      <trkpt lat="51.19626" lon="4.46473"></trkpt>
      <trkpt lat="51.19623" lon="4.46472"></trkpt>
      <trkpt lat="51.19620" lon="4.46472"></trkpt>
      <trkpt lat="51.19618" lon="4.46471"></trkpt>
      <trkpt lat="51.19616" lon="4.46470"></trkpt>
      <trkpt lat="51.19614" lon="4.46469"></trkpt>
      <trkpt lat="51.19611" lon="4.46468"></trkpt>
      <trkpt lat="51.19608" lon="4.46467"></trkpt>
      <trkpt lat="51.19606" lon="4.46467"></trkpt>
      <trkpt lat="51.19603" lon="4.46467"></trkpt>
      <trkpt lat="51.19600" lon="4.46467"></trkpt>
      <trkpt lat="51.19598" lon="4.46467"></trkpt>
      <trkpt lat="51.19595" lon="4.46468"></trkpt>
      <trkpt lat="51.19592" lon="4.46467"></trkpt>
      <trkpt lat="51.19590" lon="4.46467"></trkpt>
      <trkpt lat="51.19587" lon="4.46466"></trkpt>
      <trkpt lat="51.19585" lon="4.46466"></trkpt>
      <trkpt lat="51.19583" lon="4.46465"></trkpt>
      <trkpt lat="51.19580" lon="4.46465"></trkpt>
      <trkpt lat="51.19578" lon="4.46464"></trkpt>
      <trkpt lat="51.19575" lon="4.46463"></trkpt>
      <trkpt lat="51.19573" lon="4.46463"></trkpt>
      <trkpt lat="51.19571" lon="4.46463"></trkpt>
      <trkpt lat="51.19568" lon="4.46462"></trkpt>
      <trkpt lat="51.19566" lon="4.46462"></trkpt>
      <trkpt lat="51.19563" lon="4.46461"></trkpt>
      <trkpt lat="51.19561" lon="4.46461"></trkpt>
      <trkpt lat="51.19558" lon="4.46462"></trkpt>
      <trkpt lat="51.19556" lon="4.46462"></trkpt>
      <trkpt lat="51.19553" lon="4.46463"></trkpt>
      <trkpt lat="51.19551" lon="4.46463"></trkpt>
      <trkpt lat="51.19548" lon="4.46464"></trkpt>
      <trkpt lat="51.19545" lon="4.46465"></trkpt>
      <trkpt lat="51.19543" lon="4.46466"></trkpt>
      <trkpt lat="51.19541" lon="4.46467"></trkpt>
      <trkpt lat="51.19538" lon="4.46468"></trkpt>
      <trkpt lat="51.19535" lon="4.46469"></trkpt>
      <trkpt lat="51.19533" lon="4.46469"></trkpt>
      <trkpt lat="51.19531" lon="4.46470"></trkpt>
      <trkpt lat="51.19528" lon="4.46472"></trkpt>
      <trkpt lat="51.19525" lon="4.46473"></trkpt>
      <trkpt lat="51.19523" lon="4.46474"></trkpt>
      <trkpt lat="51.19521" lon="4.46475"></trkpt>
      <trkpt lat="51.19518" lon="4.46476"></trkpt>
      <trkpt lat="51.19516" lon="4.46477"></trkpt>
      <trkpt lat="51.19514" lon="4.46478"></trkpt>
      <trkpt lat="51.19512" lon="4.46479"></trkpt>
      <trkpt lat="51.19509" lon="4.46480"></trkpt>
      <trkpt lat="51.19507" lon="4.46481"></trkpt>
      <trkpt lat="51.19505" lon="4.46482"></trkpt>
      <trkpt lat="51.19503" lon="4.46483"></trkpt>
      <trkpt lat="51.19501" lon="4.46486"></trkpt>
      <trkpt lat="51.19501" lon="4.46489"></trkpt>
      <trkpt lat="51.19500" lon="4.46493"></trkpt>
      <trkpt lat="51.19499" lon="4.46497"></trkpt>
      <trkpt lat="51.19498" lon="4.46500"></trkpt>
      <trkpt lat="51.19496" lon="4.46503"></trkpt>
      <trkpt lat="51.19494" lon="4.46505"></trkpt>
      <trkpt lat="51.19492" lon="4.46506"></trkpt>
      <trkpt lat="51.19489" lon="4.46507"></trkpt>
      <trkpt lat="51.19486" lon="4.46507"></trkpt>
      <trkpt lat="51.19484" lon="4.46508"></trkpt>
      <trkpt lat="51.19481" lon="4.46507"></trkpt>
      <trkpt lat="51.19479" lon="4.46505"></trkpt>
      <trkpt lat="51.19478" lon="4.46502"></trkpt>
      <trkpt lat="51.19476" lon="4.46498"></trkpt>
      <trkpt lat="51.19476" lon="4.46494"></trkpt>
      <trkpt lat="51.19475" lon="4.46490"></trkpt>
      <trkpt lat="51.19475" lon="4.46485"></trkpt>
      <trkpt lat="51.19475" lon="4.46482"></trkpt>
      <trkpt lat="51.19474" lon="4.46478"></trkpt>
      <trkpt lat="51.19473" lon="4.46474"></trkpt>
      <trkpt lat="51.19473" lon="4.46471"></trkpt>
      <trkpt lat="51.19472" lon="4.46467"></trkpt>
      <trkpt lat="51.19472" lon="4.46463"></trkpt>
      <trkpt lat="51.19471" lon="4.46459"></trkpt>
      <trkpt lat="51.19471" lon="4.46455"></trkpt>
      <trkpt lat="51.19470" lon="4.46452"></trkpt>
      <trkpt lat="51.19470" lon="4.46448"></trkpt>
      <trkpt lat="51.19469" lon="4.46443"></trkpt>
      <trkpt lat="51.19469" lon="4.46439"></trkpt>
      <trkpt lat="51.19469" lon="4.46436"></trkpt>
      <trkpt lat="51.19468" lon="4.46432"></trkpt>
      <trkpt lat="51.19468" lon="4.46428"></trkpt>
      <trkpt lat="51.19467" lon="4.46424"></trkpt>
      <trkpt lat="51.19467" lon="4.46420"></trkpt>
      <trkpt lat="51.19466" lon="4.46416"></trkpt>
      <trkpt lat="51.19466" lon="4.46412"></trkpt>
      <trkpt lat="51.19465" lon="4.46408"></trkpt>
      <trkpt lat="51.19464" lon="4.46405"></trkpt>
      <trkpt lat="51.19463" lon="4.46401"></trkpt>
      <trkpt lat="51.19463" lon="4.46397"></trkpt>
      <trkpt lat="51.19462" lon="4.46394"></trkpt>
      <trkpt lat="51.19462" lon="4.46390"></trkpt>
      <trkpt lat="51.19461" lon="4.46386"></trkpt>
      <trkpt lat="51.19460" lon="4.46383"></trkpt>
      <trkpt lat="51.19459" lon="4.46379"></trkpt>
      <trkpt lat="51.19459" lon="4.46375"></trkpt>
      <trkpt lat="51.19458" lon="4.46371"></trkpt>
      <trkpt lat="51.19458" lon="4.46366"></trkpt>
      <trkpt lat="51.19457" lon="4.46362"></trkpt>
      <trkpt lat="51.19457" lon="4.46358"></trkpt>
      <trkpt lat="51.19456" lon="4.46354"></trkpt>
      <trkpt lat="51.19456" lon="4.46350"></trkpt>
      <trkpt lat="51.19455" lon="4.46345"></trkpt>
      <trkpt lat="51.19455" lon="4.46342"></trkpt>
      <trkpt lat="51.19454" lon="4.46338"></trkpt>
      <trkpt lat="51.19454" lon="4.46335"></trkpt>
      <trkpt lat="51.19453" lon="4.46331"></trkpt>
      <trkpt lat="51.19453" lon="4.46327"></trkpt>
      <trkpt lat="51.19453" lon="4.46323"></trkpt>
      <trkpt lat="51.19453" lon="4.46319"></trkpt>
      <trkpt lat="51.19452" lon="4.46315"></trkpt>
      <trkpt lat="51.19452" lon="4.46311"></trkpt>
      <trkpt lat="51.19451" lon="4.46307"></trkpt>
      <trkpt lat="51.19450" lon="4.46303"></trkpt>
      <trkpt lat="51.19450" lon="4.46299"></trkpt>
      <trkpt lat="51.19450" lon="4.46295"></trkpt>
      <trkpt lat="51.19450" lon="4.46291"></trkpt>
      <trkpt lat="51.19451" lon="4.46287"></trkpt>
      <trkpt lat="51.19451" lon="4.46283"></trkpt>
      <trkpt lat="51.19452" lon="4.46279"></trkpt>
      <trkpt lat="51.19452" lon="4.46275"></trkpt>
      <trkpt lat="51.19452" lon="4.46271"></trkpt>
      <trkpt lat="51.19452" lon="4.46267"></trkpt>
      <trkpt lat="51.19452" lon="4.46263"></trkpt>
      <trkpt lat="51.19453" lon="4.46259"></trkpt>
      <trkpt lat="51.19454" lon="4.46255"></trkpt>
      <trkpt lat="51.19455" lon="4.46251"></trkpt>
      <trkpt lat="51.19455" lon="4.46247"></trkpt>
      <trkpt lat="51.19455" lon="4.46243"></trkpt>
      <trkpt lat="51.19455" lon="4.46239"></trkpt>
      <trkpt lat="51.19455" lon="4.46234"></trkpt>
      <trkpt lat="51.19455" lon="4.46230"></trkpt>
      <trkpt lat="51.19455" lon="4.46226"></trkpt>
      <trkpt lat="51.19455" lon="4.46222"></trkpt>
      <trkpt lat="51.19455" lon="4.46218"></trkpt>
      <trkpt lat="51.19456" lon="4.46214"></trkpt>
      <trkpt lat="51.19455" lon="4.46210"></trkpt>
      <trkpt lat="51.19456" lon="4.46206"></trkpt>
      <trkpt lat="51.19456" lon="4.46202"></trkpt>
      <trkpt lat="51.19456" lon="4.46199"></trkpt>
      <trkpt lat="51.19457" lon="4.46195"></trkpt>
      <trkpt lat="51.19457" lon="4.46191"></trkpt>
      <trkpt lat="51.19457" lon="4.46188"></trkpt>
      <trkpt lat="51.19458" lon="4.46184"></trkpt>
      <trkpt lat="51.19459" lon="4.46180"></trkpt>
      <trkpt lat="51.19460" lon="4.46177"></trkpt>
      <trkpt lat="51.19461" lon="4.46173"></trkpt>
      <trkpt lat="51.19462" lon="4.46168"></trkpt>
      <trkpt lat="51.19464" lon="4.46164"></trkpt>
      <trkpt lat="51.19465" lon="4.46160"></trkpt>
      <trkpt lat="51.19466" lon="4.46156"></trkpt>
      <trkpt lat="51.19467" lon="4.46152"></trkpt>
      <trkpt lat="51.19468" lon="4.46148"></trkpt>
      <trkpt lat="51.19470" lon="4.46144"></trkpt>
      <trkpt lat="51.19471" lon="4.46140"></trkpt>
      <trkpt lat="51.19472" lon="4.46136"></trkpt>
      <trkpt lat="51.19473" lon="4.46132"></trkpt>
      <trkpt lat="51.19474" lon="4.46129"></trkpt>
      <trkpt lat="51.19475" lon="4.46125"></trkpt>
      <trkpt lat="51.19476" lon="4.46121"></trkpt>
      <trkpt lat="51.19478" lon="4.46118"></trkpt>
      <trkpt lat="51.19479" lon="4.46114"></trkpt>
      <trkpt lat="51.19481" lon="4.46111"></trkpt>
      <trkpt lat="51.19482" lon="4.46107"></trkpt>
      <trkpt lat="51.19483" lon="4.46104"></trkpt>
      <trkpt lat="51.19485" lon="4.46100"></trkpt>
      <trkpt lat="51.19486" lon="4.46097"></trkpt>
      <trkpt lat="51.19488" lon="4.46093"></trkpt>
      <trkpt lat="51.19489" lon="4.46090"></trkpt>
      <trkpt lat="51.19491" lon="4.46086"></trkpt>
      <trkpt lat="51.19492" lon="4.46083"></trkpt>
      <trkpt lat="51.19494" lon="4.46080"></trkpt>
      <trkpt lat="51.19495" lon="4.46077"></trkpt>
      <trkpt lat="51.19497" lon="4.46075"></trkpt>
      <trkpt lat="51.19499" lon="4.46072"></trkpt>
      <trkpt lat="51.19501" lon="4.46069"></trkpt>
      <trkpt lat="51.19502" lon="4.46067"></trkpt>
      <trkpt lat="51.19505" lon="4.46063"></trkpt>
      <trkpt lat="51.19506" lon="4.46060"></trkpt>
      <trkpt lat="51.19509" lon="4.46056"></trkpt>
      <trkpt lat="51.19511" lon="4.46053"></trkpt>
      <trkpt lat="51.19513" lon="4.46050"></trkpt>
      <trkpt lat="51.19516" lon="4.46047"></trkpt>
      <trkpt lat="51.19518" lon="4.46044"></trkpt>
      <trkpt lat="51.19520" lon="4.46040"></trkpt>
      <trkpt lat="51.19522" lon="4.46037"></trkpt>
      <trkpt lat="51.19525" lon="4.46034"></trkpt>
      <trkpt lat="51.19527" lon="4.46032"></trkpt>
      <trkpt lat="51.19529" lon="4.46029"></trkpt>
      <trkpt lat="51.19532" lon="4.46026"></trkpt>
      <trkpt lat="51.19534" lon="4.46023"></trkpt>
      <trkpt lat="51.19536" lon="4.46021"></trkpt>
      <trkpt lat="51.19539" lon="4.46018"></trkpt>
      <trkpt lat="51.19541" lon="4.46015"></trkpt>
      <trkpt lat="51.19544" lon="4.46012"></trkpt>
      <trkpt lat="51.19547" lon="4.46010"></trkpt>
      <trkpt lat="51.19549" lon="4.46007"></trkpt>
      <trkpt lat="51.19551" lon="4.46005"></trkpt>
      <trkpt lat="51.19553" lon="4.46003"></trkpt>
      <trkpt lat="51.19556" lon="4.46000"></trkpt>
      <trkpt lat="51.19558" lon="4.45997"></trkpt>
      <trkpt lat="51.19561" lon="4.45995"></trkpt>
      <trkpt lat="51.19563" lon="4.45992"></trkpt>
      <trkpt lat="51.19566" lon="4.45989"></trkpt>
      <trkpt lat="51.19568" lon="4.45987"></trkpt>
      <trkpt lat="51.19571" lon="4.45985"></trkpt>
      <trkpt lat="51.19573" lon="4.45982"></trkpt>
      <trkpt lat="51.19576" lon="4.45980"></trkpt>
      <trkpt lat="51.19578" lon="4.45977"></trkpt>
      <trkpt lat="51.19580" lon="4.45975"></trkpt>
      <trkpt lat="51.19583" lon="4.45972"></trkpt>
      <trkpt lat="51.19585" lon="4.45970"></trkpt>
      <trkpt lat="51.19587" lon="4.45967"></trkpt>
      <trkpt lat="51.19589" lon="4.45965"></trkpt>
      <trkpt lat="51.19591" lon="4.45963"></trkpt>
      <trkpt lat="51.19593" lon="4.45961"></trkpt>
      <trkpt lat="51.19595" lon="4.45959"></trkpt>
      <trkpt lat="51.19598" lon="4.45957"></trkpt>
      <trkpt lat="51.19600" lon="4.45954"></trkpt>
      <trkpt lat="51.19602" lon="4.45951"></trkpt>
      <trkpt lat="51.19604" lon="4.45949"></trkpt>
      <trkpt lat="51.19606" lon="4.45947"></trkpt>
      <trkpt lat="51.19608" lon="4.45944"></trkpt>
      <trkpt lat="51.19610" lon="4.45941"></trkpt>
      <trkpt lat="51.19611" lon="4.45938"></trkpt>
      <trkpt lat="51.19613" lon="4.45935"></trkpt>
      <trkpt lat="51.19614" lon="4.45931"></trkpt>
      <trkpt lat="51.19616" lon="4.45928"></trkpt>
      <trkpt lat="51.19618" lon="4.45925"></trkpt>
      <trkpt lat="51.19620" lon="4.45921"></trkpt>
      <trkpt lat="51.19621" lon="4.45919"></trkpt>
      <trkpt lat="51.19623" lon="4.45917"></trkpt>
      <trkpt lat="51.19626" lon="4.45914"></trkpt>
      <trkpt lat="51.19627" lon="4.45912"></trkpt>
      <trkpt lat="51.19630" lon="4.45911"></trkpt>
      <trkpt lat="51.19632" lon="4.45910"></trkpt>
      <trkpt lat="51.19635" lon="4.45909"></trkpt>
      <trkpt lat="51.19637" lon="4.45908"></trkpt>
      <trkpt lat="51.19639" lon="4.45907"></trkpt>
      <trkpt lat="51.19640" lon="4.45905"></trkpt>
      <trkpt lat="51.19642" lon="4.45903"></trkpt>
      <trkpt lat="51.19644" lon="4.45901"></trkpt>
      <trkpt lat="51.19645" lon="4.45898"></trkpt>
      <trkpt lat="51.19647" lon="4.45895"></trkpt>
      <trkpt lat="51.19649" lon="4.45891"></trkpt>
      <trkpt lat="51.19650" lon="4.45887"></trkpt>
      <trkpt lat="51.19653" lon="4.45884"></trkpt>
      <trkpt lat="51.19654" lon="4.45882"></trkpt>
      <trkpt lat="51.19656" lon="4.45880"></trkpt>
      <trkpt lat="51.19659" lon="4.45880"></trkpt>
      <trkpt lat="51.19661" lon="4.45881"></trkpt>
      <trkpt lat="51.19663" lon="4.45884"></trkpt>
      <trkpt lat="51.19665" lon="4.45887"></trkpt>
      <trkpt lat="51.19667" lon="4.45889"></trkpt>
      <trkpt lat="51.19668" lon="4.45891"></trkpt>
      <trkpt lat="51.19670" lon="4.45894"></trkpt>
      <trkpt lat="51.19671" lon="4.45896"></trkpt>
      <trkpt lat="51.19672" lon="4.45897"></trkpt>
      <trkpt lat="51.19674" lon="4.45898"></trkpt>
      <trkpt lat="51.19676" lon="4.45896"></trkpt>
      <trkpt lat="51.19678" lon="4.45893"></trkpt>
      <trkpt lat="51.19679" lon="4.45891"></trkpt>
      <trkpt lat="51.19682" lon="4.45887"></trkpt>
      <trkpt lat="51.19683" lon="4.45883"></trkpt>
      <trkpt lat="51.19685" lon="4.45880"></trkpt>
      <trkpt lat="51.19686" lon="4.45877"></trkpt>
      <trkpt lat="51.19688" lon="4.45874"></trkpt>
      <trkpt lat="51.19690" lon="4.45871"></trkpt>
      <trkpt lat="51.19692" lon="4.45867"></trkpt>
      <trkpt lat="51.19693" lon="4.45864"></trkpt>
      <trkpt lat="51.19695" lon="4.45861"></trkpt>
      <trkpt lat="51.19696" lon="4.45858"></trkpt>
      <trkpt lat="51.19698" lon="4.45855"></trkpt>
      <trkpt lat="51.19700" lon="4.45852"></trkpt>
      <trkpt lat="51.19701" lon="4.45849"></trkpt>
      <trkpt lat="51.19703" lon="4.45845"></trkpt>
      <trkpt lat="51.19704" lon="4.45842"></trkpt>
      <trkpt lat="51.19706" lon="4.45838"></trkpt>
      <trkpt lat="51.19707" lon="4.45834"></trkpt>
      <trkpt lat="51.19709" lon="4.45830"></trkpt>
      <trkpt lat="51.19710" lon="4.45827"></trkpt>
      <trkpt lat="51.19711" lon="4.45823"></trkpt>
      <trkpt lat="51.19712" lon="4.45820"></trkpt>
      <trkpt lat="51.19714" lon="4.45816"></trkpt>
      <trkpt lat="51.19715" lon="4.45812"></trkpt>
      <trkpt lat="51.19716" lon="4.45809"></trkpt>
      <trkpt lat="51.19718" lon="4.45806"></trkpt>
      <trkpt lat="51.19719" lon="4.45802"></trkpt>
      <trkpt lat="51.19720" lon="4.45798"></trkpt>
      <trkpt lat="51.19722" lon="4.45794"></trkpt>
      <trkpt lat="51.19722" lon="4.45791"></trkpt>
      <trkpt lat="51.19724" lon="4.45787"></trkpt>
      <trkpt lat="51.19725" lon="4.45783"></trkpt>
      <trkpt lat="51.19726" lon="4.45780"></trkpt>
      <trkpt lat="51.19728" lon="4.45776"></trkpt>
      <trkpt lat="51.19729" lon="4.45773"></trkpt>
      <trkpt lat="51.19731" lon="4.45769"></trkpt>
      <trkpt lat="51.19733" lon="4.45766"></trkpt>
      <trkpt lat="51.19734" lon="4.45763"></trkpt>
      <trkpt lat="51.19736" lon="4.45759"></trkpt>
      <trkpt lat="51.19737" lon="4.45756"></trkpt>
      <trkpt lat="51.19738" lon="4.45752"></trkpt>
      <trkpt lat="51.19740" lon="4.45748"></trkpt>
      <trkpt lat="51.19741" lon="4.45745"></trkpt>
      <trkpt lat="51.19742" lon="4.45741"></trkpt>
      <trkpt lat="51.19744" lon="4.45738"></trkpt>
      <trkpt lat="51.19745" lon="4.45734"></trkpt>
      <trkpt lat="51.19746" lon="4.45731"></trkpt>
      <trkpt lat="51.19747" lon="4.45727"></trkpt>
      <trkpt lat="51.19748" lon="4.45724"></trkpt>
      <trkpt lat="51.19750" lon="4.45720"></trkpt>
      <trkpt lat="51.19751" lon="4.45717"></trkpt>
      <trkpt lat="51.19752" lon="4.45713"></trkpt>
      <trkpt lat="51.19753" lon="4.45709"></trkpt>
      <trkpt lat="51.19754" lon="4.45705"></trkpt>
      <trkpt lat="51.19755" lon="4.45701"></trkpt>
      <trkpt lat="51.19756" lon="4.45698"></trkpt>
      <trkpt lat="51.19757" lon="4.45694"></trkpt>
      <trkpt lat="51.19758" lon="4.45690"></trkpt>
      <trkpt lat="51.19759" lon="4.45687"></trkpt>
      <trkpt lat="51.19760" lon="4.45683"></trkpt>
      <trkpt lat="51.19761" lon="4.45679"></trkpt>
      <trkpt lat="51.19763" lon="4.45675"></trkpt>
      <trkpt lat="51.19764" lon="4.45671"></trkpt>
      <trkpt lat="51.19766" lon="4.45668"></trkpt>
      <trkpt lat="51.19767" lon="4.45665"></trkpt>
      <trkpt lat="51.19768" lon="4.45661"></trkpt>
      <trkpt lat="51.19769" lon="4.45657"></trkpt>
      <trkpt lat="51.19771" lon="4.45653"></trkpt>
      <trkpt lat="51.19772" lon="4.45649"></trkpt>
      <trkpt lat="51.19773" lon="4.45645"></trkpt>
      <trkpt lat="51.19774" lon="4.45642"></trkpt>
      <trkpt lat="51.19775" lon="4.45638"></trkpt>
      <trkpt lat="51.19777" lon="4.45635"></trkpt>
      <trkpt lat="51.19778" lon="4.45631"></trkpt>
      <trkpt lat="51.19779" lon="4.45627"></trkpt>
      <trkpt lat="51.19780" lon="4.45623"></trkpt>
      <trkpt lat="51.19781" lon="4.45620"></trkpt>
      <trkpt lat="51.19783" lon="4.45616"></trkpt>
      <trkpt lat="51.19784" lon="4.45612"></trkpt>
      <trkpt lat="51.19785" lon="4.45609"></trkpt>
      <trkpt lat="51.19786" lon="4.45605"></trkpt>
      <trkpt lat="51.19787" lon="4.45601"></trkpt>
      <trkpt lat="51.19788" lon="4.45597"></trkpt>
      <trkpt lat="51.19790" lon="4.45594"></trkpt>
      <trkpt lat="51.19791" lon="4.45590"></trkpt>
      <trkpt lat="51.19792" lon="4.45586"></trkpt>
      <trkpt lat="51.19794" lon="4.45583"></trkpt>
      <trkpt lat="51.19795" lon="4.45579"></trkpt>
      <trkpt lat="51.19796" lon="4.45576"></trkpt>
      <trkpt lat="51.19797" lon="4.45572"></trkpt>
      <trkpt lat="51.19798" lon="4.45568"></trkpt>
      <trkpt lat="51.19799" lon="4.45565"></trkpt>
      <trkpt lat="51.19801" lon="4.45561"></trkpt>
      <trkpt lat="51.19802" lon="4.45557"></trkpt>
      <trkpt lat="51.19803" lon="4.45553"></trkpt>
      <trkpt lat="51.19804" lon="4.45549"></trkpt>
      <trkpt lat="51.19805" lon="4.45546"></trkpt>
      <trkpt lat="51.19806" lon="4.45542"></trkpt>
      <trkpt lat="51.19807" lon="4.45538"></trkpt>
      <trkpt lat="51.19808" lon="4.45535"></trkpt>
      <trkpt lat="51.19810" lon="4.45531"></trkpt>
      <trkpt lat="51.19810" lon="4.45528"></trkpt>
      <trkpt lat="51.19811" lon="4.45526"></trkpt>
      <trkpt lat="51.19811" lon="4.45522"></trkpt>
      <trkpt lat="51.19812" lon="4.45518"></trkpt>
      <trkpt lat="51.19813" lon="4.45514"></trkpt>
      <trkpt lat="51.19814" lon="4.45510"></trkpt>
      <trkpt lat="51.19815" lon="4.45507"></trkpt>
      <trkpt lat="51.19817" lon="4.45503"></trkpt>
      <trkpt lat="51.19818" lon="4.45499"></trkpt>
      <trkpt lat="51.19819" lon="4.45495"></trkpt>
      <trkpt lat="51.19821" lon="4.45491"></trkpt>
      <trkpt lat="51.19823" lon="4.45487"></trkpt>
      <trkpt lat="51.19824" lon="4.45484"></trkpt>
      <trkpt lat="51.19826" lon="4.45480"></trkpt>
      <trkpt lat="51.19827" lon="4.45476"></trkpt>
      <trkpt lat="51.19828" lon="4.45472"></trkpt>
      <trkpt lat="51.19830" lon="4.45468"></trkpt>
      <trkpt lat="51.19831" lon="4.45464"></trkpt>
      <trkpt lat="51.19832" lon="4.45460"></trkpt>
      <trkpt lat="51.19833" lon="4.45457"></trkpt>
      <trkpt lat="51.19835" lon="4.45453"></trkpt>
      <trkpt lat="51.19836" lon="4.45449"></trkpt>
      <trkpt lat="51.19838" lon="4.45445"></trkpt>
      <trkpt lat="51.19840" lon="4.45442"></trkpt>
      <trkpt lat="51.19842" lon="4.45438"></trkpt>
      <trkpt lat="51.19844" lon="4.45436"></trkpt>
      <trkpt lat="51.19847" lon="4.45434"></trkpt>
      <trkpt lat="51.19849" lon="4.45431"></trkpt>
      <trkpt lat="51.19850" lon="4.45429"></trkpt>
      <trkpt lat="51.19853" lon="4.45426"></trkpt>
      <trkpt lat="51.19854" lon="4.45425"></trkpt>
      <trkpt lat="51.19857" lon="4.45422"></trkpt>
      <trkpt lat="51.19858" lon="4.45419"></trkpt>
      <trkpt lat="51.19860" lon="4.45416"></trkpt>
      <trkpt lat="51.19862" lon="4.45414"></trkpt>
      <trkpt lat="51.19864" lon="4.45411"></trkpt>
      <trkpt lat="51.19866" lon="4.45409"></trkpt>
      <trkpt lat="51.19868" lon="4.45406"></trkpt>
      <trkpt lat="51.19870" lon="4.45404"></trkpt>
      <trkpt lat="51.19872" lon="4.45402"></trkpt>
      <trkpt lat="51.19873" lon="4.45399"></trkpt>
      <trkpt lat="51.19876" lon="4.45396"></trkpt>
      <trkpt lat="51.19877" lon="4.45393"></trkpt>
      <trkpt lat="51.19880" lon="4.45390"></trkpt>
      <trkpt lat="51.19882" lon="4.45387"></trkpt>
      <trkpt lat="51.19884" lon="4.45384"></trkpt>
      <trkpt lat="51.19886" lon="4.45381"></trkpt>
      <trkpt lat="51.19888" lon="4.45379"></trkpt>
      <trkpt lat="51.19890" lon="4.45375"></trkpt>
      <trkpt lat="51.19892" lon="4.45373"></trkpt>
      <trkpt lat="51.19894" lon="4.45370"></trkpt>
      <trkpt lat="51.19897" lon="4.45368"></trkpt>
      <trkpt lat="51.19899" lon="4.45366"></trkpt>
      <trkpt lat="51.19901" lon="4.45364"></trkpt>
      <trkpt lat="51.19903" lon="4.45361"></trkpt>
      <trkpt lat="51.19905" lon="4.45359"></trkpt>
      <trkpt lat="51.19908" lon="4.45357"></trkpt>
      <trkpt lat="51.19910" lon="4.45355"></trkpt>
      <trkpt lat="51.19913" lon="4.45353"></trkpt>
      <trkpt lat="51.19916" lon="4.45351"></trkpt>
      <trkpt lat="51.19918" lon="4.45350"></trkpt>
      <trkpt lat="51.19921" lon="4.45348"></trkpt>
      <trkpt lat="51.19923" lon="4.45346"></trkpt>
      <trkpt lat="51.19926" lon="4.45345"></trkpt>
      <trkpt lat="51.19929" lon="4.45343"></trkpt>
      <trkpt lat="51.19932" lon="4.45342"></trkpt>
      <trkpt lat="51.19935" lon="4.45341"></trkpt>
      <trkpt lat="51.19937" lon="4.45340"></trkpt>
      <trkpt lat="51.19940" lon="4.45339"></trkpt>
      <trkpt lat="51.19943" lon="4.45338"></trkpt>
      <trkpt lat="51.19946" lon="4.45338"></trkpt>
      <trkpt lat="51.19949" lon="4.45338"></trkpt>
      <trkpt lat="51.19952" lon="4.45337"></trkpt>
      <trkpt lat="51.19955" lon="4.45337"></trkpt>
      <trkpt lat="51.19958" lon="4.45337"></trkpt>
      <trkpt lat="51.19962" lon="4.45337"></trkpt>
      <trkpt lat="51.19965" lon="4.45337"></trkpt>
      <trkpt lat="51.19967" lon="4.45337"></trkpt>
      <trkpt lat="51.19970" lon="4.45336"></trkpt>
      <trkpt lat="51.19973" lon="4.45336"></trkpt>
      <trkpt lat="51.19976" lon="4.45335"></trkpt>
      <trkpt lat="51.19979" lon="4.45334"></trkpt>
      <trkpt lat="51.19981" lon="4.45333"></trkpt>
      <trkpt lat="51.19985" lon="4.45333"></trkpt>
      <trkpt lat="51.19988" lon="4.45332"></trkpt>
      <trkpt lat="51.19991" lon="4.45331"></trkpt>
      <trkpt lat="51.19993" lon="4.45330"></trkpt>
      <trkpt lat="51.19996" lon="4.45330"></trkpt>
      <trkpt lat="51.19998" lon="4.45329"></trkpt>
      <trkpt lat="51.20001" lon="4.45329"></trkpt>
      <trkpt lat="51.20004" lon="4.45328"></trkpt>
      <trkpt lat="51.20006" lon="4.45327"></trkpt>
      <trkpt lat="51.20008" lon="4.45327"></trkpt>
      <trkpt lat="51.20011" lon="4.45327"></trkpt>
      <trkpt lat="51.20014" lon="4.45326"></trkpt>
      <trkpt lat="51.20016" lon="4.45326"></trkpt>
      <trkpt lat="51.20019" lon="4.45325"></trkpt>
      <trkpt lat="51.20022" lon="4.45323"></trkpt>
      <trkpt lat="51.20025" lon="4.45322"></trkpt>
      <trkpt lat="51.20028" lon="4.45322"></trkpt>
      <trkpt lat="51.20031" lon="4.45321"></trkpt>
      <trkpt lat="51.20033" lon="4.45320"></trkpt>
      <trkpt lat="51.20036" lon="4.45318"></trkpt>
      <trkpt lat="51.20038" lon="4.45317"></trkpt>
      <trkpt lat="51.20041" lon="4.45316"></trkpt>
      <trkpt lat="51.20044" lon="4.45314"></trkpt>
      <trkpt lat="51.20047" lon="4.45313"></trkpt>
      <trkpt lat="51.20049" lon="4.45310"></trkpt>
      <trkpt lat="51.20052" lon="4.45308"></trkpt>
      <trkpt lat="51.20054" lon="4.45306"></trkpt>
      <trkpt lat="51.20057" lon="4.45304"></trkpt>
      <trkpt lat="51.20060" lon="4.45303"></trkpt>
      <trkpt lat="51.20063" lon="4.45301"></trkpt>
      <trkpt lat="51.20065" lon="4.45300"></trkpt>
      <trkpt lat="51.20068" lon="4.45298"></trkpt>
      <trkpt lat="51.20070" lon="4.45296"></trkpt>
      <trkpt lat="51.20073" lon="4.45295"></trkpt>
      <trkpt lat="51.20076" lon="4.45293"></trkpt>
      <trkpt lat="51.20078" lon="4.45292"></trkpt>
      <trkpt lat="51.20081" lon="4.45290"></trkpt>
      <trkpt lat="51.20083" lon="4.45288"></trkpt>
      <trkpt lat="51.20086" lon="4.45285"></trkpt>
      <trkpt lat="51.20088" lon="4.45282"></trkpt>
      <trkpt lat="51.20090" lon="4.45279"></trkpt>
      <trkpt lat="51.20091" lon="4.45276"></trkpt>
      <trkpt lat="51.20093" lon="4.45273"></trkpt>
      <trkpt lat="51.20095" lon="4.45270"></trkpt>
      <trkpt lat="51.20097" lon="4.45267"></trkpt>
      <trkpt lat="51.20099" lon="4.45262"></trkpt>
      <trkpt lat="51.20100" lon="4.45258"></trkpt>
      <trkpt lat="51.20102" lon="4.45253"></trkpt>
      <trkpt lat="51.20103" lon="4.45249"></trkpt>
      <trkpt lat="51.20105" lon="4.45245"></trkpt>
      <trkpt lat="51.20106" lon="4.45241"></trkpt>
      <trkpt lat="51.20107" lon="4.45236"></trkpt>
      <trkpt lat="51.20109" lon="4.45232"></trkpt>
      <trkpt lat="51.20110" lon="4.45228"></trkpt>
      <trkpt lat="51.20111" lon="4.45224"></trkpt>
      <trkpt lat="51.20113" lon="4.45219"></trkpt>
      <trkpt lat="51.20114" lon="4.45215"></trkpt>
      <trkpt lat="51.20116" lon="4.45210"></trkpt>
      <trkpt lat="51.20116" lon="4.45205"></trkpt>
      <trkpt lat="51.20117" lon="4.45201"></trkpt>
      <trkpt lat="51.20118" lon="4.45196"></trkpt>
      <trkpt lat="51.20118" lon="4.45191"></trkpt>
      <trkpt lat="51.20119" lon="4.45186"></trkpt>
      <trkpt lat="51.20119" lon="4.45181"></trkpt>
      <trkpt lat="51.20119" lon="4.45177"></trkpt>
      <trkpt lat="51.20120" lon="4.45172"></trkpt>
      <trkpt lat="51.20122" lon="4.45169"></trkpt>
      <trkpt lat="51.20125" lon="4.45166"></trkpt>
      <trkpt lat="51.20127" lon="4.45165"></trkpt>
      <trkpt lat="51.20130" lon="4.45165"></trkpt>
      <trkpt lat="51.20133" lon="4.45165"></trkpt>
      <trkpt lat="51.20136" lon="4.45166"></trkpt>
      <trkpt lat="51.20138" lon="4.45166"></trkpt>
      <trkpt lat="51.20141" lon="4.45166"></trkpt>
      <trkpt lat="51.20143" lon="4.45167"></trkpt>
      <trkpt lat="51.20146" lon="4.45167"></trkpt>
      <trkpt lat="51.20149" lon="4.45167"></trkpt>
      <trkpt lat="51.20152" lon="4.45168"></trkpt>
      <trkpt lat="51.20155" lon="4.45168"></trkpt>
      <trkpt lat="51.20158" lon="4.45169"></trkpt>
      <trkpt lat="51.20161" lon="4.45169"></trkpt>
      <trkpt lat="51.20163" lon="4.45169"></trkpt>
      <trkpt lat="51.20166" lon="4.45168"></trkpt>
      <trkpt lat="51.20168" lon="4.45168"></trkpt>
      <trkpt lat="51.20171" lon="4.45168"></trkpt>
      <trkpt lat="51.20174" lon="4.45169"></trkpt>
      <trkpt lat="51.20176" lon="4.45169"></trkpt>
      <trkpt lat="51.20179" lon="4.45168"></trkpt>
      <trkpt lat="51.20181" lon="4.45168"></trkpt>
      <trkpt lat="51.20184" lon="4.45168"></trkpt>
      <trkpt lat="51.20187" lon="4.45168"></trkpt>
      <trkpt lat="51.20190" lon="4.45169"></trkpt>
      <trkpt lat="51.20193" lon="4.45169"></trkpt>
      <trkpt lat="51.20195" lon="4.45169"></trkpt>
      <trkpt lat="51.20198" lon="4.45169"></trkpt>
      <trkpt lat="51.20201" lon="4.45169"></trkpt>
      <trkpt lat="51.20204" lon="4.45169"></trkpt>
      <trkpt lat="51.20206" lon="4.45169"></trkpt>
      <trkpt lat="51.20209" lon="4.45169"></trkpt>
      <trkpt lat="51.20212" lon="4.45169"></trkpt>
      <trkpt lat="51.20214" lon="4.45169"></trkpt>
      <trkpt lat="51.20217" lon="4.45169"></trkpt>
      <trkpt lat="51.20220" lon="4.45169"></trkpt>
      <trkpt lat="51.20222" lon="4.45170"></trkpt>
      <trkpt lat="51.20225" lon="4.45170"></trkpt>
      <trkpt lat="51.20228" lon="4.45170"></trkpt>
      <trkpt lat="51.20231" lon="4.45170"></trkpt>
      <trkpt lat="51.20234" lon="4.45171"></trkpt>
      <trkpt lat="51.20237" lon="4.45171"></trkpt>
      <trkpt lat="51.20239" lon="4.45171"></trkpt>
      <trkpt lat="51.20242" lon="4.45172"></trkpt>
      <trkpt lat="51.20244" lon="4.45173"></trkpt>
      <trkpt lat="51.20247" lon="4.45173"></trkpt>
      <trkpt lat="51.20250" lon="4.45174"></trkpt>
      <trkpt lat="51.20253" lon="4.45174"></trkpt>
      <trkpt lat="51.20255" lon="4.45175"></trkpt>
      <trkpt lat="51.20258" lon="4.45175"></trkpt>
      <trkpt lat="51.20260" lon="4.45176"></trkpt>
      <trkpt lat="51.20263" lon="4.45177"></trkpt>
      <trkpt lat="51.20266" lon="4.45178"></trkpt>
      <trkpt lat="51.20268" lon="4.45178"></trkpt>
      <trkpt lat="51.20271" lon="4.45179"></trkpt>
      <trkpt lat="51.20274" lon="4.45180"></trkpt>
      <trkpt lat="51.20277" lon="4.45181"></trkpt>
      <trkpt lat="51.20280" lon="4.45181"></trkpt>
    </trkseg>
  </trk>
</gpx>